<?xml version="1.0" encoding="UTF-8"?>
<gpx xmlns="http://www.topografix.com/GPX/1/1" xmlns:gpxtpx="http://www.garmin.com/xmlschemas/TrackPointExtension/v1" xmlns:xsi="http://www.w3.org/2001/XMLSchema-instance" xsi:schemaLocation="http://www.topografix.com/GPX/1/1 http://www.topografix.com/GPX/1/1/gpx.xsd" version="1.1" creator="gpx.py -- https://github.com/tkrajina/gpxpy">
  <trk>
    <name>星期四 夜跑</name>
    <trkseg>
      <trkpt lat="35.956999654915144" lon="120.20992674876024">
        <time>2017-09-07T13:19:21.056000Z</time>
      </trkpt>
      <trkpt lat="35.9570460487492" lon="120.2098270041125">
        <ele>26.824693397369607</ele>
        <time>2017-09-07T13:19:33.094000Z</time>
      </trkpt>
      <trkpt lat="35.95714441038292" lon="120.20979850564171">
        <time>2017-09-07T13:19:36.098000Z</time>
      </trkpt>
      <trkpt lat="35.95723858106505" lon="120.209804540612">
        <ele>27.56982584365867</ele>
        <time>2017-09-07T13:19:42.076000Z</time>
      </trkpt>
      <trkpt lat="35.95734804872047" lon="120.20973572518696">
        <ele>28.061299995269998</ele>
        <time>2017-09-07T13:19:49.076000Z</time>
      </trkpt>
      <trkpt lat="35.95747717193883" lon="120.20969792280366">
        <time>2017-09-07T13:19:52.089000Z</time>
      </trkpt>
      <trkpt lat="35.9575777966864" lon="120.20970840018262">
        <time>2017-09-07T13:19:55.182000Z</time>
      </trkpt>
      <trkpt lat="35.95764489382129" lon="120.2097868547963">
        <ele>28.832856849518045</ele>
        <time>2017-09-07T13:19:59.091000Z</time>
      </trkpt>
      <trkpt lat="35.95770142975818" lon="120.20988601271083">
        <time>2017-09-07T13:20:04.094000Z</time>
      </trkpt>
      <trkpt lat="35.95770142975818" lon="120.20988601271083">
        <ele>28.75094385513328</ele>
        <time>2017-09-07T13:20:07.098000Z</time>
      </trkpt>
      <trkpt lat="35.957959089461674" lon="120.21041273150612">
        <ele>28.402158454742654</ele>
        <time>2017-09-07T13:20:19.097000Z</time>
      </trkpt>
      <trkpt lat="35.95795267730575" lon="120.21054583612849">
        <time>2017-09-07T13:20:23.098000Z</time>
      </trkpt>
      <trkpt lat="35.957965543527116" lon="120.21066351804902">
        <ele>28.061299995269998</ele>
        <time>2017-09-07T13:20:27.097000Z</time>
      </trkpt>
      <trkpt lat="35.95791575502228" lon="120.21077591937055">
        <time>2017-09-07T13:20:31.070000Z</time>
      </trkpt>
      <trkpt lat="35.95779970757287" lon="120.21081338647772">
        <time>2017-09-07T13:20:34.091000Z</time>
      </trkpt>
      <trkpt lat="35.957678211886396" lon="120.21082411531378">
        <ele>26.30151529678367</ele>
        <time>2017-09-07T13:20:37.103000Z</time>
      </trkpt>
      <trkpt lat="35.95756656493615" lon="120.21084138203432">
        <time>2017-09-07T13:20:41.097000Z</time>
      </trkpt>
      <trkpt lat="35.95747348390143" lon="120.21085353579392">
        <time>2017-09-07T13:20:44.102000Z</time>
      </trkpt>
      <trkpt lat="35.95736171122264" lon="120.21088312391211">
        <ele>25.405767158355935</ele>
        <time>2017-09-07T13:20:48.098000Z</time>
      </trkpt>
      <trkpt lat="35.957253500852694" lon="120.21089343365301">
        <time>2017-09-07T13:20:52.086000Z</time>
      </trkpt>
      <trkpt lat="35.957160210270395" lon="120.21088597375919">
        <time>2017-09-07T13:20:56.081000Z</time>
      </trkpt>
      <trkpt lat="35.95705183226239" lon="120.21091053273548">
        <ele>25.30536051162742</ele>
        <time>2017-09-07T13:21:01.075000Z</time>
      </trkpt>
      <trkpt lat="35.95694110732149" lon="120.21094825129975">
        <time>2017-09-07T13:21:06.090000Z</time>
      </trkpt>
      <trkpt lat="35.95683922528844" lon="120.21097071480025">
        <ele>24.224649146881326</ele>
        <time>2017-09-07T13:21:10.094000Z</time>
      </trkpt>
      <trkpt lat="35.956749245557894" lon="120.21100969065">
        <time>2017-09-07T13:21:14.099000Z</time>
      </trkpt>
      <trkpt lat="35.9566419571973" lon="120.21102645445634">
        <ele>23.606347755279764</ele>
        <time>2017-09-07T13:21:18.088000Z</time>
      </trkpt>
      <trkpt lat="35.95654535576325" lon="120.21104330208172">
        <time>2017-09-07T13:21:22.098000Z</time>
      </trkpt>
      <trkpt lat="35.95644535965841" lon="120.21106090407838">
        <ele>23.106950477447732</ele>
        <time>2017-09-07T13:21:27.087000Z</time>
      </trkpt>
      <trkpt lat="35.9563343413509" lon="120.21108219411244">
        <time>2017-09-07T13:21:31.116000Z</time>
      </trkpt>
      <trkpt lat="35.95623279459398" lon="120.2110826132076">
        <time>2017-09-07T13:21:36.109000Z</time>
      </trkpt>
      <trkpt lat="35.956133804317524" lon="120.21109116274883">
        <ele>22.1372162855532</ele>
        <time>2017-09-07T13:21:40.100000Z</time>
      </trkpt>
      <trkpt lat="35.95602965917062" lon="120.21111287187804">
        <time>2017-09-07T13:21:44.105000Z</time>
      </trkpt>
      <trkpt lat="35.955913653630724" lon="120.21112921658923">
        <ele>20.9957367933657</ele>
        <time>2017-09-07T13:21:48.095000Z</time>
      </trkpt>
      <trkpt lat="35.95579953401904" lon="120.21115670923163">
        <time>2017-09-07T13:21:52.105000Z</time>
      </trkpt>
      <trkpt lat="35.955722001414706" lon="120.21122619520892">
        <time>2017-09-07T13:21:56.097000Z</time>
      </trkpt>
      <trkpt lat="35.95567246436696" lon="120.21133499231209">
        <ele>19.864824012603982</ele>
        <time>2017-09-07T13:22:00.097000Z</time>
      </trkpt>
      <trkpt lat="35.95560188874226" lon="120.211437838264">
        <time>2017-09-07T13:22:04.096000Z</time>
      </trkpt>
      <trkpt lat="35.95558105971288" lon="120.21156817685832">
        <ele>19.769700721588357</ele>
        <time>2017-09-07T13:22:08.102000Z</time>
      </trkpt>
      <trkpt lat="35.955592207644095" lon="120.21168870862593">
        <time>2017-09-07T13:22:11.113000Z</time>
      </trkpt>
      <trkpt lat="35.95561894591521" lon="120.21179985266198">
        <time>2017-09-07T13:22:15.101000Z</time>
      </trkpt>
      <trkpt lat="35.95564568418633" lon="120.21192952070405">
        <ele>19.51867838272117</ele>
        <time>2017-09-07T13:22:19.110000Z</time>
      </trkpt>
      <trkpt lat="35.95568004998933" lon="120.2120649722593">
        <time>2017-09-07T13:22:23.116000Z</time>
      </trkpt>
      <trkpt lat="35.95570913519334" lon="120.21218642603625">
        <ele>19.19631739028953</ele>
        <time>2017-09-07T13:22:27.095000Z</time>
      </trkpt>
      <trkpt lat="35.95575192480903" lon="120.2123136633264">
        <time>2017-09-07T13:22:32.096000Z</time>
      </trkpt>
      <trkpt lat="35.95577769916128" lon="120.21243176434209">
        <time>2017-09-07T13:22:36.101000Z</time>
      </trkpt>
      <trkpt lat="35.955790900658776" lon="120.21255170937647">
        <ele>19.07476969131492</ele>
        <time>2017-09-07T13:22:40.103000Z</time>
      </trkpt>
      <trkpt lat="35.95582455400001" lon="120.21268364053239">
        <time>2017-09-07T13:22:45.102000Z</time>
      </trkpt>
      <trkpt lat="35.95586667306345" lon="120.2127851453798">
        <ele>19.1302582777407</ele>
        <time>2017-09-07T13:22:49.104000Z</time>
      </trkpt>
      <trkpt lat="35.95591964669149" lon="120.2128816210853">
        <time>2017-09-07T13:22:53.103000Z</time>
      </trkpt>
      <trkpt lat="35.955970902029385" lon="120.21298941236009">
        <ele>19.381276801910623</ele>
        <time>2017-09-07T13:22:57.101000Z</time>
      </trkpt>
      <trkpt lat="35.956011973354926" lon="120.21309980202486">
        <time>2017-09-07T13:23:01.099000Z</time>
      </trkpt>
      <trkpt lat="35.95603012017529" lon="120.21322435710599">
        <time>2017-09-07T13:23:05.107000Z</time>
      </trkpt>
      <trkpt lat="35.95600401054691" lon="120.2133356687801">
        <ele>19.410344795074685</ele>
        <time>2017-09-07T13:23:09.088000Z</time>
      </trkpt>
      <trkpt lat="35.955955730784645" lon="120.21345058467259">
        <time>2017-09-07T13:23:13.091000Z</time>
      </trkpt>
      <trkpt lat="35.95589328560602" lon="120.21354898821582">
        <ele>19.25180597671531</ele>
        <time>2017-09-07T13:23:17.107000Z</time>
      </trkpt>
      <trkpt lat="35.955776441875805" lon="120.21355125132968">
        <time>2017-09-07T13:23:21.094000Z</time>
      </trkpt>
      <trkpt lat="35.95568210355561" lon="120.21357379864921">
        <time>2017-09-07T13:23:24.096000Z</time>
      </trkpt>
      <trkpt lat="35.95557837750386" lon="120.21357069734503">
        <ele>18.69955988296531</ele>
        <time>2017-09-07T13:23:28.090000Z</time>
      </trkpt>
      <trkpt lat="35.95547020904343" lon="120.21357966598143">
        <time>2017-09-07T13:23:32.102000Z</time>
      </trkpt>
      <trkpt lat="35.955365770529916" lon="120.21361478615572">
        <time>2017-09-07T13:23:36.096000Z</time>
      </trkpt>
      <trkpt lat="35.95525533895563" lon="120.2136504092442">
        <ele>18.52252359756492</ele>
        <time>2017-09-07T13:23:40.105000Z</time>
      </trkpt>
      <trkpt lat="35.95515207390856" lon="120.21368913363685">
        <time>2017-09-07T13:23:44.097000Z</time>
      </trkpt>
      <trkpt lat="35.95505195207517" lon="120.21370799291898">
        <ele>18.435327247467264</ele>
        <time>2017-09-07T13:23:49.107000Z</time>
      </trkpt>
      <trkpt lat="35.95494575336198" lon="120.21374068234135">
        <time>2017-09-07T13:23:54.100000Z</time>
      </trkpt>
      <trkpt lat="35.954855480264825" lon="120.21373556938042">
        <ele>17.877797798004373</ele>
        <time>2017-09-07T13:23:58.097000Z</time>
      </trkpt>
      <trkpt lat="35.954763405058486" lon="120.2137622238325">
        <time>2017-09-07T13:24:02.090000Z</time>
      </trkpt>
      <trkpt lat="35.9546738444231" lon="120.213795248531">
        <time>2017-09-07T13:24:06.087000Z</time>
      </trkpt>
      <trkpt lat="35.95456462822477" lon="120.21381620328893">
        <ele>17.66112680801414</ele>
        <time>2017-09-07T13:24:10.110000Z</time>
      </trkpt>
      <trkpt lat="35.95446157272528" lon="120.21382936287691">
        <time>2017-09-07T13:24:14.086000Z</time>
      </trkpt>
      <trkpt lat="35.95435298516969" lon="120.21385375421514">
        <ele>17.50523157485984</ele>
        <time>2017-09-07T13:24:18.089000Z</time>
      </trkpt>
      <trkpt lat="35.954260365139646" lon="120.2138502338158">
        <time>2017-09-07T13:24:22.086000Z</time>
      </trkpt>
      <trkpt lat="35.954150604117615" lon="120.2138592024522">
        <ele>17.52108545669578</ele>
        <time>2017-09-07T13:24:27.079000Z</time>
      </trkpt>
      <trkpt lat="35.95405249394099" lon="120.21388409670462">
        <time>2017-09-07T13:24:31.071000Z</time>
      </trkpt>
      <trkpt lat="35.953956646878225" lon="120.21390077669193">
        <time>2017-09-07T13:24:35.075000Z</time>
      </trkpt>
      <trkpt lat="35.95386159609626" lon="120.21392902370562">
        <ele>17.52636881240867</ele>
        <time>2017-09-07T13:24:39.083000Z</time>
      </trkpt>
      <trkpt lat="35.95377325083683" lon="120.2139572707193">
        <time>2017-09-07T13:24:43.084000Z</time>
      </trkpt>
      <trkpt lat="35.95368465412031" lon="120.21399540837874">
        <ele>17.544866279449685</ele>
        <time>2017-09-07T13:24:47.138000Z</time>
      </trkpt>
      <trkpt lat="35.95358981288592" lon="120.21401099871863">
        <time>2017-09-07T13:24:51.098000Z</time>
      </trkpt>
      <trkpt lat="35.95348948150496" lon="120.21403966482748">
        <time>2017-09-07T13:24:55.093000Z</time>
      </trkpt>
      <trkpt lat="35.95339526891331" lon="120.2140441910552">
        <ele>17.71133203872703</ele>
        <time>2017-09-07T13:24:58.114000Z</time>
      </trkpt>
      <trkpt lat="35.9532990446649" lon="120.21407042641212">
        <time>2017-09-07T13:25:02.097000Z</time>
      </trkpt>
      <trkpt lat="35.953215854275925" lon="120.21411485049893">
        <ele>18.07333155044578</ele>
        <time>2017-09-07T13:25:07.095000Z</time>
      </trkpt>
      <trkpt lat="35.95311606771867" lon="120.21414016384651">
        <time>2017-09-07T13:25:11.076000Z</time>
      </trkpt>
      <trkpt lat="35.95302478879313" lon="120.21419581968357">
        <time>2017-09-07T13:25:14.087000Z</time>
      </trkpt>
      <trkpt lat="35.95292408022652" lon="120.21426555711795">
        <ele>18.181665138092264</ele>
        <time>2017-09-07T13:25:18.164000Z</time>
      </trkpt>
      <trkpt lat="35.95283217265825" lon="120.21427108917405">
        <time>2017-09-07T13:25:24.099000Z</time>
      </trkpt>
      <trkpt lat="35.95283217265825" lon="120.21427108917405">
        <ele>18.50138636001609</ele>
        <time>2017-09-07T13:25:43.082000Z</time>
      </trkpt>
      <trkpt lat="35.95271050933371" lon="120.21425206225385">
        <time>2017-09-07T13:25:43.091000Z</time>
      </trkpt>
      <trkpt lat="35.95262572638313" lon="120.2143042815106">
        <ele>18.78411264785789</ele>
        <time>2017-09-07T13:25:48.089000Z</time>
      </trkpt>
      <trkpt lat="35.95253054987262" lon="120.21422934729625">
        <time>2017-09-07T13:25:53.099000Z</time>
      </trkpt>
      <trkpt lat="35.952486083876295" lon="120.21410722296704">
        <ele>18.604436591949685</ele>
        <time>2017-09-07T13:25:57.078000Z</time>
      </trkpt>
      <trkpt lat="35.95247372056912" lon="120.21398090768625">
        <time>2017-09-07T13:26:01.134000Z</time>
      </trkpt>
      <trkpt lat="35.95246064480017" lon="120.21385509531964">
        <ele>18.556874946441873</ele>
        <time>2017-09-07T13:26:05.079000Z</time>
      </trkpt>
      <trkpt lat="35.95244341998915" lon="120.2137315460669">
        <time>2017-09-07T13:26:09.085000Z</time>
      </trkpt>
      <trkpt lat="35.95240658152471" lon="120.21360531460513">
        <time>2017-09-07T13:26:13.090000Z</time>
      </trkpt>
      <trkpt lat="35.95233114439617" lon="120.21354027103652">
        <ele>18.57272882827781</ele>
        <time>2017-09-07T13:26:16.080000Z</time>
      </trkpt>
      <trkpt lat="35.952280601520044" lon="120.21343046810497">
        <time>2017-09-07T13:26:20.088000Z</time>
      </trkpt>
      <trkpt lat="35.95221744387965" lon="120.21333742897977">
        <time>2017-09-07T13:26:23.092000Z</time>
      </trkpt>
      <trkpt lat="35.9521845449097" lon="120.21321220334639">
        <ele>18.646714881744607</ele>
        <time>2017-09-07T13:26:28.460000Z</time>
      </trkpt>
      <trkpt lat="35.95213735479484" lon="120.2130977903681">
        <time>2017-09-07T13:26:31.410000Z</time>
      </trkpt>
      <trkpt lat="35.95211166426162" lon="120.21297298382987">
        <ele>18.562158302154764</ele>
        <time>2017-09-07T13:26:35.123000Z</time>
      </trkpt>
      <trkpt lat="35.952051649834914" lon="120.21287189807762">
        <time>2017-09-07T13:26:39.074000Z</time>
      </trkpt>
      <trkpt lat="35.951965232413215" lon="120.21279788587262">
        <time>2017-09-07T13:26:43.082000Z</time>
      </trkpt>
      <trkpt lat="35.95191209114711" lon="120.21267886284758">
        <ele>18.932084754791482</ele>
        <time>2017-09-07T13:26:48.075000Z</time>
      </trkpt>
      <trkpt lat="35.951892603222234" lon="120.21255472686161">
        <time>2017-09-07T13:26:52.076000Z</time>
      </trkpt>
      <trkpt lat="35.9518700559027" lon="120.21243209961821">
        <ele>19.037778571930154</ele>
        <time>2017-09-07T13:26:56.069000Z</time>
      </trkpt>
      <trkpt lat="35.9518753365017" lon="120.21230461087097">
        <time>2017-09-07T13:27:00.094000Z</time>
      </trkpt>
      <trkpt lat="35.95190417024861" lon="120.21216966222991">
        <ele>19.204244331207498</ele>
        <time>2017-09-07T13:27:04.086000Z</time>
      </trkpt>
      <trkpt lat="35.951905846629245" lon="120.21204183820655">
        <time>2017-09-07T13:27:09.084000Z</time>
      </trkpt>
      <trkpt lat="35.95191753938417" lon="120.21189708273877">
        <time>2017-09-07T13:27:13.088000Z</time>
      </trkpt>
      <trkpt lat="35.95191351607065" lon="120.21177520986666">
        <ele>19.185746864166482</ele>
        <time>2017-09-07T13:27:16.069000Z</time>
      </trkpt>
      <trkpt lat="35.95190521798651" lon="120.211638668664">
        <time>2017-09-07T13:27:20.089000Z</time>
      </trkpt>
      <trkpt lat="35.95188472423325" lon="120.21149508666267">
        <ele>19.15139551528953</ele>
        <time>2017-09-07T13:27:24.089000Z</time>
      </trkpt>
      <trkpt lat="35.95185702204327" lon="120.2113688552009">
        <time>2017-09-07T13:27:28.082000Z</time>
      </trkpt>
      <trkpt lat="35.95182877502958" lon="120.2112586331742">
        <time>2017-09-07T13:27:32.084000Z</time>
      </trkpt>
      <trkpt lat="35.95181335232775" lon="120.21113709557821">
        <ele>19.20160074600242</ele>
        <time>2017-09-07T13:27:36.090000Z</time>
      </trkpt>
      <trkpt lat="35.95180362932007" lon="120.21101145084967">
        <time>2017-09-07T13:27:40.080000Z</time>
      </trkpt>
      <trkpt lat="35.95179189465563" lon="120.21088949415852">
        <ele>19.14346857437156</ele>
        <time>2017-09-07T13:27:44.078000Z</time>
      </trkpt>
      <trkpt lat="35.951808323185844" lon="120.2107594070213">
        <time>2017-09-07T13:27:48.083000Z</time>
      </trkpt>
      <trkpt lat="35.951823703978164" lon="120.2106452455001">
        <time>2017-09-07T13:27:52.083000Z</time>
      </trkpt>
      <trkpt lat="35.95173037148635" lon="120.2105625161158">
        <ele>19.18839044937156</ele>
        <time>2017-09-07T13:27:56.080000Z</time>
      </trkpt>
      <trkpt lat="35.95163200985263" lon="120.21055824134518">
        <time>2017-09-07T13:27:59.089000Z</time>
      </trkpt>
      <trkpt lat="35.95153842590372" lon="120.21057483751346">
        <time>2017-09-07T13:28:02.077000Z</time>
      </trkpt>
      <trkpt lat="35.95143654387067" lon="120.21059755247106">
        <ele>18.76825876602195</ele>
        <time>2017-09-07T13:28:06.089000Z</time>
      </trkpt>
      <trkpt lat="35.951344929669006" lon="120.21064289856722">
        <time>2017-09-07T13:28:10.084000Z</time>
      </trkpt>
      <trkpt lat="35.95125402792911" lon="120.21066276367773">
        <ele>18.82110758193992</ele>
        <time>2017-09-07T13:28:14.080000Z</time>
      </trkpt>
      <trkpt lat="35.951156546395225" lon="120.21072705287506">
        <time>2017-09-07T13:28:19.085000Z</time>
      </trkpt>
      <trkpt lat="35.95105038959156" lon="120.21075345587005">
        <time>2017-09-07T13:28:23.077000Z</time>
      </trkpt>
      <trkpt lat="35.950961080413265" lon="120.21081766124834">
        <ele>17.748323158111795</ele>
        <time>2017-09-07T13:28:27.080000Z</time>
      </trkpt>
      <trkpt lat="35.95086812510709" lon="120.21082503732313">
        <time>2017-09-07T13:28:31.082000Z</time>
      </trkpt>
      <trkpt lat="35.950758238356514" lon="120.21084565680493">
        <ele>17.177583412018045</ele>
        <time>2017-09-07T13:28:35.077000Z</time>
      </trkpt>
      <trkpt lat="35.950644412111444" lon="120.21083719108273">
        <time>2017-09-07T13:28:39.076000Z</time>
      </trkpt>
      <trkpt lat="35.950528867576224" lon="120.21086183387806">
        <time>2017-09-07T13:28:43.081000Z</time>
      </trkpt>
      <trkpt lat="35.95044152814518" lon="120.21089217636754">
        <ele>17.048108772125467</ele>
        <time>2017-09-07T13:28:46.070000Z</time>
      </trkpt>
      <trkpt lat="35.95034630972515" lon="120.21090357575585">
        <time>2017-09-07T13:28:50.097000Z</time>
      </trkpt>
      <trkpt lat="35.95024581070612" lon="120.21092629071345">
        <ele>16.805017188873514</ele>
        <time>2017-09-07T13:28:55.080000Z</time>
      </trkpt>
      <trkpt lat="35.950165134888096" lon="120.21099695015718">
        <time>2017-09-07T13:28:59.087000Z</time>
      </trkpt>
      <trkpt lat="35.95006350431214" lon="120.21102854993214">
        <time>2017-09-07T13:29:03.100000Z</time>
      </trkpt>
      <trkpt lat="35.94997285402934" lon="120.21100751135518">
        <ele>16.839368537750467</ele>
        <time>2017-09-07T13:29:07.106000Z</time>
      </trkpt>
      <trkpt lat="35.9498670325018" lon="120.21102653827538">
        <time>2017-09-07T13:29:11.097000Z</time>
      </trkpt>
      <trkpt lat="35.94977122734855" lon="120.21104497846235">
        <ele>17.01376123794578</ele>
        <time>2017-09-07T13:29:14.079000Z</time>
      </trkpt>
      <trkpt lat="35.9496598318554" lon="120.21105880860259">
        <time>2017-09-07T13:29:18.085000Z</time>
      </trkpt>
      <trkpt lat="35.94956960066776" lon="120.21111748192479">
        <time>2017-09-07T13:29:21.423000Z</time>
      </trkpt>
      <trkpt lat="35.949466419439716" lon="120.21116567786802">
        <ele>16.902784065094217</ele>
        <time>2017-09-07T13:29:25.323000Z</time>
      </trkpt>
      <trkpt lat="35.949466419439716" lon="120.21116567786802">
        <time>2017-09-07T13:29:33.764000Z</time>
      </trkpt>
      <trkpt lat="35.94937023710082" lon="120.21111438062061">
        <time>2017-09-07T13:29:33.775000Z</time>
      </trkpt>
      <trkpt lat="35.94926537949215" lon="120.21108060155083">
        <time>2017-09-07T13:29:38.056000Z</time>
      </trkpt>
      <trkpt lat="35.94917032871018" lon="120.21115528430809">
        <ele>17.494661048736795</ele>
        <time>2017-09-07T13:29:41.114000Z</time>
      </trkpt>
      <trkpt lat="35.94908982053022" lon="120.21122669812311">
        <time>2017-09-07T13:29:44.075000Z</time>
      </trkpt>
      <trkpt lat="35.949005289036734" lon="120.21126617688705">
        <time>2017-09-07T13:29:47.072000Z</time>
      </trkpt>
      <trkpt lat="35.9489050414748" lon="120.2113019676136">
        <ele>17.486734107818826</ele>
        <time>2017-09-07T13:29:51.074000Z</time>
      </trkpt>
      <trkpt lat="35.948803033713205" lon="120.21133733924498">
        <time>2017-09-07T13:29:55.094000Z</time>
      </trkpt>
      <trkpt lat="35.94871200624476" lon="120.21132870588471">
        <ele>17.447099403228982</ele>
        <time>2017-09-07T13:29:59.086000Z</time>
      </trkpt>
      <trkpt lat="35.9485976770855" lon="120.21135041501392">
        <time>2017-09-07T13:30:03.074000Z</time>
      </trkpt>
      <trkpt lat="35.94848095908384" lon="120.21137472253312">
        <time>2017-09-07T13:30:07.107000Z</time>
      </trkpt>
      <trkpt lat="35.94836637846748" lon="120.2114000358807">
        <ele>17.38897104629539</ele>
        <time>2017-09-07T13:30:11.088000Z</time>
      </trkpt>
      <trkpt lat="35.948255569707555" lon="120.21142819907536">
        <time>2017-09-07T13:30:15.129000Z</time>
      </trkpt>
      <trkpt lat="35.94814828134696" lon="120.21146591763963">
        <ele>17.235715583648904</ele>
        <time>2017-09-07T13:30:19.081000Z</time>
      </trkpt>
      <trkpt lat="35.948043214190704" lon="120.2115052287655">
        <time>2017-09-07T13:30:23.085000Z</time>
      </trkpt>
      <trkpt lat="35.94794200270991" lon="120.21152718935181">
        <time>2017-09-07T13:30:27.093000Z</time>
      </trkpt>
      <trkpt lat="35.947842970523936" lon="120.21156054932644">
        <ele>17.063962653961404</ele>
        <time>2017-09-07T13:30:31.065000Z</time>
      </trkpt>
      <trkpt lat="35.947737358543975" lon="120.21156013023128">
        <time>2017-09-07T13:30:36.107000Z</time>
      </trkpt>
      <trkpt lat="35.947645073790056" lon="120.21156976941992">
        <ele>17.048108772125467</ele>
        <time>2017-09-07T13:30:40.132000Z</time>
      </trkpt>
      <trkpt lat="35.947553208131296" lon="120.21159147854914">
        <time>2017-09-07T13:30:44.085000Z</time>
      </trkpt>
      <trkpt lat="35.94744218982379" lon="120.21163431007434">
        <time>2017-09-07T13:30:48.113000Z</time>
      </trkpt>
      <trkpt lat="35.9473386314101" lon="120.21166071306934">
        <ele>17.06924982437156</ele>
        <time>2017-09-07T13:30:52.072000Z</time>
      </trkpt>
      <trkpt lat="35.94724328726152" lon="120.21168543968369">
        <time>2017-09-07T13:30:56.075000Z</time>
      </trkpt>
      <trkpt lat="35.94714890703181" lon="120.21172676246633">
        <ele>16.929204658355935</ele>
        <time>2017-09-07T13:31:00.157000Z</time>
      </trkpt>
      <trkpt lat="35.947042414952016" lon="120.21175182435681">
        <time>2017-09-07T13:31:04.084000Z</time>
      </trkpt>
      <trkpt lat="35.94694455623249" lon="120.2117901296543">
        <time>2017-09-07T13:31:08.083000Z</time>
      </trkpt>
      <trkpt lat="35.94685344494501" lon="120.21181670028736">
        <ele>16.958272651519998</ele>
        <time>2017-09-07T13:31:12.083000Z</time>
      </trkpt>
      <trkpt lat="35.946752568740344" lon="120.21184511493911">
        <time>2017-09-07T13:31:16.087000Z</time>
      </trkpt>
      <trkpt lat="35.94666833061347" lon="120.21188434224595">
        <ele>16.96883936294578</ele>
        <time>2017-09-07T13:31:19.114000Z</time>
      </trkpt>
      <trkpt lat="35.94656003642449" lon="120.21192340191473">
        <time>2017-09-07T13:31:23.074000Z</time>
      </trkpt>
      <trkpt lat="35.9464519517831" lon="120.21194561395814">
        <time>2017-09-07T13:31:28.109000Z</time>
      </trkpt>
      <trkpt lat="35.94636230732868" lon="120.21196103665997">
        <ele>16.82615442642234</ele>
        <time>2017-09-07T13:31:32.068000Z</time>
      </trkpt>
      <trkpt lat="35.94626117966691" lon="120.21200705330838">
        <time>2017-09-07T13:31:36.070000Z</time>
      </trkpt>
      <trkpt lat="35.946157244067585" lon="120.21205608744194">
        <ele>16.70989389785789</ele>
        <time>2017-09-07T13:31:40.080000Z</time>
      </trkpt>
      <trkpt lat="35.946066300418174" lon="120.21208827395012">
        <time>2017-09-07T13:31:45.082000Z</time>
      </trkpt>
      <trkpt lat="35.94596630431334" lon="120.21209984097649">
        <ele>16.96883936294578</ele>
        <time>2017-09-07T13:31:49.087000Z</time>
      </trkpt>
      <trkpt lat="35.94586802649865" lon="120.21213093783726">
        <time>2017-09-07T13:31:53.092000Z</time>
      </trkpt>
      <trkpt lat="35.94576941340784" lon="120.2121685725825">
        <time>2017-09-07T13:31:57.086000Z</time>
      </trkpt>
      <trkpt lat="35.94566581308464" lon="120.21222640771438">
        <ele>16.818227485504373</ele>
        <time>2017-09-07T13:32:01.083000Z</time>
      </trkpt>
      <trkpt lat="35.94558182641486" lon="120.21228105772306">
        <time>2017-09-07T13:32:04.075000Z</time>
      </trkpt>
      <trkpt lat="35.94547830991069" lon="120.2123393119501">
        <time>2017-09-07T13:32:08.081000Z</time>
      </trkpt>
      <trkpt lat="35.945388204451596" lon="120.21236152399351">
        <ele>16.831441596832498</ele>
        <time>2017-09-07T13:32:12.083000Z</time>
      </trkpt>
      <trkpt lat="35.94529428522656" lon="120.2123844904082">
        <time>2017-09-07T13:32:16.080000Z</time>
      </trkpt>
      <trkpt lat="35.94520899936179" lon="120.2124312614279">
        <ele>17.021688178863748</ele>
        <time>2017-09-07T13:32:20.087000Z</time>
      </trkpt>
      <trkpt lat="35.94510984144727" lon="120.2124690638112">
        <time>2017-09-07T13:32:25.070000Z</time>
      </trkpt>
      <trkpt lat="35.94502686060587" lon="120.21251273352672">
        <ele>17.071889594879373</ele>
        <time>2017-09-07T13:32:29.085000Z</time>
      </trkpt>
      <trkpt lat="35.94493679705629" lon="120.21254760224392">
        <time>2017-09-07T13:32:34.091000Z</time>
      </trkpt>
      <trkpt lat="35.94483474738518" lon="120.21259579818715">
        <time>2017-09-07T13:32:38.086000Z</time>
      </trkpt>
      <trkpt lat="35.94474510293076" lon="120.21264994528164">
        <ele>17.225145057525857</ele>
        <time>2017-09-07T13:32:42.104000Z</time>
      </trkpt>
      <trkpt lat="35.944648040492034" lon="120.21270317036678">
        <time>2017-09-07T13:32:46.071000Z</time>
      </trkpt>
      <trkpt lat="35.94454670328269" lon="120.21274449314942">
        <ele>17.476167396393045</ele>
        <time>2017-09-07T13:32:50.130000Z</time>
      </trkpt>
      <trkpt lat="35.94444612044463" lon="120.2127957065778">
        <time>2017-09-07T13:32:55.063000Z</time>
      </trkpt>
      <trkpt lat="35.94435136302928" lon="120.21285396080484">
        <ele>17.83287973770164</ele>
        <time>2017-09-07T13:32:59.063000Z</time>
      </trkpt>
      <trkpt lat="35.94425958118955" lon="120.21292596135308">
        <time>2017-09-07T13:33:03.085000Z</time>
      </trkpt>
      <trkpt lat="35.94415992036084" lon="120.21297985699047">
        <time>2017-09-07T13:33:08.068000Z</time>
      </trkpt>
      <trkpt lat="35.94405627812812" lon="120.21304079342653">
        <ele>18.562158302154764</ele>
        <time>2017-09-07T13:33:13.086000Z</time>
      </trkpt>
      <trkpt lat="35.9439658373929" lon="120.2130991314726">
        <time>2017-09-07T13:33:16.079000Z</time>
      </trkpt>
      <trkpt lat="35.94387422319124" lon="120.21315654750933">
        <ele>19.38656397232078</ele>
        <time>2017-09-07T13:33:19.096000Z</time>
      </trkpt>
      <trkpt lat="35.94379073943565" lon="120.21310038875808">
        <time>2017-09-07T13:33:25.072000Z</time>
      </trkpt>
      <trkpt lat="35.94375377524266" lon="120.21299687225391">
        <ele>19.56095667251609</ele>
        <time>2017-09-07T13:33:30.075000Z</time>
      </trkpt>
      <trkpt lat="35.94370516020427" lon="120.2128958703207">
        <time>2017-09-07T13:33:34.070000Z</time>
      </trkpt>
      <trkpt lat="35.94364300839225" lon="120.2127920185404">
        <time>2017-09-07T13:33:38.055000Z</time>
      </trkpt>
      <trkpt lat="35.943559985641336" lon="120.21269738685359">
        <ele>19.545102790680154</ele>
        <time>2017-09-07T13:33:42.060000Z</time>
      </trkpt>
      <trkpt lat="35.94348660207907" lon="120.21263175655176">
        <time>2017-09-07T13:33:46.193000Z</time>
      </trkpt>
      <trkpt lat="35.943393269587254" lon="120.21254885952939">
        <ele>19.26501627334617</ele>
        <time>2017-09-07T13:33:50.066000Z</time>
      </trkpt>
      <trkpt lat="35.943306265432334" lon="120.21246621396412">
        <time>2017-09-07T13:33:53.073000Z</time>
      </trkpt>
      <trkpt lat="35.943217626806295" lon="120.212394548692">
        <time>2017-09-07T13:33:56.070000Z</time>
      </trkpt>
      <trkpt lat="35.94312081582466" lon="120.21234652038683">
        <ele>19.07212610610984</ele>
        <time>2017-09-07T13:33:59.086000Z</time>
      </trkpt>
      <trkpt lat="35.94309432901064" lon="120.21222607243826">
        <time>2017-09-07T13:34:04.069000Z</time>
      </trkpt>
      <trkpt lat="35.943132131393945" lon="120.2120956500249">
        <time>2017-09-07T13:34:07.077000Z</time>
      </trkpt>
      <trkpt lat="35.94319189436356" lon="120.21197059202959">
        <ele>19.058915809478982</ele>
        <time>2017-09-07T13:34:10.070000Z</time>
      </trkpt>
      <trkpt lat="35.943143153596615" lon="120.2118648962306">
        <time>2017-09-07T13:34:14.079000Z</time>
      </trkpt>
      <trkpt lat="35.943099358152544" lon="120.21175819460322">
        <ele>19.00871057876609</ele>
        <time>2017-09-07T13:34:19.093000Z</time>
      </trkpt>
      <trkpt lat="35.94309734649578" lon="120.21163674082626">
        <time>2017-09-07T13:34:23.057000Z</time>
      </trkpt>
      <trkpt lat="35.943089132230675" lon="120.21150531258453">
        <time>2017-09-07T13:34:27.059000Z</time>
      </trkpt>
      <trkpt lat="35.94307329043368" lon="120.21137639891376">
        <ele>19.043061927643045</ele>
        <time>2017-09-07T13:34:31.087000Z</time>
      </trkpt>
      <trkpt lat="35.94299022577325" lon="120.21128595817854">
        <time>2017-09-07T13:34:34.075000Z</time>
      </trkpt>
      <trkpt lat="35.94288276977459" lon="120.2112171427535">
        <time>2017-09-07T13:34:37.106000Z</time>
      </trkpt>
      <trkpt lat="35.94274576756725" lon="120.21116467203964">
        <ele>18.995500282135232</ele>
        <time>2017-09-07T13:34:40.140000Z</time>
      </trkpt>
      <trkpt lat="35.94267012089113" lon="120.211094264053">
        <time>2017-09-07T13:34:44.075000Z</time>
      </trkpt>
      <trkpt lat="35.94261731490115" lon="120.21098320383598">
        <time>2017-09-07T13:34:48.069000Z</time>
      </trkpt>
      <trkpt lat="35.94254690691451" lon="120.2108994686233">
        <ele>18.543664649811014</ele>
        <time>2017-09-07T13:34:52.067000Z</time>
      </trkpt>
      <trkpt lat="35.94247335571418" lon="120.21079176116754">
        <time>2017-09-07T13:34:56.118000Z</time>
      </trkpt>
      <trkpt lat="35.94240818641702" lon="120.21068053331246">
        <ele>18.3243500746157</ele>
        <time>2017-09-07T13:35:00.098000Z</time>
      </trkpt>
      <trkpt lat="35.94235341067979" lon="120.21058204595019">
        <time>2017-09-07T13:35:03.088000Z</time>
      </trkpt>
      <trkpt lat="35.94229586891452" lon="120.21045682031681">
        <time>2017-09-07T13:35:07.064000Z</time>
      </trkpt>
      <trkpt lat="35.94223732132087" lon="120.2103693132477">
        <ele>18.017842964019998</ele>
        <time>2017-09-07T13:35:11.096000Z</time>
      </trkpt>
      <trkpt lat="35.94218174930284" lon="120.21027652557959">
        <time>2017-09-07T13:35:16.076000Z</time>
      </trkpt>
      <trkpt lat="35.94212223779032" lon="120.21017812203635">
        <ele>18.02840967544578</ele>
        <time>2017-09-07T13:35:20.717000Z</time>
      </trkpt>
      <trkpt lat="35.942077604155934" lon="120.21006303850581">
        <time>2017-09-07T13:35:24.226000Z</time>
      </trkpt>
      <trkpt lat="35.94203674237797" lon="120.2099493798988">
        <time>2017-09-07T13:35:28.124000Z</time>
      </trkpt>
      <trkpt lat="35.94198297246913" lon="120.20984670158495">
        <ele>17.925359443512185</ele>
        <time>2017-09-07T13:35:32.072000Z</time>
      </trkpt>
      <trkpt lat="35.94191453422973" lon="120.20975567411651">
        <time>2017-09-07T13:35:36.087000Z</time>
      </trkpt>
      <trkpt lat="35.941841863129234" lon="120.2096660715716">
        <ele>18.06540460952781</ele>
        <time>2017-09-07T13:35:40.068000Z</time>
      </trkpt>
      <trkpt lat="35.941781345788335" lon="120.20954612653722">
        <time>2017-09-07T13:35:44.092000Z</time>
      </trkpt>
      <trkpt lat="35.94175674490253" lon="120.2094173805045">
        <time>2017-09-07T13:35:48.075000Z</time>
      </trkpt>
      <trkpt lat="35.941810389082825" lon="120.20932023424675">
        <ele>17.478807166900857</ele>
        <time>2017-09-07T13:35:52.113000Z</time>
      </trkpt>
      <trkpt lat="35.94190338629851" lon="120.20927027810384">
        <time>2017-09-07T13:35:55.099000Z</time>
      </trkpt>
      <trkpt lat="35.94200208320836" lon="120.20925921399166">
        <time>2017-09-07T13:35:58.077000Z</time>
      </trkpt>
      <trkpt lat="35.942115113172626" lon="120.20926482986678">
        <ele>17.293847755279764</ele>
        <time>2017-09-07T13:36:02.073000Z</time>
      </trkpt>
      <trkpt lat="35.94221674374858" lon="120.20924965862204">
        <time>2017-09-07T13:36:06.091000Z</time>
      </trkpt>
      <trkpt lat="35.942315356839394" lon="120.2092262731122">
        <ele>17.4365326918032</ele>
        <time>2017-09-07T13:36:10.079000Z</time>
      </trkpt>
      <trkpt lat="35.9423996787853" lon="120.20916676159968">
        <time>2017-09-07T13:36:14.087000Z</time>
      </trkpt>
      <trkpt lat="35.94247767239431" lon="120.20910331059267">
        <time>2017-09-07T13:36:18.093000Z</time>
      </trkpt>
      <trkpt lat="35.94256740066776" lon="120.20904396671821">
        <ele>17.486734107818826</ele>
        <time>2017-09-07T13:36:22.063000Z</time>
      </trkpt>
      <trkpt lat="35.942659433964586" lon="120.20898529339601">
        <time>2017-09-07T13:36:26.074000Z</time>
      </trkpt>
      <trkpt lat="35.942772966843044" lon="120.2089527716117">
        <ele>17.52108545669578</ele>
        <time>2017-09-07T13:36:30.062000Z</time>
      </trkpt>
      <trkpt lat="35.94286374285439" lon="120.2089479939269">
        <time>2017-09-07T13:36:33.070000Z</time>
      </trkpt>
      <trkpt lat="35.94297610226641" lon="120.20895377744009">
        <time>2017-09-07T13:36:37.076000Z</time>
      </trkpt>
      <trkpt lat="35.943088838864064" lon="120.20892385404576">
        <ele>17.31762857803367</ele>
        <time>2017-09-07T13:36:42.059000Z</time>
      </trkpt>
      <trkpt lat="35.94319797124336" lon="120.20892485987414">
        <time>2017-09-07T13:36:46.075000Z</time>
      </trkpt>
      <trkpt lat="35.94330794181297" lon="120.20891438249518">
        <ele>17.285920814361795</ele>
        <time>2017-09-07T13:36:50.092000Z</time>
      </trkpt>
      <trkpt lat="35.943406722541845" lon="120.20888412382473">
        <time>2017-09-07T13:36:54.081000Z</time>
      </trkpt>
      <trkpt lat="35.943501102771556" lon="120.20882704306413">
        <time>2017-09-07T13:36:58.058000Z</time>
      </trkpt>
      <trkpt lat="35.94358865175018" lon="120.20877473998834">
        <ele>17.085103706207498</ele>
        <time>2017-09-07T13:37:02.074000Z</time>
      </trkpt>
      <trkpt lat="35.94368743247906" lon="120.2087442298608">
        <time>2017-09-07T13:37:06.055000Z</time>
      </trkpt>
      <trkpt lat="35.94379103280226" lon="120.20873517740537">
        <ele>16.89749689468406</ele>
        <time>2017-09-07T13:37:10.067000Z</time>
      </trkpt>
      <trkpt lat="35.94390192538122" lon="120.20874590624143">
        <time>2017-09-07T13:37:14.079000Z</time>
      </trkpt>
      <trkpt lat="35.94400762118021" lon="120.20877524290253">
        <time>2017-09-07T13:37:18.071000Z</time>
      </trkpt>
      <trkpt lat="35.94410912602762" lon="120.2088288032638">
        <ele>16.768026069488748</ele>
        <time>2017-09-07T13:37:22.088000Z</time>
      </trkpt>
      <trkpt lat="35.944210547055995" lon="120.2088785079496">
        <time>2017-09-07T13:37:26.099000Z</time>
      </trkpt>
      <trkpt lat="35.94430974688003" lon="120.20891605887581">
        <ele>16.577775672760232</ele>
        <time>2017-09-07T13:37:30.071000Z</time>
      </trkpt>
      <trkpt lat="35.94441569413612" lon="120.20893894147147">
        <time>2017-09-07T13:37:34.072000Z</time>
      </trkpt>
      <trkpt lat="35.94450927808503" lon="120.20895696256329">
        <time>2017-09-07T13:37:38.069000Z</time>
      </trkpt>
      <trkpt lat="35.94460579570005" lon="120.20894229423274">
        <ele>16.53021402725242</ele>
        <time>2017-09-07T13:37:42.093000Z</time>
      </trkpt>
      <trkpt lat="35.94470646235714" lon="120.20892167475094">
        <time>2017-09-07T13:37:46.078000Z</time>
      </trkpt>
      <trkpt lat="35.944799082387185" lon="120.20889401447047">
        <ele>16.746885017242654</ele>
        <time>2017-09-07T13:37:50.078000Z</time>
      </trkpt>
      <trkpt lat="35.94489132523159" lon="120.20887406554093">
        <time>2017-09-07T13:37:55.080000Z</time>
      </trkpt>
      <trkpt lat="35.945001128163135" lon="120.20884875219335">
        <ele>16.992620185699685</ele>
        <time>2017-09-07T13:38:00.080000Z</time>
      </trkpt>
      <trkpt lat="35.9451046446673" lon="120.20883299421538">
        <time>2017-09-07T13:38:04.074000Z</time>
      </trkpt>
      <trkpt lat="35.945196384597516" lon="120.20882360648383">
        <time>2017-09-07T13:38:08.120000Z</time>
      </trkpt>
      <trkpt lat="35.94530652280519" lon="120.20881773915161">
        <ele>16.736318305816873</ele>
        <time>2017-09-07T13:38:12.088000Z</time>
      </trkpt>
      <trkpt lat="35.945411380413866" lon="120.20880592066814">
        <time>2017-09-07T13:38:16.095000Z</time>
      </trkpt>
      <trkpt lat="35.94550986777613" lon="120.20879519183208">
        <ele>16.76538248428367</ele>
        <time>2017-09-07T13:38:20.089000Z</time>
      </trkpt>
      <trkpt lat="35.94560642730067" lon="120.20876728009452">
        <time>2017-09-07T13:38:24.094000Z</time>
      </trkpt>
      <trkpt lat="35.945722810026204" lon="120.20874724734594">
        <time>2017-09-07T13:38:28.091000Z</time>
      </trkpt>
      <trkpt lat="35.9458221774883" lon="120.20872754987349">
        <ele>16.88956995376609</ele>
        <time>2017-09-07T13:38:33.087000Z</time>
      </trkpt>
      <trkpt lat="35.945911486666596" lon="120.20871103752424">
        <time>2017-09-07T13:38:37.094000Z</time>
      </trkpt>
      <trkpt lat="35.94601173422853" lon="120.20869025040437">
        <ele>17.301774696197732</ele>
        <time>2017-09-07T13:38:42.078000Z</time>
      </trkpt>
      <trkpt lat="35.946107665110326" lon="120.20867331895997">
        <time>2017-09-07T13:38:46.082000Z</time>
      </trkpt>
      <trkpt lat="35.94620422463486" lon="120.20866032701005">
        <ele>17.085103706207498</ele>
        <time>2017-09-07T13:38:50.060000Z</time>
      </trkpt>
      <trkpt lat="35.94630610666791" lon="120.208652280383">
        <time>2017-09-07T13:38:54.127000Z</time>
      </trkpt>
      <trkpt lat="35.946405013125336" lon="120.20864264119436">
        <time>2017-09-07T13:38:58.086000Z</time>
      </trkpt>
      <trkpt lat="35.946513474952376" lon="120.20863115798701">
        <ele>16.82087107070945</ele>
        <time>2017-09-07T13:39:03.083000Z</time>
      </trkpt>
      <trkpt lat="35.94662231396506" lon="120.20861690875162">
        <time>2017-09-07T13:39:07.077000Z</time>
      </trkpt>
      <trkpt lat="35.946722519617474" lon="120.20859804946949">
        <ele>16.818227485504373</ele>
        <time>2017-09-07T13:39:11.079000Z</time>
      </trkpt>
      <trkpt lat="35.94682356346021" lon="120.20858589570989">
        <time>2017-09-07T13:39:15.087000Z</time>
      </trkpt>
      <trkpt lat="35.94693340830127" lon="120.20857550214996">
        <ele>16.87900324234031</ele>
        <time>2017-09-07T13:39:19.067000Z</time>
      </trkpt>
      <trkpt lat="35.9470312670208" lon="120.20856628205647">
        <time>2017-09-07T13:39:23.082000Z</time>
      </trkpt>
      <trkpt lat="35.94706940468023" lon="120.20844466064145">
        <time>2017-09-07T13:39:28.078000Z</time>
      </trkpt>
      <trkpt lat="35.94704417515168" lon="120.20830602396299">
        <ele>17.190793708648904</ele>
        <time>2017-09-07T13:39:32.070000Z</time>
      </trkpt>
      <trkpt lat="35.9470267827026" lon="120.20816864457001">
        <time>2017-09-07T13:39:36.081000Z</time>
      </trkpt>
      <trkpt lat="35.94701089899609" lon="120.20802984025349">
        <ele>17.26742334732078</ele>
        <time>2017-09-07T13:39:40.064000Z</time>
      </trkpt>
      <trkpt lat="35.94699832614133" lon="120.20789866346885">
        <time>2017-09-07T13:39:44.067000Z</time>
      </trkpt>
      <trkpt lat="35.946985962834155" lon="120.20777679059674">
        <time>2017-09-07T13:39:48.077000Z</time>
      </trkpt>
      <trkpt lat="35.94697217460344" lon="120.20765558827688">
        <ele>17.238359168853982</ele>
        <time>2017-09-07T13:39:52.090000Z</time>
      </trkpt>
      <trkpt lat="35.946958134915626" lon="120.2075353917854">
        <time>2017-09-07T13:39:56.091000Z</time>
      </trkpt>
      <trkpt lat="35.94694552015135" lon="120.20740865740945">
        <ele>17.190793708648904</ele>
        <time>2017-09-07T13:40:00.097000Z</time>
      </trkpt>
      <trkpt lat="35.94693261202047" lon="120.20727781590094">
        <time>2017-09-07T13:40:04.077000Z</time>
      </trkpt>
      <trkpt lat="35.94692544549326" lon="120.20715334463884">
        <time>2017-09-07T13:40:08.082000Z</time>
      </trkpt>
      <trkpt lat="35.946976658921635" lon="120.20704052422215">
        <ele>17.15115900405906</ele>
        <time>2017-09-07T13:40:12.092000Z</time>
      </trkpt>
      <trkpt lat="35.94703386541078" lon="120.20693524751832">
        <time>2017-09-07T13:40:16.098000Z</time>
      </trkpt>
      <trkpt lat="35.94708403110126" lon="120.20682879734804">
        <ele>16.923921302643045</ele>
        <time>2017-09-07T13:40:20.065000Z</time>
      </trkpt>
      <trkpt lat="35.94713532834867" lon="120.2067253646629">
        <time>2017-09-07T13:40:24.074000Z</time>
      </trkpt>
      <trkpt lat="35.94718281183014" lon="120.20661874685456">
        <time>2017-09-07T13:40:28.084000Z</time>
      </trkpt>
      <trkpt lat="35.94723046294967" lon="120.20651246432234">
        <ele>17.180226997223123</ele>
        <time>2017-09-07T13:40:32.075000Z</time>
      </trkpt>
      <trkpt lat="35.94728176019708" lon="120.20641246821751">
        <time>2017-09-07T13:40:36.196000Z</time>
      </trkpt>
      <trkpt lat="35.94732677101711" lon="120.2063075267898">
        <ele>17.164373115387185</ele>
        <time>2017-09-07T13:40:40.089000Z</time>
      </trkpt>
      <trkpt lat="35.947368470985396" lon="120.20620476465692">
        <time>2017-09-07T13:40:44.100000Z</time>
      </trkpt>
      <trkpt lat="35.94741205688189" lon="120.20610292453338">
        <time>2017-09-07T13:40:48.080000Z</time>
      </trkpt>
      <trkpt lat="35.94745849262546" lon="120.20599354069698">
        <ele>17.19608087905906</ele>
        <time>2017-09-07T13:40:52.076000Z</time>
      </trkpt>
      <trkpt lat="35.94750442545484" lon="120.20588625233638">
        <time>2017-09-07T13:40:56.099000Z</time>
      </trkpt>
      <trkpt lat="35.94755174129824" lon="120.20578516658414">
        <ele>17.418035224762185</ele>
        <time>2017-09-07T13:41:00.086000Z</time>
      </trkpt>
      <trkpt lat="35.94759842849891" lon="120.20568005751836">
        <time>2017-09-07T13:41:04.087000Z</time>
      </trkpt>
      <trkpt lat="35.94763677570592" lon="120.20556975167263">
        <time>2017-09-07T13:41:08.062000Z</time>
      </trkpt>
      <trkpt lat="35.947677469845814" lon="120.20545944582689">
        <ele>17.03225489028953</ele>
        <time>2017-09-07T13:41:12.078000Z</time>
      </trkpt>
      <trkpt lat="35.947721265289886" lon="120.20535953354108">
        <time>2017-09-07T13:41:16.071000Z</time>
      </trkpt>
      <trkpt lat="35.94776732384781" lon="120.20525274809468">
        <ele>17.169656471100076</ele>
        <time>2017-09-07T13:41:20.089000Z</time>
      </trkpt>
      <trkpt lat="35.94780550341676" lon="120.20514093350637">
        <time>2017-09-07T13:41:24.081000Z</time>
      </trkpt>
      <trkpt lat="35.94784628137569" lon="120.205039512478">
        <time>2017-09-07T13:41:28.077000Z</time>
      </trkpt>
      <trkpt lat="35.9478819882832" lon="120.20492736261356">
        <ele>17.2647797621157</ele>
        <time>2017-09-07T13:41:32.077000Z</time>
      </trkpt>
      <trkpt lat="35.94789858445148" lon="120.20481202762592">
        <time>2017-09-07T13:41:36.080000Z</time>
      </trkpt>
      <trkpt lat="35.94790436796467" lon="120.20469166349638">
        <ele>17.663770393219217</ele>
        <time>2017-09-07T13:41:40.094000Z</time>
      </trkpt>
      <trkpt lat="35.94790130857001" lon="120.20457163464296">
        <time>2017-09-07T13:41:44.066000Z</time>
      </trkpt>
      <trkpt lat="35.94789200465749" lon="120.20445194106567">
        <time>2017-09-07T13:41:48.071000Z</time>
      </trkpt>
      <trkpt lat="35.947873648289544" lon="120.20433207985032">
        <ele>17.658487037506326</ele>
        <time>2017-09-07T13:41:52.081000Z</time>
      </trkpt>
      <trkpt lat="35.94786053061108" lon="120.20421716395784">
        <time>2017-09-07T13:41:56.084000Z</time>
      </trkpt>
      <trkpt lat="35.94795486893128" lon="120.20419721502829">
        <ele>17.75889368423484</ele>
        <time>2017-09-07T13:42:00.096000Z</time>
      </trkpt>
      <trkpt lat="35.94803705349187" lon="120.20425496634114">
        <time>2017-09-07T13:42:03.086000Z</time>
      </trkpt>
      <trkpt lat="35.94813717532526" lon="120.20432721834648">
        <time>2017-09-07T13:42:07.084000Z</time>
      </trkpt>
      <trkpt lat="35.94823197465013" lon="120.20438899297285">
        <ele>17.618852332916482</ele>
        <time>2017-09-07T13:42:11.093000Z</time>
      </trkpt>
      <trkpt lat="35.94833046201239" lon="120.20445629965532">
        <time>2017-09-07T13:42:15.086000Z</time>
      </trkpt>
      <trkpt lat="35.94843863047282" lon="120.2045143862443">
        <ele>17.21721811660789</ele>
        <time>2017-09-07T13:42:19.065000Z</time>
      </trkpt>
      <trkpt lat="35.94852705955128" lon="120.20446292135883">
        <time>2017-09-07T13:42:23.072000Z</time>
      </trkpt>
      <trkpt lat="35.948640047606034" lon="120.20443023193646">
        <time>2017-09-07T13:42:28.069000Z</time>
      </trkpt>
      <trkpt lat="35.94874633013825" lon="120.20444221805799">
        <ele>18.044263557281717</ele>
        <time>2017-09-07T13:42:32.089000Z</time>
      </trkpt>
      <trkpt lat="35.94884058463941" lon="120.20446367573011">
        <time>2017-09-07T13:42:36.072000Z</time>
      </trkpt>
      <trkpt lat="35.94893831763039" lon="120.20447574567068">
        <ele>18.64142771133445</ele>
        <time>2017-09-07T13:42:40.076000Z</time>
      </trkpt>
      <trkpt lat="35.949042295139236" lon="120.20448789943028">
        <time>2017-09-07T13:42:44.067000Z</time>
      </trkpt>
      <trkpt lat="35.9491426265202" lon="120.20449678424764">
        <time>2017-09-07T13:42:48.071000Z</time>
      </trkpt>
      <trkpt lat="35.94924002423505" lon="120.204521510862">
        <ele>18.83431787857078</ele>
        <time>2017-09-07T13:42:52.064000Z</time>
      </trkpt>
      <trkpt lat="35.94933637421201" lon="120.2045524400847">
        <time>2017-09-07T13:42:56.072000Z</time>
      </trkpt>
      <trkpt lat="35.94944039363037" lon="120.20457691524196">
        <ele>19.02456446060203</ele>
        <time>2017-09-07T13:43:00.074000Z</time>
      </trkpt>
      <trkpt lat="35.94955028038095" lon="120.20459317613411">
        <time>2017-09-07T13:43:04.077000Z</time>
      </trkpt>
      <trkpt lat="35.94965832311283" lon="120.20460164185631">
        <time>2017-09-07T13:43:08.089000Z</time>
      </trkpt>
      <trkpt lat="35.94976506664972" lon="120.20461010757852">
        <ele>19.103833869781717</ele>
        <time>2017-09-07T13:43:12.087000Z</time>
      </trkpt>
      <trkpt lat="35.94987252264838" lon="120.20462368626166">
        <time>2017-09-07T13:43:16.089000Z</time>
      </trkpt>
      <trkpt lat="35.949979894828004" lon="120.20462838012743">
        <ele>18.8316742933657</ele>
        <time>2017-09-07T13:43:20.084000Z</time>
      </trkpt>
      <trkpt lat="35.95009288288276" lon="120.20462234515715">
        <time>2017-09-07T13:43:24.088000Z</time>
      </trkpt>
      <trkpt lat="35.95020067415754" lon="120.20460323441792">
        <time>2017-09-07T13:43:28.090000Z</time>
      </trkpt>
      <trkpt lat="35.95029832332949" lon="120.20457725051808">
        <ele>17.772107795562967</ele>
        <time>2017-09-07T13:43:32.064000Z</time>
      </trkpt>
      <trkpt lat="35.95039153009276" lon="120.20456048671174">
        <time>2017-09-07T13:43:36.062000Z</time>
      </trkpt>
      <trkpt lat="35.95048159364234" lon="120.20455755304563">
        <ele>18.32699365982078</ele>
        <time>2017-09-07T13:43:40.066000Z</time>
      </trkpt>
      <trkpt lat="35.95053808766971" lon="120.2046507598089">
        <time>2017-09-07T13:43:44.081000Z</time>
      </trkpt>
      <trkpt lat="35.950628528404934" lon="120.2046872210877">
        <ele>18.78411264785789</ele>
        <time>2017-09-07T13:43:51.072000Z</time>
      </trkpt>
      <trkpt lat="35.950721106525464" lon="120.20466458994913">
        <time>2017-09-07T13:43:56.064000Z</time>
      </trkpt>
      <trkpt lat="35.950828939709766" lon="120.20467657607067">
        <ele>18.75769205459617</ele>
        <time>2017-09-07T13:44:15.082000Z</time>
      </trkpt>
      <trkpt lat="35.9509204700924" lon="120.20465469930339">
        <time>2017-09-07T13:44:18.059000Z</time>
      </trkpt>
      <trkpt lat="35.951031907495064" lon="120.2046262008326">
        <ele>19.058915809478982</ele>
        <time>2017-09-07T13:44:22.172000Z</time>
      </trkpt>
      <trkpt lat="35.951138525303406" lon="120.20460097130406">
        <time>2017-09-07T13:44:26.059000Z</time>
      </trkpt>
      <trkpt lat="35.95124044924597" lon="120.20457867544162">
        <ele>18.3243500746157</ele>
        <time>2017-09-07T13:44:30.129000Z</time>
      </trkpt>
      <trkpt lat="35.95134539067368" lon="120.20455981615949">
        <time>2017-09-07T13:44:34.076000Z</time>
      </trkpt>
      <trkpt lat="35.95144869763027" lon="120.20453576009739">
        <time>2017-09-07T13:44:38.095000Z</time>
      </trkpt>
      <trkpt lat="35.951555692624254" lon="120.20451505679655">
        <ele>18.157884315338357</ele>
        <time>2017-09-07T13:44:42.167000Z</time>
      </trkpt>
      <trkpt lat="35.95165153968702" lon="120.2044953593241">
        <time>2017-09-07T13:44:46.069000Z</time>
      </trkpt>
      <trkpt lat="35.951752373982174" lon="120.20448278646934">
        <ele>18.107679084625467</ele>
        <time>2017-09-07T13:44:50.116000Z</time>
      </trkpt>
      <trkpt lat="35.95186033289502" lon="120.2044676152246">
        <time>2017-09-07T13:44:54.061000Z</time>
      </trkpt>
      <trkpt lat="35.951966950703365" lon="120.20445688638854">
        <time>2017-09-07T13:44:58.078000Z</time>
      </trkpt>
      <trkpt lat="35.95207138921688" lon="120.20444992940891">
        <ele>17.843450263824685</ele>
        <time>2017-09-07T13:45:02.796000Z</time>
      </trkpt>
      <trkpt lat="35.95218207224826" lon="120.20443224359322">
        <time>2017-09-07T13:45:06.063000Z</time>
      </trkpt>
      <trkpt lat="35.95227875750135" lon="120.20440441567469">
        <ele>17.975564674225076</ele>
        <time>2017-09-07T13:45:10.074000Z</time>
      </trkpt>
      <trkpt lat="35.952392793293996" lon="120.20438320945966">
        <time>2017-09-07T13:45:14.058000Z</time>
      </trkpt>
      <trkpt lat="35.95250184185426" lon="120.20436208706367">
        <time>2017-09-07T13:45:18.133000Z</time>
      </trkpt>
      <trkpt lat="35.95261420126627" lon="120.20434699963796">
        <ele>17.941213325348123</ele>
        <time>2017-09-07T13:45:22.073000Z</time>
      </trkpt>
      <trkpt lat="35.95272098671268" lon="120.20432244066167">
        <time>2017-09-07T13:45:26.234000Z</time>
      </trkpt>
      <trkpt lat="35.95283770471434" lon="120.20431179564464">
        <ele>18.02048273452781</ele>
        <time>2017-09-07T13:45:30.061000Z</time>
      </trkpt>
      <trkpt lat="35.952942185137374" lon="120.20429327163863">
        <time>2017-09-07T13:45:34.083000Z</time>
      </trkpt>
      <trkpt lat="35.95304339661817" lon="120.20427550200391">
        <time>2017-09-07T13:45:38.102000Z</time>
      </trkpt>
      <trkpt lat="35.95314615875105" lon="120.20425136212278">
        <ele>18.12882013687156</ele>
        <time>2017-09-07T13:45:42.080000Z</time>
      </trkpt>
      <trkpt lat="35.9532480407841" lon="120.20423007208872">
        <time>2017-09-07T13:45:46.084000Z</time>
      </trkpt>
      <trkpt lat="35.9533542814068" lon="120.20421171572077">
        <ele>18.32171030410789</ele>
        <time>2017-09-07T13:45:50.133000Z</time>
      </trkpt>
      <trkpt lat="35.953457043539686" lon="120.20420274708438">
        <time>2017-09-07T13:45:54.104000Z</time>
      </trkpt>
      <trkpt lat="35.953545263070566" lon="120.20417961303163">
        <time>2017-09-07T13:45:58.100000Z</time>
      </trkpt>
      <trkpt lat="35.95365062359343" lon="120.20416092138755">
        <ele>18.659925178375467</ele>
        <time>2017-09-07T13:46:02.085000Z</time>
      </trkpt>
      <trkpt lat="35.95374881758909" lon="120.20415388058889">
        <time>2017-09-07T13:46:06.077000Z</time>
      </trkpt>
      <trkpt lat="35.95384764022748" lon="120.20413384784031">
        <ele>19.058915809478982</ele>
        <time>2017-09-07T13:46:10.093000Z</time>
      </trkpt>
      <trkpt lat="35.95395459331195" lon="120.20411750312913">
        <time>2017-09-07T13:46:14.079000Z</time>
      </trkpt>
      <trkpt lat="35.95406347423415" lon="120.20410878594983">
        <ele>19.39184732803367</ele>
        <time>2017-09-07T13:46:19.094000Z</time>
      </trkpt>
      <trkpt lat="35.954162632148666" lon="120.20409436907637">
        <time>2017-09-07T13:46:23.081000Z</time>
      </trkpt>
      <trkpt lat="35.95427511728923" lon="120.20407634798455">
        <time>2017-09-07T13:46:27.084000Z</time>
      </trkpt>
      <trkpt lat="35.954375113394065" lon="120.20406939100492">
        <ele>19.584737495269998</ele>
        <time>2017-09-07T13:46:31.078000Z</time>
      </trkpt>
      <trkpt lat="35.954474355127616" lon="120.20405245956051">
        <time>2017-09-07T13:46:35.089000Z</time>
      </trkpt>
      <trkpt lat="35.954577871631784" lon="120.20404298800993">
        <ele>20.208326057281717</ele>
        <time>2017-09-07T13:46:39.067000Z</time>
      </trkpt>
      <trkpt lat="35.95467757437001" lon="120.20401205878723">
        <time>2017-09-07T13:46:43.082000Z</time>
      </trkpt>
      <trkpt lat="35.95477966595064" lon="120.20399931829441">
        <time>2017-09-07T13:46:47.078000Z</time>
      </trkpt>
      <trkpt lat="35.954875429194374" lon="120.2039874159919">
        <ele>20.842481330719217</ele>
        <time>2017-09-07T13:46:51.072000Z</time>
      </trkpt>
      <trkpt lat="35.95496712721507" lon="120.20400409597922">
        <time>2017-09-07T13:46:55.067000Z</time>
      </trkpt>
      <trkpt lat="35.955051826346626" lon="120.20407534215617">
        <ele>21.762010291900857</ele>
        <time>2017-09-07T13:46:59.067000Z</time>
      </trkpt>
      <trkpt lat="35.955114145796706" lon="120.20418891694415">
        <time>2017-09-07T13:47:03.087000Z</time>
      </trkpt>
      <trkpt lat="35.95514314718168" lon="120.20432554196584">
        <time>2017-09-07T13:47:07.091000Z</time>
      </trkpt>
      <trkpt lat="35.955171226557304" lon="120.20444531936216">
        <ele>22.800439552154764</ele>
        <time>2017-09-07T13:47:11.072000Z</time>
      </trkpt>
      <trkpt lat="35.95520068894695" lon="120.20457590941358">
        <time>2017-09-07T13:47:15.075000Z</time>
      </trkpt>
      <trkpt lat="35.95522985796999" lon="120.20470717001724">
        <ele>24.029119209137185</ele>
        <time>2017-09-07T13:47:19.060000Z</time>
      </trkpt>
      <trkpt lat="35.95525060318034" lon="120.20483273092675">
        <time>2017-09-07T13:47:23.071000Z</time>
      </trkpt>
      <trkpt lat="35.95526879191022" lon="120.20495200540888">
        <time>2017-09-07T13:47:27.123000Z</time>
      </trkpt>
      <trkpt lat="35.95530374444645" lon="120.20508083526063">
        <ele>24.782178596344217</ele>
        <time>2017-09-07T13:47:31.064000Z</time>
      </trkpt>
      <trkpt lat="35.955328051965644" lon="120.2052081563698">
        <time>2017-09-07T13:47:35.076000Z</time>
      </trkpt>
      <trkpt lat="35.955360825207045" lon="120.20533782441187">
        <ele>25.540525153961404</ele>
        <time>2017-09-07T13:47:39.072000Z</time>
      </trkpt>
      <trkpt lat="35.955400387790014" lon="120.20546196039784">
        <time>2017-09-07T13:47:43.077000Z</time>
      </trkpt>
      <trkpt lat="35.95544435087215" lon="120.20557721156645">
        <time>2017-09-07T13:47:47.084000Z</time>
      </trkpt>
      <trkpt lat="35.955518153529574" lon="120.20565642055142">
        <ele>25.860246375885232</ele>
        <time>2017-09-07T13:47:50.081000Z</time>
      </trkpt>
      <trkpt lat="35.95556743912022" lon="120.20576966006327">
        <time>2017-09-07T13:47:53.087000Z</time>
      </trkpt>
      <trkpt lat="35.95562845937531" lon="120.20586320210266">
        <time>2017-09-07T13:47:56.076000Z</time>
      </trkpt>
      <trkpt lat="35.955656957846095" lon="120.20600418571402">
        <ele>25.82061167129539</ele>
        <time>2017-09-07T13:48:00.103000Z</time>
      </trkpt>
      <trkpt lat="35.9556627832688" lon="120.20613729033639">
        <time>2017-09-07T13:48:04.073000Z</time>
      </trkpt>
      <trkpt lat="35.95568310938399" lon="120.2062779386716">
        <time>2017-09-07T13:48:08.094000Z</time>
      </trkpt>
      <trkpt lat="35.955714415792336" lon="120.20638614904155">
        <ele>24.842954353180154</ele>
        <time>2017-09-07T13:48:11.090000Z</time>
      </trkpt>
      <trkpt lat="35.95573260452222" lon="120.20651824783553">
        <time>2017-09-07T13:48:15.089000Z</time>
      </trkpt>
      <trkpt lat="35.95574970360469" lon="120.20662779930998">
        <time>2017-09-07T13:48:18.065000Z</time>
      </trkpt>
      <trkpt lat="35.95577044881504" lon="120.2067650110649">
        <ele>23.788667396393045</ele>
        <time>2017-09-07T13:48:22.068000Z</time>
      </trkpt>
      <trkpt lat="35.95576256982606" lon="120.20690364774336">
        <time>2017-09-07T13:48:26.073000Z</time>
      </trkpt>
      <trkpt lat="35.955753685008695" lon="120.20703842874636">
        <ele>23.56406946548484</ele>
        <time>2017-09-07T13:48:30.073000Z</time>
      </trkpt>
      <trkpt lat="35.955747524309864" lon="120.20716818060745">
        <time>2017-09-07T13:48:34.053000Z</time>
      </trkpt>
      <trkpt lat="35.955756618674805" lon="120.20730690110494">
        <time>2017-09-07T13:48:38.091000Z</time>
      </trkpt>
      <trkpt lat="35.95576080962639" lon="120.2074193862455">
        <ele>23.603704170074685</ele>
        <time>2017-09-07T13:48:41.124000Z</time>
      </trkpt>
      <trkpt lat="35.955773424390664" lon="120.20755852583815">
        <time>2017-09-07T13:48:45.088000Z</time>
      </trkpt>
      <trkpt lat="35.9557854105122" lon="120.20767092715968">
        <ele>23.94192285903953</ele>
        <time>2017-09-07T13:48:49.061000Z</time>
      </trkpt>
      <trkpt lat="35.95589865002405" lon="120.2076855116712">
        <time>2017-09-07T13:48:53.058000Z</time>
      </trkpt>
      <trkpt lat="35.95599173105877" lon="120.20765516918172">
        <time>2017-09-07T13:48:57.062000Z</time>
      </trkpt>
      <trkpt lat="35.95609256535392" lon="120.20760085444917">
        <ele>25.773050025787576</ele>
        <time>2017-09-07T13:49:02.075000Z</time>
      </trkpt>
      <trkpt lat="35.95617697111886" lon="120.20755475398173">
        <time>2017-09-07T13:49:06.071000Z</time>
      </trkpt>
      <trkpt lat="35.956283840384295" lon="120.20753773871829">
        <ele>26.45476694473289</ele>
        <time>2017-09-07T13:49:10.078000Z</time>
      </trkpt>
      <trkpt lat="35.956389955278446" lon="120.20751913089325">
        <time>2017-09-07T13:49:14.069000Z</time>
      </trkpt>
    </trkseg>
  </trk>
</gpx>