<?xml version="1.0" encoding="UTF-8"?>
<gpx xmlns="http://www.topografix.com/GPX/1/1" xmlns:gpxtpx="http://www.garmin.com/xmlschemas/TrackPointExtension/v1" xmlns:xsi="http://www.w3.org/2001/XMLSchema-instance" xsi:schemaLocation="http://www.topografix.com/GPX/1/1 http://www.topografix.com/GPX/1/1/gpx.xsd" version="1.1" creator="gpx.py -- https://github.com/tkrajina/gpxpy">
  <trk>
    <name>星期二 夜跑</name>
    <trkseg>
      <trkpt lat="35.95706436320763" lon="120.2099493798988">
        <time>2017-08-29T13:17:45.969000Z</time>
      </trkpt>
      <trkpt lat="35.957172741215636" lon="120.20990193832685">
        <time>2017-08-29T13:17:50.081000Z</time>
      </trkpt>
      <trkpt lat="35.9572817897759" lon="120.20988970074822">
        <ele>29.406455952165253</ele>
        <time>2017-08-29T13:17:54.087000Z</time>
      </trkpt>
      <trkpt lat="35.95739075451713" lon="120.2098737751322">
        <time>2017-08-29T13:17:57.086000Z</time>
      </trkpt>
      <trkpt lat="35.95747993796687" lon="120.20985214982201">
        <ele>29.908496815202362</ele>
        <time>2017-08-29T13:18:02.074000Z</time>
      </trkpt>
      <trkpt lat="35.95756949860226" lon="120.20983471546342">
        <time>2017-08-29T13:18:05.071000Z</time>
      </trkpt>
      <trkpt lat="35.95768143891912" lon="120.20980378624071">
        <time>2017-08-29T13:18:09.085000Z</time>
      </trkpt>
      <trkpt lat="35.95778160266202" lon="120.20981795165707">
        <ele>30.56379218721164</ele>
        <time>2017-08-29T13:18:13.078000Z</time>
      </trkpt>
      <trkpt lat="35.957823093082716" lon="120.2099409141766">
        <time>2017-08-29T13:18:17.082000Z</time>
      </trkpt>
      <trkpt lat="35.95785431567203" lon="120.21006597217192">
        <ele>30.84916301393283</ele>
        <time>2017-08-29T13:18:21.084000Z</time>
      </trkpt>
      <trkpt lat="35.95784144945066" lon="120.21018340263535">
        <time>2017-08-29T13:18:25.089000Z</time>
      </trkpt>
      <trkpt lat="35.95787275585901" lon="120.21030619751681">
        <time>2017-08-29T13:18:29.086000Z</time>
      </trkpt>
      <trkpt lat="35.95786890018355" lon="120.21045958634485">
        <ele>30.510945278642303</ele>
        <time>2017-08-29T13:18:33.090000Z</time>
      </trkpt>
      <trkpt lat="35.95784396402161" lon="120.21057408314218">
        <time>2017-08-29T13:18:36.109000Z</time>
      </trkpt>
      <trkpt lat="35.95789266287904" lon="120.21068765793015">
        <time>2017-08-29T13:18:40.098000Z</time>
      </trkpt>
      <trkpt lat="35.957902008701076" lon="120.21080944698323">
        <ele>30.13573642396701</ele>
        <time>2017-08-29T13:18:44.084000Z</time>
      </trkpt>
      <trkpt lat="35.957803479429295" lon="120.21088236954083">
        <time>2017-08-29T13:18:47.097000Z</time>
      </trkpt>
      <trkpt lat="35.957683073390236" lon="120.21090600650777">
        <time>2017-08-29T13:18:50.093000Z</time>
      </trkpt>
      <trkpt lat="35.95758596904199" lon="120.21089536149074">
        <ele>27.984888035295135</ele>
        <time>2017-08-29T13:18:54.085000Z</time>
      </trkpt>
      <trkpt lat="35.95748228489976" lon="120.2108852193879">
        <time>2017-08-29T13:18:57.091000Z</time>
      </trkpt>
      <trkpt lat="35.95738375562798" lon="120.21086610864867">
        <time>2017-08-29T13:19:00.090000Z</time>
      </trkpt>
      <trkpt lat="35.95727328214418" lon="120.21089368511011">
        <ele>27.319023090837128</ele>
        <time>2017-08-29T13:19:03.097000Z</time>
      </trkpt>
      <trkpt lat="35.957180745933165" lon="120.21090340811779">
        <time>2017-08-29T13:19:06.088000Z</time>
      </trkpt>
      <trkpt lat="35.957081001285424" lon="120.21091313112547">
        <time>2017-08-29T13:19:10.091000Z</time>
      </trkpt>
      <trkpt lat="35.95697115644436" lon="120.21092436287572">
        <ele>26.69543643617404</ele>
        <time>2017-08-29T13:19:14.100000Z</time>
      </trkpt>
      <trkpt lat="35.956886331584265" lon="120.21096954133381">
        <time>2017-08-29T13:19:18.099000Z</time>
      </trkpt>
      <trkpt lat="35.9567904845215" lon="120.21096853550543">
        <ele>25.79176326417697</ele>
        <time>2017-08-29T13:19:22.101000Z</time>
      </trkpt>
      <trkpt lat="35.95668738711249" lon="120.21096794877221">
        <time>2017-08-29T13:19:26.085000Z</time>
      </trkpt>
      <trkpt lat="35.95658701382201" lon="120.21096174616386">
        <time>2017-08-29T13:19:30.096000Z</time>
      </trkpt>
      <trkpt lat="35.95647771380465" lon="120.21095034677555">
        <ele>25.316144901750214</ele>
        <time>2017-08-29T13:19:34.103000Z</time>
      </trkpt>
      <trkpt lat="35.95637193418663" lon="120.21096283581127">
        <time>2017-08-29T13:19:38.088000Z</time>
      </trkpt>
      <trkpt lat="35.95627600330483" lon="120.21099552523364">
        <ele>24.25921626710666</ele>
        <time>2017-08-29T13:19:42.088000Z</time>
      </trkpt>
      <trkpt lat="35.95617474991452" lon="120.21103735093047">
        <time>2017-08-29T13:19:47.072000Z</time>
      </trkpt>
      <trkpt lat="35.95607605300467" lon="120.21106744196285">
        <ele>23.3132667126633</ele>
        <time>2017-08-29T13:19:51.079000Z</time>
      </trkpt>
      <trkpt lat="35.955965453792324" lon="120.21108588214983">
        <time>2017-08-29T13:19:55.083000Z</time>
      </trkpt>
      <trkpt lat="35.9558535972945" lon="120.21112661819924">
        <time>2017-08-29T13:19:59.068000Z</time>
      </trkpt>
      <trkpt lat="35.95576680268716" lon="120.21117875363697">
        <ele>22.43073268556369</ele>
        <time>2017-08-29T13:20:02.074000Z</time>
      </trkpt>
      <trkpt lat="35.95570356122773" lon="120.2112599742787">
        <time>2017-08-29T13:20:05.092000Z</time>
      </trkpt>
      <trkpt lat="35.95566487874459" lon="120.211379667856">
        <time>2017-08-29T13:20:09.099000Z</time>
      </trkpt>
      <trkpt lat="35.955604445222725" lon="120.21148108888437">
        <ele>21.828283268449432</ele>
        <time>2017-08-29T13:20:13.099000Z</time>
      </trkpt>
      <trkpt lat="35.95552133865278" lon="120.21152601588537">
        <time>2017-08-29T13:20:17.124000Z</time>
      </trkpt>
      <trkpt lat="35.95550524539869" lon="120.21163959067334">
        <ele>21.71730609559787</ele>
        <time>2017-08-29T13:20:21.095000Z</time>
      </trkpt>
      <trkpt lat="35.95553613271188" lon="120.21177009690572">
        <time>2017-08-29T13:20:26.087000Z</time>
      </trkpt>
      <trkpt lat="35.95555968585979" lon="120.21189758565296">
        <time>2017-08-29T13:20:30.088000Z</time>
      </trkpt>
      <trkpt lat="35.95558152071755" lon="120.21202574495246">
        <ele>21.80714412355197</ele>
        <time>2017-08-29T13:20:34.077000Z</time>
      </trkpt>
      <trkpt lat="35.95560624733191" lon="120.2121495456623">
        <time>2017-08-29T13:20:38.089000Z</time>
      </trkpt>
      <trkpt lat="35.95564882740002" lon="120.21227762114276">
        <ele>21.664459187028534</ele>
        <time>2017-08-29T13:20:43.089000Z</time>
      </trkpt>
      <trkpt lat="35.95568516295027" lon="120.21238658588399">
        <time>2017-08-29T13:20:47.095000Z</time>
      </trkpt>
      <trkpt lat="35.95572866502773" lon="120.21250099886228">
        <ele>21.474212604997284</ele>
        <time>2017-08-29T13:20:51.095000Z</time>
      </trkpt>
      <trkpt lat="35.95577535222839" lon="120.21262639213373">
        <time>2017-08-29T13:20:55.128000Z</time>
      </trkpt>
      <trkpt lat="35.95579463060569" lon="120.21274491224457">
        <time>2017-08-29T13:20:59.089000Z</time>
      </trkpt>
      <trkpt lat="35.95583100806545" lon="120.21286879677345">
        <ele>21.71730609559787</ele>
        <time>2017-08-29T13:21:03.083000Z</time>
      </trkpt>
      <trkpt lat="35.95587400722872" lon="120.212973319106">
        <time>2017-08-29T13:21:07.077000Z</time>
      </trkpt>
      <trkpt lat="35.9559201915152" lon="120.21308572042753">
        <ele>21.828283268449432</ele>
        <time>2017-08-29T13:21:11.102000Z</time>
      </trkpt>
      <trkpt lat="35.955966752987315" lon="120.21320407290031">
        <time>2017-08-29T13:21:15.100000Z</time>
      </trkpt>
      <trkpt lat="35.955944205667784" lon="120.21331169653703">
        <time>2017-08-29T13:21:18.095000Z</time>
      </trkpt>
      <trkpt lat="35.95589990730952" lon="120.21341412339379">
        <ele>21.74372859620822</ele>
        <time>2017-08-29T13:21:21.092000Z</time>
      </trkpt>
      <trkpt lat="35.9558139508925" lon="120.21347983751465">
        <time>2017-08-29T13:21:25.126000Z</time>
      </trkpt>
      <trkpt lat="35.95570993147414" lon="120.21352032210697">
        <time>2017-08-29T13:21:29.101000Z</time>
      </trkpt>
      <trkpt lat="35.95560126009952" lon="120.21353172149529">
        <ele>21.61689754152072</ele>
        <time>2017-08-29T13:21:34.094000Z</time>
      </trkpt>
      <trkpt lat="35.95548869113993" lon="120.21349433820714">
        <time>2017-08-29T13:21:38.103000Z</time>
      </trkpt>
      <trkpt lat="35.9553839592598" lon="120.21348335791399">
        <ele>21.331527668473846</ele>
        <time>2017-08-29T13:21:42.101000Z</time>
      </trkpt>
      <trkpt lat="35.95529389571022" lon="120.21354437816908">
        <time>2017-08-29T13:21:45.100000Z</time>
      </trkpt>
      <trkpt lat="35.95521066341173" lon="120.21361721690764">
        <time>2017-08-29T13:21:48.111000Z</time>
      </trkpt>
      <trkpt lat="35.95513908195864" lon="120.21368779253234">
        <ele>21.056726414201385</ele>
        <time>2017-08-29T13:21:51.091000Z</time>
      </trkpt>
      <trkpt lat="35.95503397289287" lon="120.2137379163133">
        <time>2017-08-29T13:21:55.096000Z</time>
      </trkpt>
      <trkpt lat="35.954936114173336" lon="120.21375065680613">
        <time>2017-08-29T13:21:59.090000Z</time>
      </trkpt>
      <trkpt lat="35.95482668842743" lon="120.21375090826322">
        <ele>20.5229777874924</ele>
        <time>2017-08-29T13:22:03.074000Z</time>
      </trkpt>
      <trkpt lat="35.95471378419171" lon="120.21375811669995">
        <time>2017-08-29T13:22:07.087000Z</time>
      </trkpt>
      <trkpt lat="35.95459987412761" lon="120.21378988411297">
        <ele>20.45956035280002</ele>
        <time>2017-08-29T13:22:11.111000Z</time>
      </trkpt>
      <trkpt lat="35.95450163822244" lon="120.21378644753267">
        <time>2017-08-29T13:22:15.122000Z</time>
      </trkpt>
      <trkpt lat="35.95439426604281" lon="120.21378410059978">
        <time>2017-08-29T13:22:19.098000Z</time>
      </trkpt>
      <trkpt lat="35.9543075552545" lon="120.2138261777537">
        <ele>20.27459903383029</ele>
        <time>2017-08-29T13:22:23.098000Z</time>
      </trkpt>
      <trkpt lat="35.95421376175801" lon="120.21386364486088">
        <time>2017-08-29T13:22:28.092000Z</time>
      </trkpt>
      <trkpt lat="35.95410777259241" lon="120.21386842254569">
        <ele>20.16362186097873</ele>
        <time>2017-08-29T13:22:32.089000Z</time>
      </trkpt>
      <trkpt lat="35.953995413180394" lon="120.21388619218041">
        <time>2017-08-29T13:22:36.096000Z</time>
      </trkpt>
      <trkpt lat="35.9538915614001" lon="120.21392357546856">
        <time>2017-08-29T13:22:40.098000Z</time>
      </trkpt>
      <trkpt lat="35.953787583891256" lon="120.21397235814501">
        <ele>20.07906718873752</ele>
        <time>2017-08-29T13:22:44.097000Z</time>
      </trkpt>
      <trkpt lat="35.9536782838739" lon="120.21396665845086">
        <time>2017-08-29T13:22:48.093000Z</time>
      </trkpt>
      <trkpt lat="35.953562487881584" lon="120.21397621382047">
        <ele>20.31159206056369</ele>
        <time>2017-08-29T13:22:52.099000Z</time>
      </trkpt>
      <trkpt lat="35.95346479680012" lon="120.21400990907122">
        <time>2017-08-29T13:22:56.089000Z</time>
      </trkpt>
      <trkpt lat="35.95338064249228" lon="120.21405693154801">
        <time>2017-08-29T13:23:00.097000Z</time>
      </trkpt>
      <trkpt lat="35.953284041058225" lon="120.21409867342581">
        <ele>20.54411502504123</ele>
        <time>2017-08-29T13:23:04.104000Z</time>
      </trkpt>
      <trkpt lat="35.953193809870584" lon="120.21415776584317">
        <time>2017-08-29T13:23:08.098000Z</time>
      </trkpt>
      <trkpt lat="35.953109404105646" lon="120.21421694207956">
        <ele>20.87704845094455</ele>
        <time>2017-08-29T13:23:12.102000Z</time>
      </trkpt>
      <trkpt lat="35.95300203192602" lon="120.2142715082692">
        <time>2017-08-29T13:23:16.115000Z</time>
      </trkpt>
      <trkpt lat="35.95291033390532" lon="120.21429983910193">
        <time>2017-08-29T13:23:19.082000Z</time>
      </trkpt>
      <trkpt lat="35.95291033390532" lon="120.21429983910193">
        <ele>21.29981990480197</ele>
        <time>2017-08-29T13:23:47.082000Z</time>
      </trkpt>
      <trkpt lat="35.95279772303621" lon="120.214228676744">
        <time>2017-08-29T13:23:47.090000Z</time>
      </trkpt>
      <trkpt lat="35.95267777800183" lon="120.21427033480276">
        <time>2017-08-29T13:23:51.094000Z</time>
      </trkpt>
      <trkpt lat="35.952547900412185" lon="120.21433294761945">
        <ele>21.981536823747284</ele>
        <time>2017-08-29T13:23:54.100000Z</time>
      </trkpt>
      <trkpt lat="35.95244442581753" lon="120.21433169033398">
        <time>2017-08-29T13:23:57.098000Z</time>
      </trkpt>
      <trkpt lat="35.95242179467897" lon="120.21422037865986">
        <time>2017-08-29T13:24:00.095000Z</time>
      </trkpt>
      <trkpt lat="35.95243294261019" lon="120.21410353492965">
        <ele>21.90755267762912</ele>
        <time>2017-08-29T13:24:03.099000Z</time>
      </trkpt>
      <trkpt lat="35.95240498896311" lon="120.21397562708725">
        <time>2017-08-29T13:24:07.080000Z</time>
      </trkpt>
      <trkpt lat="35.95239182937513" lon="120.21384696487357">
        <time>2017-08-29T13:24:11.081000Z</time>
      </trkpt>
      <trkpt lat="35.95236957542221" lon="120.2137090825664">
        <ele>21.706735569474823</ele>
        <time>2017-08-29T13:24:16.085000Z</time>
      </trkpt>
      <trkpt lat="35.95234698619316" lon="120.21357513975371">
        <time>2017-08-29T13:24:20.098000Z</time>
      </trkpt>
      <trkpt lat="35.95233965202789" lon="120.21343675453235">
        <ele>21.738443333146698</ele>
        <time>2017-08-29T13:24:24.081000Z</time>
      </trkpt>
      <trkpt lat="35.952339777756436" lon="120.21331446256508">
        <time>2017-08-29T13:24:28.092000Z</time>
      </trkpt>
      <trkpt lat="35.95231157265226" lon="120.21320248033871">
        <ele>21.939260441300995</ele>
        <time>2017-08-29T13:24:32.065000Z</time>
      </trkpt>
      <trkpt lat="35.95226953740786" lon="120.21308203239013">
        <time>2017-08-29T13:24:36.083000Z</time>
      </trkpt>
      <trkpt lat="35.95226367007564" lon="120.21295236434807">
        <time>2017-08-29T13:24:40.083000Z</time>
      </trkpt>
      <trkpt lat="35.95223257321487" lon="120.21282093610634">
        <ele>21.99210734987033</ele>
        <time>2017-08-29T13:24:44.067000Z</time>
      </trkpt>
      <trkpt lat="35.95218332953374" lon="120.2126989794152">
        <time>2017-08-29T13:24:48.087000Z</time>
      </trkpt>
      <trkpt lat="35.95210470728199" lon="120.21259420562555">
        <ele>22.34617801332248</ele>
        <time>2017-08-29T13:24:52.090000Z</time>
      </trkpt>
      <trkpt lat="35.95204469285528" lon="120.21250477071871">
        <time>2017-08-29T13:24:55.088000Z</time>
      </trkpt>
      <trkpt lat="35.95201124906163" lon="120.21237912599017">
        <time>2017-08-29T13:24:59.079000Z</time>
      </trkpt>
      <trkpt lat="35.95199331178884" lon="120.21226303663124">
        <ele>22.256338078019745</ele>
        <time>2017-08-29T13:25:02.086000Z</time>
      </trkpt>
      <trkpt lat="35.95198731872807" lon="120.2121479531007">
        <time>2017-08-29T13:25:05.087000Z</time>
      </trkpt>
      <trkpt lat="35.951989623751444" lon="120.21200621511807">
        <time>2017-08-29T13:25:09.087000Z</time>
      </trkpt>
      <trkpt lat="35.95199251550804" lon="120.2118887008356">
        <ele>22.34617801332248</ele>
        <time>2017-08-29T13:25:12.072000Z</time>
      </trkpt>
      <trkpt lat="35.951964310403866" lon="120.21178300503661">
        <time>2017-08-29T13:25:15.103000Z</time>
      </trkpt>
      <trkpt lat="35.95188455659519" lon="120.21167923707534">
        <time>2017-08-29T13:25:19.092000Z</time>
      </trkpt>
      <trkpt lat="35.95183853994678" lon="120.21155937585999">
        <ele>22.49943156862033</ele>
        <time>2017-08-29T13:25:23.105000Z</time>
      </trkpt>
      <trkpt lat="35.95179013445596" lon="120.21142157737185">
        <time>2017-08-29T13:25:27.093000Z</time>
      </trkpt>
      <trkpt lat="35.95179013445596" lon="120.21130842167904">
        <time>2017-08-29T13:25:30.084000Z</time>
      </trkpt>
      <trkpt lat="35.95179801344494" lon="120.21117640670408">
        <ele>22.26690860414279</ele>
        <time>2017-08-29T13:25:34.078000Z</time>
      </trkpt>
      <trkpt lat="35.951764611560804" lon="120.21106442447771">
        <time>2017-08-29T13:25:38.081000Z</time>
      </trkpt>
      <trkpt lat="35.95174361489336" lon="120.21094355743398">
        <ele>22.377885776994354</ele>
        <time>2017-08-29T13:25:42.074000Z</time>
      </trkpt>
      <trkpt lat="35.9517284017391" lon="120.21075840119292">
        <time>2017-08-29T13:25:49.212000Z</time>
      </trkpt>
      <trkpt lat="35.9517009090967" lon="120.21062269818057">
        <ele>22.256338078019745</ele>
        <time>2017-08-29T13:25:52.083000Z</time>
      </trkpt>
      <trkpt lat="35.951600493896706" lon="120.2105796990173">
        <time>2017-08-29T13:25:57.107000Z</time>
      </trkpt>
      <trkpt lat="35.95150695185731" lon="120.21061188552548">
        <ele>22.20349307679904</ele>
        <time>2017-08-29T13:26:02.253000Z</time>
      </trkpt>
      <trkpt lat="35.95140963796149" lon="120.21065035846104">
        <time>2017-08-29T13:26:07.119000Z</time>
      </trkpt>
      <trkpt lat="35.951298996839625" lon="120.21065622579326">
        <time>2017-08-29T13:26:11.074000Z</time>
      </trkpt>
      <trkpt lat="35.95119656998287" lon="120.21068665210177">
        <ele>22.462440449235565</ele>
        <time>2017-08-29T13:26:15.073000Z</time>
      </trkpt>
      <trkpt lat="35.951103237491054" lon="120.21069075923432">
        <time>2017-08-29T13:26:18.103000Z</time>
      </trkpt>
      <trkpt lat="35.95098568129907" lon="120.21069503400494">
        <ele>21.912837940690643</ele>
        <time>2017-08-29T13:26:22.087000Z</time>
      </trkpt>
      <trkpt lat="35.950899054329795" lon="120.21073434513082">
        <time>2017-08-29T13:26:26.077000Z</time>
      </trkpt>
      <trkpt lat="35.95080945178489" lon="120.2107715607809">
        <time>2017-08-29T13:26:30.081000Z</time>
      </trkpt>
      <trkpt lat="35.95071184452246" lon="120.21082344476153">
        <ele>21.74372859620822</ele>
        <time>2017-08-29T13:26:34.076000Z</time>
      </trkpt>
      <trkpt lat="35.950616584192915" lon="120.21082193601896">
        <time>2017-08-29T13:26:38.077000Z</time>
      </trkpt>
      <trkpt lat="35.95049144237856" lon="120.2108302341031">
        <time>2017-08-29T13:26:41.083000Z</time>
      </trkpt>
      <trkpt lat="35.95039425421129" lon="120.21085169177522">
        <ele>21.29981990480197</ele>
        <time>2017-08-29T13:26:44.095000Z</time>
      </trkpt>
      <trkpt lat="35.950302849557204" lon="120.21089569676687">
        <time>2017-08-29T13:26:50.091000Z</time>
      </trkpt>
      <trkpt lat="35.95020888842265" lon="120.21093676809241">
        <ele>21.394943195817596</ele>
        <time>2017-08-29T13:26:55.083000Z</time>
      </trkpt>
      <trkpt lat="35.950149544548196" lon="120.21102117385735">
        <ele>21.56933589601291</ele>
        <time>2017-08-29T13:27:03.081000Z</time>
      </trkpt>
      <trkpt lat="35.94966075386475" lon="120.21108428958823">
        <ele>21.500635105607635</ele>
        <time>2017-08-29T13:27:22.071000Z</time>
      </trkpt>
      <trkpt lat="35.94952760733287" lon="120.21103542309274">
        <time>2017-08-29T13:27:25.080000Z</time>
      </trkpt>
      <trkpt lat="35.949440728906495" lon="120.21100390713681">
        <time>2017-08-29T13:27:28.085000Z</time>
      </trkpt>
      <trkpt lat="35.9493585443459" lon="120.21106232900192">
        <ele>21.55348201417697</ele>
        <time>2017-08-29T13:27:32.085000Z</time>
      </trkpt>
      <trkpt lat="35.949268019791646" lon="120.21109761681427">
        <time>2017-08-29T13:27:36.083000Z</time>
      </trkpt>
      <trkpt lat="35.94914866149048" lon="120.21110122103264">
        <time>2017-08-29T13:27:39.090000Z</time>
      </trkpt>
      <trkpt lat="35.94914866149048" lon="120.21110122103264">
        <ele>21.65917392396701</ele>
        <time>2017-08-29T13:27:42.084000Z</time>
      </trkpt>
      <trkpt lat="35.94867852054159" lon="120.21109258767237">
        <time>2017-08-29T13:27:51.073000Z</time>
      </trkpt>
      <trkpt lat="35.948579446446104" lon="120.21112527709474">
        <ele>21.727874714372284</ele>
        <time>2017-08-29T13:27:54.082000Z</time>
      </trkpt>
      <trkpt lat="35.948481378179" lon="120.21116492349674">
        <time>2017-08-29T13:27:57.064000Z</time>
      </trkpt>
      <trkpt lat="35.948368599671824" lon="120.21121169451644">
        <time>2017-08-29T13:28:01.091000Z</time>
      </trkpt>
      <trkpt lat="35.948265292715234" lon="120.21120230678488">
        <ele>21.812429386613495</ele>
        <time>2017-08-29T13:28:05.096000Z</time>
      </trkpt>
      <trkpt lat="35.94819027468185" lon="120.2112861258166">
        <ele>21.82299800538791</ele>
        <time>2017-08-29T13:28:12.113000Z</time>
      </trkpt>
      <trkpt lat="35.94809761274229" lon="120.21137405198087">
        <time>2017-08-29T13:28:16.087000Z</time>
      </trkpt>
      <trkpt lat="35.947995563071174" lon="120.2113860381024">
        <time>2017-08-29T13:28:19.131000Z</time>
      </trkpt>
      <trkpt lat="35.94789858445148" lon="120.2114206553625">
        <ele>21.796575504777557</ele>
        <time>2017-08-29T13:28:23.088000Z</time>
      </trkpt>
      <trkpt lat="35.94780177346985" lon="120.21144697453846">
        <time>2017-08-29T13:28:27.107000Z</time>
      </trkpt>
      <trkpt lat="35.94770085535566" lon="120.2114917339014">
        <time>2017-08-29T13:28:31.104000Z</time>
      </trkpt>
      <trkpt lat="35.94759746458004" lon="120.21150078635682">
        <ele>21.791290241716034</ele>
        <time>2017-08-29T13:28:34.088000Z</time>
      </trkpt>
      <trkpt lat="35.947486949186725" lon="120.21154227677752">
        <time>2017-08-29T13:28:38.067000Z</time>
      </trkpt>
      <trkpt lat="35.94738716262947" lon="120.211572619267">
        <ele>21.75958247804416</ele>
        <time>2017-08-29T13:28:42.076000Z</time>
      </trkpt>
      <trkpt lat="35.947286454062855" lon="120.21159298729171">
        <time>2017-08-29T13:28:46.085000Z</time>
      </trkpt>
      <trkpt lat="35.947182937558686" lon="120.21159768115749">
        <time>2017-08-29T13:28:50.091000Z</time>
      </trkpt>
      <trkpt lat="35.94707799613098" lon="120.21162324596216">
        <ele>21.65389056825412</ele>
        <time>2017-08-29T13:28:54.080000Z</time>
      </trkpt>
      <trkpt lat="35.94698206524918" lon="120.21167127426733">
        <time>2017-08-29T13:28:58.094000Z</time>
      </trkpt>
      <trkpt lat="35.946899461593425" lon="120.2117248346286">
        <ele>21.68031306886447</ele>
        <time>2017-08-29T13:29:02.134000Z</time>
      </trkpt>
      <trkpt lat="35.94680604528258" lon="120.21176992926766">
        <time>2017-08-29T13:29:06.125000Z</time>
      </trkpt>
      <trkpt lat="35.94669754154602" lon="120.21183019515146">
        <time>2017-08-29T13:29:10.121000Z</time>
      </trkpt>
      <trkpt lat="35.94660638834903" lon="120.2118419298159">
        <ele>21.84413715028537</ele>
        <time>2017-08-29T13:29:13.085000Z</time>
      </trkpt>
      <trkpt lat="35.946511756662225" lon="120.21183044660856">
        <time>2017-08-29T13:29:16.058000Z</time>
      </trkpt>
      <trkpt lat="35.94641670588026" lon="120.21187084738185">
        <time>2017-08-29T13:29:20.058000Z</time>
      </trkpt>
      <trkpt lat="35.94634696844587" lon="120.21195877354612">
        <ele>21.643320042131073</ele>
        <time>2017-08-29T13:29:24.051000Z</time>
      </trkpt>
      <trkpt lat="35.946240811642205" lon="120.21197419624795">
        <time>2017-08-29T13:29:28.054000Z</time>
      </trkpt>
      <trkpt lat="35.94614387493203" lon="120.21196732308735">
        <ele>22.26162334108127</ele>
        <time>2017-08-29T13:29:32.094000Z</time>
      </trkpt>
      <trkpt lat="35.9460510453544" lon="120.21199791703393">
        <time>2017-08-29T13:29:36.091000Z</time>
      </trkpt>
      <trkpt lat="35.94596047889063" lon="120.21205130975713">
        <time>2017-08-29T13:29:40.074000Z</time>
      </trkpt>
      <trkpt lat="35.94584334179381" lon="120.21206513989736">
        <ele>22.30918498658908</ele>
        <time>2017-08-29T13:29:45.110000Z</time>
      </trkpt>
      <trkpt lat="35.94572486359248" lon="120.21205298613776">
        <time>2017-08-29T13:29:49.079000Z</time>
      </trkpt>
      <trkpt lat="35.94563211783389" lon="120.21211090508868">
        <ele>22.39373965883029</ele>
        <time>2017-08-29T13:29:52.076000Z</time>
      </trkpt>
      <trkpt lat="35.945552825029885" lon="120.21219656813909">
        <time>2017-08-29T13:29:56.078000Z</time>
      </trkpt>
      <trkpt lat="35.94547315504024" lon="120.21225800748934">
        <ele>22.22463031434787</ele>
        <time>2017-08-29T13:30:05.086000Z</time>
      </trkpt>
      <trkpt lat="35.9453794872723" lon="120.21226965833475">
        <time>2017-08-29T13:30:11.070000Z</time>
      </trkpt>
      <trkpt lat="35.94528246674309" lon="120.21230377268066">
        <ele>22.029098469255096</ele>
        <time>2017-08-29T13:30:18.077000Z</time>
      </trkpt>
      <trkpt lat="35.945185152847266" lon="120.2123409045117">
        <ele>22.208776432511932</ele>
        <time>2017-08-29T13:30:24.095000Z</time>
      </trkpt>
      <trkpt lat="35.94508687503258" lon="120.21237342629601">
        <time>2017-08-29T13:30:28.085000Z</time>
      </trkpt>
      <trkpt lat="35.94498457390437" lon="120.21239547070135">
        <ele>22.277477222917206</ele>
        <time>2017-08-29T13:30:32.092000Z</time>
      </trkpt>
      <trkpt lat="35.944875986348784" lon="120.21242120314409">
        <time>2017-08-29T13:30:36.095000Z</time>
      </trkpt>
      <trkpt lat="35.9447793010957" lon="120.21245556894709">
        <time>2017-08-29T13:30:40.094000Z</time>
      </trkpt>
      <trkpt lat="35.944704073514735" lon="120.21255162555744">
        <ele>22.57870097780002</ele>
        <time>2017-08-29T13:30:44.228000Z</time>
      </trkpt>
      <trkpt lat="35.944611202027595" lon="120.21261532802154">
        <time>2017-08-29T13:30:48.087000Z</time>
      </trkpt>
      <trkpt lat="35.94452000692109" lon="120.21269151952137">
        <ele>22.81122584962619</ele>
        <time>2017-08-29T13:30:52.081000Z</time>
      </trkpt>
      <trkpt lat="35.944435852613246" lon="120.21277056086828">
        <time>2017-08-29T13:30:56.094000Z</time>
      </trkpt>
      <trkpt lat="35.944341556202566" lon="120.21280987199415">
        <time>2017-08-29T13:31:00.087000Z</time>
      </trkpt>
      <trkpt lat="35.9442301187999" lon="120.2128575650232">
        <ele>22.922203022477753</ele>
        <time>2017-08-29T13:31:04.091000Z</time>
      </trkpt>
      <trkpt lat="35.94414990398655" lon="120.21290902990867">
        <time>2017-08-29T13:31:07.092000Z</time>
      </trkpt>
      <trkpt lat="35.94404659702996" lon="120.21293627109398">
        <time>2017-08-29T13:31:11.081000Z</time>
      </trkpt>
      <trkpt lat="35.94394919931511" lon="120.21296627830733">
        <ele>23.344974476335175</ele>
        <time>2017-08-29T13:31:16.088000Z</time>
      </trkpt>
      <trkpt lat="35.94385565727571" lon="120.21303802739848">
        <time>2017-08-29T13:31:20.087000Z</time>
      </trkpt>
      <trkpt lat="35.9437464829869" lon="120.21303844649364">
        <ele>23.96327777528537</ele>
        <time>2017-08-29T13:31:25.099000Z</time>
      </trkpt>
      <trkpt lat="35.94369723930577" lon="120.21294540736844">
        <time>2017-08-29T13:31:28.084000Z</time>
      </trkpt>
      <trkpt lat="35.9436489595435" lon="120.21284230995943">
        <time>2017-08-29T13:31:31.096000Z</time>
      </trkpt>
      <trkpt lat="35.94358647245536" lon="120.2127177548783">
        <ele>23.83644672059787</ele>
        <time>2017-08-29T13:31:35.089000Z</time>
      </trkpt>
      <trkpt lat="35.943493936244344" lon="120.21263653423657">
        <time>2017-08-29T13:31:39.090000Z</time>
      </trkpt>
      <trkpt lat="35.943424827452695" lon="120.21255564887096">
        <ele>23.873437839982635</ele>
        <time>2017-08-29T13:31:43.079000Z</time>
      </trkpt>
      <trkpt lat="35.94335052188108" lon="120.21244249317814">
        <time>2017-08-29T13:31:47.091000Z</time>
      </trkpt>
      <trkpt lat="35.94326863068709" lon="120.2123826463895">
        <time>2017-08-29T13:31:50.088000Z</time>
      </trkpt>
      <trkpt lat="35.943196881595945" lon="120.21229078073074">
        <ele>23.709613758561737</ele>
        <time>2017-08-29T13:31:54.085000Z</time>
      </trkpt>
      <trkpt lat="35.94310660849879" lon="120.2122050338613">
        <time>2017-08-29T13:31:58.065000Z</time>
      </trkpt>
      <trkpt lat="35.94306918330113" lon="120.21210168499519">
        <time>2017-08-29T13:32:01.103000Z</time>
      </trkpt>
      <trkpt lat="35.94301461711148" lon="120.21200705330838">
        <ele>23.593353229997284</ele>
        <time>2017-08-29T13:32:04.080000Z</time>
      </trkpt>
      <trkpt lat="35.94293410893152" lon="120.21192549739052">
        <time>2017-08-29T13:32:08.093000Z</time>
      </trkpt>
      <trkpt lat="35.94286256938795" lon="120.21181980159153">
        <ele>23.58806796693576</ele>
        <time>2017-08-29T13:32:13.083000Z</time>
      </trkpt>
      <trkpt lat="35.94281977977226" lon="120.21169843163361">
        <time>2017-08-29T13:32:17.059000Z</time>
      </trkpt>
      <trkpt lat="35.94281634319196" lon="120.21158376719822">
        <time>2017-08-29T13:32:20.064000Z</time>
      </trkpt>
      <trkpt lat="35.9427760262377" lon="120.2114740480857">
        <ele>23.551074940202362</ele>
        <time>2017-08-29T13:32:24.086000Z</time>
      </trkpt>
      <trkpt lat="35.942725399542546" lon="120.21137312997152">
        <time>2017-08-29T13:32:28.088000Z</time>
      </trkpt>
      <trkpt lat="35.942692123386955" lon="120.21126290794481">
        <ele>23.424243885514862</ele>
        <time>2017-08-29T13:32:32.179000Z</time>
      </trkpt>
      <trkpt lat="35.94265951778362" lon="120.21115670923163">
        <time>2017-08-29T13:32:36.061000Z</time>
      </trkpt>
      <trkpt lat="35.94267213254789" lon="120.21102326933314">
        <time>2017-08-29T13:32:40.063000Z</time>
      </trkpt>
      <trkpt lat="35.94263148031751" lon="120.21089066762497">
        <ele>23.344974476335175</ele>
        <time>2017-08-29T13:32:44.088000Z</time>
      </trkpt>
      <trkpt lat="35.94257544729481" lon="120.21079553302397">
        <time>2017-08-29T13:32:47.141000Z</time>
      </trkpt>
      <trkpt lat="35.94248739540199" lon="120.21072403538992">
        <time>2017-08-29T13:32:50.101000Z</time>
      </trkpt>
      <trkpt lat="35.94240726440767" lon="120.21065681252648">
        <ele>23.043750721452362</ele>
        <time>2017-08-29T13:32:53.083000Z</time>
      </trkpt>
      <trkpt lat="35.94234406485776" lon="120.21054726105203">
        <time>2017-08-29T13:32:57.139000Z</time>
      </trkpt>
      <trkpt lat="35.94227910510818" lon="120.21045003097524">
        <time>2017-08-29T13:33:01.081000Z</time>
      </trkpt>
      <trkpt lat="35.94221946786711" lon="120.21034760411848">
        <ele>23.10188098573459</ele>
        <time>2017-08-29T13:33:05.087000Z</time>
      </trkpt>
      <trkpt lat="35.942156896959936" lon="120.21026261162032">
        <time>2017-08-29T13:33:09.148000Z</time>
      </trkpt>
      <trkpt lat="35.94208606987814" lon="120.21016680646707">
        <ele>23.049034077165253</ele>
        <time>2017-08-29T13:33:13.083000Z</time>
      </trkpt>
      <trkpt lat="35.94201666771988" lon="120.21006622362901">
        <time>2017-08-29T13:33:17.087000Z</time>
      </trkpt>
      <trkpt lat="35.94198867216328" lon="120.2099358850347">
        <time>2017-08-29T13:33:21.071000Z</time>
      </trkpt>
      <trkpt lat="35.94193699773023" lon="120.20982935104539">
        <ele>22.842933613298065</ele>
        <time>2017-08-29T13:33:26.083000Z</time>
      </trkpt>
      <trkpt lat="35.94186206351588" lon="120.20973857503404">
        <time>2017-08-29T13:33:30.085000Z</time>
      </trkpt>
      <trkpt lat="35.94178402799735" lon="120.20962994556893">
        <ele>22.758378941056854</ele>
        <time>2017-08-29T13:33:34.074000Z</time>
      </trkpt>
      <trkpt lat="35.94172200191388" lon="120.20952475268413">
        <time>2017-08-29T13:33:38.095000Z</time>
      </trkpt>
      <trkpt lat="35.94170238826046" lon="120.20939625810851">
        <ele>22.49943156862033</ele>
        <time>2017-08-29T13:33:42.074000Z</time>
      </trkpt>
      <trkpt lat="35.94172304965178" lon="120.20928058784475">
        <time>2017-08-29T13:33:49.079000Z</time>
      </trkpt>
      <trkpt lat="35.94172304965178" lon="120.20928058784475">
        <ele>22.039668995378143</ele>
        <time>2017-08-29T13:34:32.816000Z</time>
      </trkpt>
      <trkpt lat="35.941961347158944" lon="120.20926474604775">
        <time>2017-08-29T13:34:32.825000Z</time>
      </trkpt>
      <trkpt lat="35.942057571407354" lon="120.20924882043172">
        <time>2017-08-29T13:34:36.080000Z</time>
      </trkpt>
      <trkpt lat="35.94216083645443" lon="120.20922652456929">
        <time>2017-08-29T13:34:40.064000Z</time>
      </trkpt>
      <trkpt lat="35.942272567223704" lon="120.20918863836695">
        <ele>22.83236499452365</ele>
        <time>2017-08-29T13:34:44.062000Z</time>
      </trkpt>
      <trkpt lat="35.94238002322236" lon="120.20913717348148">
        <time>2017-08-29T13:34:48.076000Z</time>
      </trkpt>
      <trkpt lat="35.942464387077784" lon="120.20908361312021">
        <ele>22.356746632096893</ele>
        <time>2017-08-29T13:34:52.067000Z</time>
      </trkpt>
      <trkpt lat="35.94255809675524" lon="120.20902493979801">
        <time>2017-08-29T13:34:56.072000Z</time>
      </trkpt>
      <trkpt lat="35.942654069546556" lon="120.20897431310286">
        <time>2017-08-29T13:35:00.061000Z</time>
      </trkpt>
      <trkpt lat="35.942757669869756" lon="120.20894438970853">
        <ele>22.32503886842502</ele>
        <time>2017-08-29T13:35:04.075000Z</time>
      </trkpt>
      <trkpt lat="35.94286541923503" lon="120.20893491815795">
        <time>2017-08-29T13:35:08.064000Z</time>
      </trkpt>
      <trkpt lat="35.942960428107476" lon="120.20891664560904">
        <ele>22.303899723527557</ele>
        <time>2017-08-29T13:35:12.070000Z</time>
      </trkpt>
      <trkpt lat="35.943060005117154" lon="120.2089083475249">
        <time>2017-08-29T13:35:16.073000Z</time>
      </trkpt>
      <trkpt lat="35.9431734960861" lon="120.20890071999301">
        <time>2017-08-29T13:35:20.066000Z</time>
      </trkpt>
      <trkpt lat="35.94329092654953" lon="120.20887867558767">
        <ele>21.976253468034393</ele>
        <time>2017-08-29T13:35:24.062000Z</time>
      </trkpt>
      <trkpt lat="35.94338777944068" lon="120.2088560444491">
        <time>2017-08-29T13:35:27.073000Z</time>
      </trkpt>
      <trkpt lat="35.943486643988585" lon="120.20880994398166">
        <ele>22.081945377824432</ele>
        <time>2017-08-29T13:35:31.077000Z</time>
      </trkpt>
      <trkpt lat="35.94358546662698" lon="120.20876711245646">
        <time>2017-08-29T13:35:35.072000Z</time>
      </trkpt>
      <trkpt lat="35.94368420544634" lon="120.208728890978">
        <time>2017-08-29T13:35:39.092000Z</time>
      </trkpt>
      <trkpt lat="35.943788057226634" lon="120.20873140554895">
        <ele>22.023815113542206</ele>
        <time>2017-08-29T13:35:43.078000Z</time>
      </trkpt>
      <trkpt lat="35.94388767614583" lon="120.20875923346748">
        <time>2017-08-29T13:35:47.068000Z</time>
      </trkpt>
      <trkpt lat="35.94398163728038" lon="120.2087944374608">
        <time>2017-08-29T13:35:51.044000Z</time>
      </trkpt>
      <trkpt lat="35.94406973108271" lon="120.20883601170053">
        <ele>21.84413715028537</ele>
        <time>2017-08-29T13:35:55.065000Z</time>
      </trkpt>
      <trkpt lat="35.94415715433279" lon="120.20888026814927">
        <time>2017-08-29T13:35:59.056000Z</time>
      </trkpt>
      <trkpt lat="35.94425371385733" lon="120.208911281191">
        <ele>21.93397517823947</ele>
        <time>2017-08-29T13:36:03.081000Z</time>
      </trkpt>
      <trkpt lat="35.94435488342861" lon="120.20892150711288">
        <time>2017-08-29T13:36:07.032000Z</time>
      </trkpt>
      <trkpt lat="35.944463093798554" lon="120.20892276439835">
        <time>2017-08-29T13:36:11.058000Z</time>
      </trkpt>
      <trkpt lat="35.944557767394876" lon="120.20890298310687">
        <ele>21.410797077653534</ele>
        <time>2017-08-29T13:36:15.068000Z</time>
      </trkpt>
      <trkpt lat="35.94466568439821" lon="120.2088771668451">
        <time>2017-08-29T13:36:19.069000Z</time>
      </trkpt>
      <trkpt lat="35.944769955273664" lon="120.2088547033446">
        <ele>21.2839641156174</ele>
        <time>2017-08-29T13:36:23.092000Z</time>
      </trkpt>
      <trkpt lat="35.94487493861089" lon="120.20883316185345">
        <time>2017-08-29T13:36:27.052000Z</time>
      </trkpt>
      <trkpt lat="35.944966217536425" lon="120.2088285518067">
        <ele>21.484781223771698</ele>
        <time>2017-08-29T13:36:34.068000Z</time>
      </trkpt>
      <trkpt lat="35.945062944699025" lon="120.20881748769452">
        <ele>21.611612278459198</ele>
        <time>2017-08-29T13:36:42.056000Z</time>
      </trkpt>
      <trkpt lat="35.94515812120954" lon="120.20879779022206">
        <time>2017-08-29T13:36:50.060000Z</time>
      </trkpt>
      <trkpt lat="35.94525480646262" lon="120.20878932449986">
        <ele>21.817712742326385</ele>
        <time>2017-08-29T13:36:58.124000Z</time>
      </trkpt>
      <trkpt lat="35.94535505402455" lon="120.20878152932991">
        <ele>21.564050632951385</ele>
        <time>2017-08-29T13:37:06.058000Z</time>
      </trkpt>
      <trkpt lat="35.94544863797346" lon="120.20876375969519">
        <ele>21.68031306886447</ele>
        <time>2017-08-29T13:37:14.111000Z</time>
      </trkpt>
      <trkpt lat="35.94554855025927" lon="120.20874749880304">
        <ele>21.601043659684784</ele>
        <time>2017-08-29T13:37:22.027000Z</time>
      </trkpt>
      <trkpt lat="35.94564020637045" lon="120.2087389492618">
        <time>2017-08-29T13:37:27.061000Z</time>
      </trkpt>
      <trkpt lat="35.945742633227205" lon="120.20872193399836">
        <ele>22.187639194963104</ele>
        <time>2017-08-29T13:37:31.066000Z</time>
      </trkpt>
      <trkpt lat="35.945836007628536" lon="120.20871112134327">
        <time>2017-08-29T13:37:34.057000Z</time>
      </trkpt>
      <trkpt lat="35.94594099096576" lon="120.20869787793626">
        <time>2017-08-29T13:37:37.081000Z</time>
      </trkpt>
      <trkpt lat="35.946041699532365" lon="120.2086837125199">
        <time>2017-08-29T13:37:40.070000Z</time>
      </trkpt>
      <trkpt lat="35.94613230790565" lon="120.20867759373058">
        <ele>21.75958247804416</ele>
        <time>2017-08-29T13:37:43.069000Z</time>
      </trkpt>
      <trkpt lat="35.94623439948628" lon="120.2086649370568">
        <time>2017-08-29T13:37:46.110000Z</time>
      </trkpt>
      <trkpt lat="35.94632693569729" lon="120.20865395676364">
        <time>2017-08-29T13:37:49.083000Z</time>
      </trkpt>
      <trkpt lat="35.946438917923665" lon="120.20863710913827">
        <ele>21.918121296403534</ele>
        <time>2017-08-29T13:37:53.101000Z</time>
      </trkpt>
      <trkpt lat="35.94654955904553" lon="120.20862252462675">
        <time>2017-08-29T13:37:57.087000Z</time>
      </trkpt>
      <trkpt lat="35.94666405584285" lon="120.2086060122775">
        <ele>21.891698795793182</ele>
        <time>2017-08-29T13:38:01.089000Z</time>
      </trkpt>
      <trkpt lat="35.946783623691594" lon="120.20859964203109">
        <time>2017-08-29T13:38:05.205000Z</time>
      </trkpt>
      <trkpt lat="35.94690084460745" lon="120.20858321350087">
        <time>2017-08-29T13:38:09.069000Z</time>
      </trkpt>
      <trkpt lat="35.94701001889626" lon="120.20854256127049">
        <ele>21.727874714372284</ele>
        <time>2017-08-29T13:38:13.090000Z</time>
      </trkpt>
      <trkpt lat="35.94706391453365" lon="120.20842697482576">
        <time>2017-08-29T13:38:17.089000Z</time>
      </trkpt>
      <trkpt lat="35.947052934240496" lon="120.20831289712359">
        <time>2017-08-29T13:38:20.110000Z</time>
      </trkpt>
      <trkpt lat="35.94703135083983" lon="120.20817333843578">
        <ele>21.59575839662326</ele>
        <time>2017-08-29T13:38:24.074000Z</time>
      </trkpt>
      <trkpt lat="35.94702728561679" lon="120.20806169148554">
        <time>2017-08-29T13:38:27.080000Z</time>
      </trkpt>
      <trkpt lat="35.947021585922634" lon="120.20795037981142">
        <time>2017-08-29T13:38:30.074000Z</time>
      </trkpt>
      <trkpt lat="35.94700423538307" lon="120.20784024160375">
        <ele>21.664459187028534</ele>
        <time>2017-08-29T13:38:33.095000Z</time>
      </trkpt>
      <trkpt lat="35.946986968662536" lon="120.20772281114031">
        <time>2017-08-29T13:38:36.076000Z</time>
      </trkpt>
      <trkpt lat="35.946984244544005" lon="120.20760638650526">
        <time>2017-08-29T13:38:39.069000Z</time>
      </trkpt>
      <trkpt lat="35.946978083845174" lon="120.20749339845051">
        <ele>21.59575839662326</ele>
        <time>2017-08-29T13:38:42.102000Z</time>
      </trkpt>
      <trkpt lat="35.946960062753355" lon="120.20736129965653">
        <time>2017-08-29T13:38:46.084000Z</time>
      </trkpt>
      <trkpt lat="35.94695587180177" lon="120.20724370155503">
        <time>2017-08-29T13:38:49.212000Z</time>
      </trkpt>
      <trkpt lat="35.94698558564851" lon="120.20713021058609">
        <ele>21.331527668473846</ele>
        <time>2017-08-29T13:38:52.119000Z</time>
      </trkpt>
      <trkpt lat="35.947038768824136" lon="120.20702728081514">
        <time>2017-08-29T13:38:55.038000Z</time>
      </trkpt>
      <trkpt lat="35.947101297821796" lon="120.20691085618009">
        <time>2017-08-29T13:38:59.066000Z</time>
      </trkpt>
      <trkpt lat="35.94715720511595" lon="120.20678160723318">
        <ele>21.664459187028534</ele>
        <time>2017-08-29T13:39:03.071000Z</time>
      </trkpt>
      <trkpt lat="35.947195300865864" lon="120.20667993474771">
        <time>2017-08-29T13:39:06.053000Z</time>
      </trkpt>
      <trkpt lat="35.94723754565785" lon="120.20656879071166">
        <time>2017-08-29T13:39:09.097000Z</time>
      </trkpt>
      <trkpt lat="35.94728205356369" lon="120.20646544184555">
        <ele>21.849422413346893</ele>
        <time>2017-08-29T13:39:13.085000Z</time>
      </trkpt>
      <trkpt lat="35.947323292527294" lon="120.2063455806302">
        <time>2017-08-29T13:39:20.061000Z</time>
      </trkpt>
      <trkpt lat="35.94736000526319" lon="120.20622848544289">
        <ele>21.46892734193576</ele>
        <time>2017-08-29T13:39:24.062000Z</time>
      </trkpt>
      <trkpt lat="35.947418552856846" lon="120.2060968895631">
        <time>2017-08-29T13:39:28.078000Z</time>
      </trkpt>
      <trkpt lat="35.94747466969858" lon="120.20598515879381">
        <time>2017-08-29T13:39:31.064000Z</time>
      </trkpt>
      <trkpt lat="35.94753225337337" lon="120.20586881797779">
        <ele>21.368518787858612</ele>
        <time>2017-08-29T13:39:35.067000Z</time>
      </trkpt>
      <trkpt lat="35.94758028167854" lon="120.20574769947696">
        <time>2017-08-29T13:39:39.062000Z</time>
      </trkpt>
      <trkpt lat="35.9476221911944" lon="120.20564518880117">
        <ele>21.431934315202362</ele>
        <time>2017-08-29T13:39:42.065000Z</time>
      </trkpt>
      <trkpt lat="35.9476850973777" lon="120.20552524376679">
        <time>2017-08-29T13:39:46.070000Z</time>
      </trkpt>
      <trkpt lat="35.94775399662177" lon="120.20542692404258">
        <ele>21.2839641156174</ele>
        <time>2017-08-29T13:39:51.086000Z</time>
      </trkpt>
      <trkpt lat="35.947779645245475" lon="120.2053072304653">
        <time>2017-08-29T13:39:54.096000Z</time>
      </trkpt>
      <trkpt lat="35.94780986200641" lon="120.20518443558383">
        <time>2017-08-29T13:39:57.099000Z</time>
      </trkpt>
      <trkpt lat="35.94785252589355" lon="120.20507253717649">
        <time>2017-08-29T13:40:00.092000Z</time>
      </trkpt>
      <trkpt lat="35.94788873571525" lon="120.20496332097817">
        <ele>21.273395496842987</ele>
        <time>2017-08-29T13:40:03.061000Z</time>
      </trkpt>
      <trkpt lat="35.94790797218303" lon="120.20482384610939">
        <time>2017-08-29T13:40:07.103000Z</time>
      </trkpt>
      <trkpt lat="35.94790344595532" lon="120.2046919987725">
        <time>2017-08-29T13:40:11.062000Z</time>
      </trkpt>
      <trkpt lat="35.94789875208954" lon="120.20457104790974">
        <ele>21.37908931398166</ele>
        <time>2017-08-29T13:40:15.062000Z</time>
      </trkpt>
      <trkpt lat="35.947893261942966" lon="120.20442939374614">
        <time>2017-08-29T13:40:19.082000Z</time>
      </trkpt>
      <trkpt lat="35.947881443459494" lon="120.20428664993513">
        <ele>21.51120372438205</ele>
        <time>2017-08-29T13:40:23.097000Z</time>
      </trkpt>
      <trkpt lat="35.947873648289544" lon="120.20417248841393">
        <time>2017-08-29T13:40:27.066000Z</time>
      </trkpt>
      <trkpt lat="35.94798437323044" lon="120.20416745927203">
        <time>2017-08-29T13:40:31.062000Z</time>
      </trkpt>
      <trkpt lat="35.9480640851296" lon="120.20424272876251">
        <ele>21.69616695070041</ele>
        <time>2017-08-29T13:40:35.056000Z</time>
      </trkpt>
      <trkpt lat="35.94814308456699" lon="120.20431363966334">
        <time>2017-08-29T13:40:40.061000Z</time>
      </trkpt>
      <trkpt lat="35.94822677787016" lon="120.20439821306634">
        <ele>21.701452213761932</ele>
        <time>2017-08-29T13:40:45.068000Z</time>
      </trkpt>
      <trkpt lat="35.94830569348852" lon="120.20447339873779">
        <time>2017-08-29T13:40:49.096000Z</time>
      </trkpt>
      <trkpt lat="35.948416334610386" lon="120.20451061438787">
        <ele>21.82299800538791</ele>
        <time>2017-08-29T13:40:53.102000Z</time>
      </trkpt>
      <trkpt lat="35.9485072782598" lon="120.20443861383963">
        <time>2017-08-29T13:40:57.052000Z</time>
      </trkpt>
      <trkpt lat="35.94861012421171" lon="120.2044126299398">
        <ele>22.124223667619354</ele>
        <time>2017-08-29T13:41:01.065000Z</time>
      </trkpt>
      <trkpt lat="35.948720471966965" lon="120.20442662771809">
        <time>2017-08-29T13:41:05.052000Z</time>
      </trkpt>
      <trkpt lat="35.94883425630252" lon="120.20446040678787">
        <time>2017-08-29T13:41:09.058000Z</time>
      </trkpt>
      <trkpt lat="35.94894246667246" lon="120.20447432074714">
        <ele>22.890495258805878</ele>
        <time>2017-08-29T13:41:13.062000Z</time>
      </trkpt>
      <trkpt lat="35.94903730790685" lon="120.20446199934948">
        <time>2017-08-29T13:41:16.087000Z</time>
      </trkpt>
      <trkpt lat="35.94914736229549" lon="120.20447784114647">
        <time>2017-08-29T13:41:20.102000Z</time>
      </trkpt>
      <trkpt lat="35.94924731649081" lon="120.2045127936827">
        <ele>22.922203022477753</ele>
        <time>2017-08-29T13:41:24.090000Z</time>
      </trkpt>
      <trkpt lat="35.949355023946566" lon="120.20455126661825">
        <time>2017-08-29T13:41:28.095000Z</time>
      </trkpt>
      <trkpt lat="35.949451038647396" lon="120.20457582559455">
        <ele>23.1494426312424</ele>
        <time>2017-08-29T13:41:31.108000Z</time>
      </trkpt>
      <trkpt lat="35.94955350741367" lon="120.20458278257418">
        <time>2017-08-29T13:41:34.078000Z</time>
      </trkpt>
      <trkpt lat="35.949659161303146" lon="120.20458554860222">
        <time>2017-08-29T13:41:37.085000Z</time>
      </trkpt>
      <trkpt lat="35.94976393509279" lon="120.20459627743828">
        <time>2017-08-29T13:41:40.085000Z</time>
      </trkpt>
      <trkpt lat="35.949860201250715" lon="120.20460323441792">
        <ele>23.12302013063205</ele>
        <time>2017-08-29T13:41:43.081000Z</time>
      </trkpt>
      <trkpt lat="35.94995361756156" lon="120.20461027521658">
        <time>2017-08-29T13:41:46.092000Z</time>
      </trkpt>
      <trkpt lat="35.95005428421865" lon="120.20461178395915">
        <time>2017-08-29T13:41:49.103000Z</time>
      </trkpt>
      <trkpt lat="35.95014740716289" lon="120.2045952716099">
        <ele>22.673826176164276</ele>
        <time>2017-08-29T13:41:52.077000Z</time>
      </trkpt>
      <trkpt lat="35.95023864417891" lon="120.2045780887084">
        <time>2017-08-29T13:41:58.052000Z</time>
      </trkpt>
      <trkpt lat="35.95033088702331" lon="120.2045508475231">
        <ele>22.546993214128143</ele>
        <time>2017-08-29T13:42:06.078000Z</time>
      </trkpt>
      <trkpt lat="35.95042472242932" lon="120.20453969959188">
        <ele>23.41895862245334</ele>
        <time>2017-08-29T13:42:14.048000Z</time>
      </trkpt>
      <trkpt lat="35.950486874241335" lon="120.20462175842393">
        <ele>23.783599812028534</ele>
        <time>2017-08-29T13:42:24.112000Z</time>
      </trkpt>
      <trkpt lat="35.950486874241335" lon="120.20462175842393">
        <time>2017-08-29T13:43:10.042000Z</time>
      </trkpt>
      <trkpt lat="35.9505948750637" lon="120.20462754193711">
        <time>2017-08-29T13:43:10.050000Z</time>
      </trkpt>
      <trkpt lat="35.95070736020426" lon="120.20460759300757">
        <time>2017-08-29T13:43:13.093000Z</time>
      </trkpt>
      <trkpt lat="35.950803542543156" lon="120.20460021693277">
        <ele>23.794168430802948</ele>
        <time>2017-08-29T13:43:16.108000Z</time>
      </trkpt>
      <trkpt lat="35.9512037784196" lon="120.20454263325799">
        <ele>23.492944675920135</ele>
        <time>2017-08-29T13:44:57.053000Z</time>
      </trkpt>
      <trkpt lat="35.95130151141058" lon="120.20453173678386">
        <time>2017-08-29T13:45:00.053000Z</time>
      </trkpt>
      <trkpt lat="35.95139325134079" lon="120.20451664935815">
        <time>2017-08-29T13:45:03.058000Z</time>
      </trkpt>
      <trkpt lat="35.95151210672776" lon="120.20449359912443">
        <ele>23.080741840837128</ele>
        <time>2017-08-29T13:45:07.069000Z</time>
      </trkpt>
      <trkpt lat="35.95160183500121" lon="120.20446862105298">
        <time>2017-08-29T13:45:10.056000Z</time>
      </trkpt>
      <trkpt lat="35.95172421078752" lon="120.20445143815148">
        <time>2017-08-29T13:45:14.078000Z</time>
      </trkpt>
      <trkpt lat="35.95181511252741" lon="120.2044366860019">
        <ele>22.404308277604706</ele>
        <time>2017-08-29T13:45:17.079000Z</time>
      </trkpt>
      <trkpt lat="35.951910205218894" lon="120.20442738208938">
        <time>2017-08-29T13:45:20.065000Z</time>
      </trkpt>
      <trkpt lat="35.952005717005534" lon="120.20441665325332">
        <time>2017-08-29T13:45:23.057000Z</time>
      </trkpt>
      <trkpt lat="35.95209925904493" lon="120.20440240401793">
        <ele>22.298616367814667</ele>
        <time>2017-08-29T13:45:26.045000Z</time>
      </trkpt>
      <trkpt lat="35.95218861013274" lon="120.20438429910708">
        <time>2017-08-29T13:45:29.078000Z</time>
      </trkpt>
      <trkpt lat="35.952288983423216" lon="120.20436384726334">
        <time>2017-08-29T13:45:32.081000Z</time>
      </trkpt>
      <trkpt lat="35.95242342915009" lon="120.20432847563195">
        <time>2017-08-29T13:45:35.076000Z</time>
      </trkpt>
      <trkpt lat="35.95260104167829" lon="120.20431816589105">
        <ele>22.969764667985565</ele>
        <time>2017-08-29T13:45:38.137000Z</time>
      </trkpt>
      <trkpt lat="35.95269755929331" lon="120.20430425193179">
        <time>2017-08-29T13:45:41.093000Z</time>
      </trkpt>
      <trkpt lat="35.952800237607164" lon="120.20428053114581">
        <time>2017-08-29T13:45:45.099000Z</time>
      </trkpt>
      <trkpt lat="35.95289960506926" lon="120.20426670100558">
        <ele>22.43073268556369</ele>
        <time>2017-08-29T13:45:49.114000Z</time>
      </trkpt>
      <trkpt lat="35.95299737996976" lon="120.20425303850341">
        <time>2017-08-29T13:45:53.073000Z</time>
      </trkpt>
      <trkpt lat="35.953105674158735" lon="120.20423350866902">
        <ele>22.68439479493869</ele>
        <time>2017-08-29T13:45:57.073000Z</time>
      </trkpt>
      <trkpt lat="35.953213926438195" lon="120.2042221092807">
        <time>2017-08-29T13:46:01.054000Z</time>
      </trkpt>
      <trkpt lat="35.95331425781916" lon="120.20420911733079">
        <time>2017-08-29T13:46:05.070000Z</time>
      </trkpt>
      <trkpt lat="35.95340775794904" lon="120.20419528719056">
        <ele>22.7689494671799</ele>
        <time>2017-08-29T13:46:10.060000Z</time>
      </trkpt>
      <trkpt lat="35.953502473454876" lon="120.20418698910642">
        <ele>23.181150394914276</ele>
        <time>2017-08-29T13:46:17.077000Z</time>
      </trkpt>
      <trkpt lat="35.9535997873507" lon="120.20417592499423">
        <time>2017-08-29T13:46:24.091000Z</time>
      </trkpt>
      <trkpt lat="35.95369630496572" lon="120.20415639515984">
        <ele>23.239282566545135</ele>
        <time>2017-08-29T13:46:30.083000Z</time>
      </trkpt>
      <trkpt lat="35.9538040962405" lon="120.20412320282328">
        <time>2017-08-29T13:46:35.092000Z</time>
      </trkpt>
      <trkpt lat="35.95390933103482" lon="120.2041102946924">
        <ele>23.39782138490451</ele>
        <time>2017-08-29T13:46:39.092000Z</time>
      </trkpt>
      <trkpt lat="35.95400052614133" lon="120.20408431079257">
        <time>2017-08-29T13:46:43.081000Z</time>
      </trkpt>
      <trkpt lat="35.95411686695735" lon="120.20407215703297">
        <ele>23.794168430802948</ele>
        <time>2017-08-29T13:46:47.084000Z</time>
      </trkpt>
      <trkpt lat="35.954214935224456" lon="120.20404986117053">
        <time>2017-08-29T13:46:51.080000Z</time>
      </trkpt>
      <trkpt lat="35.95430960882078" lon="120.20402999606002">
        <time>2017-08-29T13:46:55.079000Z</time>
      </trkpt>
      <trkpt lat="35.95441559798638" lon="120.20401842903364">
        <ele>24.28035541200412</ele>
        <time>2017-08-29T13:46:59.094000Z</time>
      </trkpt>
      <trkpt lat="35.954516055095894" lon="120.20401289697755">
        <time>2017-08-29T13:47:02.086000Z</time>
      </trkpt>
      <trkpt lat="35.95462154134731" lon="120.20400610763598">
        <ele>24.977928120134003</ele>
        <time>2017-08-29T13:47:06.093000Z</time>
      </trkpt>
      <trkpt lat="35.95472371674697" lon="120.20399546261895">
        <time>2017-08-29T13:47:10.089000Z</time>
      </trkpt>
      <trkpt lat="35.95483662098269" lon="120.20397341821361">
        <time>2017-08-29T13:47:14.090000Z</time>
      </trkpt>
      <trkpt lat="35.954944915171666" lon="120.20398976292479">
        <ele>25.733631092546112</ele>
        <time>2017-08-29T13:47:18.103000Z</time>
      </trkpt>
      <trkpt lat="35.9550340567119" lon="120.2040701453762">
        <time>2017-08-29T13:47:22.088000Z</time>
      </trkpt>
      <trkpt lat="35.95509080219637" lon="120.20419059332478">
        <ele>26.890968281266815</ele>
        <time>2017-08-29T13:47:26.082000Z</time>
      </trkpt>
      <trkpt lat="35.95511879775297" lon="120.20432872708905">
        <time>2017-08-29T13:47:30.056000Z</time>
      </trkpt>
      <trkpt lat="35.95514880496632" lon="120.20446493301559">
        <time>2017-08-29T13:47:34.055000Z</time>
      </trkpt>
      <trkpt lat="35.955172525752296" lon="120.20457825634647">
        <ele>27.99017329835666</ele>
        <time>2017-08-29T13:47:38.067000Z</time>
      </trkpt>
      <trkpt lat="35.9551886609159" lon="120.20470649946499">
        <time>2017-08-29T13:47:42.063000Z</time>
      </trkpt>
      <trkpt lat="35.95521389044445" lon="120.20483658660221">
        <ele>29.07352347993625</ele>
        <time>2017-08-29T13:47:46.052000Z</time>
      </trkpt>
      <trkpt lat="35.95523752741139" lon="120.20496457826364">
        <time>2017-08-29T13:47:50.057000Z</time>
      </trkpt>
      <trkpt lat="35.95526129010688" lon="120.20509810198116">
        <time>2017-08-29T13:47:54.095000Z</time>
      </trkpt>
      <trkpt lat="35.95529578163843" lon="120.2052359004693">
        <ele>30.07232089662326</ele>
        <time>2017-08-29T13:47:58.057000Z</time>
      </trkpt>
      <trkpt lat="35.9553303150795" lon="120.20535970117915">
        <time>2017-08-29T13:48:02.059000Z</time>
      </trkpt>
      <trkpt lat="35.95536430369686" lon="120.20549062650669">
        <ele>30.695908504960663</ele>
        <time>2017-08-29T13:48:06.062000Z</time>
      </trkpt>
      <trkpt lat="35.95545449297499" lon="120.20555927429366">
        <time>2017-08-29T13:48:09.057000Z</time>
      </trkpt>
      <trkpt lat="35.955512663383" lon="120.20568500284124">
        <time>2017-08-29T13:48:13.062000Z</time>
      </trkpt>
      <trkpt lat="35.95556111078333" lon="120.20582204695809">
        <ele>30.532084423539764</ele>
        <time>2017-08-29T13:48:17.082000Z</time>
      </trkpt>
      <trkpt lat="35.955582903731575" lon="120.20596386875975">
        <time>2017-08-29T13:48:20.064000Z</time>
      </trkpt>
      <trkpt lat="35.95561475496363" lon="120.20610543910433">
        <time>2017-08-29T13:48:24.061000Z</time>
      </trkpt>
      <trkpt lat="35.95563063867014" lon="120.20624600362052">
        <ele>29.892642933366425</ele>
        <time>2017-08-29T13:48:28.097000Z</time>
      </trkpt>
      <trkpt lat="35.955649875137915" lon="120.20636821176876">
        <time>2017-08-29T13:48:31.072000Z</time>
      </trkpt>
      <trkpt lat="35.95567481129985" lon="120.20648296002318">
        <time>2017-08-29T13:48:34.079000Z</time>
      </trkpt>
      <trkpt lat="35.95568642023574" lon="120.20659393642117">
        <ele>29.015392261979706</ele>
        <time>2017-08-29T13:48:37.085000Z</time>
      </trkpt>
      <trkpt lat="35.95569354485344" lon="120.20670943904688">
        <time>2017-08-29T13:48:40.076000Z</time>
      </trkpt>
      <trkpt lat="35.95569496977698" lon="120.2068495844679">
        <time>2017-08-29T13:48:44.082000Z</time>
      </trkpt>
      <trkpt lat="35.955708548460116" lon="120.20698956225087">
        <ele>28.5926217617966</ele>
        <time>2017-08-29T13:48:48.087000Z</time>
      </trkpt>
      <trkpt lat="35.95572682100903" lon="120.2071281151103">
        <time>2017-08-29T13:48:52.084000Z</time>
      </trkpt>
      <trkpt lat="35.9557481529526" lon="120.2072608006375">
        <ele>28.777584034440643</ele>
        <time>2017-08-29T13:48:56.056000Z</time>
      </trkpt>
      <trkpt lat="35.95576311464976" lon="120.20737026829292">
        <time>2017-08-29T13:49:01.052000Z</time>
      </trkpt>
      <trkpt lat="35.95573817848783" lon="120.20749113533665">
        <ele>28.883276897905</ele>
        <time>2017-08-29T13:49:08.051000Z</time>
      </trkpt>
      <trkpt lat="35.95573478381704" lon="120.20761619333197">
        <time>2017-08-29T13:49:13.072000Z</time>
      </trkpt>
      <trkpt lat="35.955839389968624" lon="120.20764435652663">
        <ele>29.23206325196994</ele>
        <time>2017-08-29T13:49:18.087000Z</time>
      </trkpt>
      <trkpt lat="35.95594558868181" lon="120.20760839816202">
        <time>2017-08-29T13:49:21.086000Z</time>
      </trkpt>
      <trkpt lat="35.95605409241836" lon="120.20757805567254">
        <time>2017-08-29T13:49:25.082000Z</time>
      </trkpt>
      <trkpt lat="35.956167876753916" lon="120.20755374815334">
        <ele>31.24022575044406</ele>
        <time>2017-08-29T13:49:29.086000Z</time>
      </trkpt>
      <trkpt lat="35.95625869467478" lon="120.2075388283657">
        <time>2017-08-29T13:49:32.084000Z</time>
      </trkpt>
      <trkpt lat="35.956374700214674" lon="120.2075147723036">
        <ele>31.626004177568085</ele>
        <time>2017-08-29T13:49:36.099000Z</time>
      </trkpt>
      <trkpt lat="35.95647721089046" lon="120.20748166378607">
        <time>2017-08-29T13:49:40.088000Z</time>
      </trkpt>
      <trkpt lat="35.95654321837794" lon="120.2075665724652">
        <ele>31.8796672406174</ele>
        <time>2017-08-29T13:49:47.068000Z</time>
      </trkpt>
      <trkpt lat="35.956554366309156" lon="120.20771292049457">
        <time>2017-08-29T13:49:51.135000Z</time>
      </trkpt>
      <trkpt lat="35.956596359644045" lon="120.20782129850258">
        <time>2017-08-29T13:49:55.066000Z</time>
      </trkpt>
      <trkpt lat="35.95663625750314" lon="120.20793219108154">
        <ele>31.673566776750214</ele>
        <time>2017-08-29T13:49:58.068000Z</time>
      </trkpt>
      <trkpt lat="35.9566572960801" lon="120.20806353550424">
        <time>2017-08-29T13:50:01.079000Z</time>
      </trkpt>
      <trkpt lat="35.95667443707209" lon="120.20820125017335">
        <time>2017-08-29T13:50:04.064000Z</time>
      </trkpt>
      <trkpt lat="35.95669576901566" lon="120.20833360042442">
        <ele>31.47803493165744</ele>
        <time>2017-08-29T13:50:07.064000Z</time>
      </trkpt>
      <trkpt lat="35.95672305211048" lon="120.20844541501273">
        <time>2017-08-29T13:50:10.080000Z</time>
      </trkpt>
      <trkpt lat="35.95672472849112" lon="120.20857935782541">
        <time>2017-08-29T13:50:13.088000Z</time>
      </trkpt>
      <trkpt lat="35.956732733208646" lon="120.20870056014527">
        <ele>31.16624065065158</ele>
        <time>2017-08-29T13:50:16.076000Z</time>
      </trkpt>
      <trkpt lat="35.95675452615689" lon="120.20880986016263">
        <time>2017-08-29T13:50:19.080000Z</time>
      </trkpt>
      <trkpt lat="35.95677719920497" lon="120.2089184058087">
        <time>2017-08-29T13:50:22.083000Z</time>
      </trkpt>
      <trkpt lat="35.9567981539629" lon="120.20905419264008">
        <ele>30.960140186784393</ele>
        <time>2017-08-29T13:50:27.075000Z</time>
      </trkpt>
      <trkpt lat="35.95679542984437" lon="120.20919123675694">
        <time>2017-08-29T13:50:31.091000Z</time>
      </trkpt>
      <trkpt lat="35.95679371155422" lon="120.20933758478631">
        <time>2017-08-29T13:50:35.084000Z</time>
      </trkpt>
      <trkpt lat="35.95679077788811" lon="120.20944973465075">
        <ele>30.748754459855682</ele>
        <time>2017-08-29T13:50:38.070000Z</time>
      </trkpt>
      <trkpt lat="35.956818647716155" lon="120.20955693919231">
        <time>2017-08-29T13:50:42.090000Z</time>
      </trkpt>
      <trkpt lat="35.956839476745536" lon="120.20966900523771">
        <ele>30.57436175966037</ele>
        <time>2017-08-29T13:50:47.378000Z</time>
      </trkpt>
    </trkseg>
  </trk>
</gpx>