<?xml version="1.0" encoding="UTF-8"?>
<gpx xmlns="http://www.topografix.com/GPX/1/1" xmlns:gpxtpx="http://www.garmin.com/xmlschemas/TrackPointExtension/v1" xmlns:xsi="http://www.w3.org/2001/XMLSchema-instance" xsi:schemaLocation="http://www.topografix.com/GPX/1/1 http://www.topografix.com/GPX/1/1/gpx.xsd" version="1.1" creator="gpx.py -- https://github.com/tkrajina/gpxpy">
  <trk>
    <name>星期一 夜跑</name>
    <trkseg>
      <trkpt lat="35.956989135626664" lon="120.20988282758762">
        <time>2017-09-18T13:28:58.300000Z</time>
      </trkpt>
      <trkpt lat="35.95708611424636" lon="120.20985282037427">
        <time>2017-09-18T13:29:03.091000Z</time>
      </trkpt>
      <trkpt lat="35.957164862226655" lon="120.20979196775724">
        <ele>17.217551430145377</ele>
        <time>2017-09-18T13:29:08.082000Z</time>
      </trkpt>
      <trkpt lat="35.95727479088675" lon="120.20979247067143">
        <time>2017-09-18T13:29:12.075000Z</time>
      </trkpt>
      <trkpt lat="35.95740923661362" lon="120.20978165801634">
        <ele>18.271842201629752</ele>
        <time>2017-09-18T13:29:15.075000Z</time>
      </trkpt>
      <trkpt lat="35.95754246696453" lon="120.20977931108345">
        <time>2017-09-18T13:29:18.079000Z</time>
      </trkpt>
      <trkpt lat="35.95763353634249" lon="120.20978643570115">
        <time>2017-09-18T13:29:21.076000Z</time>
      </trkpt>
      <trkpt lat="35.95773139506202" lon="120.20978249620666">
        <ele>19.096244057098502</ele>
        <time>2017-09-18T13:29:25.088000Z</time>
      </trkpt>
      <trkpt lat="35.95782045278322" lon="120.20975517120232">
        <time>2017-09-18T13:29:29.088000Z</time>
      </trkpt>
      <trkpt lat="35.95792300536852" lon="120.20981577236225">
        <ele>19.751540382782096</ele>
        <time>2017-09-18T13:29:34.082000Z</time>
      </trkpt>
      <trkpt lat="35.95790552910041" lon="120.20993814814855">
        <time>2017-09-18T13:29:39.085000Z</time>
      </trkpt>
      <trkpt lat="35.957858716171195" lon="120.21005331549813">
        <time>2017-09-18T13:29:43.095000Z</time>
      </trkpt>
      <trkpt lat="35.95786910973113" lon="120.21017527218928">
        <ele>19.56393357125866</ele>
        <time>2017-09-18T13:29:46.091000Z</time>
      </trkpt>
      <trkpt lat="35.95787179194014" lon="120.21028675150146">
        <time>2017-09-18T13:29:49.076000Z</time>
      </trkpt>
      <trkpt lat="35.9579094685949" lon="120.2104105522113">
        <time>2017-09-18T13:29:52.107000Z</time>
      </trkpt>
      <trkpt lat="35.95795234202962" lon="120.21051549363901">
        <ele>18.96677323190319</ele>
        <time>2017-09-18T13:29:55.102000Z</time>
      </trkpt>
      <trkpt lat="35.95788922629874" lon="120.21060710784067">
        <time>2017-09-18T13:30:01.096000Z</time>
      </trkpt>
      <trkpt lat="35.957790110293736" lon="120.2106711455809">
        <ele>17.93626328317272</ele>
        <time>2017-09-18T13:30:05.102000Z</time>
      </trkpt>
      <trkpt lat="35.95768877308439" lon="120.2107181680577">
        <time>2017-09-18T13:30:13.084000Z</time>
      </trkpt>
      <trkpt lat="35.957588986527135" lon="120.21074675034751">
        <ele>15.936026771942252</ele>
        <time>2017-09-18T13:30:17.081000Z</time>
      </trkpt>
      <trkpt lat="35.95749938398223" lon="120.21076636400093">
        <time>2017-09-18T13:30:20.067000Z</time>
      </trkpt>
      <trkpt lat="35.957390586879065" lon="120.21079486247172">
        <ele>15.690291603485221</ele>
        <time>2017-09-18T13:30:24.080000Z</time>
      </trkpt>
      <trkpt lat="35.95728367570411" lon="120.21081162627806">
        <time>2017-09-18T13:30:28.064000Z</time>
      </trkpt>
      <trkpt lat="35.95718476924669" lon="120.2108320781218">
        <time>2017-09-18T13:30:31.113000Z</time>
      </trkpt>
      <trkpt lat="35.957088670726826" lon="120.21085068594684">
        <ele>15.013861854950065</ele>
        <time>2017-09-18T13:30:34.064000Z</time>
      </trkpt>
      <trkpt lat="35.95698155000429" lon="120.21087323326637">
        <time>2017-09-18T13:30:37.092000Z</time>
      </trkpt>
      <trkpt lat="35.95687103461098" lon="120.21089326601495">
        <time>2017-09-18T13:30:40.097000Z</time>
      </trkpt>
      <trkpt lat="35.95677032604437" lon="120.2109058388697">
        <time>2017-09-18T13:30:43.073000Z</time>
      </trkpt>
      <trkpt lat="35.95665884673219" lon="120.21092738036086">
        <ele>14.300437172332877</ele>
        <time>2017-09-18T13:30:46.074000Z</time>
      </trkpt>
      <trkpt lat="35.95656589142602" lon="120.21094674255718">
        <time>2017-09-18T13:30:49.089000Z</time>
      </trkpt>
      <trkpt lat="35.956474947776606" lon="120.21096266817321">
        <time>2017-09-18T13:30:52.077000Z</time>
      </trkpt>
      <trkpt lat="35.95636443238329" lon="120.2109824494647">
        <ele>13.68741532174694</ele>
        <time>2017-09-18T13:30:56.082000Z</time>
      </trkpt>
      <trkpt lat="35.9562661545686" lon="120.21101564180125">
        <time>2017-09-18T13:31:00.074000Z</time>
      </trkpt>
      <trkpt lat="35.95617076851051" lon="120.2110358421879">
        <ele>12.778456886688346</ele>
        <time>2017-09-18T13:31:04.079000Z</time>
      </trkpt>
      <trkpt lat="35.956079154308846" lon="120.21105713222195">
        <time>2017-09-18T13:31:08.074000Z</time>
      </trkpt>
      <trkpt lat="35.955970902029385" lon="120.21108680415918">
        <time>2017-09-18T13:31:12.078000Z</time>
      </trkpt>
      <trkpt lat="35.955863152664115" lon="120.2111082618313">
        <ele>11.769091804901237</ele>
        <time>2017-09-18T13:31:16.102000Z</time>
      </trkpt>
      <trkpt lat="35.955765419673135" lon="120.21117473032345">
        <time>2017-09-18T13:31:20.095000Z</time>
      </trkpt>
      <trkpt lat="35.95568717460703" lon="120.21127958793213">
        <ele>10.87070389596569</ele>
        <time>2017-09-18T13:31:24.096000Z</time>
      </trkpt>
      <trkpt lat="35.955627830732574" lon="120.21136374223997">
        <time>2017-09-18T13:31:27.072000Z</time>
      </trkpt>
      <trkpt lat="35.95559061508249" lon="120.21148452546467">
        <time>2017-09-18T13:31:31.066000Z</time>
      </trkpt>
      <trkpt lat="35.955621837671806" lon="120.21160891290774">
        <ele>10.62232514230358</ele>
        <time>2017-09-18T13:31:34.062000Z</time>
      </trkpt>
      <trkpt lat="35.95563302751254" lon="120.21172290679087">
        <time>2017-09-18T13:31:37.078000Z</time>
      </trkpt>
      <trkpt lat="35.95564597755294" lon="120.21186296839286">
        <time>2017-09-18T13:31:41.076000Z</time>
      </trkpt>
      <trkpt lat="35.95567103944342" lon="120.21199146296848">
        <ele>10.461142738739127</ele>
        <time>2017-09-18T13:31:44.084000Z</time>
      </trkpt>
      <trkpt lat="35.95571810382973" lon="120.21211870025863">
        <time>2017-09-18T13:31:48.076000Z</time>
      </trkpt>
      <trkpt lat="35.95575938470285" lon="120.21224727865328">
        <time>2017-09-18T13:31:52.085000Z</time>
      </trkpt>
      <trkpt lat="35.9557811776511" lon="120.21236831333508">
        <ele>10.30524750558483</ele>
        <time>2017-09-18T13:31:56.119000Z</time>
      </trkpt>
      <trkpt lat="35.955803473513534" lon="120.21249228168298">
        <time>2017-09-18T13:32:00.084000Z</time>
      </trkpt>
      <trkpt lat="35.95580816737931" lon="120.21262513484825">
        <ele>10.352809151092643</ele>
        <time>2017-09-18T13:32:05.102000Z</time>
      </trkpt>
      <trkpt lat="35.95585037026178" lon="120.21273585978915">
        <time>2017-09-18T13:32:09.094000Z</time>
      </trkpt>
      <trkpt lat="35.95589445907246" lon="120.21283711317946">
        <time>2017-09-18T13:32:13.099000Z</time>
      </trkpt>
      <trkpt lat="35.9559320938177" lon="120.21295697439481">
        <ele>10.20483704415905</ele>
        <time>2017-09-18T13:32:17.099000Z</time>
      </trkpt>
      <trkpt lat="35.95594931862872" lon="120.21309519197811">
        <time>2017-09-18T13:32:21.105000Z</time>
      </trkpt>
      <trkpt lat="35.955991647239735" lon="120.2132236027347">
        <ele>10.50342102853405</ele>
        <time>2017-09-18T13:32:26.099000Z</time>
      </trkpt>
      <trkpt lat="35.95601193144541" lon="120.21333524968495">
        <time>2017-09-18T13:32:30.090000Z</time>
      </trkpt>
      <trkpt lat="35.955975260619034" lon="120.21345762547125">
        <ele>10.384516914764518</ele>
        <time>2017-09-18T13:32:34.094000Z</time>
      </trkpt>
      <trkpt lat="35.955912228707184" lon="120.21355167042483">
        <time>2017-09-18T13:32:38.085000Z</time>
      </trkpt>
      <trkpt lat="35.95580007884275" lon="120.21353540953268">
        <ele>9.95117493478405</ele>
        <time>2017-09-18T13:32:44.088000Z</time>
      </trkpt>
      <trkpt lat="35.95568466003608" lon="120.21354513254036">
        <time>2017-09-18T13:32:48.113000Z</time>
      </trkpt>
      <trkpt lat="35.95557888041805" lon="120.21354714419712">
        <time>2017-09-18T13:32:51.102000Z</time>
      </trkpt>
      <trkpt lat="35.95547213688116" lon="120.21355728629996">
        <ele>9.716010292450065</ele>
        <time>2017-09-18T13:32:54.097000Z</time>
      </trkpt>
      <trkpt lat="35.955374697256794" lon="120.21356776367892">
        <time>2017-09-18T13:32:57.103000Z</time>
      </trkpt>
      <trkpt lat="35.95527122266214" lon="120.2136173845457">
        <time>2017-09-18T13:33:00.098000Z</time>
      </trkpt>
      <trkpt lat="35.95516896344345" lon="120.21368837926556">
        <ele>9.335517128387565</ele>
        <time>2017-09-18T13:33:04.090000Z</time>
      </trkpt>
      <trkpt lat="35.95505329317968" lon="120.21372509200145">
        <time>2017-09-18T13:33:08.082000Z</time>
      </trkpt>
      <trkpt lat="35.95494944139938" lon="120.21371344115605">
        <time>2017-09-18T13:33:12.071000Z</time>
      </trkpt>
      <trkpt lat="35.954858120564325" lon="120.21371620718409">
        <ele>9.176974495330924</ele>
        <time>2017-09-18T13:33:16.080000Z</time>
      </trkpt>
      <trkpt lat="35.95475716054062" lon="120.21373850304653">
        <time>2017-09-18T13:33:21.084000Z</time>
      </trkpt>
      <trkpt lat="35.95464010726283" lon="120.21377638924886">
        <ele>9.198115547577018</ele>
        <time>2017-09-18T13:33:25.105000Z</time>
      </trkpt>
      <trkpt lat="35.95453885387252" lon="120.21377588633467">
        <time>2017-09-18T13:33:28.097000Z</time>
      </trkpt>
      <trkpt lat="35.95443923495333" lon="120.21379407506456">
        <time>2017-09-18T13:33:31.093000Z</time>
      </trkpt>
      <trkpt lat="35.954363881643815" lon="120.2138571069764">
        <ele>8.76477356759655</ele>
        <time>2017-09-18T13:33:34.071000Z</time>
      </trkpt>
      <trkpt lat="35.954285971853835" lon="120.21391460683216">
        <time>2017-09-18T13:33:38.093000Z</time>
      </trkpt>
      <trkpt lat="35.954191172528965" lon="120.21392240200211">
        <time>2017-09-18T13:33:42.086000Z</time>
      </trkpt>
      <trkpt lat="35.954085434820456" lon="120.21391661848892">
        <ele>8.674933632293815</ele>
        <time>2017-09-18T13:33:47.086000Z</time>
      </trkpt>
      <trkpt lat="35.953972321037156" lon="120.2139263414966">
        <time>2017-09-18T13:33:51.079000Z</time>
      </trkpt>
      <trkpt lat="35.95386901408057" lon="120.21395525906254">
        <ele>8.664366920868034</ele>
        <time>2017-09-18T13:33:54.110000Z</time>
      </trkpt>
      <trkpt lat="35.95377945344518" lon="120.21398107532431">
        <time>2017-09-18T13:33:57.101000Z</time>
      </trkpt>
      <trkpt lat="35.95366105906288" lon="120.21399431873132">
        <time>2017-09-18T13:34:01.095000Z</time>
      </trkpt>
      <trkpt lat="35.953553980249865" lon="120.21402474503984">
        <ele>8.973517616668815</ele>
        <time>2017-09-18T13:34:05.100000Z</time>
      </trkpt>
      <trkpt lat="35.95345871992032" lon="120.21406975585987">
        <time>2017-09-18T13:34:09.098000Z</time>
      </trkpt>
      <trkpt lat="35.95336756672333" lon="120.21409037534167">
        <time>2017-09-18T13:34:13.095000Z</time>
      </trkpt>
      <trkpt lat="35.953283244777424" lon="120.2140510642158">
        <ele>9.19018860665905</ele>
        <time>2017-09-18T13:34:17.103000Z</time>
      </trkpt>
      <trkpt lat="35.95318940937142" lon="120.21400999289025">
        <time>2017-09-18T13:34:21.097000Z</time>
      </trkpt>
      <trkpt lat="35.95310257285456" lon="120.21394503314067">
        <ele>9.565398415008659</ele>
        <time>2017-09-18T13:34:25.109000Z</time>
      </trkpt>
      <trkpt lat="35.95301041382919" lon="120.21386917691697">
        <time>2017-09-18T13:34:29.077000Z</time>
      </trkpt>
      <trkpt lat="35.952912722747726" lon="120.213811090328">
        <time>2017-09-18T13:34:33.079000Z</time>
      </trkpt>
      <trkpt lat="35.952841602299316" lon="120.21374126907457">
        <ele>9.805846413055534</ele>
        <time>2017-09-18T13:34:36.064000Z</time>
      </trkpt>
      <trkpt lat="35.952793867360754" lon="120.21361352887024">
        <time>2017-09-18T13:34:40.107000Z</time>
      </trkpt>
      <trkpt lat="35.95278238415341" lon="120.21348997961749">
        <ele>10.223334511200065</ele>
        <time>2017-09-18T13:34:44.069000Z</time>
      </trkpt>
      <trkpt lat="35.952758747186465" lon="120.21337221387793">
        <time>2017-09-18T13:34:48.093000Z</time>
      </trkpt>
      <trkpt lat="35.952729410525365" lon="120.21325285557677">
        <time>2017-09-18T13:34:52.107000Z</time>
      </trkpt>
      <trkpt lat="35.952698146026535" lon="120.21314539957811">
        <ele>10.159918983856315</ele>
        <time>2017-09-18T13:34:56.104000Z</time>
      </trkpt>
      <trkpt lat="35.95266403168063" lon="120.21304003905524">
        <time>2017-09-18T13:35:00.097000Z</time>
      </trkpt>
      <trkpt lat="35.95262891150634" lon="120.21293258305658">
        <ele>10.315814217010612</ele>
        <time>2017-09-18T13:35:04.103000Z</time>
      </trkpt>
      <trkpt lat="35.952602340873284" lon="120.21280911762287">
        <time>2017-09-18T13:35:08.085000Z</time>
      </trkpt>
      <trkpt lat="35.95256747215609" lon="120.21268607128431">
        <time>2017-09-18T13:35:12.070000Z</time>
      </trkpt>
      <trkpt lat="35.95253935087095" lon="120.21257828000952">
        <ele>10.062152107635612</ele>
        <time>2017-09-18T13:35:16.103000Z</time>
      </trkpt>
      <trkpt lat="35.952519988674624" lon="120.21244148734976">
        <time>2017-09-18T13:35:20.086000Z</time>
      </trkpt>
      <trkpt lat="35.952492873217864" lon="120.21230720926096">
        <ele>10.466429909149284</ele>
        <time>2017-09-18T13:35:24.092000Z</time>
      </trkpt>
      <trkpt lat="35.9524763189591" lon="120.21219204191138">
        <time>2017-09-18T13:35:28.099000Z</time>
      </trkpt>
      <trkpt lat="35.952456328120036" lon="120.21207394089569">
        <time>2017-09-18T13:35:32.088000Z</time>
      </trkpt>
      <trkpt lat="35.9524305956773" lon="120.21195114601423">
        <ele>10.403010567108268</ele>
        <time>2017-09-18T13:35:36.076000Z</time>
      </trkpt>
      <trkpt lat="35.952352224882645" lon="120.21184134308268">
        <time>2017-09-18T13:35:40.098000Z</time>
      </trkpt>
      <trkpt lat="35.952319535460276" lon="120.21170496951808">
        <ele>10.25504227487194</ele>
        <time>2017-09-18T13:35:44.090000Z</time>
      </trkpt>
      <trkpt lat="35.95230809416245" lon="120.21159407693912">
        <time>2017-09-18T13:35:47.085000Z</time>
      </trkpt>
      <trkpt lat="35.9522839123718" lon="120.21145770337452">
        <time>2017-09-18T13:35:51.076000Z</time>
      </trkpt>
      <trkpt lat="35.95226182605694" lon="120.21131596539189">
        <ele>10.210124214569205</ele>
        <time>2017-09-18T13:35:55.066000Z</time>
      </trkpt>
      <trkpt lat="35.952241332303686" lon="120.21117255102862">
        <time>2017-09-18T13:35:59.060000Z</time>
      </trkpt>
      <trkpt lat="35.95224120657514" lon="120.21105864096452">
        <time>2017-09-18T13:36:02.074000Z</time>
      </trkpt>
      <trkpt lat="35.95222670588265" lon="120.21092260267605">
        <ele>10.55362625924694</ele>
        <time>2017-09-18T13:36:07.070000Z</time>
      </trkpt>
      <trkpt lat="35.95220122489701" lon="120.21080357965101">
        <time>2017-09-18T13:36:11.075000Z</time>
      </trkpt>
      <trkpt lat="35.952144814688666" lon="120.21068799320628">
        <ele>10.363375862518424</ele>
        <time>2017-09-18T13:36:15.075000Z</time>
      </trkpt>
      <trkpt lat="35.95211514275144" lon="120.21055681642164">
        <time>2017-09-18T13:36:19.072000Z</time>
      </trkpt>
      <trkpt lat="35.95209531955044" lon="120.21043200988342">
        <ele>10.38715668527233</ele>
        <time>2017-09-18T13:36:24.072000Z</time>
      </trkpt>
      <trkpt lat="35.95201585910837" lon="120.21037006761898">
        <time>2017-09-18T13:36:33.091000Z</time>
      </trkpt>
      <trkpt lat="35.952108604866964" lon="120.21041147422065">
        <ele>10.416224678436393</ele>
        <time>2017-09-18T13:36:50.068000Z</time>
      </trkpt>
      <trkpt lat="35.952108604866964" lon="120.21041147422065">
        <ele>10.392443855682487</ele>
        <time>2017-09-18T13:37:02.054000Z</time>
      </trkpt>
      <trkpt lat="35.951941763084335" lon="120.2104195208477">
        <time>2017-09-18T13:37:05.064000Z</time>
      </trkpt>
      <trkpt lat="35.95180501233409" lon="120.2104533837365">
        <ele>10.955256660858268</ele>
        <time>2017-09-18T13:37:08.070000Z</time>
      </trkpt>
      <trkpt lat="35.95167186580221" lon="120.21051859494318">
        <time>2017-09-18T13:37:11.067000Z</time>
      </trkpt>
      <trkpt lat="35.95158712476115" lon="120.21058196213116">
        <time>2017-09-18T13:37:16.082000Z</time>
      </trkpt>
      <trkpt lat="35.951496893573506" lon="120.21062613476087">
        <ele>10.4400055011903</ele>
        <time>2017-09-18T13:37:21.071000Z</time>
      </trkpt>
      <trkpt lat="35.95139798711608" lon="120.21066184166838">
        <time>2017-09-18T13:37:25.080000Z</time>
      </trkpt>
      <trkpt lat="35.95129631463061" lon="120.21069310616721">
        <ele>9.797919472137565</ele>
        <time>2017-09-18T13:37:29.073000Z</time>
      </trkpt>
      <trkpt lat="35.95117662105332" lon="120.21074482250978">
        <time>2017-09-18T13:37:33.084000Z</time>
      </trkpt>
      <trkpt lat="35.951076624948485" lon="120.21082025963833">
        <time>2017-09-18T13:37:36.092000Z</time>
      </trkpt>
      <trkpt lat="35.950988405417604" lon="120.21085261378457">
        <ele>9.105632027069205</ele>
        <time>2017-09-18T13:37:39.082000Z</time>
      </trkpt>
      <trkpt lat="35.95089494719724" lon="120.21090206701328">
        <time>2017-09-18T13:37:45.068000Z</time>
      </trkpt>
      <trkpt lat="35.95078480898957" lon="120.21093710336854">
        <ele>8.857257088104362</ele>
        <time>2017-09-18T13:37:49.071000Z</time>
      </trkpt>
      <trkpt lat="35.95067492223899" lon="120.21093073312213">
        <time>2017-09-18T13:37:53.081000Z</time>
      </trkpt>
      <trkpt lat="35.950566502321465" lon="120.2108989657091">
        <ele>8.56660004464733</ele>
        <time>2017-09-18T13:37:58.079000Z</time>
      </trkpt>
      <trkpt lat="35.95045141879092" lon="120.21091204147805">
        <time>2017-09-18T13:38:02.090000Z</time>
      </trkpt>
      <trkpt lat="35.950358798760874" lon="120.21094506617655">
        <time>2017-09-18T13:38:06.070000Z</time>
      </trkpt>
      <trkpt lat="35.950254569794936" lon="120.21094741310944">
        <ele>8.49790116159069</ele>
        <time>2017-09-18T13:38:12.083000Z</time>
      </trkpt>
      <trkpt lat="35.95016232695053" lon="120.21093500789274">
        <time>2017-09-18T13:38:17.202000Z</time>
      </trkpt>
      <trkpt lat="35.9500707965679" lon="120.21100725989808">
        <ele>8.603591164032096</ele>
        <time>2017-09-18T13:38:21.069000Z</time>
      </trkpt>
      <trkpt lat="35.9499603230841" lon="120.21104145806302">
        <time>2017-09-18T13:38:25.093000Z</time>
      </trkpt>
      <trkpt lat="35.949871433000965" lon="120.21101254049708">
        <ele>8.265376289764518</ele>
        <time>2017-09-18T13:38:29.059000Z</time>
      </trkpt>
      <trkpt lat="35.94976284544538" lon="120.21100088965167">
        <time>2017-09-18T13:38:33.075000Z</time>
      </trkpt>
      <trkpt lat="35.949659664217336" lon="120.21100323658456">
        <time>2017-09-18T13:38:36.055000Z</time>
      </trkpt>
      <trkpt lat="35.94955803364138" lon="120.21097306173314">
        <ele>8.849330147186393</ele>
        <time>2017-09-18T13:38:39.074000Z</time>
      </trkpt>
      <trkpt lat="35.94944450076292" lon="120.21097884524633">
        <time>2017-09-18T13:38:43.078000Z</time>
      </trkpt>
      <trkpt lat="35.94936923127244" lon="120.2110548691081">
        <time>2017-09-18T13:38:47.082000Z</time>
      </trkpt>
      <trkpt lat="35.94928214329849" lon="120.21110977057387">
        <ele>8.667006691375846</ele>
        <time>2017-09-18T13:38:50.083000Z</time>
      </trkpt>
      <trkpt lat="35.94919157683472" lon="120.21115436229874">
        <time>2017-09-18T13:38:53.091000Z</time>
      </trkpt>
      <trkpt lat="35.949088647063775" lon="120.21117615524699">
        <time>2017-09-18T13:38:56.077000Z</time>
      </trkpt>
      <trkpt lat="35.94899518884341" lon="120.21122477028538">
        <ele>8.674933632293815</ele>
        <time>2017-09-18T13:38:59.086000Z</time>
      </trkpt>
      <trkpt lat="35.948898838866455" lon="120.21127464260925">
        <time>2017-09-18T13:39:03.076000Z</time>
      </trkpt>
      <trkpt lat="35.948898838866455" lon="120.21127464260925">
        <ele>8.378997047821159</ele>
        <time>2017-09-18T13:39:08.084000Z</time>
      </trkpt>
      <trkpt lat="35.94839906788985" lon="120.21137346524765">
        <ele>8.500540932098502</ele>
        <time>2017-09-18T13:39:20.078000Z</time>
      </trkpt>
      <trkpt lat="35.94830871097366" lon="120.21141160290708">
        <time>2017-09-18T13:39:23.088000Z</time>
      </trkpt>
      <trkpt lat="35.94821969516198" lon="120.2114314680176">
        <time>2017-09-18T13:39:26.083000Z</time>
      </trkpt>
      <trkpt lat="35.948123135637445" lon="120.21145443443228">
        <ele>8.347289284149284</ele>
        <time>2017-09-18T13:39:29.067000Z</time>
      </trkpt>
      <trkpt lat="35.94802477400373" lon="120.21148041833212">
        <time>2017-09-18T13:39:32.058000Z</time>
      </trkpt>
      <trkpt lat="35.94792821447919" lon="120.21150439057519">
        <time>2017-09-18T13:39:35.067000Z</time>
      </trkpt>
      <trkpt lat="35.94782884701709" lon="120.21154244441558">
        <ele>8.170252998748893</ele>
        <time>2017-09-18T13:39:39.057000Z</time>
      </trkpt>
      <trkpt lat="35.94772771935533" lon="120.21156507555415">
        <time>2017-09-18T13:39:43.072000Z</time>
      </trkpt>
      <trkpt lat="35.9476177068762" lon="120.21158879634012">
        <time>2017-09-18T13:39:47.077000Z</time>
      </trkpt>
      <trkpt lat="35.947517920318944" lon="120.21161100838353">
        <ele>8.13590164987194</ele>
        <time>2017-09-18T13:39:51.082000Z</time>
      </trkpt>
      <trkpt lat="35.947423707727296" lon="120.2116421052443">
        <time>2017-09-18T13:39:55.079000Z</time>
      </trkpt>
      <trkpt lat="35.947324298355674" lon="120.21167336974312">
        <ele>8.053988655487174</ele>
        <time>2017-09-18T13:39:59.069000Z</time>
      </trkpt>
      <trkpt lat="35.94722916375468" lon="120.21169030118753">
        <time>2017-09-18T13:40:03.064000Z</time>
      </trkpt>
      <trkpt lat="35.947137717191076" lon="120.21173162397017">
        <time>2017-09-18T13:40:07.058000Z</time>
      </trkpt>
      <trkpt lat="35.947046480175054" lon="120.21175928425063">
        <ele>7.966792305389518</ele>
        <time>2017-09-18T13:40:11.065000Z</time>
      </trkpt>
      <trkpt lat="35.9469535667784" lon="120.21178451377918">
        <time>2017-09-18T13:40:16.078000Z</time>
      </trkpt>
      <trkpt lat="35.946838357519304" lon="120.21180865366031">
        <ele>7.9826461872254555</ele>
        <time>2017-09-18T13:40:20.083000Z</time>
      </trkpt>
      <trkpt lat="35.946738193776405" lon="120.21183539193143">
        <time>2017-09-18T13:40:23.076000Z</time>
      </trkpt>
      <trkpt lat="35.94663983214269" lon="120.21186456095447">
        <time>2017-09-18T13:40:26.084000Z</time>
      </trkpt>
      <trkpt lat="35.94654193151364" lon="120.21190102223326">
        <ele>7.966792305389518</ele>
        <time>2017-09-18T13:40:30.072000Z</time>
      </trkpt>
      <trkpt lat="35.94643422405789" lon="120.21192558120956">
        <time>2017-09-18T13:40:34.086000Z</time>
      </trkpt>
      <trkpt lat="35.94633749689529" lon="120.21195567224194">
        <ele>8.106837471405143</ele>
        <time>2017-09-18T13:40:38.086000Z</time>
      </trkpt>
      <trkpt lat="35.94623800370464" lon="120.21199473191072">
        <time>2017-09-18T13:40:42.063000Z</time>
      </trkpt>
      <trkpt lat="35.94613566066692" lon="120.21203127700855">
        <time>2017-09-18T13:40:46.066000Z</time>
      </trkpt>
      <trkpt lat="35.94604299872736" lon="120.21209606912007">
        <ele>8.445052345672721</ele>
        <time>2017-09-18T13:40:50.088000Z</time>
      </trkpt>
      <trkpt lat="35.94593499790499" lon="120.21215574827065">
        <time>2017-09-18T13:40:54.089000Z</time>
      </trkpt>
      <trkpt lat="35.94582121356944" lon="120.21218617457916">
        <ele>8.400134285369987</ele>
        <time>2017-09-18T13:40:58.084000Z</time>
      </trkpt>
      <trkpt lat="35.94570705204824" lon="120.21220863807966">
        <time>2017-09-18T13:41:02.070000Z</time>
      </trkpt>
      <trkpt lat="35.945597752030885" lon="120.21220394421388">
        <time>2017-09-18T13:41:06.073000Z</time>
      </trkpt>
      <trkpt lat="35.94550471290568" lon="120.21222054038216">
        <ele>8.571883400360221</ele>
        <time>2017-09-18T13:41:10.067000Z</time>
      </trkpt>
      <trkpt lat="35.94541091940919" lon="120.21227443601956">
        <time>2017-09-18T13:41:14.063000Z</time>
      </trkpt>
      <trkpt lat="35.945318802293336" lon="120.21235574048032">
        <ele>8.63794251290905</ele>
        <time>2017-09-18T13:41:18.084000Z</time>
      </trkpt>
      <trkpt lat="35.9452172136269" lon="120.21240888174643">
        <time>2017-09-18T13:41:22.083000Z</time>
      </trkpt>
      <trkpt lat="35.94511621169368" lon="120.21245179709067">
        <time>2017-09-18T13:41:26.091000Z</time>
      </trkpt>
      <trkpt lat="35.94503100964794" lon="120.21249094057848">
        <ele>8.748919685760612</ele>
        <time>2017-09-18T13:41:30.082000Z</time>
      </trkpt>
      <trkpt lat="35.944930301081335" lon="120.21252069633474">
        <time>2017-09-18T13:41:34.083000Z</time>
      </trkpt>
      <trkpt lat="35.94484476375947" lon="120.21256143238415">
        <time>2017-09-18T13:41:37.091000Z</time>
      </trkpt>
      <trkpt lat="35.944753862019574" lon="120.2125948761778">
        <ele>8.918029030243034</ele>
        <time>2017-09-18T13:41:41.062000Z</time>
      </trkpt>
      <trkpt lat="35.9446619544513" lon="120.21263645041753">
        <time>2017-09-18T13:41:45.119000Z</time>
      </trkpt>
      <trkpt lat="35.94457859642426" lon="120.21270291890968">
        <ele>8.902175148407096</ele>
        <time>2017-09-18T13:41:49.081000Z</time>
      </trkpt>
      <trkpt lat="35.944483419913745" lon="120.21276871684958">
        <time>2017-09-18T13:41:53.081000Z</time>
      </trkpt>
      <trkpt lat="35.94438363335649" lon="120.21281532023121">
        <ele>9.026362617889518</ele>
        <time>2017-09-18T13:41:59.078000Z</time>
      </trkpt>
      <trkpt lat="35.94427902720491" lon="120.21285966049899">
        <time>2017-09-18T13:42:04.078000Z</time>
      </trkpt>
      <trkpt lat="35.944186574812925" lon="120.21293509762754">
        <ele>9.554827888885612</ele>
        <time>2017-09-18T13:42:08.061000Z</time>
      </trkpt>
      <trkpt lat="35.94410661145667" lon="120.21298815507461">
        <time>2017-09-18T13:42:11.063000Z</time>
      </trkpt>
      <trkpt lat="35.94400200530509" lon="120.2130562999474">
        <time>2017-09-18T13:42:15.060000Z</time>
      </trkpt>
      <trkpt lat="35.94389718960593" lon="120.21310851920416">
        <ele>10.397727211395377</ele>
        <time>2017-09-18T13:42:19.080000Z</time>
      </trkpt>
      <trkpt lat="35.943808089975214" lon="120.21312570210566">
        <time>2017-09-18T13:42:22.074000Z</time>
      </trkpt>
      <trkpt lat="35.943696526844" lon="120.21308027219047">
        <time>2017-09-18T13:42:26.098000Z</time>
      </trkpt>
      <trkpt lat="35.9436360095031" lon="120.21298748452236">
        <ele>10.735945900360221</ele>
        <time>2017-09-18T13:42:29.082000Z</time>
      </trkpt>
      <trkpt lat="35.9435852570794" lon="120.21288547676076">
        <time>2017-09-18T13:42:32.089000Z</time>
      </trkpt>
      <trkpt lat="35.94355445358524" lon="120.21276762720217">
        <time>2017-09-18T13:42:35.085000Z</time>
      </trkpt>
      <trkpt lat="35.94354477248708" lon="120.2126503643768">
        <ele>10.88391419259655</ele>
        <time>2017-09-18T13:42:38.070000Z</time>
      </trkpt>
      <trkpt lat="35.94350135422865" lon="120.21253108989467">
        <time>2017-09-18T13:42:42.089000Z</time>
      </trkpt>
      <trkpt lat="35.9435004322193" lon="120.2124151681738">
        <time>2017-09-18T13:42:45.079000Z</time>
      </trkpt>
      <trkpt lat="35.94349003865937" lon="120.21230301830937">
        <ele>10.669886787811393</ele>
        <time>2017-09-18T13:42:48.071000Z</time>
      </trkpt>
      <trkpt lat="35.94339834063867" lon="120.21221308048834">
        <time>2017-09-18T13:42:52.096000Z</time>
      </trkpt>
      <trkpt lat="35.94330760653684" lon="120.21219413738717">
        <time>2017-09-18T13:42:55.064000Z</time>
      </trkpt>
      <trkpt lat="35.94321217856923" lon="120.21213470969369">
        <ele>10.638179024139518</ele>
        <time>2017-09-18T13:42:59.082000Z</time>
      </trkpt>
      <trkpt lat="35.94311557713518" lon="120.21205700945129">
        <time>2017-09-18T13:43:03.068000Z</time>
      </trkpt>
      <trkpt lat="35.94307815193752" lon="120.21193211909403">
        <time>2017-09-18T13:43:07.081000Z</time>
      </trkpt>
      <trkpt lat="35.94304579779128" lon="120.21181301224996">
        <ele>10.603827675262565</ele>
        <time>2017-09-18T13:43:11.159000Z</time>
      </trkpt>
      <trkpt lat="35.943004558827674" lon="120.21169239666332">
        <time>2017-09-18T13:43:15.082000Z</time>
      </trkpt>
      <trkpt lat="35.942954476956224" lon="120.21157211635281">
        <ele>10.587973793426627</ele>
        <time>2017-09-18T13:43:19.089000Z</time>
      </trkpt>
      <trkpt lat="35.9428925766013" lon="120.2114793286847">
        <time>2017-09-18T13:43:23.084000Z</time>
      </trkpt>
      <trkpt lat="35.942837717045045" lon="120.21138360735048">
        <time>2017-09-18T13:43:27.067000Z</time>
      </trkpt>
      <trkpt lat="35.94277007508645" lon="120.21128872420658">
        <ele>10.619681557098502</ele>
        <time>2017-09-18T13:43:31.070000Z</time>
      </trkpt>
      <trkpt lat="35.942708929102814" lon="120.21116651605834">
        <time>2017-09-18T13:43:35.120000Z</time>
      </trkpt>
      <trkpt lat="35.94263663518796" lon="120.21105151634683">
        <ele>10.611754616180534</ele>
        <time>2017-09-18T13:43:39.079000Z</time>
      </trkpt>
      <trkpt lat="35.94255570791284" lon="120.21095520827939">
        <time>2017-09-18T13:43:43.066000Z</time>
      </trkpt>
      <trkpt lat="35.942498878609335" lon="120.21085554745068">
        <time>2017-09-18T13:43:47.058000Z</time>
      </trkpt>
      <trkpt lat="35.94244531824807" lon="120.21076083194484">
        <ele>10.24183197824108</ele>
        <time>2017-09-18T13:43:51.087000Z</time>
      </trkpt>
      <trkpt lat="35.94239171597729" lon="120.21064457494785">
        <time>2017-09-18T13:43:55.099000Z</time>
      </trkpt>
      <trkpt lat="35.94233157582203" lon="120.21055078145136">
        <ele>10.022517403045768</ele>
        <time>2017-09-18T13:43:59.073000Z</time>
      </trkpt>
      <trkpt lat="35.94227642289916" lon="120.21042966295053">
        <time>2017-09-18T13:44:03.088000Z</time>
      </trkpt>
      <trkpt lat="35.942224077913856" lon="120.2103243862467">
        <time>2017-09-18T13:44:07.105000Z</time>
      </trkpt>
      <trkpt lat="35.94217307403306" lon="120.21021315839161">
        <ele>9.792636116424674</ele>
        <time>2017-09-18T13:44:11.104000Z</time>
      </trkpt>
      <trkpt lat="35.942111886139905" lon="120.21011785615255">
        <time>2017-09-18T13:44:15.072000Z</time>
      </trkpt>
      <trkpt lat="35.94204202297697" lon="120.21001903351416">
        <ele>9.800563057342643</ele>
        <time>2017-09-18T13:44:19.098000Z</time>
      </trkpt>
      <trkpt lat="35.94198142181704" lon="120.20990478817393">
        <time>2017-09-18T13:44:23.104000Z</time>
      </trkpt>
      <trkpt lat="35.94191943764309" lon="120.20980345096459">
        <time>2017-09-18T13:44:27.089000Z</time>
      </trkpt>
      <trkpt lat="35.94184756282339" lon="120.20971066329648">
        <ele>9.668448646942252</ele>
        <time>2017-09-18T13:44:31.079000Z</time>
      </trkpt>
      <trkpt lat="35.94178021423141" lon="120.20961192447712">
        <time>2017-09-18T13:44:35.097000Z</time>
      </trkpt>
      <trkpt lat="35.941728246431744" lon="120.20950438465943">
        <ele>9.446494301239127</ele>
        <time>2017-09-18T13:44:39.095000Z</time>
      </trkpt>
      <trkpt lat="35.941720241714215" lon="120.20938863057663">
        <time>2017-09-18T13:44:43.098000Z</time>
      </trkpt>
      <trkpt lat="35.9417651268057" lon="120.2092791629212">
        <time>2017-09-18T13:44:47.067000Z</time>
      </trkpt>
      <trkpt lat="35.941859465125894" lon="120.20925141882171">
        <ele>9.00522538034069</ele>
        <time>2017-09-18T13:44:55.082000Z</time>
      </trkpt>
      <trkpt lat="35.94196453228215" lon="120.20924923952688">
        <ele>8.817622383514518</ele>
        <time>2017-09-18T13:45:02.075000Z</time>
      </trkpt>
      <trkpt lat="35.94206628858665" lon="120.20923507411052">
        <time>2017-09-18T13:45:06.105000Z</time>
      </trkpt>
      <trkpt lat="35.94216016590217" lon="120.2092067432778">
        <ele>8.902175148407096</ele>
        <time>2017-09-18T13:45:10.089000Z</time>
      </trkpt>
      <trkpt lat="35.94225911426911" lon="120.20918210048248">
        <time>2017-09-18T13:45:14.097000Z</time>
      </trkpt>
      <trkpt lat="35.94235030937562" lon="120.2091446333753">
        <time>2017-09-18T13:45:17.095000Z</time>
      </trkpt>
      <trkpt lat="35.94244146257261" lon="120.20908813934793">
        <ele>8.875750740448112</ele>
        <time>2017-09-18T13:45:21.098000Z</time>
      </trkpt>
      <trkpt lat="35.94252955637494" lon="120.20904161978532">
        <time>2017-09-18T13:45:25.095000Z</time>
      </trkpt>
      <trkpt lat="35.94262033238629" lon="120.20898780796696">
        <ele>8.925955971161002</ele>
        <time>2017-09-18T13:45:29.090000Z</time>
      </trkpt>
      <trkpt lat="35.94272141813854" lon="120.20895863894393">
        <time>2017-09-18T13:45:33.106000Z</time>
      </trkpt>
      <trkpt lat="35.94282933514187" lon="120.20894045021404">
        <ele>8.899531563202018</ele>
        <time>2017-09-18T13:45:38.073000Z</time>
      </trkpt>
      <trkpt lat="35.942932306822335" lon="120.20893516961505">
        <time>2017-09-18T13:45:42.084000Z</time>
      </trkpt>
      <trkpt lat="35.943039972368574" lon="120.20894791010787">
        <time>2017-09-18T13:45:46.065000Z</time>
      </trkpt>
      <trkpt lat="35.943131335113144" lon="120.20893600780536">
        <ele>8.9550201496278</ele>
        <time>2017-09-18T13:45:49.066000Z</time>
      </trkpt>
      <trkpt lat="35.94324243723968" lon="120.20889895979334">
        <time>2017-09-18T13:45:53.059000Z</time>
      </trkpt>
      <trkpt lat="35.943335392545855" lon="120.20885093148817">
        <time>2017-09-18T13:45:57.081000Z</time>
      </trkpt>
      <trkpt lat="35.94341862484435" lon="120.20879586238433">
        <ele>8.965590675750846</ele>
        <time>2017-09-18T13:46:01.072000Z</time>
      </trkpt>
      <trkpt lat="35.94350592236588" lon="120.20875990401973">
        <time>2017-09-18T13:46:05.082000Z</time>
      </trkpt>
      <trkpt lat="35.943606547113454" lon="120.20872620876898">
        <ele>8.9550201496278</ele>
        <time>2017-09-18T13:46:09.076000Z</time>
      </trkpt>
      <trkpt lat="35.943699711967206" lon="120.20871070224811">
        <time>2017-09-18T13:46:12.083000Z</time>
      </trkpt>
      <trkpt lat="35.94381521459291" lon="120.20871053461005">
        <time>2017-09-18T13:46:16.079000Z</time>
      </trkpt>
      <trkpt lat="35.94392124566803" lon="120.20873752433826">
        <ele>8.817622383514518</ele>
        <time>2017-09-18T13:46:20.047000Z</time>
      </trkpt>
      <trkpt lat="35.94403595201293" lon="120.20877423707415">
        <time>2017-09-18T13:46:24.042000Z</time>
      </trkpt>
      <trkpt lat="35.94414227645466" lon="120.20882184628417">
        <ele>8.822905739227409</ele>
        <time>2017-09-18T13:46:28.053000Z</time>
      </trkpt>
      <trkpt lat="35.94425467777619" lon="120.20886953931321">
        <time>2017-09-18T13:46:32.069000Z</time>
      </trkpt>
      <trkpt lat="35.94434868082026" lon="120.20888714130987">
        <time>2017-09-18T13:46:36.077000Z</time>
      </trkpt>
      <trkpt lat="35.94445726837585" lon="120.20888169307281">
        <ele>8.743636330047721</ele>
        <time>2017-09-18T13:46:41.076000Z</time>
      </trkpt>
      <trkpt lat="35.94455579764763" lon="120.20888169307281">
        <time>2017-09-18T13:46:45.061000Z</time>
      </trkpt>
      <trkpt lat="35.94466585203627" lon="120.20887146715094">
        <ele>8.775344093719596</ele>
        <time>2017-09-18T13:46:49.058000Z</time>
      </trkpt>
      <trkpt lat="35.94477150592575" lon="120.20883467059602">
        <time>2017-09-18T13:46:53.055000Z</time>
      </trkpt>
      <trkpt lat="35.94488495498518" lon="120.20881840970387">
        <time>2017-09-18T13:46:57.066000Z</time>
      </trkpt>
      <trkpt lat="35.94497506044427" lon="120.20879519183208">
        <ele>8.7013580402528</ele>
        <time>2017-09-18T13:47:01.075000Z</time>
      </trkpt>
      <trkpt lat="35.94506629746029" lon="120.20878111023475">
        <ele>8.616805275360221</ele>
        <time>2017-09-18T13:47:08.068000Z</time>
      </trkpt>
      <trkpt lat="35.945175136472976" lon="120.20877054903676">
        <time>2017-09-18T13:47:13.092000Z</time>
      </trkpt>
      <trkpt lat="35.94527584503958" lon="120.20875990401973">
        <time>2017-09-18T13:47:17.061000Z</time>
      </trkpt>
      <trkpt lat="35.94538128938148" lon="120.20874280493726">
        <ele>8.767417152801627</ele>
        <time>2017-09-18T13:47:21.065000Z</time>
      </trkpt>
      <trkpt lat="35.945492223869955" lon="120.20873308192958">
        <time>2017-09-18T13:47:25.063000Z</time>
      </trkpt>
      <trkpt lat="35.94558807093272" lon="120.2087265440451">
        <ele>8.75156327096569</ele>
        <time>2017-09-18T13:47:29.087000Z</time>
      </trkpt>
      <trkpt lat="35.945691629346406" lon="120.20873291429152">
        <time>2017-09-18T13:47:33.072000Z</time>
      </trkpt>
      <trkpt lat="35.945784626562094" lon="120.20870039250721">
        <ele>9.401572426239127</ele>
        <time>2017-09-18T13:47:38.075000Z</time>
      </trkpt>
      <trkpt lat="35.94587401955942" lon="120.20867927011122">
        <time>2017-09-18T13:47:42.072000Z</time>
      </trkpt>
      <trkpt lat="35.94596668149898" lon="120.20866594288518">
        <time>2017-09-18T13:47:46.076000Z</time>
      </trkpt>
      <trkpt lat="35.946078537996804" lon="120.20865747716297">
        <ele>9.27209778634655</ele>
        <time>2017-09-18T13:47:50.085000Z</time>
      </trkpt>
      <trkpt lat="35.9461945435367" lon="120.20865471113493">
        <time>2017-09-18T13:47:54.074000Z</time>
      </trkpt>
      <trkpt lat="35.94630258626858" lon="120.20862948160638">
        <ele>9.351371010223502</ele>
        <time>2017-09-18T13:47:58.061000Z</time>
      </trkpt>
      <trkpt lat="35.946401576545036" lon="120.20861749548484">
        <time>2017-09-18T13:48:02.072000Z</time>
      </trkpt>
      <trkpt lat="35.946492855470574" lon="120.20860425207783">
        <time>2017-09-18T13:48:05.085000Z</time>
      </trkpt>
      <trkpt lat="35.94659762926022" lon="120.208599390574">
        <ele>9.354010780731315</ele>
        <time>2017-09-18T13:48:09.077000Z</time>
      </trkpt>
      <trkpt lat="35.946703702244854" lon="120.20857089210321">
        <time>2017-09-18T13:48:14.066000Z</time>
      </trkpt>
      <trkpt lat="35.94679305333266" lon="120.2085573972391">
        <ele>9.298522194305534</ele>
        <time>2017-09-18T13:48:18.061000Z</time>
      </trkpt>
      <trkpt lat="35.94690109606454" lon="120.2085700539129">
        <time>2017-09-18T13:48:22.066000Z</time>
      </trkpt>
      <trkpt lat="35.947001762721634" lon="120.20856251020004">
        <time>2017-09-18T13:48:26.064000Z</time>
      </trkpt>
      <trkpt lat="35.947054359164035" lon="120.20846234645714">
        <ele>9.398932655731315</ele>
        <time>2017-09-18T13:48:31.063000Z</time>
      </trkpt>
      <trkpt lat="35.94702221456537" lon="120.20835262734462">
        <time>2017-09-18T13:48:34.046000Z</time>
      </trkpt>
      <trkpt lat="35.946990405242836" lon="120.20822203729321">
        <ele>9.3804351886903</ele>
        <time>2017-09-18T13:48:38.072000Z</time>
      </trkpt>
      <trkpt lat="35.94696999530861" lon="120.20808038312961">
        <time>2017-09-18T13:48:42.077000Z</time>
      </trkpt>
      <trkpt lat="35.94696085903416" lon="120.20794342283179">
        <time>2017-09-18T13:48:46.067000Z</time>
      </trkpt>
      <trkpt lat="35.94695071693132" lon="120.20781425770392">
        <ele>9.663161476532096</ele>
        <time>2017-09-18T13:48:50.071000Z</time>
      </trkpt>
      <trkpt lat="35.9469440533183" lon="120.20769037317504">
        <time>2017-09-18T13:48:54.080000Z</time>
      </trkpt>
      <trkpt lat="35.94693319875369" lon="120.20755483780076">
        <ele>9.784709175506705</ele>
        <time>2017-09-18T13:48:58.072000Z</time>
      </trkpt>
      <trkpt lat="35.94690830450127" lon="120.20743430603315">
        <time>2017-09-18T13:49:02.068000Z</time>
      </trkpt>
      <trkpt lat="35.94690029978374" lon="120.20729768101145">
        <time>2017-09-18T13:49:06.067000Z</time>
      </trkpt>
      <trkpt lat="35.94690352681646" lon="120.20718117255737">
        <ele>9.631453712860221</ele>
        <time>2017-09-18T13:49:10.064000Z</time>
      </trkpt>
      <trkpt lat="35.9469422092996" lon="120.20705946732332">
        <time>2017-09-18T13:49:14.074000Z</time>
      </trkpt>
      <trkpt lat="35.946985459919965" lon="120.20693298440446">
        <ele>9.805846413055534</ele>
        <time>2017-09-18T13:49:18.062000Z</time>
      </trkpt>
      <trkpt lat="35.947045767713284" lon="120.206828713529">
        <time>2017-09-18T13:49:22.050000Z</time>
      </trkpt>
      <trkpt lat="35.947103644754684" lon="120.20673626113702">
        <time>2017-09-18T13:49:26.062000Z</time>
      </trkpt>
      <trkpt lat="35.94714073467622" lon="120.20661396916975">
        <ele>9.293238838592643</ele>
        <time>2017-09-18T13:49:31.060000Z</time>
      </trkpt>
      <trkpt lat="35.94716567083815" lon="120.20648187037577">
        <time>2017-09-18T13:49:35.068000Z</time>
      </trkpt>
      <trkpt lat="35.947242449071204" lon="120.20638899888863">
        <ele>9.660521706024284</ele>
        <time>2017-09-18T13:49:39.067000Z</time>
      </trkpt>
      <trkpt lat="35.94732685483614" lon="120.20631381321718">
        <time>2017-09-18T13:49:43.063000Z</time>
      </trkpt>
      <trkpt lat="35.94738251067321" lon="120.20619940023889">
        <time>2017-09-18T13:49:47.084000Z</time>
      </trkpt>
      <trkpt lat="35.94743804078172" lon="120.2060902678596">
        <ele>9.27209778634655</ele>
        <time>2017-09-18T13:49:51.061000Z</time>
      </trkpt>
      <trkpt lat="35.947472280856175" lon="120.20597459759581">
        <time>2017-09-18T13:49:55.067000Z</time>
      </trkpt>
      <trkpt lat="35.94750337771694" lon="120.20585909497011">
        <ele>8.9550201496278</ele>
        <time>2017-09-18T13:49:59.067000Z</time>
      </trkpt>
      <trkpt lat="35.94755894973497" lon="120.20574493344891">
        <time>2017-09-18T13:50:03.069000Z</time>
      </trkpt>
      <trkpt lat="35.9476221911944" lon="120.20562867645192">
        <time>2017-09-18T13:50:07.073000Z</time>
      </trkpt>
      <trkpt lat="35.94766829166184" lon="120.20552490849066">
        <ele>9.13733979074108</ele>
        <time>2017-09-18T13:50:11.084000Z</time>
      </trkpt>
      <trkpt lat="35.947708524797065" lon="120.20540697511304">
        <time>2017-09-18T13:50:15.077000Z</time>
      </trkpt>
      <trkpt lat="35.94774125612895" lon="120.20528166566062">
        <ele>8.867823799530143</ele>
        <time>2017-09-18T13:50:19.082000Z</time>
      </trkpt>
      <trkpt lat="35.947783291373355" lon="120.20517211418617">
        <time>2017-09-18T13:50:23.058000Z</time>
      </trkpt>
      <trkpt lat="35.94782218340407" lon="120.20506348472107">
        <time>2017-09-18T13:50:27.060000Z</time>
      </trkpt>
      <trkpt lat="35.94786254226784" lon="120.204949658476">
        <ele>8.727782448211784</ele>
        <time>2017-09-18T13:50:31.065000Z</time>
      </trkpt>
      <trkpt lat="35.94788747842978" lon="120.20482812088001">
        <time>2017-09-18T13:50:35.065000Z</time>
      </trkpt>
      <trkpt lat="35.947895902242465" lon="120.20470038067567">
        <ele>9.007868965545768</ele>
        <time>2017-09-18T13:50:39.074000Z</time>
      </trkpt>
      <trkpt lat="35.94789565078537" lon="120.20457272429037">
        <time>2017-09-18T13:50:43.071000Z</time>
      </trkpt>
      <trkpt lat="35.94789020254831" lon="120.20444096077252">
        <time>2017-09-18T13:50:47.065000Z</time>
      </trkpt>
      <trkpt lat="35.94787700105081" lon="120.20430584449339">
        <ele>8.727782448211784</ele>
        <time>2017-09-18T13:50:51.076000Z</time>
      </trkpt>
      <trkpt lat="35.94787138517569" lon="120.20417776901293">
        <time>2017-09-18T13:50:55.055000Z</time>
      </trkpt>
      <trkpt lat="35.94798273875932" lon="120.20420786004532">
        <ele>8.674933632293815</ele>
        <time>2017-09-18T13:51:00.058000Z</time>
      </trkpt>
      <trkpt lat="35.948049793984694" lon="120.20430400047469">
        <time>2017-09-18T13:51:03.094000Z</time>
      </trkpt>
      <trkpt lat="35.948126278851134" lon="120.20436284143496">
        <time>2017-09-18T13:51:06.077000Z</time>
      </trkpt>
      <trkpt lat="35.94823515977333" lon="120.20441095355916">
        <ele>8.875750740448112</ele>
        <time>2017-09-18T13:51:10.069000Z</time>
      </trkpt>
      <trkpt lat="35.948336203616066" lon="120.2044575569408">
        <time>2017-09-18T13:51:14.074000Z</time>
      </trkpt>
      <trkpt lat="35.948437373187346" lon="120.20446199934948">
        <ele>8.949736793914909</ele>
        <time>2017-09-18T13:51:18.074000Z</time>
      </trkpt>
      <trkpt lat="35.94853334597866" lon="120.20439561467636">
        <time>2017-09-18T13:51:22.074000Z</time>
      </trkpt>
      <trkpt lat="35.948631749521894" lon="120.20439033407736">
        <time>2017-09-18T13:51:26.071000Z</time>
      </trkpt>
      <trkpt lat="35.94873275145511" lon="120.20441489305365">
        <ele>9.589179237762565</ele>
        <time>2017-09-18T13:51:30.068000Z</time>
      </trkpt>
      <trkpt lat="35.948840458910865" lon="120.20444020640123">
        <time>2017-09-18T13:51:34.071000Z</time>
      </trkpt>
      <trkpt lat="35.94894108365844" lon="120.20444548700023">
        <ele>9.893046577850455</ele>
        <time>2017-09-18T13:51:38.071000Z</time>
      </trkpt>
      <trkpt lat="35.94904254659633" lon="120.20445168960858">
        <time>2017-09-18T13:51:42.079000Z</time>
      </trkpt>
      <trkpt lat="35.949148032847745" lon="120.20447909843195">
        <time>2017-09-18T13:51:46.074000Z</time>
      </trkpt>
      <trkpt lat="35.94925289045642" lon="120.20450583670306">
        <ele>10.24975891915905</ele>
        <time>2017-09-18T13:51:50.067000Z</time>
      </trkpt>
      <trkpt lat="35.94934253491084" lon="120.20452679146099">
        <time>2017-09-18T13:51:53.063000Z</time>
      </trkpt>
      <trkpt lat="35.94943410720299" lon="120.20454925496149">
        <time>2017-09-18T13:51:56.059000Z</time>
      </trkpt>
      <trkpt lat="35.9495295351706" lon="120.20456526439655">
        <ele>10.302603920379752</ele>
        <time>2017-09-18T13:51:59.064000Z</time>
      </trkpt>
      <trkpt lat="35.94962232283871" lon="120.20457867544162">
        <time>2017-09-18T13:52:02.056000Z</time>
      </trkpt>
      <trkpt lat="35.949723701957566" lon="120.20457817252743">
        <time>2017-09-18T13:52:06.072000Z</time>
      </trkpt>
      <trkpt lat="35.949831074137194" lon="120.20458169292677">
        <ele>10.175772865692252</ele>
        <time>2017-09-18T13:52:10.058000Z</time>
      </trkpt>
      <trkpt lat="35.949941631440026" lon="120.20459124829638">
        <time>2017-09-18T13:52:14.048000Z</time>
      </trkpt>
      <trkpt lat="35.950035424936516" lon="120.20459351141024">
        <time>2017-09-18T13:52:17.060000Z</time>
      </trkpt>
      <trkpt lat="35.950136804055376" lon="120.20458982337284">
        <ele>9.81113358346569</ele>
        <time>2017-09-18T13:52:20.054000Z</time>
      </trkpt>
      <trkpt lat="35.950249917838676" lon="120.20456476148236">
        <time>2017-09-18T13:52:24.084000Z</time>
      </trkpt>
      <trkpt lat="35.95033943656455" lon="120.20453249115515">
        <time>2017-09-18T13:52:27.068000Z</time>
      </trkpt>
      <trkpt lat="35.95044571909676" lon="120.20451706845331">
        <ele>9.87983246652233</ele>
        <time>2017-09-18T13:52:30.070000Z</time>
      </trkpt>
      <trkpt lat="35.95053385480861" lon="120.20457540649939">
        <time>2017-09-18T13:52:33.053000Z</time>
      </trkpt>
      <trkpt lat="35.950625678557856" lon="120.20463131379354">
        <time>2017-09-18T13:52:36.053000Z</time>
      </trkpt>
      <trkpt lat="35.950745791230304" lon="120.2046161425488">
        <ele>10.463786323944205</ele>
        <time>2017-09-18T13:52:39.067000Z</time>
      </trkpt>
      <trkpt lat="35.950847757082386" lon="120.20460784446466">
        <time>2017-09-18T13:52:42.053000Z</time>
      </trkpt>
      <trkpt lat="35.9509566799141" lon="120.20459351141024">
        <time>2017-09-18T13:52:46.051000Z</time>
      </trkpt>
      <trkpt lat="35.95106966796885" lon="120.20456844951975">
        <ele>10.170489509979362</ele>
        <time>2017-09-18T13:52:50.050000Z</time>
      </trkpt>
      <trkpt lat="35.95118039290975" lon="120.2045469080286">
        <time>2017-09-18T13:52:54.207000Z</time>
      </trkpt>
      <trkpt lat="35.95128080810974" lon="120.20452871929872">
        <ele>9.668448646942252</ele>
        <time>2017-09-18T13:52:58.065000Z</time>
      </trkpt>
      <trkpt lat="35.95139719083528" lon="120.20451371569204">
        <time>2017-09-18T13:53:02.071000Z</time>
      </trkpt>
      <trkpt lat="35.951504688743455" lon="120.20450147811341">
        <time>2017-09-18T13:53:06.054000Z</time>
      </trkpt>
      <trkpt lat="35.95160527158151" lon="120.20447834406066">
        <ele>9.462348183075065</ele>
        <time>2017-09-18T13:53:10.062000Z</time>
      </trkpt>
      <trkpt lat="35.951712308485014" lon="120.20446266990173">
        <time>2017-09-18T13:53:14.057000Z</time>
      </trkpt>
      <trkpt lat="35.95182097985963" lon="120.20444582227636">
        <ele>9.153193672577018</ele>
        <time>2017-09-18T13:53:18.075000Z</time>
      </trkpt>
      <trkpt lat="35.951918293755455" lon="120.20442696299422">
        <time>2017-09-18T13:53:22.057000Z</time>
      </trkpt>
      <trkpt lat="35.952009656500024" lon="120.20440139818955">
        <time>2017-09-18T13:53:25.067000Z</time>
      </trkpt>
      <trkpt lat="35.95212214164059" lon="120.2043846343832">
        <ele>9.047503670135612</ele>
        <time>2017-09-18T13:53:29.060000Z</time>
      </trkpt>
      <trkpt lat="35.952227795530064" lon="120.20435647118855">
        <time>2017-09-18T13:53:33.049000Z</time>
      </trkpt>
      <trkpt lat="35.95233479052405" lon="120.2043314931171">
        <time>2017-09-18T13:53:37.071000Z</time>
      </trkpt>
      <trkpt lat="35.95245414882521" lon="120.2043293976413">
        <ele>8.910102089325065</ele>
        <time>2017-09-18T13:53:41.057000Z</time>
      </trkpt>
      <trkpt lat="35.95255946743856" lon="120.20433040346968">
        <time>2017-09-18T13:53:45.073000Z</time>
      </trkpt>
      <trkpt lat="35.95266298394273" lon="120.20430844288337">
        <ele>8.9999420246278</ele>
        <time>2017-09-18T13:53:49.065000Z</time>
      </trkpt>
      <trkpt lat="35.952763399142725" lon="120.20429427746701">
        <time>2017-09-18T13:53:53.071000Z</time>
      </trkpt>
      <trkpt lat="35.95286976549397" lon="120.20428212370742">
        <time>2017-09-18T13:53:57.098000Z</time>
      </trkpt>
      <trkpt lat="35.95296435527126" lon="120.20425966020692">
        <ele>9.036933144012565</ele>
        <time>2017-09-18T13:54:02.063000Z</time>
      </trkpt>
      <trkpt lat="35.953074828755064" lon="120.20422772515583">
        <time>2017-09-18T13:54:06.064000Z</time>
      </trkpt>
      <trkpt lat="35.95318563751499" lon="120.20421615812946">
        <ele>9.198115547577018</ele>
        <time>2017-09-18T13:54:10.081000Z</time>
      </trkpt>
      <trkpt lat="35.953288483466906" lon="120.20420283090341">
        <time>2017-09-18T13:54:14.071000Z</time>
      </trkpt>
      <trkpt lat="35.953392209518654" lon="120.20420626748371">
        <ele>9.49933930245983</ele>
        <time>2017-09-18T13:54:18.077000Z</time>
      </trkpt>
      <trkpt lat="35.953479507040186" lon="120.20417433243263">
        <time>2017-09-18T13:54:22.080000Z</time>
      </trkpt>
      <trkpt lat="35.953577449578745" lon="120.20414985727537">
        <time>2017-09-18T13:54:26.060000Z</time>
      </trkpt>
      <trkpt lat="35.95368599522482" lon="120.20413476984966">
        <ele>9.726577003875846</ele>
        <time>2017-09-18T13:54:30.058000Z</time>
      </trkpt>
      <trkpt lat="35.9537853207774" lon="120.20413502130675">
        <time>2017-09-18T13:54:34.066000Z</time>
      </trkpt>
      <trkpt lat="35.95387655779342" lon="120.20412487920392">
        <time>2017-09-18T13:54:37.070000Z</time>
      </trkpt>
      <trkpt lat="35.95399159941445" lon="120.20410375680792">
        <ele>10.038371284881705</ele>
        <time>2017-09-18T13:54:41.085000Z</time>
      </trkpt>
      <trkpt lat="35.954099306870205" lon="120.20407341431844">
        <time>2017-09-18T13:54:45.069000Z</time>
      </trkpt>
      <trkpt lat="35.95420793633531" lon="120.20404458057153">
        <ele>10.4400055011903</ele>
        <time>2017-09-18T13:54:49.066000Z</time>
      </trkpt>
      <trkpt lat="35.954316440071864" lon="120.20403142098355">
        <time>2017-09-18T13:54:53.084000Z</time>
      </trkpt>
      <trkpt lat="35.95443609173964" lon="120.20402530219424">
        <time>2017-09-18T13:54:57.071000Z</time>
      </trkpt>
      <trkpt lat="35.954539608243806" lon="120.20399747427571">
        <ele>11.01074524728405</ele>
        <time>2017-09-18T13:55:01.070000Z</time>
      </trkpt>
      <trkpt lat="35.95464995599906" lon="120.2039704845475">
        <time>2017-09-18T13:55:06.071000Z</time>
      </trkpt>
      <trkpt lat="35.95474291130523" lon="120.20392061222363">
        <ele>11.592055519500846</ele>
        <time>2017-09-18T13:55:10.066000Z</time>
      </trkpt>
      <trkpt lat="35.95484148248653" lon="120.20384735438991">
        <time>2017-09-18T13:55:14.069000Z</time>
      </trkpt>
      <trkpt lat="35.954929953474505" lon="120.20379479985702">
        <ele>12.271132667938346</ele>
        <time>2017-09-18T13:55:18.074000Z</time>
      </trkpt>
      <trkpt lat="35.95501494597267" lon="120.2037199494617">
        <time>2017-09-18T13:55:22.068000Z</time>
      </trkpt>
      <trkpt lat="35.955106560174336" lon="120.20375791948307">
        <time>2017-09-18T13:55:26.072000Z</time>
      </trkpt>
      <trkpt lat="35.95514528456699" lon="120.20387954089809">
        <ele>13.055899818817252</ele>
        <time>2017-09-18T13:55:29.076000Z</time>
      </trkpt>
      <trkpt lat="35.95516317993026" lon="120.20399336714316">
        <time>2017-09-18T13:55:32.066000Z</time>
      </trkpt>
      <trkpt lat="35.955167287062814" lon="120.20412873487938">
        <time>2017-09-18T13:55:36.046000Z</time>
      </trkpt>
      <trkpt lat="35.95514729622375" lon="120.20426762301493">
        <ele>13.616072853485221</ele>
        <time>2017-09-18T13:55:40.050000Z</time>
      </trkpt>
      <trkpt lat="35.95516062344979" lon="120.20440952863562">
        <time>2017-09-18T13:55:44.059000Z</time>
      </trkpt>
      <trkpt lat="35.955185978706886" lon="120.20453995104897">
        <ele>14.305716713348502</ele>
        <time>2017-09-18T13:55:48.042000Z</time>
      </trkpt>
      <trkpt lat="35.95520852602642" lon="120.20464858051407">
        <time>2017-09-18T13:55:51.060000Z</time>
      </trkpt>
      <trkpt lat="35.955225667018404" lon="120.20478336151707">
        <time>2017-09-18T13:55:55.051000Z</time>
      </trkpt>
      <trkpt lat="35.95525320157032" lon="120.20492367457616">
        <ele>15.449843605438346</ele>
        <time>2017-09-18T13:55:59.066000Z</time>
      </trkpt>
      <trkpt lat="35.95527729954194" lon="120.20504504453409">
        <time>2017-09-18T13:56:03.067000Z</time>
      </trkpt>
      <trkpt lat="35.95530089459937" lon="120.20516993489134">
        <time>2017-09-18T13:56:07.063000Z</time>
      </trkpt>
      <trkpt lat="35.955316317301204" lon="120.20528459932673">
        <ele>16.416930397430534</ele>
        <time>2017-09-18T13:56:10.071000Z</time>
      </trkpt>
      <trkpt lat="35.95533010553192" lon="120.2054087353127">
        <time>2017-09-18T13:56:14.039000Z</time>
      </trkpt>
      <trkpt lat="35.95536501615863" lon="120.20552641723323">
        <time>2017-09-18T13:56:17.054000Z</time>
      </trkpt>
      <trkpt lat="35.955367321182" lon="120.20565365452337">
        <ele>16.82120438424694</ele>
        <time>2017-09-18T13:56:21.058000Z</time>
      </trkpt>
      <trkpt lat="35.955336643416395" lon="120.20577192317712">
        <time>2017-09-18T13:56:25.054000Z</time>
      </trkpt>
      <trkpt lat="35.95533316492658" lon="120.20588331867027">
        <ele>16.807997902313346</ele>
        <time>2017-09-18T13:56:29.071000Z</time>
      </trkpt>
      <trkpt lat="35.95540005251389" lon="120.20596613187361">
        <ele>20.86131211129772</ele>
        <time>2017-09-18T13:56:39.069000Z</time>
      </trkpt>
      <trkpt lat="35.95550390429418" lon="120.20596034836042">
        <time>2017-09-18T13:56:43.066000Z</time>
      </trkpt>
      <trkpt lat="35.95559966753792" lon="120.20594140525925">
        <time>2017-09-18T13:56:47.051000Z</time>
      </trkpt>
      <trkpt lat="35.95564090650152" lon="120.20604089844991">
        <ele>20.517813881317252</ele>
        <time>2017-09-18T13:56:58.063000Z</time>
      </trkpt>
      <trkpt lat="35.955631602589" lon="120.20615774218012">
        <time>2017-09-18T13:57:05.055000Z</time>
      </trkpt>
      <trkpt lat="35.95565004277598" lon="120.20627274189164">
        <ele>16.316527565399284</ele>
        <time>2017-09-18T13:57:08.060000Z</time>
      </trkpt>
      <trkpt lat="35.955686210688164" lon="120.20639478240182">
        <time>2017-09-18T13:57:12.064000Z</time>
      </trkpt>
      <trkpt lat="35.95570951237898" lon="120.20650324422886">
        <time>2017-09-18T13:57:15.068000Z</time>
      </trkpt>
      <trkpt lat="35.95572309106212" lon="120.2066130471604">
        <ele>14.924018104950065</ele>
        <time>2017-09-18T13:57:19.045000Z</time>
      </trkpt>
      <trkpt lat="35.95572770110886" lon="120.20672435883452">
        <time>2017-09-18T13:57:22.051000Z</time>
      </trkpt>
      <trkpt lat="35.95573604110252" lon="120.20684304658343">
        <time>2017-09-18T13:57:25.056000Z</time>
      </trkpt>
      <trkpt lat="35.95573792703073" lon="120.20695729192366">
        <ele>14.76547928659069</ele>
        <time>2017-09-18T13:57:28.056000Z</time>
      </trkpt>
      <trkpt lat="35.95573340080302" lon="120.20709928136338">
        <time>2017-09-18T13:57:32.046000Z</time>
      </trkpt>
      <trkpt lat="35.95573553818833" lon="120.2072296199577">
        <time>2017-09-18T13:57:36.039000Z</time>
      </trkpt>
      <trkpt lat="35.95574442300569" lon="120.20736850809325">
        <ele>14.63864823190319</ele>
        <time>2017-09-18T13:57:40.050000Z</time>
      </trkpt>
      <trkpt lat="35.95574547074359" lon="120.20749809231629">
        <time>2017-09-18T13:57:44.073000Z</time>
      </trkpt>
      <trkpt lat="35.95575117043774" lon="120.20762004900743">
        <ele>14.871176918426627</ele>
        <time>2017-09-18T13:57:48.066000Z</time>
      </trkpt>
      <trkpt lat="35.95584165308248" lon="120.20762331794967">
        <time>2017-09-18T13:57:51.070000Z</time>
      </trkpt>
      <trkpt lat="35.955942571196665" lon="120.20758819777538">
        <time>2017-09-18T13:57:55.069000Z</time>
      </trkpt>
      <trkpt lat="35.95604353122037" lon="120.20755114976336">
        <ele>16.617751320282096</ele>
        <time>2017-09-18T13:57:59.045000Z</time>
      </trkpt>
      <trkpt lat="35.95613778572153" lon="120.20750429492463">
        <time>2017-09-18T13:58:04.071000Z</time>
      </trkpt>
      <trkpt lat="35.956228687461426" lon="120.20746540289392">
        <ele>17.479148109832877</ele>
        <time>2017-09-18T13:58:08.057000Z</time>
      </trkpt>
    </trkseg>
  </trk>
</gpx>