<?xml version="1.0" encoding="UTF-8"?>
<gpx xmlns="http://www.topografix.com/GPX/1/1" xmlns:gpxtpx="http://www.garmin.com/xmlschemas/TrackPointExtension/v1" xmlns:xsi="http://www.w3.org/2001/XMLSchema-instance" xsi:schemaLocation="http://www.topografix.com/GPX/1/1 http://www.topografix.com/GPX/1/1/gpx.xsd" version="1.1" creator="gpx.py -- https://github.com/tkrajina/gpxpy">
  <trk>
    <name>星期五 早上路跑</name>
    <trkseg>
      <trkpt lat="35.955871031653096" lon="120.2127782722192">
        <ele>0.0792694091796875</ele>
        <time>2017-09-28T21:29:20.093000Z</time>
      </trkpt>
      <trkpt lat="35.95589730891954" lon="120.21290819171836">
        <ele>0</ele>
        <time>2017-09-28T21:29:24.076000Z</time>
      </trkpt>
      <trkpt lat="35.955939427982976" lon="120.21300910983254">
        <time>2017-09-28T21:29:28.078000Z</time>
      </trkpt>
      <trkpt lat="35.95599110241603" lon="120.21311966713537">
        <ele>0.2536640167236328</ele>
        <time>2017-09-28T21:29:32.094000Z</time>
      </trkpt>
      <trkpt lat="35.955998436581304" lon="120.21323139790465">
        <time>2017-09-28T21:29:35.080000Z</time>
      </trkpt>
      <trkpt lat="35.955965747158935" lon="120.21333734516074">
        <time>2017-09-28T21:29:38.089000Z</time>
      </trkpt>
      <trkpt lat="35.95590258951854" lon="120.21343256358077">
        <ele>0.1902484893798828</ele>
        <time>2017-09-28T21:29:41.091000Z</time>
      </trkpt>
      <trkpt lat="35.95579898919534" lon="120.21350498322417">
        <time>2017-09-28T21:29:45.099000Z</time>
      </trkpt>
      <trkpt lat="35.95569442495327" lon="120.213520405926">
        <time>2017-09-28T21:29:48.167000Z</time>
      </trkpt>
      <trkpt lat="35.95560260120403" lon="120.21353817556073">
        <ele>-0.221954345703125</ele>
        <time>2017-09-28T21:29:51.066000Z</time>
      </trkpt>
      <trkpt lat="35.95548781104009" lon="120.21357581030597">
        <time>2017-09-28T21:29:55.179000Z</time>
      </trkpt>
      <trkpt lat="35.955379349213054" lon="120.21361176867057">
        <time>2017-09-28T21:29:59.094000Z</time>
      </trkpt>
      <trkpt lat="35.955277048084845" lon="120.2136556898432">
        <ele>-0.3012237548828125</ele>
        <time>2017-09-28T21:30:03.072000Z</time>
      </trkpt>
      <trkpt lat="35.95517956655096" lon="120.21367865625788">
        <time>2017-09-28T21:30:06.075000Z</time>
      </trkpt>
      <trkpt lat="35.9550765948705" lon="120.21371486607958">
        <time>2017-09-28T21:30:10.076000Z</time>
      </trkpt>
      <trkpt lat="35.954986070316245" lon="120.21379642199744">
        <ele>-0.5126094818115234</ele>
        <time>2017-09-28T21:30:14.062000Z</time>
      </trkpt>
      <trkpt lat="35.95487882386516" lon="120.21382919523884">
        <time>2017-09-28T21:30:18.073000Z</time>
      </trkpt>
      <trkpt lat="35.954765249077184" lon="120.21385191019644">
        <ele>-0.9459495544433594</ele>
        <time>2017-09-28T21:30:22.066000Z</time>
      </trkpt>
      <trkpt lat="35.95465733207385" lon="120.21385962154736">
        <time>2017-09-28T21:30:25.080000Z</time>
      </trkpt>
      <trkpt lat="35.95456697515766" lon="120.21384143281747">
        <time>2017-09-28T21:30:28.076000Z</time>
      </trkpt>
      <trkpt lat="35.95446756578605" lon="120.21380069676806">
        <ele>-1.1784744262695312</ele>
        <time>2017-09-28T21:30:31.079000Z</time>
      </trkpt>
      <trkpt lat="35.954370670985384" lon="120.21378250803818">
        <time>2017-09-28T21:30:34.075000Z</time>
      </trkpt>
      <trkpt lat="35.954285971853835" lon="120.21384327683617">
        <time>2017-09-28T21:30:37.094000Z</time>
      </trkpt>
      <trkpt lat="35.95417574982713" lon="120.21386540506055">
        <ele>-1.2630271911621094</ele>
        <time>2017-09-28T21:30:42.084000Z</time>
      </trkpt>
      <trkpt lat="35.95408702738206" lon="120.2138991003113">
        <time>2017-09-28T21:30:46.087000Z</time>
      </trkpt>
      <trkpt lat="35.95398191831629" lon="120.21395391795804">
        <time>2017-09-28T21:30:50.104000Z</time>
      </trkpt>
      <trkpt lat="35.95387710261713" lon="120.21400278445353">
        <ele>-1.1097736358642578</ele>
        <time>2017-09-28T21:30:54.080000Z</time>
      </trkpt>
      <trkpt lat="35.95377304128925" lon="120.21403564151396">
        <time>2017-09-28T21:30:57.072000Z</time>
      </trkpt>
      <trkpt lat="35.95367057252298" lon="120.21407084550728">
        <ele>-1.1467666625976562</ele>
        <time>2017-09-28T21:31:02.065000Z</time>
      </trkpt>
      <trkpt lat="35.95357619229327" lon="120.21403245639075">
        <time>2017-09-28T21:31:06.072000Z</time>
      </trkpt>
      <trkpt lat="35.953464629162056" lon="120.21406330179443">
        <time>2017-09-28T21:31:09.073000Z</time>
      </trkpt>
      <trkpt lat="35.953374188426835" lon="120.21407017495503">
        <ele>-0.6870021820068359</ele>
        <time>2017-09-28T21:31:12.081000Z</time>
      </trkpt>
      <trkpt lat="35.953286974724335" lon="120.21404033537974">
        <time>2017-09-28T21:31:16.089000Z</time>
      </trkpt>
      <trkpt lat="35.953187230076594" lon="120.21401384856571">
        <ele>-0.28008460998535156</ele>
        <time>2017-09-28T21:31:21.088000Z</time>
      </trkpt>
      <trkpt lat="35.95310311767827" lon="120.21394989464451">
        <time>2017-09-28T21:31:25.076000Z</time>
      </trkpt>
      <trkpt lat="35.95299331474672" lon="120.21386909309794">
        <time>2017-09-28T21:31:29.075000Z</time>
      </trkpt>
      <trkpt lat="35.952896336127026" lon="120.2138023731487">
        <ele>-0.005283355712890625</ele>
        <time>2017-09-28T21:31:32.075000Z</time>
      </trkpt>
      <trkpt lat="35.95280505720149" lon="120.21371796738376">
        <time>2017-09-28T21:31:36.065000Z</time>
      </trkpt>
      <trkpt lat="35.952750952016515" lon="120.21362886775304">
        <time>2017-09-28T21:31:39.072000Z</time>
      </trkpt>
      <trkpt lat="35.9526877524666" lon="120.21353172149529">
        <ele>0.3117942810058594</ele>
        <time>2017-09-28T21:31:42.066000Z</time>
      </trkpt>
      <trkpt lat="35.95261793121318" lon="120.21342971373369">
        <time>2017-09-28T21:31:46.072000Z</time>
      </trkpt>
      <trkpt lat="35.952553558196826" lon="120.21332653250565">
        <ele>0.3593559265136719</ele>
        <time>2017-09-28T21:31:51.069000Z</time>
      </trkpt>
      <trkpt lat="35.95254764895509" lon="120.21318915311267">
        <time>2017-09-28T21:31:57.077000Z</time>
      </trkpt>
      <trkpt lat="35.95253972805659" lon="120.21306552004089">
        <time>2017-09-28T21:32:00.080000Z</time>
      </trkpt>
      <trkpt lat="35.95253847077112" lon="120.21293166104724">
        <ele>0.40163421630859375</ele>
        <time>2017-09-28T21:32:03.078000Z</time>
      </trkpt>
      <trkpt lat="35.952531513791484" lon="120.2127952036636">
        <time>2017-09-28T21:32:06.077000Z</time>
      </trkpt>
      <trkpt lat="35.95251910857479" lon="120.21265489060451">
        <time>2017-09-28T21:32:09.082000Z</time>
      </trkpt>
      <trkpt lat="35.95250213522087" lon="120.21251223061253">
        <ele>0.6077346801757812</ele>
        <time>2017-09-28T21:32:13.072000Z</time>
      </trkpt>
      <trkpt lat="35.95246550630401" lon="120.21239781763424">
        <time>2017-09-28T21:32:17.084000Z</time>
      </trkpt>
      <trkpt lat="35.95241219739984" lon="120.21229027781655">
        <ele>0.4597644805908203</ele>
        <time>2017-09-28T21:32:22.066000Z</time>
      </trkpt>
      <trkpt lat="35.95236391763757" lon="120.21217904996146">
        <time>2017-09-28T21:32:28.071000Z</time>
      </trkpt>
      <trkpt lat="35.952337975647254" lon="120.21205843437482">
        <ele>0.5760269165039062</ele>
        <time>2017-09-28T21:32:32.071000Z</time>
      </trkpt>
      <trkpt lat="35.95232351686428" lon="120.2119212226199">
        <time>2017-09-28T21:32:36.072000Z</time>
      </trkpt>
      <trkpt lat="35.952305370043916" lon="120.21180312160422">
        <time>2017-09-28T21:32:39.081000Z</time>
      </trkpt>
      <trkpt lat="35.952293635379476" lon="120.21168233837952">
        <ele>0.6235885620117188</ele>
        <time>2017-09-28T21:32:42.062000Z</time>
      </trkpt>
      <trkpt lat="35.95226978886495" lon="120.2115501557665">
        <time>2017-09-28T21:32:46.094000Z</time>
      </trkpt>
      <trkpt lat="35.952236093614204" lon="120.21141436893512">
        <time>2017-09-28T21:32:50.075000Z</time>
      </trkpt>
      <trkpt lat="35.95221409111838" lon="120.21130188379456">
        <ele>0.6024494171142578</ele>
        <time>2017-09-28T21:32:53.060000Z</time>
      </trkpt>
      <trkpt lat="35.952180940691335" lon="120.2111614030974">
        <time>2017-09-28T21:32:57.085000Z</time>
      </trkpt>
      <trkpt lat="35.95215445387731" lon="120.21105134870876">
        <time>2017-09-28T21:33:00.060000Z</time>
      </trkpt>
      <trkpt lat="35.952160907942755" lon="120.21092251885702">
        <ele>0.7081432342529297</ele>
        <time>2017-09-28T21:33:03.074000Z</time>
      </trkpt>
      <trkpt lat="35.95216371588032" lon="120.21080299291779">
        <time>2017-09-28T21:33:06.058000Z</time>
      </trkpt>
      <trkpt lat="35.95215348995845" lon="120.21065413031747">
        <time>2017-09-28T21:33:09.078000Z</time>
      </trkpt>
      <trkpt lat="35.95213903117548" lon="120.21053024578859">
        <ele>0.7028579711914062</ele>
        <time>2017-09-28T21:33:13.070000Z</time>
      </trkpt>
      <trkpt lat="35.95211908224593" lon="120.21039395604302">
        <time>2017-09-28T21:33:18.072000Z</time>
      </trkpt>
      <trkpt lat="35.95208236951004" lon="120.21027996215989">
        <ele>0.5813102722167969</ele>
        <time>2017-09-28T21:33:22.072000Z</time>
      </trkpt>
      <trkpt lat="35.95198388214777" lon="120.21028121944536">
        <time>2017-09-28T21:33:28.076000Z</time>
      </trkpt>
      <trkpt lat="35.95191674310337" lon="120.21035891968776">
        <ele>0.6077346801757812</ele>
        <time>2017-09-28T21:33:31.074000Z</time>
      </trkpt>
      <trkpt lat="35.951827433925075" lon="120.21037476148476">
        <time>2017-09-28T21:33:34.072000Z</time>
      </trkpt>
      <trkpt lat="35.95171981028835" lon="120.21029287029077">
        <time>2017-09-28T21:33:37.077000Z</time>
      </trkpt>
      <trkpt lat="35.951632470857305" lon="120.21034542482366">
        <ele>0.3276481628417969</ele>
        <time>2017-09-28T21:33:41.085000Z</time>
      </trkpt>
      <trkpt lat="35.9515756415538" lon="120.21045992162098">
        <time>2017-09-28T21:33:44.075000Z</time>
      </trkpt>
      <trkpt lat="35.95149035568903" lon="120.21052228298058">
        <time>2017-09-28T21:33:47.081000Z</time>
      </trkpt>
      <trkpt lat="35.95140133987735" lon="120.21056025300194">
        <ele>-0.28008460998535156</ele>
        <time>2017-09-28T21:33:51.076000Z</time>
      </trkpt>
      <trkpt lat="35.95132041260223" lon="120.21061071205904">
        <time>2017-09-28T21:33:56.075000Z</time>
      </trkpt>
      <trkpt lat="35.951211280222935" lon="120.21066024910678">
        <time>2017-09-28T21:34:00.078000Z</time>
      </trkpt>
      <trkpt lat="35.95111639707903" lon="120.21070626575519">
        <ele>-0.6552944183349609</ele>
        <time>2017-09-28T21:34:03.066000Z</time>
      </trkpt>
      <trkpt lat="35.95100785143296" lon="120.21073417749275">
        <time>2017-09-28T21:34:07.079000Z</time>
      </trkpt>
      <trkpt lat="35.950916865874035" lon="120.21076066430678">
        <ele>-0.9882259368896484</ele>
        <time>2017-09-28T21:34:10.804000Z</time>
      </trkpt>
      <trkpt lat="35.95080157279591" lon="120.2108011488991">
        <time>2017-09-28T21:34:16.681000Z</time>
      </trkpt>
      <trkpt lat="35.95069369770209" lon="120.21080349583198">
        <time>2017-09-28T21:34:19.148000Z</time>
      </trkpt>
      <trkpt lat="35.95058649316053" lon="120.21084850665201">
        <ele>-1.0146503448486328</ele>
        <time>2017-09-28T21:34:23.074000Z</time>
      </trkpt>
      <trkpt lat="35.95049479513983" lon="120.2109081858026">
        <time>2017-09-28T21:34:27.058000Z</time>
      </trkpt>
      <trkpt lat="35.95040427058558" lon="120.21092126157154">
        <ele>-1.3845748901367188</ele>
        <time>2017-09-28T21:34:32.070000Z</time>
      </trkpt>
      <trkpt lat="35.950295054387254" lon="120.2109473292904">
        <time>2017-09-28T21:34:38.059000Z</time>
      </trkpt>
      <trkpt lat="35.95018747266005" lon="120.21097549248506">
        <ele>-1.3105907440185547</ele>
        <time>2017-09-28T21:34:43.475000Z</time>
      </trkpt>
      <trkpt lat="35.95009393062065" lon="120.21098647277822">
        <time>2017-09-28T21:34:46.178000Z</time>
      </trkpt>
      <trkpt lat="35.949999927576584" lon="120.21099502231945">
        <ele>-1.5431137084960938</ele>
        <time>2017-09-28T21:34:51.060000Z</time>
      </trkpt>
      <trkpt lat="35.9498955728821" lon="120.21100918773581">
        <time>2017-09-28T21:34:55.075000Z</time>
      </trkpt>
      <trkpt lat="35.94978803306441" lon="120.21100164402296">
        <time>2017-09-28T21:34:59.068000Z</time>
      </trkpt>
      <trkpt lat="35.94978803306441" lon="120.21100164402296">
        <ele>-1.6488075256347656</ele>
        <time>2017-09-28T21:35:03.078000Z</time>
      </trkpt>
      <trkpt lat="35.94928277194123" lon="120.21124228846301">
        <ele>-1.3211593627929688</ele>
        <time>2017-09-28T21:35:18.089000Z</time>
      </trkpt>
      <trkpt lat="35.94878999985377" lon="120.21146331924965">
        <ele>-1.2313194274902344</ele>
        <time>2017-09-28T21:35:33.068000Z</time>
      </trkpt>
      <trkpt lat="35.94867567069451" lon="120.2114674263822">
        <time>2017-09-28T21:35:36.061000Z</time>
      </trkpt>
      <trkpt lat="35.94856117389719" lon="120.21149852324297">
        <time>2017-09-28T21:35:39.066000Z</time>
      </trkpt>
      <trkpt lat="35.94846608120571" lon="120.21154076803495">
        <ele>-1.2524585723876953</ele>
        <time>2017-09-28T21:35:42.080000Z</time>
      </trkpt>
      <trkpt lat="35.94836658801506" lon="120.2115776484089">
        <time>2017-09-28T21:35:46.060000Z</time>
      </trkpt>
      <trkpt lat="35.94827627300839" lon="120.21157278690507">
        <time>2017-09-28T21:35:50.064000Z</time>
      </trkpt>
      <trkpt lat="35.948168146457476" lon="120.21156658429672">
        <ele>-1.4321365356445312</ele>
        <time>2017-09-28T21:35:54.072000Z</time>
      </trkpt>
      <trkpt lat="35.94805247619371" lon="120.21157714549472">
        <time>2017-09-28T21:35:58.078000Z</time>
      </trkpt>
      <trkpt lat="35.94794686421375" lon="120.21159977663328">
        <ele>-1.4215679168701172</ele>
        <time>2017-09-28T21:36:01.071000Z</time>
      </trkpt>
      <trkpt lat="35.94784263524781" lon="120.21164763730039">
        <time>2017-09-28T21:36:05.079000Z</time>
      </trkpt>
      <trkpt lat="35.94774649481843" lon="120.21168979827334">
        <time>2017-09-28T21:36:09.072000Z</time>
      </trkpt>
      <trkpt lat="35.94765546734999" lon="120.21170798700322">
        <ele>-1.6329536437988281</ele>
        <time>2017-09-28T21:36:12.066000Z</time>
      </trkpt>
      <trkpt lat="35.947548053260846" lon="120.21172869030406">
        <time>2017-09-28T21:36:16.070000Z</time>
      </trkpt>
      <trkpt lat="35.9474443272091" lon="120.21171720709671">
        <time>2017-09-28T21:36:20.069000Z</time>
      </trkpt>
      <trkpt lat="35.94733657784382" lon="120.21173506055047">
        <ele>-1.7809219360351562</ele>
        <time>2017-09-28T21:36:24.067000Z</time>
      </trkpt>
      <trkpt lat="35.94723704274366" lon="120.21176414575447">
        <time>2017-09-28T21:36:28.075000Z</time>
      </trkpt>
      <trkpt lat="35.94712950292597" lon="120.21179993648101">
        <ele>-1.7914924621582031</ele>
        <time>2017-09-28T21:36:32.070000Z</time>
      </trkpt>
      <trkpt lat="35.94703373968223" lon="120.21182390872409">
        <time>2017-09-28T21:36:36.071000Z</time>
      </trkpt>
      <trkpt lat="35.94694552015135" lon="120.21184503112008">
        <ele>-1.8971843719482422</ele>
        <time>2017-09-28T21:36:41.073000Z</time>
      </trkpt>
      <trkpt lat="35.946846739422476" lon="120.21185735251774">
        <time>2017-09-28T21:36:46.106000Z</time>
      </trkpt>
      <trkpt lat="35.94675349074969" lon="120.21186824899186">
        <time>2017-09-28T21:36:50.165000Z</time>
      </trkpt>
      <trkpt lat="35.94664850741247" lon="120.21190630283226">
        <ele>-1.8390541076660156</ele>
        <time>2017-09-28T21:36:54.060000Z</time>
      </trkpt>
      <trkpt lat="35.94656003642449" lon="120.21193237055112">
        <time>2017-09-28T21:36:57.062000Z</time>
      </trkpt>
      <trkpt lat="35.94644784465054" lon="120.2119455301391">
        <ele>-2.129709243774414</ele>
        <time>2017-09-28T21:37:01.068000Z</time>
      </trkpt>
      <trkpt lat="35.94633544332901" lon="120.21195902500321">
        <time>2017-09-28T21:37:05.033000Z</time>
      </trkpt>
      <trkpt lat="35.94624802007893" lon="120.21198919985463">
        <time>2017-09-28T21:37:08.033000Z</time>
      </trkpt>
      <trkpt lat="35.9461633628569" lon="120.21202658314277">
        <ele>-1.5695381164550781</ele>
        <time>2017-09-28T21:37:11.105000Z</time>
      </trkpt>
      <trkpt lat="35.94606596514205" lon="120.21208659756948">
        <time>2017-09-28T21:37:15.057000Z</time>
      </trkpt>
      <trkpt lat="35.945975231040215" lon="120.21212465140988">
        <time>2017-09-28T21:37:18.051000Z</time>
      </trkpt>
      <trkpt lat="35.94588240146259" lon="120.21215449098517">
        <ele>-1.2735977172851562</ele>
        <time>2017-09-28T21:37:21.072000Z</time>
      </trkpt>
      <trkpt lat="35.94577913641552" lon="120.21220545295645">
        <time>2017-09-28T21:37:25.071000Z</time>
      </trkpt>
      <trkpt lat="35.94568249307195" lon="120.21226831723024">
        <time>2017-09-28T21:37:29.061000Z</time>
      </trkpt>
      <trkpt lat="35.945591591332054" lon="120.21228851761688">
        <ele>-1.2683124542236328</ele>
        <time>2017-09-28T21:37:33.058000Z</time>
      </trkpt>
      <trkpt lat="35.945480992119705" lon="120.21234249707331">
        <time>2017-09-28T21:37:37.063000Z</time>
      </trkpt>
      <trkpt lat="35.94537022526929" lon="120.21238340076079">
        <ele>-1.3528671264648438</ele>
        <time>2017-09-28T21:37:41.067000Z</time>
      </trkpt>
      <trkpt lat="35.945258704047596" lon="120.21242187369634">
        <time>2017-09-28T21:37:45.127000Z</time>
      </trkpt>
      <trkpt lat="35.945165832560455" lon="120.21247333858182">
        <time>2017-09-28T21:37:49.070000Z</time>
      </trkpt>
      <trkpt lat="35.94505816701422" lon="120.21252899441888">
        <ele>-1.3158740997314453</ele>
        <time>2017-09-28T21:37:53.058000Z</time>
      </trkpt>
      <trkpt lat="35.944962780956125" lon="120.21257501106729">
        <time>2017-09-28T21:37:57.115000Z</time>
      </trkpt>
      <trkpt lat="35.94487711790571" lon="120.21261264581253">
        <ele>-1.1573352813720703</ele>
        <time>2017-09-28T21:38:02.067000Z</time>
      </trkpt>
      <trkpt lat="35.944781983304715" lon="120.21266452979316">
        <time>2017-09-28T21:38:07.102000Z</time>
      </trkpt>
      <trkpt lat="35.944670797359144" lon="120.21272655587663">
        <ele>-1.1361961364746094</ele>
        <time>2017-09-28T21:38:11.108000Z</time>
      </trkpt>
      <trkpt lat="35.94457666858653" lon="120.21277600910534">
        <time>2017-09-28T21:38:14.056000Z</time>
      </trkpt>
      <trkpt lat="35.94447830695281" lon="120.21282445650567">
        <time>2017-09-28T21:38:17.073000Z</time>
      </trkpt>
      <trkpt lat="35.94436976130674" lon="120.2128765919434">
        <ele>-0.9089565277099609</ele>
        <time>2017-09-28T21:38:21.068000Z</time>
      </trkpt>
      <trkpt lat="35.944271357763505" lon="120.21293819893171">
        <time>2017-09-28T21:38:25.071000Z</time>
      </trkpt>
      <trkpt lat="35.944193447973525" lon="120.21301338460316">
        <time>2017-09-28T21:38:29.085000Z</time>
      </trkpt>
      <trkpt lat="35.94410975467036" lon="120.21306728024055">
        <ele>-0.5443172454833984</ele>
        <time>2017-09-28T21:38:33.059000Z</time>
      </trkpt>
      <trkpt lat="35.94400083183864" lon="120.21310726191868">
        <time>2017-09-28T21:38:37.070000Z</time>
      </trkpt>
      <trkpt lat="35.9438986983485" lon="120.21314322028329">
        <ele>0.0052852630615234375</ele>
        <time>2017-09-28T21:38:41.069000Z</time>
      </trkpt>
      <trkpt lat="35.94379769641528" lon="120.2130909172075">
        <time>2017-09-28T21:38:45.067000Z</time>
      </trkpt>
      <trkpt lat="35.943723097477054" lon="120.21298966381718">
        <time>2017-09-28T21:38:49.077000Z</time>
      </trkpt>
      <trkpt lat="35.943658934008276" lon="120.21287860360016">
        <ele>0.2219562530517578</ele>
        <time>2017-09-28T21:38:53.070000Z</time>
      </trkpt>
      <trkpt lat="35.94360994178424" lon="120.21274650480618">
        <time>2017-09-28T21:38:57.067000Z</time>
      </trkpt>
      <trkpt lat="35.94356115910778" lon="120.21262899052371">
        <ele>0.21138572692871094</ele>
        <time>2017-09-28T21:39:01.068000Z</time>
      </trkpt>
      <trkpt lat="35.9434779687188" lon="120.21253360446562">
        <time>2017-09-28T21:39:05.068000Z</time>
      </trkpt>
      <trkpt lat="35.94340081330011" lon="120.21243746403624">
        <time>2017-09-28T21:39:09.065000Z</time>
      </trkpt>
      <trkpt lat="35.943321520496106" lon="120.21234065305461">
        <ele>-0.0792694091796875</ele>
        <time>2017-09-28T21:39:13.124000Z</time>
      </trkpt>
      <trkpt lat="35.94325915913651" lon="120.2122269944476">
        <time>2017-09-28T21:39:17.069000Z</time>
      </trkpt>
      <trkpt lat="35.94320358711848" lon="120.2121236455815">
        <time>2017-09-28T21:39:20.069000Z</time>
      </trkpt>
      <trkpt lat="35.943134352598285" lon="120.21202306274344">
        <ele>-0.21138572692871094</ele>
        <time>2017-09-28T21:39:23.055000Z</time>
      </trkpt>
      <trkpt lat="35.94308217525104" lon="120.21191233780254">
        <time>2017-09-28T21:39:27.071000Z</time>
      </trkpt>
      <trkpt lat="35.94304231930146" lon="120.21177998755147">
        <ele>-0.285369873046875</ele>
        <time>2017-09-28T21:39:32.065000Z</time>
      </trkpt>
      <trkpt lat="35.942990686777925" lon="120.21167848270406">
        <time>2017-09-28T21:39:35.058000Z</time>
      </trkpt>
      <trkpt lat="35.942923715371585" lon="120.21156968560089">
        <time>2017-09-28T21:39:39.067000Z</time>
      </trkpt>
      <trkpt lat="35.94286256938795" lon="120.21143892791142">
        <ele>-0.42276954650878906</ele>
        <time>2017-09-28T21:39:43.088000Z</time>
      </trkpt>
      <trkpt lat="35.9427865874357" lon="120.21134018909206">
        <time>2017-09-28T21:39:47.070000Z</time>
      </trkpt>
      <trkpt lat="35.94271010256926" lon="120.2112430428343">
        <ele>-0.6922874450683594</ele>
        <time>2017-09-28T21:39:51.067000Z</time>
      </trkpt>
      <trkpt lat="35.94264216724405" lon="120.21114556130041">
        <time>2017-09-28T21:39:55.072000Z</time>
      </trkpt>
      <trkpt lat="35.94259007371584" lon="120.21103944640626">
        <time>2017-09-28T21:39:58.073000Z</time>
      </trkpt>
      <trkpt lat="35.94251777980099" lon="120.21091422077288">
        <ele>-0.8138332366943359</ele>
        <time>2017-09-28T21:40:02.067000Z</time>
      </trkpt>
      <trkpt lat="35.94246577009181" lon="120.2107834630834">
        <time>2017-09-28T21:40:06.073000Z</time>
      </trkpt>
      <trkpt lat="35.9424202982671" lon="120.21068480808307">
        <time>2017-09-28T21:40:10.066000Z</time>
      </trkpt>
      <trkpt lat="35.94236154112587" lon="120.21057374786605">
        <ele>-1.0252189636230469</ele>
        <time>2017-09-28T21:40:15.075000Z</time>
      </trkpt>
      <trkpt lat="35.94232306819031" lon="120.21046746533383">
        <time>2017-09-28T21:40:18.067000Z</time>
      </trkpt>
      <trkpt lat="35.94229821584741" lon="120.2103603446113">
        <ele>-1.0093650817871094</ele>
        <time>2017-09-28T21:40:21.065000Z</time>
      </trkpt>
      <trkpt lat="35.94223174735526" lon="120.21023629244436">
        <time>2017-09-28T21:40:25.068000Z</time>
      </trkpt>
      <trkpt lat="35.942155094850754" lon="120.21014367241432">
        <time>2017-09-28T21:40:29.056000Z</time>
      </trkpt>
      <trkpt lat="35.94209424223373" lon="120.21002850506474">
        <ele>-1.1203422546386719</ele>
        <time>2017-09-28T21:40:34.078000Z</time>
      </trkpt>
      <trkpt lat="35.94203908931086" lon="120.20993890251984">
        <time>2017-09-28T21:40:38.108000Z</time>
      </trkpt>
      <trkpt lat="35.941982385735905" lon="120.20981258723904">
        <ele>-1.1150588989257812</ele>
        <time>2017-09-28T21:40:42.060000Z</time>
      </trkpt>
      <trkpt lat="35.941911265287494" lon="120.2097178717332">
        <time>2017-09-28T21:40:46.089000Z</time>
      </trkpt>
      <trkpt lat="35.94185892030219" lon="120.20960412930717">
        <time>2017-09-28T21:40:50.073000Z</time>
      </trkpt>
      <trkpt lat="35.941784991916215" lon="120.20951821479966">
        <ele>-1.0357894897460938</ele>
        <time>2017-09-28T21:40:54.088000Z</time>
      </trkpt>
      <trkpt lat="35.94172149899969" lon="120.2094020416217">
        <time>2017-09-28T21:40:58.112000Z</time>
      </trkpt>
      <trkpt lat="35.94175540379802" lon="120.20928637135793">
        <ele>-1.6857986450195312</ele>
        <time>2017-09-28T21:41:02.062000Z</time>
      </trkpt>
      <trkpt lat="35.94183742072055" lon="120.20924043852855">
        <time>2017-09-28T21:41:05.064000Z</time>
      </trkpt>
      <trkpt lat="35.94193758446345" lon="120.20923029642572">
        <time>2017-09-28T21:41:08.187000Z</time>
      </trkpt>
      <trkpt lat="35.9420325933359" lon="120.20923415210117">
        <ele>-2.330524444580078</ele>
        <time>2017-09-28T21:41:11.084000Z</time>
      </trkpt>
      <trkpt lat="35.94212638683239" lon="120.20923038024475">
        <time>2017-09-28T21:41:15.057000Z</time>
      </trkpt>
      <trkpt lat="35.942231579717195" lon="120.20920800056328">
        <time>2017-09-28T21:41:20.120000Z</time>
      </trkpt>
      <trkpt lat="35.94231812286744" lon="120.20916592340936">
        <ele>-2.3146705627441406</ele>
        <time>2017-09-28T21:41:23.067000Z</time>
      </trkpt>
      <trkpt lat="35.9424039116464" lon="120.20910230476429">
        <time>2017-09-28T21:41:27.061000Z</time>
      </trkpt>
      <trkpt lat="35.942505751769936" lon="120.2090254427122">
        <ele>-2.4203643798828125</ele>
        <time>2017-09-28T21:41:32.054000Z</time>
      </trkpt>
      <trkpt lat="35.94259891662369" lon="120.20899065781404">
        <time>2017-09-28T21:41:35.071000Z</time>
      </trkpt>
      <trkpt lat="35.942711946587956" lon="120.20895293924977">
        <time>2017-09-28T21:41:39.061000Z</time>
      </trkpt>
      <trkpt lat="35.94282342590014" lon="120.20892301585545">
        <ele>-2.489065170288086</ele>
        <time>2017-09-28T21:41:43.071000Z</time>
      </trkpt>
      <trkpt lat="35.94293557576457" lon="120.20891010772456">
        <time>2017-09-28T21:41:47.067000Z</time>
      </trkpt>
      <trkpt lat="35.943030039813316" lon="120.20891144882907">
        <time>2017-09-28T21:41:50.080000Z</time>
      </trkpt>
      <trkpt lat="35.9431309579275" lon="120.20890885043909">
        <ele>-2.520772933959961</ele>
        <time>2017-09-28T21:41:54.071000Z</time>
      </trkpt>
      <trkpt lat="35.943235522169566" lon="120.20889761868884">
        <time>2017-09-28T21:41:58.064000Z</time>
      </trkpt>
      <trkpt lat="35.94335462901363" lon="120.20886534836163">
        <ele>-2.6211795806884766</ele>
        <time>2017-09-28T21:42:02.071000Z</time>
      </trkpt>
      <trkpt lat="35.94344460874418" lon="120.20882679160704">
        <time>2017-09-28T21:42:06.061000Z</time>
      </trkpt>
      <trkpt lat="35.943528637323475" lon="120.20878002058734">
        <time>2017-09-28T21:42:10.061000Z</time>
      </trkpt>
      <trkpt lat="35.94362377192447" lon="120.2087423858421">
        <ele>-2.7532958984375</ele>
        <time>2017-09-28T21:42:14.072000Z</time>
      </trkpt>
      <trkpt lat="35.94372393566737" lon="120.2086961177366">
        <time>2017-09-28T21:42:18.105000Z</time>
      </trkpt>
      <trkpt lat="35.94384484462062" lon="120.20870382908751">
        <ele>-2.9699668884277344</ele>
        <time>2017-09-28T21:42:22.069000Z</time>
      </trkpt>
      <trkpt lat="35.9439470619298" lon="120.20874775026013">
        <time>2017-09-28T21:42:25.079000Z</time>
      </trkpt>
      <trkpt lat="35.944033395532465" lon="120.20878454681505">
        <time>2017-09-28T21:42:28.070000Z</time>
      </trkpt>
      <trkpt lat="35.9441283624954" lon="120.2088285518067">
        <ele>-3.0439510345458984</ele>
        <time>2017-09-28T21:42:32.070000Z</time>
      </trkpt>
      <trkpt lat="35.944219850968516" lon="120.20888973969986">
        <time>2017-09-28T21:42:36.051000Z</time>
      </trkpt>
      <trkpt lat="35.9443123033605" lon="120.20894338388015">
        <time>2017-09-28T21:42:40.064000Z</time>
      </trkpt>
      <trkpt lat="35.944420471820926" lon="120.20892863173057">
        <ele>-2.9593982696533203</ele>
        <time>2017-09-28T21:42:46.054000Z</time>
      </trkpt>
      <trkpt lat="35.94451908491174" lon="120.2089096886294">
        <ele>-2.922405242919922</ele>
        <time>2017-09-28T21:42:51.065000Z</time>
      </trkpt>
      <trkpt lat="35.94462804965297" lon="120.20888345327248">
        <time>2017-09-28T21:42:55.059000Z</time>
      </trkpt>
      <trkpt lat="35.944719663854634" lon="120.20885537389685">
        <time>2017-09-28T21:42:58.077000Z</time>
      </trkpt>
      <trkpt lat="35.94482167161623" lon="120.20884104084243">
        <ele>-3.0228137969970703</ele>
        <time>2017-09-28T21:43:02.077000Z</time>
      </trkpt>
      <trkpt lat="35.944921290535426" lon="120.20882570195963">
        <time>2017-09-28T21:43:05.057000Z</time>
      </trkpt>
      <trkpt lat="35.94501349147031" lon="120.2088182420658">
        <time>2017-09-28T21:43:08.066000Z</time>
      </trkpt>
      <trkpt lat="35.945111769285" lon="120.20880240026881">
        <ele>-3.0545215606689453</ele>
        <time>2017-09-28T21:43:11.064000Z</time>
      </trkpt>
      <trkpt lat="35.94521285503725" lon="120.20878940831889">
        <time>2017-09-28T21:43:15.066000Z</time>
      </trkpt>
      <trkpt lat="35.945304133962786" lon="120.20877893093993">
        <time>2017-09-28T21:43:20.062000Z</time>
      </trkpt>
      <trkpt lat="35.94539423942188" lon="120.20877323124577">
        <ele>-3.070375442504883</ele>
        <time>2017-09-28T21:43:24.069000Z</time>
      </trkpt>
      <trkpt lat="35.945502659339404" lon="120.20877289596964">
        <time>2017-09-28T21:43:28.063000Z</time>
      </trkpt>
      <trkpt lat="35.945615773122704" lon="120.20875571306814">
        <ele>-3.1602134704589844</ele>
        <time>2017-09-28T21:43:32.078000Z</time>
      </trkpt>
      <trkpt lat="35.94570768069098" lon="120.20874883990754">
        <time>2017-09-28T21:43:36.087000Z</time>
      </trkpt>
      <trkpt lat="35.94581605869899" lon="120.20873224373926">
        <ele>-2.489065170288086</ele>
        <time>2017-09-28T21:43:41.060000Z</time>
      </trkpt>
      <trkpt lat="35.945907044257915" lon="120.20871061842908">
        <time>2017-09-28T21:43:44.054000Z</time>
      </trkpt>
      <trkpt lat="35.94602204396943" lon="120.20870852295329">
        <time>2017-09-28T21:43:48.066000Z</time>
      </trkpt>
      <trkpt lat="35.94613000288228" lon="120.20866820599903">
        <ele>-2.5789031982421875</ele>
        <time>2017-09-28T21:43:52.065000Z</time>
      </trkpt>
      <trkpt lat="35.94622450884054" lon="120.20863702531923">
        <time>2017-09-28T21:43:55.065000Z</time>
      </trkpt>
      <trkpt lat="35.94634110111365" lon="120.20862923014928">
        <time>2017-09-28T21:43:59.066000Z</time>
      </trkpt>
      <trkpt lat="35.94644566535572" lon="120.20860701810588">
        <ele>-2.489065170288086</ele>
        <time>2017-09-28T21:44:03.066000Z</time>
      </trkpt>
      <trkpt lat="35.946545158546364" lon="120.20859184686114">
        <time>2017-09-28T21:44:07.084000Z</time>
      </trkpt>
      <trkpt lat="35.946644400279915" lon="120.20859536726047">
        <ele>-2.330524444580078</ele>
        <time>2017-09-28T21:44:11.065000Z</time>
      </trkpt>
      <trkpt lat="35.94675261064986" lon="120.20859964203109">
        <time>2017-09-28T21:44:15.065000Z</time>
      </trkpt>
      <trkpt lat="35.94686639498541" lon="120.2085972950982">
        <time>2017-09-28T21:44:19.065000Z</time>
      </trkpt>
      <trkpt lat="35.946970372494256" lon="120.20857055682708">
        <ele>-2.330524444580078</ele>
        <time>2017-09-28T21:44:23.383000Z</time>
      </trkpt>
      <trkpt lat="35.94706307634333" lon="120.2085592412578">
        <time>2017-09-28T21:44:27.072000Z</time>
      </trkpt>
      <trkpt lat="35.94709203581879" lon="120.2084471752124">
        <ele>-2.256540298461914</ele>
        <time>2017-09-28T21:44:32.106000Z</time>
      </trkpt>
      <trkpt lat="35.94706764448056" lon="120.2083293256538">
        <time>2017-09-28T21:44:36.074000Z</time>
      </trkpt>
      <trkpt lat="35.947049204293585" lon="120.20819789741208">
        <time>2017-09-28T21:44:40.106000Z</time>
      </trkpt>
      <trkpt lat="35.94705046157906" lon="120.20807568926384">
        <ele>-2.2459716796875</ele>
        <time>2017-09-28T21:44:43.054000Z</time>
      </trkpt>
      <trkpt lat="35.947048072736656" lon="120.20792607229222">
        <time>2017-09-28T21:44:46.051000Z</time>
      </trkpt>
      <trkpt lat="35.947030386920964" lon="120.20779380586018">
        <time>2017-09-28T21:44:50.058000Z</time>
      </trkpt>
      <trkpt lat="35.947007210958695" lon="120.20768324855734">
        <ele>-2.2723941802978516</ele>
        <time>2017-09-28T21:44:54.059000Z</time>
      </trkpt>
      <trkpt lat="35.94700125980744" lon="120.20755819056203">
        <time>2017-09-28T21:44:58.068000Z</time>
      </trkpt>
      <trkpt lat="35.946999122422135" lon="120.20744679506888">
        <ele>-2.298816680908203</ele>
        <time>2017-09-28T21:45:02.064000Z</time>
      </trkpt>
      <trkpt lat="35.94697942494968" lon="120.20733724359442">
        <time>2017-09-28T21:45:06.743000Z</time>
      </trkpt>
      <trkpt lat="35.946965930085575" lon="120.20722056750228">
        <time>2017-09-28T21:45:10.077000Z</time>
      </trkpt>
      <trkpt lat="35.947005995582735" lon="120.20709291111697">
        <ele>-2.0504398345947266</ele>
        <time>2017-09-28T21:45:14.066000Z</time>
      </trkpt>
      <trkpt lat="35.94706525563816" lon="120.20697967160513">
        <time>2017-09-28T21:45:18.061000Z</time>
      </trkpt>
      <trkpt lat="35.947139435481226" lon="120.20690373156239">
        <ele>-2.087430953979492</ele>
        <time>2017-09-28T21:45:22.070000Z</time>
      </trkpt>
      <trkpt lat="35.947188930619454" lon="120.20678479235639">
        <time>2017-09-28T21:45:26.076000Z</time>
      </trkpt>
      <trkpt lat="35.9472366236485" lon="120.20668119203319">
        <time>2017-09-28T21:45:30.065000Z</time>
      </trkpt>
      <trkpt lat="35.94726797196636" lon="120.20656879071166">
        <ele>-2.034585952758789</ele>
        <time>2017-09-28T21:45:33.074000Z</time>
      </trkpt>
      <trkpt lat="35.9473021701313" lon="120.20644373271634">
        <time>2017-09-28T21:45:37.065000Z</time>
      </trkpt>
      <trkpt lat="35.947337751310265" lon="120.20632739190032">
        <ele>-2.140277862548828</ele>
        <time>2017-09-28T21:45:41.076000Z</time>
      </trkpt>
      <trkpt lat="35.947388210367365" lon="120.20623041328062">
        <time>2017-09-28T21:45:45.072000Z</time>
      </trkpt>
      <trkpt lat="35.94742550983648" lon="120.206107199304">
        <time>2017-09-28T21:45:49.058000Z</time>
      </trkpt>
      <trkpt lat="35.947486655820114" lon="120.205985661708">
        <ele>-2.267108917236328</ele>
        <time>2017-09-28T21:45:53.061000Z</time>
      </trkpt>
      <trkpt lat="35.94753606713931" lon="120.20586152572203">
        <time>2017-09-28T21:45:57.075000Z</time>
      </trkpt>
      <trkpt lat="35.9475825447924" lon="120.2057388146596">
        <ele>-2.30938720703125</ele>
        <time>2017-09-28T21:46:01.079000Z</time>
      </trkpt>
      <trkpt lat="35.94763509932528" lon="120.20562892790902">
        <time>2017-09-28T21:46:05.077000Z</time>
      </trkpt>
      <trkpt lat="35.94766854311894" lon="120.20552272919583">
        <time>2017-09-28T21:46:09.074000Z</time>
      </trkpt>
      <trkpt lat="35.94770047817002" lon="120.20539884466696">
        <ele>-2.298816680908203</ele>
        <time>2017-09-28T21:46:13.074000Z</time>
      </trkpt>
      <trkpt lat="35.947741717133624" lon="120.20527814526129">
        <time>2017-09-28T21:46:17.072000Z</time>
      </trkpt>
      <trkpt lat="35.9477844648398" lon="120.20515375781822">
        <ele>-2.594757080078125</ele>
        <time>2017-09-28T21:46:21.071000Z</time>
      </trkpt>
      <trkpt lat="35.947835301082534" lon="120.20503163348901">
        <time>2017-09-28T21:46:25.070000Z</time>
      </trkpt>
      <trkpt lat="35.947876791503234" lon="120.20491780724394">
        <time>2017-09-28T21:46:29.068000Z</time>
      </trkpt>
      <trkpt lat="35.94790390695999" lon="120.20479509618151">
        <ele>-2.3675174713134766</ele>
        <time>2017-09-28T21:46:33.067000Z</time>
      </trkpt>
      <trkpt lat="35.947918575290544" lon="120.20466299738753">
        <time>2017-09-28T21:46:37.068000Z</time>
      </trkpt>
      <trkpt lat="35.94792142513762" lon="120.20452762965131">
        <ele>-2.4203643798828125</ele>
        <time>2017-09-28T21:46:41.082000Z</time>
      </trkpt>
      <trkpt lat="35.947920586947305" lon="120.20439955417085">
        <time>2017-09-28T21:46:45.082000Z</time>
      </trkpt>
      <trkpt lat="35.94789636324714" lon="120.20426854502428">
        <time>2017-09-28T21:46:49.074000Z</time>
      </trkpt>
      <trkpt lat="35.94798407986383" lon="120.20423124555516">
        <ele>-2.2618255615234375</ele>
        <time>2017-09-28T21:46:55.069000Z</time>
      </trkpt>
      <trkpt lat="35.94807804099838" lon="120.20425915729273">
        <time>2017-09-28T21:46:58.067000Z</time>
      </trkpt>
      <trkpt lat="35.94818579036365" lon="120.20431799825299">
        <ele>-2.3146705627441406</ele>
        <time>2017-09-28T21:47:02.059000Z</time>
      </trkpt>
      <trkpt lat="35.948267807286186" lon="120.20437382172811">
        <time>2017-09-28T21:47:05.053000Z</time>
      </trkpt>
      <trkpt lat="35.94836155887316" lon="120.20444775011408">
        <time>2017-09-28T21:47:09.073000Z</time>
      </trkpt>
      <trkpt lat="35.94844868875663" lon="120.20448806706834">
        <ele>-2.330524444580078</ele>
        <time>2017-09-28T21:47:13.064000Z</time>
      </trkpt>
      <trkpt lat="35.94854545782874" lon="120.20441195938754">
        <time>2017-09-28T21:47:19.075000Z</time>
      </trkpt>
      <trkpt lat="35.948646920766635" lon="120.20442813646066">
        <ele>-1.7016525268554688</ele>
        <time>2017-09-28T21:47:23.075000Z</time>
      </trkpt>
      <trkpt lat="35.94876049555461" lon="120.20446904014814">
        <time>2017-09-28T21:47:27.071000Z</time>
      </trkpt>
      <trkpt lat="35.94885952774058" lon="120.20446996215749">
        <time>2017-09-28T21:47:30.069000Z</time>
      </trkpt>
      <trkpt lat="35.94898475337396" lon="120.2044708003478">
        <ele>-1.4585590362548828</ele>
        <time>2017-09-28T21:47:34.060000Z</time>
      </trkpt>
      <trkpt lat="35.94909099399666" lon="120.2044657712059">
        <time>2017-09-28T21:47:37.068000Z</time>
      </trkpt>
      <trkpt lat="35.949207921545906" lon="120.20448538485932">
        <ele>-1.1520500183105469</ele>
        <time>2017-09-28T21:47:41.067000Z</time>
      </trkpt>
      <trkpt lat="35.9493212867863" lon="120.2045006399231">
        <time>2017-09-28T21:47:45.081000Z</time>
      </trkpt>
      <trkpt lat="35.94943138308446" lon="120.20452486362326">
        <time>2017-09-28T21:47:49.090000Z</time>
      </trkpt>
      <trkpt lat="35.94954416159163" lon="120.20456191163528">
        <ele>-1.0727806091308594</ele>
        <time>2017-09-28T21:47:53.082000Z</time>
      </trkpt>
      <trkpt lat="35.94964860010515" lon="120.20456685695815">
        <time>2017-09-28T21:47:57.078000Z</time>
      </trkpt>
      <trkpt lat="35.94975165560464" lon="120.20456367183495">
        <ele>-1.2947368621826172</ele>
        <time>2017-09-28T21:48:01.083000Z</time>
      </trkpt>
      <trkpt lat="35.94988727479796" lon="120.20455503847468">
        <time>2017-09-28T21:48:04.070000Z</time>
      </trkpt>
      <trkpt lat="35.9499819903038" lon="120.20455654721725">
        <time>2017-09-28T21:48:07.057000Z</time>
      </trkpt>
      <trkpt lat="35.95008462670813" lon="120.2045643423872">
        <ele>-1.3053054809570312</ele>
        <time>2017-09-28T21:48:11.055000Z</time>
      </trkpt>
      <trkpt lat="35.9501950163729" lon="120.20456383947301">
        <time>2017-09-28T21:48:15.062000Z</time>
      </trkpt>
      <trkpt lat="35.95028642102699" lon="120.2045299765842">
        <time>2017-09-28T21:48:20.091000Z</time>
      </trkpt>
      <trkpt lat="35.95038059170912" lon="120.20448932435382">
        <ele>-1.7439308166503906</ele>
        <time>2017-09-28T21:48:26.058000Z</time>
      </trkpt>
      <trkpt lat="35.95047924670945" lon="120.2045022324847">
        <time>2017-09-28T21:48:29.062000Z</time>
      </trkpt>
      <trkpt lat="35.95053419008474" lon="120.20460298296082">
        <ele>-1.1256275177001953</ele>
        <time>2017-09-28T21:48:34.060000Z</time>
      </trkpt>
      <trkpt lat="35.95063758086036" lon="120.20462712284196">
        <time>2017-09-28T21:48:39.059000Z</time>
      </trkpt>
      <trkpt lat="35.950759328003926" lon="120.20461237069237">
        <ele>-0.8508262634277344</ele>
        <time>2017-09-28T21:48:42.060000Z</time>
      </trkpt>
      <trkpt lat="35.950856474261684" lon="120.20460122276116">
        <time>2017-09-28T21:48:45.071000Z</time>
      </trkpt>
      <trkpt lat="35.950973108444316" lon="120.20459359522927">
        <time>2017-09-28T21:48:49.064000Z</time>
      </trkpt>
      <trkpt lat="35.95107167962561" lon="120.20457884307969">
        <ele>-1.2260360717773438</ele>
        <time>2017-09-28T21:48:52.063000Z</time>
      </trkpt>
      <trkpt lat="35.95116568266968" lon="120.204561157264">
        <time>2017-09-28T21:48:55.082000Z</time>
      </trkpt>
      <trkpt lat="35.951261068727774" lon="120.20452938985098">
        <time>2017-09-28T21:48:59.814000Z</time>
      </trkpt>
      <trkpt lat="35.951368105631275" lon="120.20450893800724">
        <ele>-1.7544994354248047</ele>
        <time>2017-09-28T21:49:04.086000Z</time>
      </trkpt>
      <trkpt lat="35.951480926047964" lon="120.20448856998253">
        <time>2017-09-28T21:49:08.409000Z</time>
      </trkpt>
      <trkpt lat="35.95160426575313" lon="120.20446727994847">
        <ele>-2.002878189086914</ele>
        <time>2017-09-28T21:49:12.067000Z</time>
      </trkpt>
      <trkpt lat="35.95171364958952" lon="120.20447071652877">
        <time>2017-09-28T21:49:16.061000Z</time>
      </trkpt>
      <trkpt lat="35.95180622771005" lon="120.20445764075983">
        <time>2017-09-28T21:49:19.065000Z</time>
      </trkpt>
      <trkpt lat="35.951909492757125" lon="120.20444531936216">
        <ele>-2.2618255615234375</ele>
        <time>2017-09-28T21:49:23.063000Z</time>
      </trkpt>
      <trkpt lat="35.95200425017248" lon="120.20443249505031">
        <time>2017-09-28T21:49:27.063000Z</time>
      </trkpt>
      <trkpt lat="35.95211220908533" lon="120.20438907679188">
        <ele>-2.393941879272461</ele>
        <time>2017-09-28T21:49:31.053000Z</time>
      </trkpt>
      <trkpt lat="35.95222016799818" lon="120.20436887640524">
        <time>2017-09-28T21:49:37.054000Z</time>
      </trkpt>
      <trkpt lat="35.95230905808131" lon="120.20434565853346">
        <ele>-2.2829627990722656</ele>
        <time>2017-09-28T21:49:41.072000Z</time>
      </trkpt>
      <trkpt lat="35.952398576807184" lon="120.20430777233112">
        <time>2017-09-28T21:49:44.071000Z</time>
      </trkpt>
      <trkpt lat="35.952490945380134" lon="120.2042982169615">
        <time>2017-09-28T21:49:47.077000Z</time>
      </trkpt>
      <trkpt lat="35.95260125122587" lon="120.2043003124373">
        <ele>-2.1772708892822266</ele>
        <time>2017-09-28T21:49:51.052000Z</time>
      </trkpt>
      <trkpt lat="35.952697433564765" lon="120.20428539264965">
        <time>2017-09-28T21:49:54.057000Z</time>
      </trkpt>
      <trkpt lat="35.95280061479281" lon="120.20426100131142">
        <time>2017-09-28T21:49:59.072000Z</time>
      </trkpt>
      <trkpt lat="35.95289499502252" lon="120.20422705460358">
        <ele>-2.108570098876953</ele>
        <time>2017-09-28T21:50:03.051000Z</time>
      </trkpt>
      <trkpt lat="35.9530003974549" lon="120.20420693803597">
        <time>2017-09-28T21:50:07.087000Z</time>
      </trkpt>
      <trkpt lat="35.95311988148461" lon="120.20419545482862">
        <ele>-1.9658851623535156</ele>
        <time>2017-09-28T21:50:11.078000Z</time>
      </trkpt>
      <trkpt lat="35.953211914781434" lon="120.20418447453547">
        <time>2017-09-28T21:50:14.083000Z</time>
      </trkpt>
      <trkpt lat="35.95330797139178" lon="120.20417483534682">
        <time>2017-09-28T21:50:18.064000Z</time>
      </trkpt>
      <trkpt lat="35.95341165553401" lon="120.20415346149373">
        <ele>-1.5536823272705078</ele>
        <time>2017-09-28T21:50:23.065000Z</time>
      </trkpt>
      <trkpt lat="35.95350138380746" lon="120.2041327581929">
        <time>2017-09-28T21:50:26.110000Z</time>
      </trkpt>
      <trkpt lat="35.95361797608058" lon="120.20412077207136">
        <time>2017-09-28T21:50:30.072000Z</time>
      </trkpt>
      <trkpt lat="35.95371826555203" lon="120.2041121387111">
        <ele>-1.3845748901367188</ele>
        <time>2017-09-28T21:50:34.058000Z</time>
      </trkpt>
      <trkpt lat="35.95380774236838" lon="120.20409646455217">
        <time>2017-09-28T21:50:37.056000Z</time>
      </trkpt>
      <trkpt lat="35.95390145204584" lon="120.20407634798455">
        <ele>-0.8402576446533203</ele>
        <time>2017-09-28T21:50:41.054000Z</time>
      </trkpt>
      <trkpt lat="35.95400752503048" lon="120.20406922336686">
        <time>2017-09-28T21:50:45.049000Z</time>
      </trkpt>
      <trkpt lat="35.954102240536315" lon="120.2040447482096">
        <time>2017-09-28T21:50:48.047000Z</time>
      </trkpt>
      <trkpt lat="35.95420114699374" lon="120.20401423808205">
        <ele>-0.4703330993652344</ele>
        <time>2017-09-28T21:50:52.062000Z</time>
      </trkpt>
      <trkpt lat="35.954291629638476" lon="120.20402287144232">
        <time>2017-09-28T21:50:56.060000Z</time>
      </trkpt>
      <trkpt lat="35.95438697378705" lon="120.20400091085601">
        <time>2017-09-28T21:50:59.058000Z</time>
      </trkpt>
      <trkpt lat="35.95449807591359" lon="120.2039839794116">
        <ele>0.12154769897460938</ele>
        <time>2017-09-28T21:51:03.064000Z</time>
      </trkpt>
      <trkpt lat="35.95460310116033" lon="120.20397693861294">
        <time>2017-09-28T21:51:07.058000Z</time>
      </trkpt>
      <trkpt lat="35.95470892268787" lon="120.20397014927137">
        <ele>0.6764354705810547</ele>
        <time>2017-09-28T21:51:11.058000Z</time>
      </trkpt>
      <trkpt lat="35.95481679778169" lon="120.20393150869775">
        <time>2017-09-28T21:51:15.065000Z</time>
      </trkpt>
      <trkpt lat="35.9549095854498" lon="120.2038735059278">
        <time>2017-09-28T21:51:19.062000Z</time>
      </trkpt>
      <trkpt lat="35.95500187020372" lon="120.20379161473382">
        <ele>1.2894535064697266</ele>
        <time>2017-09-28T21:51:24.063000Z</time>
      </trkpt>
      <trkpt lat="35.95510278831791" lon="120.20376604992914">
        <time>2017-09-28T21:51:28.057000Z</time>
      </trkpt>
      <trkpt lat="35.955167789977004" lon="120.20388423476386">
        <ele>1.981740951538086</ele>
        <time>2017-09-28T21:51:32.066000Z</time>
      </trkpt>
      <trkpt lat="35.955191049758305" lon="120.20400761637855">
        <time>2017-09-28T21:51:36.061000Z</time>
      </trkpt>
      <trkpt lat="35.95519997648518" lon="120.20413569185901">
        <time>2017-09-28T21:51:40.069000Z</time>
      </trkpt>
      <trkpt lat="35.955196707542946" lon="120.20426795829106">
        <ele>2.563051223754883</ele>
        <time>2017-09-28T21:51:44.056000Z</time>
      </trkpt>
      <trkpt lat="35.95523346218835" lon="120.20437491137552">
        <time>2017-09-28T21:51:48.049000Z</time>
      </trkpt>
      <trkpt lat="35.955188409458806" lon="120.20448890525866">
        <ele>3.582986831665039</ele>
        <time>2017-09-28T21:51:52.068000Z</time>
      </trkpt>
      <trkpt lat="35.95513141251724" lon="120.20458387222159">
        <time>2017-09-28T21:51:56.066000Z</time>
      </trkpt>
      <trkpt lat="35.95513413663577" lon="120.20471806649137">
        <ele>4.402105331420898</ele>
        <time>2017-09-28T21:52:01.058000Z</time>
      </trkpt>
      <trkpt lat="35.95516158736866" lon="120.20482870761323">
        <time>2017-09-28T21:52:05.058000Z</time>
      </trkpt>
      <trkpt lat="35.95520366452258" lon="120.20495326269436">
        <time>2017-09-28T21:52:09.063000Z</time>
      </trkpt>
      <trkpt lat="35.955246202681174" lon="120.2050839365648">
        <ele>5.480172157287598</ele>
        <time>2017-09-28T21:52:13.054000Z</time>
      </trkpt>
      <trkpt lat="35.95526418186348" lon="120.20520597707498">
        <time>2017-09-28T21:52:17.057000Z</time>
      </trkpt>
      <trkpt lat="35.95526564869653" lon="120.20531695347297">
        <ele>6.2094526290893555</ele>
        <time>2017-09-28T21:52:21.067000Z</time>
      </trkpt>
      <trkpt lat="35.95528480134528" lon="120.20543270755577">
        <time>2017-09-28T21:52:25.062000Z</time>
      </trkpt>
      <trkpt lat="35.95530554655563" lon="120.20556933257747">
        <time>2017-09-28T21:52:29.068000Z</time>
      </trkpt>
      <trkpt lat="35.95531715549152" lon="120.2056917921828">
        <ele>6.4631147384643555</ele>
        <time>2017-09-28T21:52:34.057000Z</time>
      </trkpt>
      <trkpt lat="35.95533123708885" lon="120.20581710163522">
        <time>2017-09-28T21:52:38.062000Z</time>
      </trkpt>
      <trkpt lat="35.955343223210384" lon="120.20592941913772">
        <ele>6.2305908203125</ele>
        <time>2017-09-28T21:52:43.056000Z</time>
      </trkpt>
      <trkpt lat="35.955403321456124" lon="120.2060205304252">
        <ele>11.647346496582031</ele>
        <time>2017-09-28T21:52:51.057000Z</time>
      </trkpt>
      <trkpt lat="35.95550939444076" lon="120.2059872542696">
        <time>2017-09-28T21:52:55.057000Z</time>
      </trkpt>
      <trkpt lat="35.95561433586847" lon="120.20595582213271">
        <time>2017-09-28T21:52:59.054000Z</time>
      </trkpt>
      <trkpt lat="35.95568591732155" lon="120.20602690067162">
        <ele>12.033124923706055</ele>
        <time>2017-09-28T21:53:08.053000Z</time>
      </trkpt>
      <trkpt lat="35.955675565671136" lon="120.20615221012403">
        <ele>9.972115516662598</ele>
        <time>2017-09-28T21:53:17.051000Z</time>
      </trkpt>
      <trkpt lat="35.95567887652289" lon="120.206271065511">
        <ele>5.369194984436035</ele>
        <time>2017-09-28T21:53:21.055000Z</time>
      </trkpt>
      <trkpt lat="35.95568654596429" lon="120.2063936927544">
        <time>2017-09-28T21:53:24.075000Z</time>
      </trkpt>
      <trkpt lat="35.95569597560536" lon="120.20651439216007">
        <time>2017-09-28T21:53:28.076000Z</time>
      </trkpt>
      <trkpt lat="35.955701381932904" lon="120.2066600696372">
        <ele>4.2171430587768555</ele>
        <time>2017-09-28T21:53:32.075000Z</time>
      </trkpt>
      <trkpt lat="35.95570351931821" lon="120.20679669465889">
        <time>2017-09-28T21:53:36.078000Z</time>
      </trkpt>
      <trkpt lat="35.955703184042086" lon="120.20691236492266">
        <time>2017-09-28T21:53:39.077000Z</time>
      </trkpt>
      <trkpt lat="35.95573185015093" lon="120.20702619116773">
        <ele>3.736241340637207</ele>
        <time>2017-09-28T21:53:43.090000Z</time>
      </trkpt>
      <trkpt lat="35.955749242600014" lon="120.20715812232365">
        <time>2017-09-28T21:53:47.060000Z</time>
      </trkpt>
      <trkpt lat="35.955735999193" lon="120.20728083338608">
        <ele>3.403308868408203</ele>
        <time>2017-09-28T21:53:51.057000Z</time>
      </trkpt>
      <trkpt lat="35.95573482572656" lon="120.20740077842046">
        <time>2017-09-28T21:53:55.059000Z</time>
      </trkpt>
      <trkpt lat="35.955739016678145" lon="120.20753086555769">
        <time>2017-09-28T21:53:59.075000Z</time>
      </trkpt>
      <trkpt lat="35.95573713074993" lon="120.20764226105084">
        <ele>3.7045326232910156</ele>
        <time>2017-09-28T21:54:03.067000Z</time>
      </trkpt>
      <trkpt lat="35.95583834223073" lon="120.2076437697934">
        <time>2017-09-28T21:54:07.074000Z</time>
      </trkpt>
      <trkpt lat="35.955947223152926" lon="120.2075906285273">
        <ele>4.809022903442383</ele>
        <time>2017-09-28T21:54:11.069000Z</time>
      </trkpt>
      <trkpt lat="35.95605593643706" lon="120.2075700090455">
        <time>2017-09-28T21:54:17.040000Z</time>
      </trkpt>
      <trkpt lat="35.95614335968714" lon="120.207531703748">
        <time>2017-09-28T21:54:20.053000Z</time>
      </trkpt>
      <trkpt lat="35.95626292753588" lon="120.20751720305552">
        <ele>6.1248979568481445</ele>
        <time>2017-09-28T21:54:24.060000Z</time>
      </trkpt>
      <trkpt lat="35.95635089560967" lon="120.20748778257538">
        <time>2017-09-28T21:54:27.049000Z</time>
      </trkpt>
      <trkpt lat="35.95644049815457" lon="120.20746054139008">
        <ele>6.679784774780273</ele>
        <time>2017-09-28T21:54:31.067000Z</time>
      </trkpt>
      <trkpt lat="35.95655197746675" lon="120.2074817476051">
        <time>2017-09-28T21:54:35.076000Z</time>
      </trkpt>
      <trkpt lat="35.95659744929146" lon="120.20759104762246">
        <time>2017-09-28T21:54:39.077000Z</time>
      </trkpt>
      <trkpt lat="35.95659397080164" lon="120.20772239204516">
        <ele>6.875316619873047</ele>
        <time>2017-09-28T21:54:44.060000Z</time>
      </trkpt>
      <trkpt lat="35.956608513403644" lon="120.2078654711323">
        <time>2017-09-28T21:54:48.132000Z</time>
      </trkpt>
      <trkpt lat="35.95661127943169" lon="120.20799832429756">
        <ele>6.473684310913086</ele>
        <time>2017-09-28T21:54:52.058000Z</time>
      </trkpt>
      <trkpt lat="35.95664656724404" lon="120.20812908198704">
        <time>2017-09-28T21:54:56.043000Z</time>
      </trkpt>
      <trkpt lat="35.956676490638365" lon="120.20823595125248">
        <time>2017-09-28T21:55:00.074000Z</time>
      </trkpt>
      <trkpt lat="35.95668981786441" lon="120.20836369145681">
        <ele>6.362707138061523</ele>
        <time>2017-09-28T21:55:05.057000Z</time>
      </trkpt>
      <trkpt lat="35.95669576901566" lon="120.20848279830088">
        <ele>6.531815528869629</ele>
        <time>2017-09-28T21:55:11.032000Z</time>
      </trkpt>
      <trkpt lat="35.95670767131816" lon="120.20859679218401">
        <time>2017-09-28T21:55:20.026000Z</time>
      </trkpt>
      <trkpt lat="35.956723429296126" lon="120.20873358484377">
        <ele>6.547669410705566</ele>
        <time>2017-09-28T21:55:24.055000Z</time>
      </trkpt>
    </trkseg>
  </trk>
</gpx>