<?xml version="1.0" encoding="UTF-8"?>
<gpx xmlns="http://www.topografix.com/GPX/1/1" xmlns:gpxtpx="http://www.garmin.com/xmlschemas/TrackPointExtension/v1" xmlns:xsi="http://www.w3.org/2001/XMLSchema-instance" xsi:schemaLocation="http://www.topografix.com/GPX/1/1 http://www.topografix.com/GPX/1/1/gpx.xsd" version="1.1" creator="gpx.py -- https://github.com/tkrajina/gpxpy">
  <trk>
    <name>星期三 早上路跑</name>
    <trkseg>
      <trkpt lat="35.957070775363555" lon="120.20985541876425">
        <time>2017-11-14T21:38:56.096000Z</time>
      </trkpt>
      <trkpt lat="35.957179446738174" lon="120.20983907405306">
        <ele>13.492900110190277</ele>
        <time>2017-11-14T21:39:02.119000Z</time>
      </trkpt>
      <trkpt lat="35.957293650168886" lon="120.20982180733253">
        <time>2017-11-14T21:39:06.130000Z</time>
      </trkpt>
      <trkpt lat="35.95738270789008" lon="120.20980177458395">
        <time>2017-11-14T21:39:09.123000Z</time>
      </trkpt>
      <trkpt lat="35.95747784249108" lon="120.20978417258729">
        <ele>14.364867425864105</ele>
        <time>2017-11-14T21:39:12.129000Z</time>
      </trkpt>
      <trkpt lat="35.957571887444665" lon="120.209788698815">
        <time>2017-11-14T21:39:16.127000Z</time>
      </trkpt>
      <trkpt lat="35.95768353439491" lon="120.20977512013187">
        <time>2017-11-14T21:39:21.124000Z</time>
      </trkpt>
      <trkpt lat="35.95778558406602" lon="120.20977059390415">
        <ele>15.099433160727386</ele>
        <time>2017-11-14T21:39:25.133000Z</time>
      </trkpt>
      <trkpt lat="35.95784744251143" lon="120.20988827582468">
        <time>2017-11-14T21:39:29.134000Z</time>
      </trkpt>
      <trkpt lat="35.95787162430208" lon="120.21001090306808">
        <ele>15.300246454184418</ele>
        <time>2017-11-14T21:39:32.143000Z</time>
      </trkpt>
      <trkpt lat="35.95786202702295" lon="120.2101465222614">
        <time>2017-11-14T21:39:38.133000Z</time>
      </trkpt>
      <trkpt lat="35.95786152410876" lon="120.21026738930513">
        <ele>14.90389940828598</ele>
        <time>2017-11-14T21:39:42.135000Z</time>
      </trkpt>
      <trkpt lat="35.95787434842061" lon="120.21040384668876">
        <time>2017-11-14T21:39:46.186000Z</time>
      </trkpt>
      <trkpt lat="35.95787011555951" lon="120.21051591273417">
        <time>2017-11-14T21:39:49.133000Z</time>
      </trkpt>
      <trkpt lat="35.95786688852679" lon="120.210655555241">
        <ele>14.359584070151215</ele>
        <time>2017-11-14T21:39:53.147000Z</time>
      </trkpt>
      <trkpt lat="35.957820871878376" lon="120.2107538749652">
        <time>2017-11-14T21:39:57.142000Z</time>
      </trkpt>
      <trkpt lat="35.95772095959257" lon="120.21076854329576">
        <time>2017-11-14T21:40:01.135000Z</time>
      </trkpt>
      <trkpt lat="35.95761329404633" lon="120.21074834290911">
        <ele>12.52581331819809</ele>
        <time>2017-11-14T21:40:05.144000Z</time>
      </trkpt>
      <trkpt lat="35.95751338176053" lon="120.21077583555152">
        <time>2017-11-14T21:40:09.133000Z</time>
      </trkpt>
      <trkpt lat="35.95741581640761" lon="120.21081774506737">
        <ele>11.447745538657074</ele>
        <time>2017-11-14T21:40:15.144000Z</time>
      </trkpt>
      <trkpt lat="35.95731628130745" lon="120.21082327712347">
        <time>2017-11-14T21:40:18.132000Z</time>
      </trkpt>
      <trkpt lat="35.95722039233517" lon="120.21084674645235">
        <time>2017-11-14T21:40:21.150000Z</time>
      </trkpt>
      <trkpt lat="35.957100908305456" lon="120.21087029960026">
        <ele>10.60748598665512</ele>
        <time>2017-11-14T21:40:25.132000Z</time>
      </trkpt>
      <trkpt lat="35.95699211120229" lon="120.21088169898857">
        <time>2017-11-14T21:40:29.135000Z</time>
      </trkpt>
      <trkpt lat="35.956893707659056" lon="120.21091095183064">
        <ele>9.925769067709808</ele>
        <time>2017-11-14T21:40:33.151000Z</time>
      </trkpt>
      <trkpt lat="35.95679765104871" lon="120.21092209976186">
        <time>2017-11-14T21:40:37.147000Z</time>
      </trkpt>
      <trkpt lat="35.95669748730581" lon="120.21093685191144">
        <time>2017-11-14T21:40:41.104000Z</time>
      </trkpt>
      <trkpt lat="35.956590701859405" lon="120.21096006978323">
        <ele>9.23876497835434</ele>
        <time>2017-11-14T21:40:45.144000Z</time>
      </trkpt>
      <trkpt lat="35.95648349731784" lon="120.21097549248506">
        <time>2017-11-14T21:40:49.152000Z</time>
      </trkpt>
      <trkpt lat="35.956382369656076" lon="120.21100851718356">
        <ele>8.773715234701996</ele>
        <time>2017-11-14T21:40:53.120000Z</time>
      </trkpt>
      <trkpt lat="35.95629201273989" lon="120.21105470147003">
        <time>2017-11-14T21:40:57.152000Z</time>
      </trkpt>
      <trkpt lat="35.95619344155859" lon="120.21109786827137">
        <time>2017-11-14T21:41:01.131000Z</time>
      </trkpt>
      <trkpt lat="35.956090176511516" lon="120.21111940976252">
        <ele>7.801341272299652</ele>
        <time>2017-11-14T21:41:05.135000Z</time>
      </trkpt>
      <trkpt lat="35.95598401970785" lon="120.21112971950342">
        <time>2017-11-14T21:41:09.133000Z</time>
      </trkpt>
      <trkpt lat="35.9558768570758" lon="120.21114388491978">
        <ele>6.723277307455902</ele>
        <time>2017-11-14T21:41:13.124000Z</time>
      </trkpt>
      <trkpt lat="35.95577551986646" lon="120.211173556857">
        <time>2017-11-14T21:41:17.238000Z</time>
      </trkpt>
      <trkpt lat="35.95568830616396" lon="120.21124379720558">
        <time>2017-11-14T21:41:21.124000Z</time>
      </trkpt>
      <trkpt lat="35.95563755374025" lon="120.21135360013713">
        <ele>5.957003808920746</ele>
        <time>2017-11-14T21:41:25.143000Z</time>
      </trkpt>
      <trkpt lat="35.95560800753157" lon="120.21148083742727">
        <time>2017-11-14T21:41:30.149000Z</time>
      </trkpt>
      <trkpt lat="35.955506418865134" lon="120.2115189750867">
        <ele>5.4761001834324645</ele>
        <time>2017-11-14T21:41:36.148000Z</time>
      </trkpt>
      <trkpt lat="35.95550859815996" lon="120.21163238223662">
        <time>2017-11-14T21:41:40.149000Z</time>
      </trkpt>
      <trkpt lat="35.95552779271822" lon="120.21175006415714">
        <ele>5.555369592612152</ele>
        <time>2017-11-14T21:41:44.171000Z</time>
      </trkpt>
      <trkpt lat="35.955553860437085" lon="120.21187956456114">
        <time>2017-11-14T21:41:48.140000Z</time>
      </trkpt>
      <trkpt lat="35.95558458011221" lon="120.21199967723359">
        <ele>5.3809768924168395</ele>
        <time>2017-11-14T21:41:52.145000Z</time>
      </trkpt>
      <trkpt lat="35.95560985155027" lon="120.21211325202157">
        <time>2017-11-14T21:41:56.130000Z</time>
      </trkpt>
      <trkpt lat="35.95563285987448" lon="120.21224224951138">
        <time>2017-11-14T21:42:00.127000Z</time>
      </trkpt>
      <trkpt lat="35.955652012523224" lon="120.2123720851915">
        <ele>5.2858536014012145</ele>
        <time>2017-11-14T21:42:04.129000Z</time>
      </trkpt>
      <trkpt lat="35.95566986597698" lon="120.21248926419784">
        <time>2017-11-14T21:42:08.140000Z</time>
      </trkpt>
      <trkpt lat="35.95568658787381" lon="120.21262002188732">
        <ele>5.264720178549652</ele>
        <time>2017-11-14T21:42:12.145000Z</time>
      </trkpt>
      <trkpt lat="35.95572401307147" lon="120.21273795526494">
        <time>2017-11-14T21:42:16.143000Z</time>
      </trkpt>
      <trkpt lat="35.95576357565444" lon="120.21285664301385">
        <time>2017-11-14T21:42:20.145000Z</time>
      </trkpt>
      <trkpt lat="35.95581709410619" lon="120.21296937961151">
        <ele>5.338702417319183</ele>
        <time>2017-11-14T21:42:25.121000Z</time>
      </trkpt>
      <trkpt lat="35.9558691876344" lon="120.21307901490499">
        <time>2017-11-14T21:42:29.136000Z</time>
      </trkpt>
      <trkpt lat="35.955906445193996" lon="120.2131876443701">
        <ele>5.528948999350433</ele>
        <time>2017-11-14T21:42:33.144000Z</time>
      </trkpt>
      <trkpt lat="35.95587312712889" lon="120.21330021332969">
        <time>2017-11-14T21:42:37.130000Z</time>
      </trkpt>
      <trkpt lat="35.955818728577306" lon="120.2134046518432">
        <time>2017-11-14T21:42:41.135000Z</time>
      </trkpt>
      <trkpt lat="35.955746099386324" lon="120.21347246143986">
        <ele>5.528948999350433</ele>
        <time>2017-11-14T21:42:46.146000Z</time>
      </trkpt>
      <trkpt lat="35.955656161565294" lon="120.21349308092167">
        <time>2017-11-14T21:42:49.111000Z</time>
      </trkpt>
      <trkpt lat="35.95556274525445" lon="120.2134519257771">
        <ele>5.196017480795746</ele>
        <time>2017-11-14T21:42:53.118000Z</time>
      </trkpt>
      <trkpt lat="35.95544565006714" lon="120.21347648475339">
        <time>2017-11-14T21:42:57.128000Z</time>
      </trkpt>
      <trkpt lat="35.95535391013693" lon="120.21351428713669">
        <time>2017-11-14T21:43:00.120000Z</time>
      </trkpt>
      <trkpt lat="35.95526837281506" lon="120.21355074841549">
        <ele>4.7785293826512145</ele>
        <time>2017-11-14T21:43:03.132000Z</time>
      </trkpt>
      <trkpt lat="35.95517013690989" lon="120.2136086673664">
        <time>2017-11-14T21:43:07.118000Z</time>
      </trkpt>
      <trkpt lat="35.955086946520915" lon="120.21367832098176">
        <time>2017-11-14T21:43:11.126000Z</time>
      </trkpt>
      <trkpt lat="35.95497743695597" lon="120.21371562045087">
        <ele>4.646411157553558</ele>
        <time>2017-11-14T21:43:16.129000Z</time>
      </trkpt>
      <trkpt lat="35.95486931040506" lon="120.21372375089695">
        <time>2017-11-14T21:43:20.128000Z</time>
      </trkpt>
      <trkpt lat="35.95476499762009" lon="120.21376423548926">
        <ele>3.9964020022801208</ele>
        <time>2017-11-14T21:43:24.146000Z</time>
      </trkpt>
      <trkpt lat="35.95466206784914" lon="120.21379977475871">
        <time>2017-11-14T21:43:29.119000Z</time>
      </trkpt>
      <trkpt lat="35.95455825797836" lon="120.21383590076138">
        <ele>3.594767785971527</ele>
        <time>2017-11-14T21:43:34.133000Z</time>
      </trkpt>
      <trkpt lat="35.954460608806414" lon="120.21380463626255">
        <time>2017-11-14T21:43:37.159000Z</time>
      </trkpt>
      <trkpt lat="35.95435843340675" lon="120.21378192130496">
        <time>2017-11-14T21:43:41.102000Z</time>
      </trkpt>
      <trkpt lat="35.95424749891828" lon="120.21380379807223">
        <ele>3.621196008627777</ele>
        <time>2017-11-14T21:43:45.095000Z</time>
      </trkpt>
      <trkpt lat="35.95413404985885" lon="120.21379943948259">
        <time>2017-11-14T21:43:50.282000Z</time>
      </trkpt>
      <trkpt lat="35.954045075956685" lon="120.21385777752866">
        <ele>3.9594146975926208</ele>
        <time>2017-11-14T21:43:56.078000Z</time>
      </trkpt>
      <trkpt lat="35.953954132307274" lon="120.21392910752465">
        <time>2017-11-14T21:44:00.144000Z</time>
      </trkpt>
      <trkpt lat="35.95385438765953" lon="120.21396732900311">
        <ele>4.408602930014496</ele>
        <time>2017-11-14T21:44:04.154000Z</time>
      </trkpt>
      <trkpt lat="35.95376277345787" lon="120.21398132678141">
        <time>2017-11-14T21:44:08.126000Z</time>
      </trkpt>
      <trkpt lat="35.953634111244185" lon="120.21400161098708">
        <ele>4.213076806967621</ele>
        <time>2017-11-14T21:44:12.132000Z</time>
      </trkpt>
      <trkpt lat="35.95353755171965" lon="120.21401586022247">
        <time>2017-11-14T21:44:16.123000Z</time>
      </trkpt>
      <trkpt lat="35.95342808406423" lon="120.2140130103754">
        <time>2017-11-14T21:44:21.145000Z</time>
      </trkpt>
      <trkpt lat="35.95332741740714" lon="120.21402197901179">
        <ele>4.382182336752777</ele>
        <time>2017-11-14T21:44:25.147000Z</time>
      </trkpt>
      <trkpt lat="35.953218285027845" lon="120.21401477057506">
        <time>2017-11-14T21:44:30.145000Z</time>
      </trkpt>
      <trkpt lat="35.953120635855896" lon="120.213993480541">
        <ele>4.530154443686371</ele>
        <time>2017-11-14T21:44:35.116000Z</time>
      </trkpt>
      <trkpt lat="35.95301456287126" lon="120.21395576197673">
        <time>2017-11-14T21:44:40.149000Z</time>
      </trkpt>
      <trkpt lat="35.9529295703731" lon="120.21391477447023">
        <ele>4.826091028159027</ele>
        <time>2017-11-14T21:44:44.130000Z</time>
      </trkpt>
      <trkpt lat="35.952837662804825" lon="120.21388652745654">
        <time>2017-11-14T21:44:47.139000Z</time>
      </trkpt>
      <trkpt lat="35.95276373441885" lon="120.21378938119878">
        <time>2017-11-14T21:44:51.140000Z</time>
      </trkpt>
      <trkpt lat="35.95274361785124" lon="120.21366180863251">
        <ele>4.762675500815277</ele>
        <time>2017-11-14T21:44:55.143000Z</time>
      </trkpt>
      <trkpt lat="35.95272056761752" lon="120.2135484014826">
        <time>2017-11-14T21:44:59.132000Z</time>
      </trkpt>
      <trkpt lat="35.95268263950567" lon="120.21344413060714">
        <ele>4.561862207358246</ele>
        <time>2017-11-14T21:45:03.098000Z</time>
      </trkpt>
      <trkpt lat="35.9526758501641" lon="120.21330825995673">
        <time>2017-11-14T21:45:07.130000Z</time>
      </trkpt>
      <trkpt lat="35.95264286737512" lon="120.2131963615494">
        <time>2017-11-14T21:45:11.108000Z</time>
      </trkpt>
      <trkpt lat="35.95262597784023" lon="120.2130697948115">
        <ele>4.635844446127777</ele>
        <time>2017-11-14T21:45:15.141000Z</time>
      </trkpt>
      <trkpt lat="35.95258616380016" lon="120.21296946343054">
        <time>2017-11-14T21:45:19.125000Z</time>
      </trkpt>
      <trkpt lat="35.95256839416544" lon="120.21284163940717">
        <ele>4.5565750369480895</ele>
        <time>2017-11-14T21:45:23.164000Z</time>
      </trkpt>
      <trkpt lat="35.952543960917694" lon="120.21272052090634">
        <time>2017-11-14T21:45:27.149000Z</time>
      </trkpt>
      <trkpt lat="35.95253205861519" lon="120.21260485064258">
        <time>2017-11-14T21:45:31.097000Z</time>
      </trkpt>
      <trkpt lat="35.95251407943289" lon="120.2124756855147">
        <ele>4.567141748373871</ele>
        <time>2017-11-14T21:45:36.127000Z</time>
      </trkpt>
      <trkpt lat="35.952492957036895" lon="120.21235825505127">
        <ele>4.197222925131683</ele>
        <time>2017-11-14T21:45:42.151000Z</time>
      </trkpt>
      <trkpt lat="35.95246529675643" lon="120.21222841937114">
        <time>2017-11-14T21:45:46.132000Z</time>
      </trkpt>
      <trkpt lat="35.95242950602989" lon="120.21211819734444">
        <time>2017-11-14T21:45:49.113000Z</time>
      </trkpt>
      <trkpt lat="35.95238168727229" lon="120.21200940024127">
        <ele>4.329333520834808</ele>
        <time>2017-11-14T21:45:53.142000Z</time>
      </trkpt>
      <trkpt lat="35.95232527706395" lon="120.21190831448902">
        <time>2017-11-14T21:45:57.148000Z</time>
      </trkpt>
      <trkpt lat="35.95227485991637" lon="120.21178459759821">
        <ele>4.297625757162933</ele>
        <time>2017-11-14T21:46:02.132000Z</time>
      </trkpt>
      <trkpt lat="35.95223772808532" lon="120.21165199589004">
        <time>2017-11-14T21:46:06.137000Z</time>
      </trkpt>
      <trkpt lat="35.952234165776474" lon="120.2115295362847">
        <time>2017-11-14T21:46:11.124000Z</time>
      </trkpt>
      <trkpt lat="35.95221262428532" lon="120.21139366563429">
        <ele>4.435031152670746</ele>
        <time>2017-11-14T21:46:15.136000Z</time>
      </trkpt>
      <trkpt lat="35.95217595345895" lon="120.21128864038755">
        <time>2017-11-14T21:46:19.136000Z</time>
      </trkpt>
      <trkpt lat="35.952151101116044" lon="120.21117607142796">
        <ele>4.4297439822605895</ele>
        <time>2017-11-14T21:46:23.140000Z</time>
      </trkpt>
      <trkpt lat="35.952138234894676" lon="120.21106484357287">
        <time>2017-11-14T21:46:27.134000Z</time>
      </trkpt>
      <trkpt lat="35.95213664233307" lon="120.21094079140593">
        <time>2017-11-14T21:46:31.139000Z</time>
      </trkpt>
      <trkpt lat="35.952135217409534" lon="120.21079754468073">
        <ele>4.392749048178558</ele>
        <time>2017-11-14T21:46:35.142000Z</time>
      </trkpt>
      <trkpt lat="35.952123776111705" lon="120.21068070095052">
        <time>2017-11-14T21:46:39.175000Z</time>
      </trkpt>
      <trkpt lat="35.952068120274646" lon="120.21056109119226">
        <ele>4.503726221030121</ele>
        <time>2017-11-14T21:46:44.107000Z</time>
      </trkpt>
      <trkpt lat="35.952024534378154" lon="120.21042924385537">
        <time>2017-11-14T21:46:48.133000Z</time>
      </trkpt>
      <trkpt lat="35.951927807215554" lon="120.21044315781464">
        <ele>4.139086938803558</ele>
        <time>2017-11-14T21:47:27.109000Z</time>
      </trkpt>
      <trkpt lat="35.951818130012555" lon="120.21048054110278">
        <ele>4.4931595096043395</ele>
        <time>2017-11-14T21:47:32.138000Z</time>
      </trkpt>
      <trkpt lat="35.951722115311725" lon="120.21051893021931">
        <time>2017-11-14T21:47:36.132000Z</time>
      </trkpt>
      <trkpt lat="35.95163213558118" lon="120.21055388275553">
        <time>2017-11-14T21:47:40.143000Z</time>
      </trkpt>
      <trkpt lat="35.95153172038118" lon="120.21061004150678">
        <ele>4.635844446127777</ele>
        <time>2017-11-14T21:47:45.080000Z</time>
      </trkpt>
      <trkpt lat="35.95142908397685" lon="120.21063812088241">
        <time>2017-11-14T21:47:49.099000Z</time>
      </trkpt>
      <trkpt lat="35.951330387067" lon="120.2106761747228">
        <ele>4.472018457358246</ele>
        <time>2017-11-14T21:47:54.147000Z</time>
      </trkpt>
      <trkpt lat="35.95123583919923" lon="120.21070006314685">
        <time>2017-11-14T21:47:58.135000Z</time>
      </trkpt>
      <trkpt lat="35.951129221390886" lon="120.21069059159626">
        <ele>4.699259973471527</ele>
        <time>2017-11-14T21:48:03.129000Z</time>
      </trkpt>
      <trkpt lat="35.951031195033295" lon="120.21069746475686">
        <time>2017-11-14T21:48:08.135000Z</time>
      </trkpt>
      <trkpt lat="35.95093677289407" lon="120.21071095962097">
        <ele>3.494364953940277</ele>
        <time>2017-11-14T21:48:12.140000Z</time>
      </trkpt>
      <trkpt lat="35.95084134492646" lon="120.210734848045">
        <time>2017-11-14T21:48:16.110000Z</time>
      </trkpt>
      <trkpt lat="35.950751658562524" lon="120.21080575894584">
        <time>2017-11-14T21:48:20.146000Z</time>
      </trkpt>
      <trkpt lat="35.95065727833281" lon="120.2108252049612">
        <ele>3.8590042361668395</ele>
        <time>2017-11-14T21:48:26.143000Z</time>
      </trkpt>
      <trkpt lat="35.95054345208774" lon="120.21083836454918">
        <time>2017-11-14T21:48:30.144000Z</time>
      </trkpt>
      <trkpt lat="35.95043461307506" lon="120.21085051830877">
        <ele>3.2618362674168395</ele>
        <time>2017-11-14T21:48:34.141000Z</time>
      </trkpt>
      <trkpt lat="35.95032912682365" lon="120.21088555466403">
        <time>2017-11-14T21:48:38.125000Z</time>
      </trkpt>
      <trkpt lat="35.95022074881564" lon="120.21091145474483">
        <ele>3.2935440310887145</ele>
        <time>2017-11-14T21:48:43.137000Z</time>
      </trkpt>
      <trkpt lat="35.95012745823334" lon="120.21092151302864">
        <time>2017-11-14T21:48:47.141000Z</time>
      </trkpt>
      <trkpt lat="35.950017822939856" lon="120.21093115221728">
        <time>2017-11-14T21:48:51.127000Z</time>
      </trkpt>
      <trkpt lat="35.94992750793318" lon="120.21091698680092">
        <ele>3.467936731284027</ele>
        <time>2017-11-14T21:48:56.130000Z</time>
      </trkpt>
      <trkpt lat="35.949829355847044" lon="120.21095805812647">
        <time>2017-11-14T21:49:01.128000Z</time>
      </trkpt>
      <trkpt lat="35.949737993102474" lon="120.21101203758289">
        <ele>3.494364953940277</ele>
        <time>2017-11-14T21:49:05.152000Z</time>
      </trkpt>
      <trkpt lat="35.9496260108761" lon="120.21108856435885">
        <time>2017-11-14T21:49:09.113000Z</time>
      </trkpt>
      <trkpt lat="35.949522075276775" lon="120.21111270423998">
        <ele>3.5154983767918395</ele>
        <time>2017-11-14T21:49:13.147000Z</time>
      </trkpt>
      <trkpt lat="35.94943058680366" lon="120.21108655270208">
        <time>2017-11-14T21:49:17.132000Z</time>
      </trkpt>
      <trkpt lat="35.94932531009982" lon="120.21109350968172">
        <ele>3.494364953940277</ele>
        <time>2017-11-14T21:49:22.154000Z</time>
      </trkpt>
      <trkpt lat="35.9492245596237" lon="120.21113508392145">
        <time>2017-11-14T21:49:28.110000Z</time>
      </trkpt>
      <trkpt lat="35.94912150412421" lon="120.21115880470742">
        <ele>3.652903772299652</ele>
        <time>2017-11-14T21:49:34.132000Z</time>
      </trkpt>
      <trkpt lat="35.949022262390656" lon="120.21117020409574">
        <time>2017-11-14T21:49:37.125000Z</time>
      </trkpt>
      <trkpt lat="35.948922517742915" lon="120.21118931483497">
        <time>2017-11-14T21:49:40.133000Z</time>
      </trkpt>
      <trkpt lat="35.9488180792294" lon="120.21121596928705">
        <ele>3.6581909427098083</ele>
        <time>2017-11-14T21:49:43.144000Z</time>
      </trkpt>
      <trkpt lat="35.94871192242573" lon="120.21124362956752">
        <time>2017-11-14T21:49:47.151000Z</time>
      </trkpt>
      <trkpt lat="35.94861720691989" lon="120.21128235396017">
        <time>2017-11-14T21:49:51.136000Z</time>
      </trkpt>
      <trkpt lat="35.94850145283709" lon="120.21131688740124">
        <ele>3.8061554202488708</ele>
        <time>2017-11-14T21:49:55.104000Z</time>
      </trkpt>
      <trkpt lat="35.94839810397099" lon="120.21133641723563">
        <time>2017-11-14T21:49:59.141000Z</time>
      </trkpt>
      <trkpt lat="35.94829794022809" lon="120.21136156294514">
        <ele>3.494364953940277</ele>
        <time>2017-11-14T21:50:04.120000Z</time>
      </trkpt>
      <trkpt lat="35.94820129688452" lon="120.21139442000558">
        <ele>3.626475549643402</ele>
        <time>2017-11-14T21:50:12.114000Z</time>
      </trkpt>
      <trkpt lat="35.948102306608064" lon="120.21142828289439">
        <time>2017-11-14T21:50:17.133000Z</time>
      </trkpt>
      <trkpt lat="35.947998790103895" lon="120.21145770337452">
        <time>2017-11-14T21:50:21.140000Z</time>
      </trkpt>
      <trkpt lat="35.94789238184313" lon="120.21147807139923">
        <ele>3.8061554202488708</ele>
        <time>2017-11-14T21:50:26.118000Z</time>
      </trkpt>
      <trkpt lat="35.94778739850591" lon="120.2115073242413">
        <time>2017-11-14T21:50:30.111000Z</time>
      </trkpt>
      <trkpt lat="35.947697795961005" lon="120.21152073528637">
        <ele>3.5207855472019958</ele>
        <time>2017-11-14T21:50:34.110000Z</time>
      </trkpt>
      <trkpt lat="35.94760588839273" lon="120.21153531979789">
        <time>2017-11-14T21:50:38.099000Z</time>
      </trkpt>
      <trkpt lat="35.947495750185055" lon="120.21154110331108">
        <ele>3.652903772299652</ele>
        <time>2017-11-14T21:50:43.116000Z</time>
      </trkpt>
      <trkpt lat="35.9474020405076" lon="120.21157496619989">
        <time>2017-11-14T21:50:47.137000Z</time>
      </trkpt>
      <trkpt lat="35.947309210929966" lon="120.21159969281425">
        <time>2017-11-14T21:50:51.125000Z</time>
      </trkpt>
      <trkpt lat="35.947214202057516" lon="120.21161427732576">
        <ele>3.5524933108738708</ele>
        <time>2017-11-14T21:50:56.120000Z</time>
      </trkpt>
      <trkpt lat="35.947115253690576" lon="120.2116328851508">
        <time>2017-11-14T21:50:59.127000Z</time>
      </trkpt>
      <trkpt lat="35.947018652256524" lon="120.21168275747468">
        <ele>3.462657190268402</ele>
        <time>2017-11-14T21:51:03.123000Z</time>
      </trkpt>
      <trkpt lat="35.94691014851997" lon="120.21170446660389">
        <time>2017-11-14T21:51:08.145000Z</time>
      </trkpt>
      <trkpt lat="35.946813672814464" lon="120.21173447381724">
        <ele>3.5472061404637145</ele>
        <time>2017-11-14T21:51:12.140000Z</time>
      </trkpt>
      <trkpt lat="35.94672457318375" lon="120.21176037389804">
        <time>2017-11-14T21:51:16.136000Z</time>
      </trkpt>
      <trkpt lat="35.946616781908965" lon="120.21179289568235">
        <time>2017-11-14T21:51:21.131000Z</time>
      </trkpt>
      <trkpt lat="35.94650907445321" lon="120.21183296117951">
        <ele>3.2195617923191833</ele>
        <time>2017-11-14T21:51:26.126000Z</time>
      </trkpt>
      <trkpt lat="35.94641947190831" lon="120.2118733619528">
        <time>2017-11-14T21:51:30.102000Z</time>
      </trkpt>
      <trkpt lat="35.946320230174756" lon="120.21188417460789">
        <ele>3.177287317221527</ele>
        <time>2017-11-14T21:51:35.089000Z</time>
      </trkpt>
      <trkpt lat="35.94622446693102" lon="120.21192030061056">
        <time>2017-11-14T21:51:39.132000Z</time>
      </trkpt>
      <trkpt lat="35.94612929042051" lon="120.21196212630738">
        <ele>3.3146850833348083</ele>
        <time>2017-11-14T21:51:43.108000Z</time>
      </trkpt>
      <trkpt lat="35.94604056797544" lon="120.21199691120555">
        <time>2017-11-14T21:51:47.142000Z</time>
      </trkpt>
      <trkpt lat="35.94595339618245" lon="120.21203320484628">
        <time>2017-11-14T21:51:51.135000Z</time>
      </trkpt>
      <trkpt lat="35.94585893213371" lon="120.21208852540721">
        <ele>3.4256622561863708</ele>
        <time>2017-11-14T21:51:57.121000Z</time>
      </trkpt>
      <trkpt lat="35.945787853594815" lon="120.21216413017382">
        <ele>2.6646759280613708</ele>
        <time>2017-11-14T21:52:04.127000Z</time>
      </trkpt>
      <trkpt lat="35.94569833486894" lon="120.21222313877215">
        <time>2017-11-14T21:52:09.128000Z</time>
      </trkpt>
      <trkpt lat="35.94560060187796" lon="120.21228214737047">
        <ele>2.9183380374363708</ele>
        <time>2017-11-14T21:52:14.119000Z</time>
      </trkpt>
      <trkpt lat="35.94551183752338" lon="120.21232950512339">
        <time>2017-11-14T21:52:18.138000Z</time>
      </trkpt>
      <trkpt lat="35.945424540001845" lon="120.21236797805895">
        <ele>3.2354156741551208</ele>
        <time>2017-11-14T21:52:22.113000Z</time>
      </trkpt>
      <trkpt lat="35.94531239013741" lon="120.21238021563758">
        <time>2017-11-14T21:52:27.139000Z</time>
      </trkpt>
      <trkpt lat="35.945224128697014" lon="120.21241483289768">
        <time>2017-11-14T21:52:31.135000Z</time>
      </trkpt>
      <trkpt lat="35.945136202532744" lon="120.21245640713741">
        <ele>3.2301285037449645</ele>
        <time>2017-11-14T21:52:35.106000Z</time>
      </trkpt>
      <trkpt lat="35.945048779282665" lon="120.21251273352672">
        <time>2017-11-14T21:52:39.149000Z</time>
      </trkpt>
      <trkpt lat="35.94495628498117" lon="120.21255212847163">
        <ele>3.341105676596527</ele>
        <time>2017-11-14T21:52:43.114000Z</time>
      </trkpt>
      <trkpt lat="35.944866975802874" lon="120.2126001567768">
        <time>2017-11-14T21:52:47.127000Z</time>
      </trkpt>
      <trkpt lat="35.9447872219942" lon="120.21266117703189">
        <time>2017-11-14T21:52:51.112000Z</time>
      </trkpt>
      <trkpt lat="35.94469988256315" lon="120.21270199690034">
        <ele>3.4415161380223083</ele>
        <time>2017-11-14T21:52:55.130000Z</time>
      </trkpt>
      <trkpt lat="35.94461329750339" lon="120.21274231385459">
        <time>2017-11-14T21:52:59.129000Z</time>
      </trkpt>
      <trkpt lat="35.94452847264329" lon="120.2127848939227">
        <ele>3.4785110721043395</ele>
        <time>2017-11-14T21:53:03.191000Z</time>
      </trkpt>
      <trkpt lat="35.94442466277251" lon="120.21282998856177">
        <time>2017-11-14T21:53:08.110000Z</time>
      </trkpt>
      <trkpt lat="35.944325588677025" lon="120.21288815896978">
        <ele>3.652903772299652</ele>
        <time>2017-11-14T21:53:13.094000Z</time>
      </trkpt>
      <trkpt lat="35.944239087436294" lon="120.21293509762754">
        <time>2017-11-14T21:53:17.110000Z</time>
      </trkpt>
      <trkpt lat="35.944154597852325" lon="120.21298471849431">
        <time>2017-11-14T21:53:21.100000Z</time>
      </trkpt>
      <trkpt lat="35.944067677516436" lon="120.21304523583521">
        <ele>4.392749048178558</ele>
        <time>2017-11-14T21:53:25.126000Z</time>
      </trkpt>
      <trkpt lat="35.94397748823831" lon="120.21312285225858">
        <time>2017-11-14T21:53:30.106000Z</time>
      </trkpt>
      <trkpt lat="35.9438889334313" lon="120.2131564636903">
        <ele>5.053332544272308</ele>
        <time>2017-11-14T21:53:34.107000Z</time>
      </trkpt>
      <trkpt lat="35.9437760711051" lon="120.21312327135374">
        <time>2017-11-14T21:53:38.099000Z</time>
      </trkpt>
      <trkpt lat="35.943689486045336" lon="120.21304582256843">
        <ele>5.671633935873871</ele>
        <time>2017-11-14T21:53:42.136000Z</time>
      </trkpt>
      <trkpt lat="35.94363726678858" lon="120.2129368578272">
        <time>2017-11-14T21:53:46.093000Z</time>
      </trkpt>
      <trkpt lat="35.943599254857695" lon="120.21281699661185">
        <time>2017-11-14T21:53:50.101000Z</time>
      </trkpt>
      <trkpt lat="35.943548753891086" lon="120.21271348010768">
        <ele>5.655780054037933</ele>
        <time>2017-11-14T21:53:54.101000Z</time>
      </trkpt>
      <trkpt lat="35.943491002578234" lon="120.21261180762221">
        <time>2017-11-14T21:53:58.103000Z</time>
      </trkpt>
      <trkpt lat="35.943430401418304" lon="120.21251248206963">
        <ele>5.518382287924652</ele>
        <time>2017-11-14T21:54:02.103000Z</time>
      </trkpt>
      <trkpt lat="35.94336389101664" lon="120.21241424616446">
        <time>2017-11-14T21:54:06.119000Z</time>
      </trkpt>
      <trkpt lat="35.94332240059594" lon="120.21230553288032">
        <time>2017-11-14T21:54:10.095000Z</time>
      </trkpt>
      <trkpt lat="35.94323342669377" lon="120.21223302941789">
        <ele>5.359843469565277</ele>
        <time>2017-11-14T21:54:14.102000Z</time>
      </trkpt>
      <trkpt lat="35.94316968232015" lon="120.21215197641422">
        <time>2017-11-14T21:54:18.102000Z</time>
      </trkpt>
      <trkpt lat="35.94312986828009" lon="120.21204829227199">
        <ele>5.111460901205902</ele>
        <time>2017-11-14T21:54:22.103000Z</time>
      </trkpt>
      <trkpt lat="35.9430844383649" lon="120.21194494340588">
        <time>2017-11-14T21:54:26.102000Z</time>
      </trkpt>
      <trkpt lat="35.94303548805038" lon="120.21182533364762">
        <time>2017-11-14T21:54:31.102000Z</time>
      </trkpt>
      <trkpt lat="35.942990477230346" lon="120.21171720709671">
        <ele>5.042765832846527</ele>
        <time>2017-11-14T21:54:35.104000Z</time>
      </trkpt>
      <trkpt lat="35.94293218109379" lon="120.21161402586867">
        <time>2017-11-14T21:54:39.106000Z</time>
      </trkpt>
      <trkpt lat="35.942872124757564" lon="120.21151796925832">
        <ele>4.958209253256683</ele>
        <time>2017-11-14T21:54:43.114000Z</time>
      </trkpt>
      <trkpt lat="35.94280356078962" lon="120.21143607806434">
        <time>2017-11-14T21:54:47.109000Z</time>
      </trkpt>
      <trkpt lat="35.942745641838705" lon="120.21134370949139">
        <time>2017-11-14T21:54:51.116000Z</time>
      </trkpt>
      <trkpt lat="35.942693841677105" lon="120.21122845832278">
        <ele>4.741534448569183</ele>
        <time>2017-11-14T21:54:55.114000Z</time>
      </trkpt>
      <trkpt lat="35.94262984584639" lon="120.2111307253318">
        <time>2017-11-14T21:54:59.118000Z</time>
      </trkpt>
      <trkpt lat="35.94256815503905" lon="120.21101765345801">
        <ele>4.345187402670746</ele>
        <time>2017-11-14T21:55:04.137000Z</time>
      </trkpt>
      <trkpt lat="35.94250906262169" lon="120.21093375060727">
        <time>2017-11-14T21:55:08.140000Z</time>
      </trkpt>
      <trkpt lat="35.94245919029782" lon="120.21081363793482">
        <ele>4.329333520834808</ele>
        <time>2017-11-14T21:55:13.102000Z</time>
      </trkpt>
      <trkpt lat="35.94242658469448" lon="120.21070375118424">
        <time>2017-11-14T21:55:17.099000Z</time>
      </trkpt>
      <trkpt lat="35.94237872402737" lon="120.21060853276421">
        <time>2017-11-14T21:55:21.100000Z</time>
      </trkpt>
      <trkpt lat="35.942309070412016" lon="120.21049940038492">
        <ele>4.265917993491058</ele>
        <time>2017-11-14T21:55:26.097000Z</time>
      </trkpt>
      <trkpt lat="35.942227430675125" lon="120.21040803764035">
        <time>2017-11-14T21:55:31.136000Z</time>
      </trkpt>
      <trkpt lat="35.94216900881002" lon="120.21031441178192">
        <ele>4.3029129275730895</ele>
        <time>2017-11-14T21:55:35.113000Z</time>
      </trkpt>
      <trkpt lat="35.94210627026478" lon="120.21020402211715">
        <time>2017-11-14T21:55:40.123000Z</time>
      </trkpt>
      <trkpt lat="35.94203720338265" lon="120.21009413536657">
        <ele>4.308200097983246</ele>
        <time>2017-11-14T21:55:45.092000Z</time>
      </trkpt>
      <trkpt lat="35.94198816924909" lon="120.20999816257526">
        <time>2017-11-14T21:55:49.102000Z</time>
      </trkpt>
      <trkpt lat="35.94193662054459" lon="120.20988500688244">
        <ele>3.9594146975926208</ele>
        <time>2017-11-14T21:55:53.114000Z</time>
      </trkpt>
      <trkpt lat="35.941882934454775" lon="120.2097752039509">
        <time>2017-11-14T21:55:57.101000Z</time>
      </trkpt>
      <trkpt lat="35.94182287811855" lon="120.20967990171184">
        <time>2017-11-14T21:56:01.127000Z</time>
      </trkpt>
      <trkpt lat="35.94174559697131" lon="120.20959759142269">
        <ele>3.7691681155613708</ele>
        <time>2017-11-14T21:56:05.130000Z</time>
      </trkpt>
      <trkpt lat="35.941701214794016" lon="120.2094990202414">
        <time>2017-11-14T21:56:09.101000Z</time>
      </trkpt>
      <trkpt lat="35.94168885148684" lon="120.20937329169382">
        <ele>3.4785110721043395</ele>
        <time>2017-11-14T21:56:13.129000Z</time>
      </trkpt>
      <trkpt lat="35.94168885148684" lon="120.20925250846912">
        <time>2017-11-14T21:56:19.280000Z</time>
      </trkpt>
      <trkpt lat="35.94168885148684" lon="120.20925250846912">
        <time>2017-11-14T21:56:53.085000Z</time>
      </trkpt>
      <trkpt lat="35.941842449862456" lon="120.20926441077162">
        <time>2017-11-14T21:56:53.108000Z</time>
      </trkpt>
      <trkpt lat="35.94194420616696" lon="120.2092463896798">
        <ele>3.404521203940277</ele>
        <time>2017-11-14T21:56:57.080000Z</time>
      </trkpt>
      <trkpt lat="35.94203988559166" lon="120.20923716958632">
        <time>2017-11-14T21:57:01.114000Z</time>
      </trkpt>
      <trkpt lat="35.942130703512525" lon="120.20922082487513">
        <ele>2.9658996829441833</ele>
        <time>2017-11-14T21:57:05.086000Z</time>
      </trkpt>
      <trkpt lat="35.94223413619766" lon="120.20920992840101">
        <time>2017-11-14T21:57:10.117000Z</time>
      </trkpt>
      <trkpt lat="35.94233136627445" lon="120.20915737386812">
        <ele>2.421580530112152</ele>
        <time>2017-11-14T21:57:14.120000Z</time>
      </trkpt>
      <trkpt lat="35.94241128772119" lon="120.20907866779734">
        <time>2017-11-14T21:57:18.147000Z</time>
      </trkpt>
      <trkpt lat="35.94250164463738" lon="120.20902234140803">
        <time>2017-11-14T21:57:22.099000Z</time>
      </trkpt>
      <trkpt lat="35.94258462547878" lon="120.20897171471287">
        <ele>2.1626312503269958</ele>
        <time>2017-11-14T21:57:26.116000Z</time>
      </trkpt>
      <trkpt lat="35.94268357384572" lon="120.20893575634827">
        <time>2017-11-14T21:57:30.113000Z</time>
      </trkpt>
      <trkpt lat="35.94277451749513" lon="120.2089168132471">
        <ele>2.2366211184910583</ele>
        <time>2017-11-14T21:57:34.120000Z</time>
      </trkpt>
      <trkpt lat="35.94288846946875" lon="120.20891346048583">
        <time>2017-11-14T21:57:39.119000Z</time>
      </trkpt>
      <trkpt lat="35.94298423271248" lon="120.20890566531588">
        <time>2017-11-14T21:57:43.122000Z</time>
      </trkpt>
      <trkpt lat="35.94308615665505" lon="120.20890172582139">
        <ele>2.1203567752293395</ele>
        <time>2017-11-14T21:57:47.122000Z</time>
      </trkpt>
      <trkpt lat="35.943184434469735" lon="120.20888328563441">
        <time>2017-11-14T21:57:51.125000Z</time>
      </trkpt>
      <trkpt lat="35.9432810778133" lon="120.20885076385011">
        <ele>2.0569412478855895</ele>
        <time>2017-11-14T21:57:55.126000Z</time>
      </trkpt>
      <trkpt lat="35.94338488768408" lon="120.20880918961038">
        <time>2017-11-14T21:57:59.125000Z</time>
      </trkpt>
      <trkpt lat="35.94348840418825" lon="120.20876275386681">
        <ele>1.7715713748387145</ele>
        <time>2017-11-14T21:58:04.114000Z</time>
      </trkpt>
      <trkpt lat="35.943579515475726" lon="120.20873006444444">
        <time>2017-11-14T21:58:08.137000Z</time>
      </trkpt>
      <trkpt lat="35.943681900422966" lon="120.2087027394401">
        <time>2017-11-14T21:58:13.126000Z</time>
      </trkpt>
      <trkpt lat="35.94377213161061" lon="120.20870382908751">
        <ele>1.6764480838230895</ele>
        <time>2017-11-14T21:58:17.120000Z</time>
      </trkpt>
      <trkpt lat="35.94386299144099" lon="120.20872084435095">
        <time>2017-11-14T21:58:21.131000Z</time>
      </trkpt>
      <trkpt lat="35.94395079187671" lon="120.20876719627549">
        <ele>1.628886438315277</ele>
        <time>2017-11-14T21:58:25.142000Z</time>
      </trkpt>
      <trkpt lat="35.94403335362295" lon="120.20881706859936">
        <time>2017-11-14T21:58:29.104000Z</time>
      </trkpt>
      <trkpt lat="35.94411801084498" lon="120.20885554153492">
        <time>2017-11-14T21:58:33.125000Z</time>
      </trkpt>
      <trkpt lat="35.944210840422606" lon="120.2088787594067">
        <ele>1.8032791385105895</ele>
        <time>2017-11-14T21:58:37.119000Z</time>
      </trkpt>
      <trkpt lat="35.94431180044631" lon="120.20889049407114">
        <time>2017-11-14T21:58:41.126000Z</time>
      </trkpt>
      <trkpt lat="35.9444090305231" lon="120.20888915296663">
        <ele>1.7662842044285583</ele>
        <time>2017-11-14T21:58:45.124000Z</time>
      </trkpt>
      <trkpt lat="35.944514265317416" lon="120.20886987458934">
        <time>2017-11-14T21:58:49.111000Z</time>
      </trkpt>
      <trkpt lat="35.94460650816182" lon="120.20884992565979">
        <time>2017-11-14T21:58:53.113000Z</time>
      </trkpt>
      <trkpt lat="35.944713084060645" lon="120.20882276829352">
        <ele>1.6235992679051208</ele>
        <time>2017-11-14T21:58:57.084000Z</time>
      </trkpt>
      <trkpt lat="35.94480851202825" lon="120.20880114298333">
        <time>2017-11-14T21:59:01.107000Z</time>
      </trkpt>
      <trkpt lat="35.944897527839935" lon="120.20878605555762">
        <ele>1.660594201987152</ele>
        <time>2017-11-14T21:59:05.091000Z</time>
      </trkpt>
      <trkpt lat="35.94499915841589" lon="120.20877566199769">
        <time>2017-11-14T21:59:09.125000Z</time>
      </trkpt>
      <trkpt lat="35.94510657250503" lon="120.20876216713359">
        <ele>1.6553070315769958</ele>
        <time>2017-11-14T21:59:14.125000Z</time>
      </trkpt>
      <trkpt lat="35.94520019836346" lon="120.20875177357365">
        <time>2017-11-14T21:59:18.113000Z</time>
      </trkpt>
      <trkpt lat="35.94530622943858" lon="120.20874121237566">
        <time>2017-11-14T21:59:22.126000Z</time>
      </trkpt>
      <trkpt lat="35.94540685418615" lon="120.20872922625412">
        <ele>1.3012344607762145</ele>
        <time>2017-11-14T21:59:26.121000Z</time>
      </trkpt>
      <trkpt lat="35.945504964362776" lon="120.20871958706547">
        <time>2017-11-14T21:59:30.106000Z</time>
      </trkpt>
      <trkpt lat="35.94559678811202" lon="120.20871656958033">
        <ele>1.380503869955902</ele>
        <time>2017-11-14T21:59:34.126000Z</time>
      </trkpt>
      <trkpt lat="35.94569150361786" lon="120.20870584074427">
        <time>2017-11-14T21:59:38.135000Z</time>
      </trkpt>
      <trkpt lat="35.94578257299582" lon="120.20870441582073">
        <time>2017-11-14T21:59:42.131000Z</time>
      </trkpt>
      <trkpt lat="35.94587276227394" lon="120.20869812939335">
        <ele>2.2260467776707458</ele>
        <time>2017-11-14T21:59:46.113000Z</time>
      </trkpt>
      <trkpt lat="35.945968567427194" lon="120.20868832256664">
        <time>2017-11-14T21:59:50.126000Z</time>
      </trkpt>
      <trkpt lat="35.94607141337911" lon="120.20867323514094">
        <ele>2.136210657065277</ele>
        <time>2017-11-14T21:59:54.123000Z</time>
      </trkpt>
      <trkpt lat="35.946177989277935" lon="120.20866225484778">
        <time>2017-11-14T21:59:58.098000Z</time>
      </trkpt>
      <trkpt lat="35.946275303173756" lon="120.20864959817399">
        <time>2017-11-14T22:00:02.118000Z</time>
      </trkpt>
      <trkpt lat="35.94638066369662" lon="120.20862579356898">
        <ele>2.2894623050144958</ele>
        <time>2017-11-14T22:00:07.124000Z</time>
      </trkpt>
      <trkpt lat="35.946469260413146" lon="120.20860726956298">
        <time>2017-11-14T22:00:11.114000Z</time>
      </trkpt>
      <trkpt lat="35.9465716872699" lon="120.20859092485179">
        <ele>2.1467773684910583</ele>
        <time>2017-11-14T22:00:16.119000Z</time>
      </trkpt>
      <trkpt lat="35.946680610101616" lon="120.20857793290187">
        <time>2017-11-14T22:00:21.118000Z</time>
      </trkpt>
      <trkpt lat="35.94677230812231" lon="120.20856804225613">
        <ele>2.0569412478855895</ele>
        <time>2017-11-14T22:00:25.096000Z</time>
      </trkpt>
      <trkpt lat="35.94687293286989" lon="120.20855370920171">
        <time>2017-11-14T22:00:29.149000Z</time>
      </trkpt>
      <trkpt lat="35.946966642547345" lon="120.20854482438435">
        <time>2017-11-14T22:00:33.098000Z</time>
      </trkpt>
      <trkpt lat="35.947010940905606" lon="120.20843812275697">
        <ele>2.2841827639988708</ele>
        <time>2017-11-14T22:00:38.096000Z</time>
      </trkpt>
      <trkpt lat="35.94701999336103" lon="120.2083121427523">
        <time>2017-11-14T22:00:42.128000Z</time>
      </trkpt>
      <trkpt lat="35.947021879289245" lon="120.20818431872894">
        <ele>2.3475982913426208</ele>
        <time>2017-11-14T22:00:46.123000Z</time>
      </trkpt>
      <trkpt lat="35.947013078290915" lon="120.20806076947619">
        <time>2017-11-14T22:00:50.127000Z</time>
      </trkpt>
      <trkpt lat="35.94701006080577" lon="120.20793822605182">
        <ele>2.009379602377777</ele>
        <time>2017-11-14T22:00:54.123000Z</time>
      </trkpt>
      <trkpt lat="35.94700117598841" lon="120.20782515417804">
        <time>2017-11-14T22:00:58.130000Z</time>
      </trkpt>
      <trkpt lat="35.94699145298073" lon="120.20770805899073">
        <time>2017-11-14T22:01:02.102000Z</time>
      </trkpt>
      <trkpt lat="35.94697753902147" lon="120.20758685667087">
        <ele>2.072795129721527</ele>
        <time>2017-11-14T22:01:06.087000Z</time>
      </trkpt>
      <trkpt lat="35.94697083349893" lon="120.20746573817004">
        <time>2017-11-14T22:01:10.115000Z</time>
      </trkpt>
      <trkpt lat="35.94696240968624" lon="120.2073504031824">
        <ele>2.0675079593113708</ele>
        <time>2017-11-14T22:01:14.111000Z</time>
      </trkpt>
      <trkpt lat="35.94695059120277" lon="120.20724034879376">
        <time>2017-11-14T22:01:18.126000Z</time>
      </trkpt>
      <trkpt lat="35.94697561118374" lon="120.20710841763784">
        <time>2017-11-14T22:01:23.131000Z</time>
      </trkpt>
      <trkpt lat="35.94703055455903" lon="120.20700733188559">
        <ele>2.0622284182957458</ele>
        <time>2017-11-14T22:01:27.118000Z</time>
      </trkpt>
      <trkpt lat="35.94707636165986" lon="120.20690490502884">
        <time>2017-11-14T22:01:31.119000Z</time>
      </trkpt>
      <trkpt lat="35.94711990564684" lon="120.20679191697408">
        <ele>2.2788955935887145</ele>
        <time>2017-11-14T22:01:35.130000Z</time>
      </trkpt>
      <trkpt lat="35.947161102700925" lon="120.20669116649796">
        <time>2017-11-14T22:01:39.134000Z</time>
      </trkpt>
      <trkpt lat="35.947200246188736" lon="120.20658287230899">
        <time>2017-11-14T22:01:43.098000Z</time>
      </trkpt>
      <trkpt lat="35.94723783902446" lon="120.20647214736809">
        <ele>2.3475982913426208</ele>
        <time>2017-11-14T22:01:47.135000Z</time>
      </trkpt>
      <trkpt lat="35.947286956977045" lon="120.20635002303888">
        <time>2017-11-14T22:01:52.128000Z</time>
      </trkpt>
      <trkpt lat="35.947335739653504" lon="120.20624826673438">
        <ele>2.0886490115574645</ele>
        <time>2017-11-14T22:01:56.132000Z</time>
      </trkpt>
      <trkpt lat="35.947380415197415" lon="120.20612974662353">
        <time>2017-11-14T22:02:01.104000Z</time>
      </trkpt>
      <trkpt lat="35.94741624783347" lon="120.20602757122387">
        <ele>1.9829590091160583</ele>
        <time>2017-11-14T22:02:05.120000Z</time>
      </trkpt>
      <trkpt lat="35.947475424069864" lon="120.20592019904423">
        <time>2017-11-14T22:02:09.119000Z</time>
      </trkpt>
      <trkpt lat="35.94752081207554" lon="120.20580369059014">
        <ele>1.977671838705902</ele>
        <time>2017-11-14T22:02:14.106000Z</time>
      </trkpt>
      <trkpt lat="35.94755417205016" lon="120.20569640222955">
        <time>2017-11-14T22:02:18.122000Z</time>
      </trkpt>
      <trkpt lat="35.947590968605084" lon="120.20556723710168">
        <time>2017-11-14T22:02:23.136000Z</time>
      </trkpt>
      <trkpt lat="35.947629106264515" lon="120.20546011637914">
        <ele>1.914256311362152</ele>
        <time>2017-11-14T22:02:27.133000Z</time>
      </trkpt>
      <trkpt lat="35.947681702706916" lon="120.20534947525728">
        <time>2017-11-14T22:02:31.129000Z</time>
      </trkpt>
      <trkpt lat="35.947734005782706" lon="120.20524914387632">
        <ele>2.0252334842137145</ele>
        <time>2017-11-14T22:02:35.132000Z</time>
      </trkpt>
      <trkpt lat="35.94778295609723" lon="120.2051394247638">
        <time>2017-11-14T22:02:39.110000Z</time>
      </trkpt>
      <trkpt lat="35.94784598800908" lon="120.2050292027371">
        <time>2017-11-14T22:02:43.108000Z</time>
      </trkpt>
      <trkpt lat="35.947889112900896" lon="120.20492685969937">
        <ele>2.0939361819676208</ele>
        <time>2017-11-14T22:02:47.091000Z</time>
      </trkpt>
      <trkpt lat="35.94791048675398" lon="120.20481177616882">
        <time>2017-11-14T22:02:51.133000Z</time>
      </trkpt>
      <trkpt lat="35.94792481980841" lon="120.20468889746833">
        <ele>1.9301101931980895</ele>
        <time>2017-11-14T22:02:55.126000Z</time>
      </trkpt>
      <trkpt lat="35.94793072905014" lon="120.20456476148236">
        <time>2017-11-14T22:02:59.135000Z</time>
      </trkpt>
      <trkpt lat="35.947918365742964" lon="120.20444691192377">
        <time>2017-11-14T22:03:03.101000Z</time>
      </trkpt>
      <trkpt lat="35.947915641624434" lon="120.20433509733546">
        <ele>2.0040924319676208</ele>
        <time>2017-11-14T22:03:06.124000Z</time>
      </trkpt>
      <trkpt lat="35.9479002189226" lon="120.20422403711844">
        <time>2017-11-14T22:03:10.127000Z</time>
      </trkpt>
      <trkpt lat="35.94798940237234" lon="120.20415698189306">
        <ele>2.2049133548191833</ele>
        <time>2017-11-14T22:03:16.108000Z</time>
      </trkpt>
      <trkpt lat="35.94807296994696" lon="120.20421741541493">
        <time>2017-11-14T22:03:20.099000Z</time>
      </trkpt>
      <trkpt lat="35.9481589682735" lon="120.20429025415349">
        <ele>2.1309234866551208</ele>
        <time>2017-11-14T22:03:24.118000Z</time>
      </trkpt>
      <trkpt lat="35.94823800962041" lon="120.20436535600591">
        <time>2017-11-14T22:03:28.119000Z</time>
      </trkpt>
      <trkpt lat="35.9483077470548" lon="120.20444096077252">
        <time>2017-11-14T22:03:32.128000Z</time>
      </trkpt>
      <trkpt lat="35.94838125634561" lon="120.20450533378887">
        <ele>2.167918420737152</ele>
        <time>2017-11-14T22:03:36.129000Z</time>
      </trkpt>
      <trkpt lat="35.94848175536464" lon="120.20447113562393">
        <time>2017-11-14T22:03:40.125000Z</time>
      </trkpt>
      <trkpt lat="35.94855044506113" lon="120.20438220363128">
        <ele>2.2260467776707458</ele>
        <time>2017-11-14T22:03:44.097000Z</time>
      </trkpt>
      <trkpt lat="35.94864415473859" lon="120.20435990776885">
        <time>2017-11-14T22:03:49.104000Z</time>
      </trkpt>
      <trkpt lat="35.94874096572022" lon="120.20440248783696">
        <time>2017-11-14T22:03:53.105000Z</time>
      </trkpt>
      <trkpt lat="35.9488508524708" lon="120.2044295613842">
        <ele>2.992320276205902</ele>
        <time>2017-11-14T22:03:57.116000Z</time>
      </trkpt>
      <trkpt lat="35.948946489985985" lon="120.20443584781158">
        <time>2017-11-14T22:04:01.100000Z</time>
      </trkpt>
      <trkpt lat="35.94904124740134" lon="120.20444221805799">
        <ele>2.928904748862152</ele>
        <time>2017-11-14T22:04:05.115000Z</time>
      </trkpt>
      <trkpt lat="35.94914887103806" lon="120.20445931714046">
        <time>2017-11-14T22:04:10.089000Z</time>
      </trkpt>
      <trkpt lat="35.94925976361702" lon="120.20448395993579">
        <ele>3.3199722537449645</ele>
        <time>2017-11-14T22:04:15.136000Z</time>
      </trkpt>
      <trkpt lat="35.94937074001501" lon="120.20451882865298">
        <time>2017-11-14T22:04:19.114000Z</time>
      </trkpt>
      <trkpt lat="35.94948268033187" lon="120.20454866822827">
        <ele>3.3833877810887145</ele>
        <time>2017-11-14T22:04:24.135000Z</time>
      </trkpt>
      <trkpt lat="35.949588837135536" lon="120.20457238901425">
        <time>2017-11-14T22:04:28.120000Z</time>
      </trkpt>
      <trkpt lat="35.94968631866942" lon="120.20456744369137">
        <time>2017-11-14T22:04:32.103000Z</time>
      </trkpt>
      <trkpt lat="35.94978870361666" lon="120.20458906900156">
        <ele>3.1561462649754333</ele>
        <time>2017-11-14T22:04:36.092000Z</time>
      </trkpt>
      <trkpt lat="35.9498990094624" lon="120.20460340205598">
        <time>2017-11-14T22:04:40.114000Z</time>
      </trkpt>
      <trkpt lat="35.95001208133618" lon="120.20461069431174">
        <ele>3.2618362674168395</ele>
        <time>2017-11-14T22:04:45.099000Z</time>
      </trkpt>
      <trkpt lat="35.95012745823334" lon="120.20458957191575">
        <time>2017-11-14T22:04:49.094000Z</time>
      </trkpt>
      <trkpt lat="35.95023063946138" lon="120.20456685695815">
        <time>2017-11-14T22:04:52.123000Z</time>
      </trkpt>
      <trkpt lat="35.95031755979727" lon="120.20453458663094">
        <ele>2.5272705325535583</ele>
        <time>2017-11-14T22:04:57.093000Z</time>
      </trkpt>
      <trkpt lat="35.950418897006614" lon="120.20449980173278">
        <time>2017-11-14T22:05:02.100000Z</time>
      </trkpt>
      <trkpt lat="35.95050636216621" lon="120.20453827466834">
        <ele>3.150859094565277</ele>
        <time>2017-11-14T22:05:06.063000Z</time>
      </trkpt>
      <trkpt lat="35.95053611792247" lon="120.20464774232376">
        <time>2017-11-14T22:05:12.088000Z</time>
      </trkpt>
      <trkpt lat="35.95053611792247" lon="120.20464774232376">
        <ele>3.304118371909027</ele>
        <time>2017-11-14T22:05:51.112000Z</time>
      </trkpt>
      <trkpt lat="35.9506741678677" lon="120.20461505290139">
        <time>2017-11-14T22:05:54.104000Z</time>
      </trkpt>
      <trkpt lat="35.95077768437187" lon="120.20461807038653">
        <ele>4.0809585818699645</ele>
        <time>2017-11-14T22:05:58.104000Z</time>
      </trkpt>
      <trkpt lat="35.95088220670442" lon="120.20460038457084">
        <time>2017-11-14T22:06:02.114000Z</time>
      </trkpt>
      <trkpt lat="35.95098266381393" lon="120.20456870097685">
        <ele>3.626475549643402</ele>
        <time>2017-11-14T22:06:06.122000Z</time>
      </trkpt>
      <trkpt lat="35.95107406846802" lon="120.20455487083662">
        <time>2017-11-14T22:06:10.108000Z</time>
      </trkpt>
      <trkpt lat="35.95116497020791" lon="120.20454363908637">
        <time>2017-11-14T22:06:14.125000Z</time>
      </trkpt>
      <trkpt lat="35.951261068727774" lon="120.20453123386967">
        <ele>3.177287317221527</ele>
        <time>2017-11-14T22:06:18.110000Z</time>
      </trkpt>
      <trkpt lat="35.951378415372176" lon="120.20449955027568">
        <time>2017-11-14T22:06:22.103000Z</time>
      </trkpt>
      <trkpt lat="35.95148054886232" lon="120.20447180617619">
        <ele>2.4585754641941833</ele>
        <time>2017-11-14T22:06:26.146000Z</time>
      </trkpt>
      <trkpt lat="35.95158000014345" lon="120.20445378508437">
        <time>2017-11-14T22:06:30.120000Z</time>
      </trkpt>
      <trkpt lat="35.951671027611894" lon="120.2044454031812">
        <time>2017-11-14T22:06:35.123000Z</time>
      </trkpt>
      <trkpt lat="35.95177508893977" lon="120.20443911675382">
        <ele>2.1256439456394958</ele>
        <time>2017-11-14T22:06:40.099000Z</time>
      </trkpt>
      <trkpt lat="35.95187231901656" lon="120.20443408761192">
        <time>2017-11-14T22:06:44.120000Z</time>
      </trkpt>
      <trkpt lat="35.95196657351772" lon="120.20441673707235">
        <ele>1.8984024295262145</ele>
        <time>2017-11-14T22:06:48.098000Z</time>
      </trkpt>
      <trkpt lat="35.95205734952907" lon="120.2043899149822">
        <time>2017-11-14T22:06:52.145000Z</time>
      </trkpt>
      <trkpt lat="35.9521544119678" lon="120.20437533047068">
        <ele>1.8719818362644958</ele>
        <time>2017-11-14T22:06:56.074000Z</time>
      </trkpt>
      <trkpt lat="35.9522648854516" lon="120.20436233852077">
        <time>2017-11-14T22:07:00.088000Z</time>
      </trkpt>
      <trkpt lat="35.95235884658615" lon="120.20434331160057">
        <time>2017-11-14T22:07:04.078000Z</time>
      </trkpt>
      <trkpt lat="35.952454106915695" lon="120.20433140929806">
        <ele>2.2894623050144958</ele>
        <time>2017-11-14T22:07:08.122000Z</time>
      </trkpt>
      <trkpt lat="35.95255272000651" lon="120.20430550921726">
        <time>2017-11-14T22:07:12.084000Z</time>
      </trkpt>
      <trkpt lat="35.95264458566527" lon="120.20428455445933">
        <ele>2.4691421756199645</ele>
        <time>2017-11-14T22:07:16.102000Z</time>
      </trkpt>
      <trkpt lat="35.952743785489304" lon="120.20429125998187">
        <time>2017-11-14T22:07:20.088000Z</time>
      </trkpt>
      <trkpt lat="35.952847469631536" lon="120.20427977677453">
        <time>2017-11-14T22:07:24.120000Z</time>
      </trkpt>
      <trkpt lat="35.95293527006726" lon="120.204236107059">
        <ele>2.2736084231785583</ele>
        <time>2017-11-14T22:07:28.108000Z</time>
      </trkpt>
      <trkpt lat="35.953026046078605" lon="120.20422085199523">
        <time>2017-11-14T22:07:32.088000Z</time>
      </trkpt>
      <trkpt lat="35.953116696361406" lon="120.20418925222027">
        <ele>2.263041711752777</ele>
        <time>2017-11-14T22:07:38.152000Z</time>
      </trkpt>
      <trkpt lat="35.95321887176107" lon="120.20417667936552">
        <time>2017-11-14T22:07:42.122000Z</time>
      </trkpt>
      <trkpt lat="35.95332523811231" lon="120.2041758411752">
        <time>2017-11-14T22:07:45.092000Z</time>
      </trkpt>
      <trkpt lat="35.95342716205488" lon="120.20414910290408">
        <ele>2.2419006595066833</ele>
        <time>2017-11-14T22:07:51.130000Z</time>
      </trkpt>
      <trkpt lat="35.95352640378843" lon="120.20413225527871">
        <time>2017-11-14T22:07:55.133000Z</time>
      </trkpt>
      <trkpt lat="35.95362694471697" lon="120.20411314453948">
        <ele>2.421580530112152</ele>
        <time>2017-11-14T22:07:59.091000Z</time>
      </trkpt>
      <trkpt lat="35.953729203935666" lon="120.20411683257687">
        <time>2017-11-14T22:08:03.117000Z</time>
      </trkpt>
      <trkpt lat="35.953838587772054" lon="120.20412211317587">
        <ele>3.0346023806980895</ele>
        <time>2017-11-14T22:08:07.087000Z</time>
      </trkpt>
      <trkpt lat="35.9539431101046" lon="120.20409797329474">
        <time>2017-11-14T22:08:11.113000Z</time>
      </trkpt>
      <trkpt lat="35.954049937460525" lon="120.20407475542295">
        <time>2017-11-14T22:08:15.094000Z</time>
      </trkpt>
      <trkpt lat="35.95415806401144" lon="120.20404374238122">
        <ele>3.2512695559910583</ele>
        <time>2017-11-14T22:08:20.112000Z</time>
      </trkpt>
      <trkpt lat="35.95425982031594" lon="120.20401365134883">
        <time>2017-11-14T22:08:25.114000Z</time>
      </trkpt>
      <trkpt lat="35.954371048171026" lon="120.20401591446269">
        <ele>3.716319299643402</ele>
        <time>2017-11-14T22:08:29.118000Z</time>
      </trkpt>
      <trkpt lat="35.954461321268184" lon="120.204022033252">
        <time>2017-11-14T22:08:32.077000Z</time>
      </trkpt>
      <trkpt lat="35.954551342908246" lon="120.20400753255952">
        <ele>4.9634964236668395</ele>
        <time>2017-11-14T22:08:36.129000Z</time>
      </trkpt>
      <trkpt lat="35.954642412286205" lon="120.20397635187972">
        <time>2017-11-14T22:08:40.109000Z</time>
      </trkpt>
      <trkpt lat="35.95474265984814" lon="120.2040032577889">
        <ele>5.713908410971527</ele>
        <time>2017-11-14T22:08:47.087000Z</time>
      </trkpt>
      <trkpt lat="35.9548456315286" lon="120.20397827971745">
        <time>2017-11-14T22:08:51.119000Z</time>
      </trkpt>
      <trkpt lat="35.95493695236365" lon="120.20397794444132">
        <time>2017-11-14T22:08:55.095000Z</time>
      </trkpt>
      <trkpt lat="35.9550142335109" lon="120.20403829414415">
        <ele>6.385058618491058</ele>
        <time>2017-11-14T22:08:58.128000Z</time>
      </trkpt>
      <trkpt lat="35.95508120491724" lon="120.20413342874515">
        <time>2017-11-14T22:09:02.105000Z</time>
      </trkpt>
      <trkpt lat="35.9551223181523" lon="120.20423443067837">
        <ele>7.484263635580902</ele>
        <time>2017-11-14T22:09:06.125000Z</time>
      </trkpt>
      <trkpt lat="35.95512227624278" lon="120.20436250615883">
        <time>2017-11-14T22:09:10.135000Z</time>
      </trkpt>
      <trkpt lat="35.95515500757467" lon="120.20448337320256">
        <time>2017-11-14T22:09:14.111000Z</time>
      </trkpt>
      <trkpt lat="35.95516682605814" lon="120.20460893411207">
        <ele>8.176554895346527</ele>
        <time>2017-11-14T22:09:18.090000Z</time>
      </trkpt>
      <trkpt lat="35.955182751674165" lon="120.20472376618552">
        <time>2017-11-14T22:09:21.100000Z</time>
      </trkpt>
      <trkpt lat="35.95521971586715" lon="120.20482778560388">
        <time>2017-11-14T22:09:25.233000Z</time>
      </trkpt>
      <trkpt lat="35.95524603504311" lon="120.20495384942758">
        <ele>9.170069909994965</ele>
        <time>2017-11-14T22:09:30.062000Z</time>
      </trkpt>
      <trkpt lat="35.955245574038436" lon="120.20508360128868">
        <time>2017-11-14T22:09:34.052000Z</time>
      </trkpt>
      <trkpt lat="35.95525860789787" lon="120.20520404923725">
        <ele>10.602206445639496</ele>
        <time>2017-11-14T22:09:38.082000Z</time>
      </trkpt>
      <trkpt lat="35.95530835449319" lon="120.20531955186296">
        <time>2017-11-14T22:09:43.085000Z</time>
      </trkpt>
      <trkpt lat="35.95532407056164" lon="120.20545483578015">
        <ele>11.500590539877777</ele>
        <time>2017-11-14T22:09:48.097000Z</time>
      </trkpt>
      <trkpt lat="35.9553242381997" lon="120.20558324653673">
        <time>2017-11-14T22:09:52.060000Z</time>
      </trkpt>
      <trkpt lat="35.955320047248115" lon="120.20570352684724">
        <ele>11.299777246420746</ele>
        <time>2017-11-14T22:09:56.055000Z</time>
      </trkpt>
      <trkpt lat="35.95535399395596" lon="120.20582715991902">
        <time>2017-11-14T22:10:00.088000Z</time>
      </trkpt>
      <trkpt lat="35.95533647577833" lon="120.20594459038246">
        <ele>11.870516992514496</ele>
        <time>2017-11-14T22:10:08.085000Z</time>
      </trkpt>
      <trkpt lat="35.95542075581472" lon="120.20600510772337">
        <ele>15.971396661703949</ele>
        <time>2017-11-14T22:10:19.104000Z</time>
      </trkpt>
      <trkpt lat="35.955516728606035" lon="120.20599580381084">
        <time>2017-11-14T22:10:23.677000Z</time>
      </trkpt>
      <trkpt lat="35.955516728606035" lon="120.20599580381084">
        <ele>17.14458773226059</ele>
        <time>2017-11-14T22:10:40.103000Z</time>
      </trkpt>
      <trkpt lat="35.955615174058785" lon="120.20599689345825">
        <time>2017-11-14T22:10:43.134000Z</time>
      </trkpt>
      <trkpt lat="35.955624897066464" lon="120.20610963005592">
        <ele>16.58441469759262</ele>
        <time>2017-11-14T22:10:53.121000Z</time>
      </trkpt>
      <trkpt lat="35.95564513936262" lon="120.20624265085925">
        <ele>11.886370874350433</ele>
        <time>2017-11-14T22:11:03.124000Z</time>
      </trkpt>
      <trkpt lat="35.95565972387414" lon="120.20635739911367">
        <time>2017-11-14T22:11:06.056000Z</time>
      </trkpt>
      <trkpt lat="35.95566500447314" lon="120.20649997528662">
        <ele>9.471293664877777</ele>
        <time>2017-11-14T22:11:09.079000Z</time>
      </trkpt>
      <trkpt lat="35.95568243883174" lon="120.20661229278912">
        <time>2017-11-14T22:11:12.069000Z</time>
      </trkpt>
      <trkpt lat="35.955719989757945" lon="120.20672285009195">
        <time>2017-11-14T22:11:18.084000Z</time>
      </trkpt>
      <trkpt lat="35.955699747461786" lon="120.20688269298543">
        <ele>8.953395105307465</ele>
        <time>2017-11-14T22:11:22.072000Z</time>
      </trkpt>
      <trkpt lat="35.95571076966446" lon="120.20701068464686">
        <time>2017-11-14T22:11:26.138000Z</time>
      </trkpt>
      <trkpt lat="35.95570720735561" lon="120.207132641338">
        <ele>8.95868227571762</ele>
        <time>2017-11-14T22:11:29.085000Z</time>
      </trkpt>
      <trkpt lat="35.955720702219715" lon="120.20727152947356">
        <time>2017-11-14T22:11:33.102000Z</time>
      </trkpt>
      <trkpt lat="35.95573449045043" lon="120.20740203570594">
        <time>2017-11-14T22:11:37.078000Z</time>
      </trkpt>
      <trkpt lat="35.95573055095594" lon="120.20752030435969">
        <ele>9.281047082846527</ele>
        <time>2017-11-14T22:11:41.097000Z</time>
      </trkpt>
      <trkpt lat="35.95573411326479" lon="120.20763195130993">
        <time>2017-11-14T22:11:45.127000Z</time>
      </trkpt>
      <trkpt lat="35.95583670775961" lon="120.20761619333197">
        <ele>9.677394128744965</ele>
        <time>2017-11-14T22:11:50.098000Z</time>
      </trkpt>
      <trkpt lat="35.95594282265376" lon="120.20758543174733">
        <time>2017-11-14T22:11:54.113000Z</time>
      </trkpt>
      <trkpt lat="35.95605949874591" lon="120.20755567599107">
        <time>2017-11-14T22:11:58.110000Z</time>
      </trkpt>
      <trkpt lat="35.95615245405208" lon="120.20751519139876">
        <ele>11.527014947836761</ele>
        <time>2017-11-14T22:12:02.087000Z</time>
      </trkpt>
      <trkpt lat="35.956242349963595" lon="120.20749256026019">
        <time>2017-11-14T22:12:06.112000Z</time>
      </trkpt>
      <trkpt lat="35.956350099328866" lon="120.20746280450393">
        <ele>12.044909692709808</ele>
        <time>2017-11-14T22:12:10.090000Z</time>
      </trkpt>
      <trkpt lat="35.956442970816006" lon="120.20747764047255">
        <time>2017-11-14T22:12:14.044000Z</time>
      </trkpt>
      <trkpt lat="35.95651648010682" lon="120.2075731941687">
        <ele>12.705489374106293</ele>
        <time>2017-11-14T22:12:19.086000Z</time>
      </trkpt>
      <trkpt lat="35.9565409971736" lon="120.20771401014198">
        <time>2017-11-14T22:12:23.109000Z</time>
      </trkpt>
      <trkpt lat="35.95653827305507" lon="120.20784686330725">
        <time>2017-11-14T22:12:27.126000Z</time>
      </trkpt>
      <trkpt lat="35.95656140710782" lon="120.20795440312494">
        <ele>12.673781610434418</ele>
        <time>2017-11-14T22:12:31.107000Z</time>
      </trkpt>
      <trkpt lat="35.95655566550415" lon="120.20809982914497">
        <time>2017-11-14T22:12:35.108000Z</time>
      </trkpt>
      <trkpt lat="35.956552648019006" lon="120.20821499649455">
        <time>2017-11-14T22:12:38.109000Z</time>
      </trkpt>
      <trkpt lat="35.95655201937627" lon="120.20835673447718">
        <ele>11.928649164145355</ele>
        <time>2017-11-14T22:12:42.117000Z</time>
      </trkpt>
      <trkpt lat="35.95654535576325" lon="120.20849067728986">
        <time>2017-11-14T22:12:46.108000Z</time>
      </trkpt>
      <trkpt lat="35.95657221976291" lon="120.20862596120705">
        <ele>11.70669481844223</ele>
        <time>2017-11-14T22:12:50.120000Z</time>
      </trkpt>
      <trkpt lat="35.956590282764246" lon="120.20873911689986">
        <time>2017-11-14T22:12:54.087000Z</time>
      </trkpt>
      <trkpt lat="35.9566152608357" lon="120.20884799782206">
        <ele>11.537585473959808</ele>
        <time>2017-11-14T22:13:01.089000Z</time>
      </trkpt>
    </trkseg>
  </trk>
</gpx>