<?xml version="1.0" encoding="UTF-8"?>
<gpx xmlns="http://www.topografix.com/GPX/1/1" xmlns:gpxtpx="http://www.garmin.com/xmlschemas/TrackPointExtension/v1" xmlns:xsi="http://www.w3.org/2001/XMLSchema-instance" xsi:schemaLocation="http://www.topografix.com/GPX/1/1 http://www.topografix.com/GPX/1/1/gpx.xsd" version="1.1" creator="gpx.py -- https://github.com/tkrajina/gpxpy">
  <trk>
    <name>Sunday Afternoon Run</name>
    <trkseg>
      <trkpt lat="35.95703162" lon="120.20991374">
        <time>2019-03-17T07:01:18.388000Z</time>
      </trkpt>
      <trkpt lat="35.95714136" lon="120.20991149">
        <time>2019-03-17T07:01:23.399000Z</time>
      </trkpt>
      <trkpt lat="35.95723008" lon="120.20988419">
        <time>2019-03-17T07:01:26.392000Z</time>
      </trkpt>
      <trkpt lat="35.9573181" lon="120.20984178">
        <time>2019-03-17T07:01:29.394000Z</time>
      </trkpt>
      <trkpt lat="35.9574084" lon="120.20982014">
        <time>2019-03-17T07:01:32.404000Z</time>
      </trkpt>
      <trkpt lat="35.95752085" lon="120.20980558">
        <time>2019-03-17T07:01:36.415000Z</time>
      </trkpt>
      <trkpt lat="35.95763646" lon="120.20977545">
        <time>2019-03-17T07:01:40.398000Z</time>
      </trkpt>
      <trkpt lat="35.95772199" lon="120.20986355">
        <time>2019-03-17T07:01:45.390000Z</time>
      </trkpt>
      <trkpt lat="35.95775033" lon="120.20997978">
        <time>2019-03-17T07:01:50.394000Z</time>
      </trkpt>
      <trkpt lat="35.95767845" lon="120.21009422">
        <time>2019-03-17T07:01:54.390000Z</time>
      </trkpt>
      <trkpt lat="35.95765026" lon="120.21021197">
        <time>2019-03-17T07:01:58.410000Z</time>
      </trkpt>
      <trkpt lat="35.95769964" lon="120.21030795">
        <time>2019-03-17T07:02:02.397000Z</time>
      </trkpt>
      <trkpt lat="35.95772782" lon="120.21042722">
        <time>2019-03-17T07:02:07.393000Z</time>
      </trkpt>
      <trkpt lat="35.95774484" lon="120.21054706">
        <time>2019-03-17T07:02:12.395000Z</time>
      </trkpt>
      <trkpt lat="35.95768669" lon="120.21063736">
        <time>2019-03-17T07:02:18.383000Z</time>
      </trkpt>
      <trkpt lat="35.95760269" lon="120.21069253">
        <time>2019-03-17T07:02:22.387000Z</time>
      </trkpt>
      <trkpt lat="35.95749689" lon="120.21074675">
        <time>2019-03-17T07:02:26.395000Z</time>
      </trkpt>
      <trkpt lat="35.95739932" lon="120.21075861">
        <time>2019-03-17T07:02:30.395000Z</time>
      </trkpt>
      <trkpt lat="35.95729262" lon="120.21081489">
        <time>2019-03-17T07:02:34.393000Z</time>
      </trkpt>
      <trkpt lat="35.95720851" lon="120.21086307">
        <time>2019-03-17T07:02:37.403000Z</time>
      </trkpt>
      <trkpt lat="35.9571182" lon="120.2108973">
        <time>2019-03-17T07:02:40.384000Z</time>
      </trkpt>
      <trkpt lat="35.95704308" lon="120.21096911">
        <time>2019-03-17T07:02:43.393000Z</time>
      </trkpt>
      <trkpt lat="35.95694233" lon="120.21099896">
        <time>2019-03-17T07:02:47.392000Z</time>
      </trkpt>
      <trkpt lat="35.95683075" lon="120.21104942">
        <time>2019-03-17T07:02:51.402000Z</time>
      </trkpt>
      <trkpt lat="35.95674074" lon="120.21109747">
        <time>2019-03-17T07:02:54.393000Z</time>
      </trkpt>
      <trkpt lat="35.95664661" lon="120.21116176">
        <time>2019-03-17T07:02:58.389000Z</time>
      </trkpt>
      <trkpt lat="35.95654591" lon="120.21116394">
        <time>2019-03-17T07:03:02.395000Z</time>
      </trkpt>
      <trkpt lat="35.9564561" lon="120.2111413">
        <time>2019-03-17T07:03:06.397000Z</time>
      </trkpt>
      <trkpt lat="35.95636862" lon="120.21110301">
        <time>2019-03-17T07:03:10.397000Z</time>
      </trkpt>
      <trkpt lat="35.95625769" lon="120.21109473">
        <time>2019-03-17T07:03:14.393000Z</time>
      </trkpt>
      <trkpt lat="35.9561575" lon="120.21113202">
        <time>2019-03-17T07:03:18.395000Z</time>
      </trkpt>
      <trkpt lat="35.95606428" lon="120.21113323">
        <time>2019-03-17T07:03:22.392000Z</time>
      </trkpt>
      <trkpt lat="35.95596697" lon="120.21115193">
        <time>2019-03-17T07:03:26.390000Z</time>
      </trkpt>
      <trkpt lat="35.95587772" lon="120.21121892">
        <time>2019-03-17T07:03:31.398000Z</time>
      </trkpt>
      <trkpt lat="35.95587372" lon="120.21135541">
        <time>2019-03-17T07:03:35.392000Z</time>
      </trkpt>
      <trkpt lat="35.95579481" lon="120.2114327">
        <time>2019-03-17T07:03:41.432000Z</time>
      </trkpt>
      <trkpt lat="35.95579481" lon="120.2114327">
        <time>2019-03-17T07:03:47.228000Z</time>
      </trkpt>
      <trkpt lat="35.95568531" lon="120.21142784">
        <time>2019-03-17T07:03:47.398000Z</time>
      </trkpt>
      <trkpt lat="35.95564405" lon="120.21152701">
        <time>2019-03-17T07:03:52.391000Z</time>
      </trkpt>
      <trkpt lat="35.95569359" lon="120.21163501">
        <time>2019-03-17T07:03:56.398000Z</time>
      </trkpt>
      <trkpt lat="35.95569359" lon="120.21163501">
        <time>2019-03-17T07:03:57.284000Z</time>
      </trkpt>
      <trkpt lat="35.95572397" lon="120.21175013">
        <time>2019-03-17T07:04:00.392000Z</time>
      </trkpt>
      <trkpt lat="35.95573538" lon="120.21186422">
        <time>2019-03-17T07:04:04.388000Z</time>
      </trkpt>
      <trkpt lat="35.9557457" lon="120.21197932">
        <time>2019-03-17T07:04:08.389000Z</time>
      </trkpt>
      <trkpt lat="35.9557697" lon="120.21209149">
        <time>2019-03-17T07:04:12.400000Z</time>
      </trkpt>
      <trkpt lat="35.95578441" lon="120.21221506">
        <time>2019-03-17T07:04:16.394000Z</time>
      </trkpt>
      <trkpt lat="35.95580953" lon="120.21233731">
        <time>2019-03-17T07:04:20.400000Z</time>
      </trkpt>
      <trkpt lat="35.95583888" lon="120.21248126">
        <time>2019-03-17T07:04:24.394000Z</time>
      </trkpt>
      <trkpt lat="35.95588144" lon="120.21260903">
        <time>2019-03-17T07:04:28.386000Z</time>
      </trkpt>
      <trkpt lat="35.95591611" lon="120.21272243">
        <time>2019-03-17T07:04:32.391000Z</time>
      </trkpt>
      <trkpt lat="35.95595065" lon="120.2128456">
        <time>2019-03-17T07:04:37.389000Z</time>
      </trkpt>
      <trkpt lat="35.95596423" lon="120.21295787">
        <time>2019-03-17T07:04:41.390000Z</time>
      </trkpt>
      <trkpt lat="35.95598038" lon="120.21308072">
        <time>2019-03-17T07:04:45.388000Z</time>
      </trkpt>
      <trkpt lat="35.95594999" lon="120.21321158">
        <time>2019-03-17T07:04:49.384000Z</time>
      </trkpt>
      <trkpt lat="35.95594999" lon="120.21321158">
        <time>2019-03-17T07:04:54.345000Z</time>
      </trkpt>
      <trkpt lat="35.95589516" lon="120.21332624">
        <time>2019-03-17T07:04:54.390000Z</time>
      </trkpt>
      <trkpt lat="35.95584985" lon="120.21343736">
        <time>2019-03-17T07:04:59.386000Z</time>
      </trkpt>
      <trkpt lat="35.95575191" lon="120.21347628">
        <time>2019-03-17T07:05:03.382000Z</time>
      </trkpt>
      <trkpt lat="35.95575191" lon="120.21347628">
        <time>2019-03-17T07:05:04.384000Z</time>
      </trkpt>
      <trkpt lat="35.95564824" lon="120.21350375">
        <time>2019-03-17T07:05:07.391000Z</time>
      </trkpt>
      <trkpt lat="35.95556533" lon="120.21357071">
        <time>2019-03-17T07:05:11.387000Z</time>
      </trkpt>
      <trkpt lat="35.95547426" lon="120.21361281">
        <time>2019-03-17T07:05:15.389000Z</time>
      </trkpt>
      <trkpt lat="35.9553709" lon="120.21362501">
        <time>2019-03-17T07:05:19.390000Z</time>
      </trkpt>
      <trkpt lat="35.95527413" lon="120.21367916">
        <time>2019-03-17T07:05:23.388000Z</time>
      </trkpt>
      <trkpt lat="35.95516337" lon="120.21367332">
        <time>2019-03-17T07:05:27.392000Z</time>
      </trkpt>
      <trkpt lat="35.95506153" lon="120.21368911">
        <time>2019-03-17T07:05:31.396000Z</time>
      </trkpt>
      <trkpt lat="35.95496675" lon="120.21372083">
        <time>2019-03-17T07:05:35.404000Z</time>
      </trkpt>
      <trkpt lat="35.95486927" lon="120.21374959">
        <time>2019-03-17T07:05:39.403000Z</time>
      </trkpt>
      <trkpt lat="35.95477543" lon="120.21376364">
        <time>2019-03-17T07:05:43.498000Z</time>
      </trkpt>
      <trkpt lat="35.95466833" lon="120.21379188">
        <time>2019-03-17T07:05:47.391000Z</time>
      </trkpt>
      <trkpt lat="35.95455645" lon="120.2138194">
        <time>2019-03-17T07:05:51.400000Z</time>
      </trkpt>
      <trkpt lat="35.95444497" lon="120.21382879">
        <time>2019-03-17T07:05:55.398000Z</time>
      </trkpt>
      <trkpt lat="35.95435132" lon="120.21383738">
        <time>2019-03-17T07:05:59.393000Z</time>
      </trkpt>
      <trkpt lat="35.95424555" lon="120.21387709">
        <time>2019-03-17T07:06:03.403000Z</time>
      </trkpt>
      <trkpt lat="35.95416046" lon="120.21392156">
        <time>2019-03-17T07:06:06.445000Z</time>
      </trkpt>
      <trkpt lat="35.9540557" lon="120.21392038">
        <time>2019-03-17T07:06:10.432000Z</time>
      </trkpt>
      <trkpt lat="35.95394393" lon="120.21392664">
        <time>2019-03-17T07:06:14.393000Z</time>
      </trkpt>
      <trkpt lat="35.95382863" lon="120.21395977">
        <time>2019-03-17T07:06:18.401000Z</time>
      </trkpt>
      <trkpt lat="35.95371679" lon="120.21398795">
        <time>2019-03-17T07:06:22.390000Z</time>
      </trkpt>
      <trkpt lat="35.95361042" lon="120.21400497">
        <time>2019-03-17T07:06:26.395000Z</time>
      </trkpt>
      <trkpt lat="35.95351357" lon="120.21397862">
        <time>2019-03-17T07:06:30.394000Z</time>
      </trkpt>
      <trkpt lat="35.95340599" lon="120.2139717">
        <time>2019-03-17T07:06:35.384000Z</time>
      </trkpt>
      <trkpt lat="35.95329632" lon="120.21398186">
        <time>2019-03-17T07:06:40.381000Z</time>
      </trkpt>
      <trkpt lat="35.95318602" lon="120.21394858">
        <time>2019-03-17T07:06:45.391000Z</time>
      </trkpt>
      <trkpt lat="35.95308946" lon="120.21392284">
        <time>2019-03-17T07:06:49.391000Z</time>
      </trkpt>
      <trkpt lat="35.95301439" lon="120.21384265">
        <time>2019-03-17T07:06:55.398000Z</time>
      </trkpt>
      <trkpt lat="35.95294918" lon="120.21375641">
        <time>2019-03-17T07:06:59.383000Z</time>
      </trkpt>
      <trkpt lat="35.9528949" lon="120.21364946">
        <time>2019-03-17T07:07:03.379000Z</time>
      </trkpt>
      <trkpt lat="35.95284943" lon="120.21352538">
        <time>2019-03-17T07:07:07.394000Z</time>
      </trkpt>
      <trkpt lat="35.95281519" lon="120.2134024">
        <time>2019-03-17T07:07:11.393000Z</time>
      </trkpt>
      <trkpt lat="35.95278726" lon="120.21328248">
        <time>2019-03-17T07:07:15.385000Z</time>
      </trkpt>
      <trkpt lat="35.95275544" lon="120.21317167">
        <time>2019-03-17T07:07:19.387000Z</time>
      </trkpt>
      <trkpt lat="35.9527196" lon="120.21305537">
        <time>2019-03-17T07:07:23.400000Z</time>
      </trkpt>
      <trkpt lat="35.95268255" lon="120.21294963">
        <time>2019-03-17T07:07:27.390000Z</time>
      </trkpt>
      <trkpt lat="35.95263228" lon="120.21283359">
        <time>2019-03-17T07:07:31.397000Z</time>
      </trkpt>
      <trkpt lat="35.95261782" lon="120.21269835">
        <time>2019-03-17T07:07:35.388000Z</time>
      </trkpt>
      <trkpt lat="35.95259599" lon="120.21256392">
        <time>2019-03-17T07:07:39.393000Z</time>
      </trkpt>
      <trkpt lat="35.95255794" lon="120.2124573">
        <time>2019-03-17T07:07:43.398000Z</time>
      </trkpt>
      <trkpt lat="35.9525037" lon="120.21234339">
        <time>2019-03-17T07:07:47.394000Z</time>
      </trkpt>
      <trkpt lat="35.95248518" lon="120.21220423">
        <time>2019-03-17T07:07:51.393000Z</time>
      </trkpt>
      <trkpt lat="35.95246042" lon="120.21208741">
        <time>2019-03-17T07:07:55.391000Z</time>
      </trkpt>
      <trkpt lat="35.95242279" lon="120.21197347">
        <time>2019-03-17T07:07:59.389000Z</time>
      </trkpt>
      <trkpt lat="35.95239054" lon="120.21186387">
        <time>2019-03-17T07:08:03.402000Z</time>
      </trkpt>
      <trkpt lat="35.95237533" lon="120.21175339">
        <time>2019-03-17T07:08:07.387000Z</time>
      </trkpt>
      <trkpt lat="35.95234148" lon="120.21164926">
        <time>2019-03-17T07:08:11.395000Z</time>
      </trkpt>
      <trkpt lat="35.95231459" lon="120.21153861">
        <time>2019-03-17T07:08:15.384000Z</time>
      </trkpt>
      <trkpt lat="35.95228607" lon="120.21140636">
        <time>2019-03-17T07:08:19.401000Z</time>
      </trkpt>
      <trkpt lat="35.95226905" lon="120.21127624">
        <time>2019-03-17T07:08:23.387000Z</time>
      </trkpt>
      <trkpt lat="35.95223142" lon="120.21115451">
        <time>2019-03-17T07:08:27.391000Z</time>
      </trkpt>
      <trkpt lat="35.95218381" lon="120.21105321">
        <time>2019-03-17T07:08:31.390000Z</time>
      </trkpt>
      <trkpt lat="35.9521714" lon="120.21091574">
        <time>2019-03-17T07:08:35.391000Z</time>
      </trkpt>
      <trkpt lat="35.95215483" lon="120.21077079">
        <time>2019-03-17T07:08:39.394000Z</time>
      </trkpt>
      <trkpt lat="35.95213104" lon="120.21063605">
        <time>2019-03-17T07:08:43.385000Z</time>
      </trkpt>
      <trkpt lat="35.95208396" lon="120.21052126">
        <time>2019-03-17T07:08:48.387000Z</time>
      </trkpt>
      <trkpt lat="35.95208396" lon="120.21052126">
        <time>2019-03-17T07:08:51.406000Z</time>
      </trkpt>
      <trkpt lat="35.95204348" lon="120.21041673">
        <time>2019-03-17T07:08:52.390000Z</time>
      </trkpt>
      <trkpt lat="35.95204348" lon="120.21041673">
        <time>2019-03-17T07:09:28.401000Z</time>
      </trkpt>
      <trkpt lat="35.95204348" lon="120.21041673">
        <time>2019-03-17T07:09:28.421000Z</time>
      </trkpt>
      <trkpt lat="35.95204348" lon="120.21041673">
        <time>2019-03-17T07:09:40.387000Z</time>
      </trkpt>
      <trkpt lat="35.95204348" lon="120.21041673">
        <time>2019-03-17T07:09:40.407000Z</time>
      </trkpt>
      <trkpt lat="35.95193825" lon="120.21040804">
        <time>2019-03-17T07:09:44.391000Z</time>
      </trkpt>
      <trkpt lat="35.9518514" lon="120.21046458">
        <time>2019-03-17T07:09:48.386000Z</time>
      </trkpt>
      <trkpt lat="35.95176436" lon="120.21053375">
        <time>2019-03-17T07:09:52.403000Z</time>
      </trkpt>
      <trkpt lat="35.95167169" lon="120.21059545">
        <time>2019-03-17T07:09:56.396000Z</time>
      </trkpt>
      <trkpt lat="35.95158326" lon="120.21061596">
        <time>2019-03-17T07:09:59.389000Z</time>
      </trkpt>
      <trkpt lat="35.95147898" lon="120.21064093">
        <time>2019-03-17T07:10:03.401000Z</time>
      </trkpt>
      <trkpt lat="35.95135947" lon="120.21066002">
        <time>2019-03-17T07:10:07.399000Z</time>
      </trkpt>
      <trkpt lat="35.95126864" lon="120.21067565">
        <time>2019-03-17T07:10:10.384000Z</time>
      </trkpt>
      <trkpt lat="35.95117685" lon="120.21073192">
        <time>2019-03-17T07:10:14.390000Z</time>
      </trkpt>
      <trkpt lat="35.95106846" lon="120.21077305">
        <time>2019-03-17T07:10:18.393000Z</time>
      </trkpt>
      <trkpt lat="35.95095765" lon="120.21079811">
        <time>2019-03-17T07:10:22.387000Z</time>
      </trkpt>
      <trkpt lat="35.95084209" lon="120.21080102">
        <time>2019-03-17T07:10:26.391000Z</time>
      </trkpt>
      <trkpt lat="35.95073434" lon="120.2108435">
        <time>2019-03-17T07:10:30.388000Z</time>
      </trkpt>
      <trkpt lat="35.95063136" lon="120.21087343">
        <time>2019-03-17T07:10:34.408000Z</time>
      </trkpt>
      <trkpt lat="35.95052734" lon="120.21088105">
        <time>2019-03-17T07:10:37.396000Z</time>
      </trkpt>
      <trkpt lat="35.9504305" lon="120.21090658">
        <time>2019-03-17T07:10:40.400000Z</time>
      </trkpt>
      <trkpt lat="35.95033771" lon="120.21091989">
        <time>2019-03-17T07:10:43.391000Z</time>
      </trkpt>
      <trkpt lat="35.95022685" lon="120.21096441">
        <time>2019-03-17T07:10:47.405000Z</time>
      </trkpt>
      <trkpt lat="35.95011738" lon="120.21100898">
        <time>2019-03-17T07:10:51.395000Z</time>
      </trkpt>
      <trkpt lat="35.95002587" lon="120.21099775">
        <time>2019-03-17T07:10:54.391000Z</time>
      </trkpt>
      <trkpt lat="35.94990841" lon="120.21099449">
        <time>2019-03-17T07:10:58.393000Z</time>
      </trkpt>
      <trkpt lat="35.9498031" lon="120.21104392">
        <time>2019-03-17T07:11:02.389000Z</time>
      </trkpt>
      <trkpt lat="35.94969645" lon="120.21108555">
        <time>2019-03-17T07:11:06.398000Z</time>
      </trkpt>
      <trkpt lat="35.94960723" lon="120.21116872">
        <time>2019-03-17T07:11:10.391000Z</time>
      </trkpt>
      <trkpt lat="35.94951498" lon="120.21122134">
        <time>2019-03-17T07:11:13.388000Z</time>
      </trkpt>
      <trkpt lat="35.94942498" lon="120.21130356">
        <time>2019-03-17T07:11:16.405000Z</time>
      </trkpt>
      <trkpt lat="35.94932265" lon="120.21133668">
        <time>2019-03-17T07:11:19.399000Z</time>
      </trkpt>
      <trkpt lat="35.94918975" lon="120.2113305">
        <time>2019-03-17T07:11:22.387000Z</time>
      </trkpt>
      <trkpt lat="35.94907401" lon="120.21129666">
        <time>2019-03-17T07:11:25.390000Z</time>
      </trkpt>
      <trkpt lat="35.9489659" lon="120.21131431">
        <time>2019-03-17T07:11:28.392000Z</time>
      </trkpt>
      <trkpt lat="35.94886167" lon="120.21132249">
        <time>2019-03-17T07:11:31.401000Z</time>
      </trkpt>
      <trkpt lat="35.9487623" lon="120.21129349">
        <time>2019-03-17T07:11:34.395000Z</time>
      </trkpt>
      <trkpt lat="35.94865299" lon="120.21134904">
        <time>2019-03-17T07:11:37.393000Z</time>
      </trkpt>
      <trkpt lat="35.94856642" lon="120.21142918">
        <time>2019-03-17T07:11:40.396000Z</time>
      </trkpt>
      <trkpt lat="35.94847019" lon="120.21149619">
        <time>2019-03-17T07:11:43.389000Z</time>
      </trkpt>
      <trkpt lat="35.94836306" lon="120.21153714">
        <time>2019-03-17T07:11:47.404000Z</time>
      </trkpt>
      <trkpt lat="35.94824675" lon="120.21152992">
        <time>2019-03-17T07:11:51.390000Z</time>
      </trkpt>
      <trkpt lat="35.94815668" lon="120.21150912">
        <time>2019-03-17T07:11:54.403000Z</time>
      </trkpt>
      <trkpt lat="35.94805392" lon="120.2115359">
        <time>2019-03-17T07:11:58.391000Z</time>
      </trkpt>
      <trkpt lat="35.94799145" lon="120.21162953">
        <time>2019-03-17T07:12:02.401000Z</time>
      </trkpt>
      <trkpt lat="35.94788532" lon="120.21167272">
        <time>2019-03-17T07:12:07.395000Z</time>
      </trkpt>
      <trkpt lat="35.94778809" lon="120.21164305">
        <time>2019-03-17T07:12:10.389000Z</time>
      </trkpt>
      <trkpt lat="35.94769426" lon="120.21161209">
        <time>2019-03-17T07:12:13.471000Z</time>
      </trkpt>
      <trkpt lat="35.94759682" lon="120.21162648">
        <time>2019-03-17T07:12:17.394000Z</time>
      </trkpt>
      <trkpt lat="35.94749717" lon="120.21160377">
        <time>2019-03-17T07:12:23.391000Z</time>
      </trkpt>
      <trkpt lat="35.94739111" lon="120.21159838">
        <time>2019-03-17T07:12:27.390000Z</time>
      </trkpt>
      <trkpt lat="35.94727766" lon="120.21161093">
        <time>2019-03-17T07:12:31.400000Z</time>
      </trkpt>
      <trkpt lat="35.9471655" lon="120.21166618">
        <time>2019-03-17T07:12:35.393000Z</time>
      </trkpt>
      <trkpt lat="35.94706945" lon="120.21167698">
        <time>2019-03-17T07:12:39.398000Z</time>
      </trkpt>
      <trkpt lat="35.94696316" lon="120.21171748">
        <time>2019-03-17T07:12:43.421000Z</time>
      </trkpt>
      <trkpt lat="35.94686864" lon="120.21177217">
        <time>2019-03-17T07:12:47.397000Z</time>
      </trkpt>
      <trkpt lat="35.94676469" lon="120.21179191">
        <time>2019-03-17T07:12:52.400000Z</time>
      </trkpt>
      <trkpt lat="35.94666885" lon="120.21180585">
        <time>2019-03-17T07:12:56.392000Z</time>
      </trkpt>
      <trkpt lat="35.9465696" lon="120.21185828">
        <time>2019-03-17T07:13:01.391000Z</time>
      </trkpt>
      <trkpt lat="35.94645974" lon="120.21189209">
        <time>2019-03-17T07:13:06.402000Z</time>
      </trkpt>
      <trkpt lat="35.94635896" lon="120.211909">
        <time>2019-03-17T07:13:10.382000Z</time>
      </trkpt>
      <trkpt lat="35.92421243" lon="120.18347805">
        <time>2019-03-17T07:42:26.384000Z</time>
      </trkpt>
      <trkpt lat="35.92423928" lon="120.18360111">
        <time>2019-03-17T07:42:31.393000Z</time>
      </trkpt>
      <trkpt lat="35.9242768" lon="120.18370535">
        <time>2019-03-17T07:42:34.403000Z</time>
      </trkpt>
      <trkpt lat="35.92431818" lon="120.18382129">
        <time>2019-03-17T07:42:38.406000Z</time>
      </trkpt>
      <trkpt lat="35.92433204" lon="120.18396241">
        <time>2019-03-17T07:42:43.408000Z</time>
      </trkpt>
      <trkpt lat="35.92434841" lon="120.18408838">
        <time>2019-03-17T07:42:46.402000Z</time>
      </trkpt>
      <trkpt lat="35.92437242" lon="120.18420789">
        <time>2019-03-17T07:42:49.394000Z</time>
      </trkpt>
      <trkpt lat="35.92441133" lon="120.18431007">
        <time>2019-03-17T07:42:52.392000Z</time>
      </trkpt>
      <trkpt lat="35.92446423" lon="120.18442328">
        <time>2019-03-17T07:42:56.398000Z</time>
      </trkpt>
      <trkpt lat="35.92452124" lon="120.18452459">
        <time>2019-03-17T07:43:00.391000Z</time>
      </trkpt>
      <trkpt lat="35.92456848" lon="120.18464792">
        <time>2019-03-17T07:43:04.398000Z</time>
      </trkpt>
      <trkpt lat="35.92458918" lon="120.18476609">
        <time>2019-03-17T07:43:08.389000Z</time>
      </trkpt>
      <trkpt lat="35.92461569" lon="120.18488896">
        <time>2019-03-17T07:43:15.399000Z</time>
      </trkpt>
      <trkpt lat="35.92465524" lon="120.18501989">
        <time>2019-03-17T07:43:19.376000Z</time>
      </trkpt>
      <trkpt lat="35.924674" lon="120.18515028">
        <time>2019-03-17T07:43:23.402000Z</time>
      </trkpt>
      <trkpt lat="35.92467914" lon="120.18527708">
        <time>2019-03-17T07:43:26.393000Z</time>
      </trkpt>
      <trkpt lat="35.92471531" lon="120.18539489">
        <time>2019-03-17T07:43:29.404000Z</time>
      </trkpt>
      <trkpt lat="35.92472292" lon="120.18550952">
        <time>2019-03-17T07:43:32.401000Z</time>
      </trkpt>
      <trkpt lat="35.92476028" lon="120.18561936">
        <time>2019-03-17T07:43:35.403000Z</time>
      </trkpt>
      <trkpt lat="35.92480139" lon="120.18573136">
        <time>2019-03-17T07:43:38.382000Z</time>
      </trkpt>
      <trkpt lat="35.92481526" lon="120.18584591">
        <time>2019-03-17T07:43:41.392000Z</time>
      </trkpt>
      <trkpt lat="35.92482954" lon="120.18598119">
        <time>2019-03-17T07:43:45.395000Z</time>
      </trkpt>
      <trkpt lat="35.9248355" lon="120.18612698">
        <time>2019-03-17T07:43:49.400000Z</time>
      </trkpt>
      <trkpt lat="35.92483121" lon="120.18624102">
        <time>2019-03-17T07:43:52.413000Z</time>
      </trkpt>
      <trkpt lat="35.92483772" lon="120.18638933">
        <time>2019-03-17T07:43:56.418000Z</time>
      </trkpt>
      <trkpt lat="35.92486022" lon="120.18650785">
        <time>2019-03-17T07:43:59.405000Z</time>
      </trkpt>
      <trkpt lat="35.92489058" lon="120.18661899">
        <time>2019-03-17T07:44:02.399000Z</time>
      </trkpt>
      <trkpt lat="35.92490089" lon="120.18675243">
        <time>2019-03-17T07:44:06.407000Z</time>
      </trkpt>
      <trkpt lat="35.92490445" lon="120.18689372">
        <time>2019-03-17T07:44:10.398000Z</time>
      </trkpt>
      <trkpt lat="35.92492837" lon="120.18703667">
        <time>2019-03-17T07:44:14.402000Z</time>
      </trkpt>
      <trkpt lat="35.92494104" lon="120.18715298">
        <time>2019-03-17T07:44:17.399000Z</time>
      </trkpt>
      <trkpt lat="35.924962" lon="120.1872653">
        <time>2019-03-17T07:44:20.423000Z</time>
      </trkpt>
      <trkpt lat="35.92497449" lon="120.18738401">
        <time>2019-03-17T07:44:23.394000Z</time>
      </trkpt>
      <trkpt lat="35.92498704" lon="120.18750734">
        <time>2019-03-17T07:44:26.405000Z</time>
      </trkpt>
      <trkpt lat="35.92500783" lon="120.18762719">
        <time>2019-03-17T07:44:29.399000Z</time>
      </trkpt>
      <trkpt lat="35.92502276" lon="120.18773761">
        <time>2019-03-17T07:44:32.397000Z</time>
      </trkpt>
      <trkpt lat="35.92505792" lon="120.18785952">
        <time>2019-03-17T07:44:36.417000Z</time>
      </trkpt>
      <trkpt lat="35.92509168" lon="120.18798002">
        <time>2019-03-17T07:44:40.411000Z</time>
      </trkpt>
      <trkpt lat="35.92509947" lon="120.18810625">
        <time>2019-03-17T07:44:44.415000Z</time>
      </trkpt>
      <trkpt lat="35.92509559" lon="120.18823164">
        <time>2019-03-17T07:44:48.391000Z</time>
      </trkpt>
      <trkpt lat="35.92509059" lon="120.18834958">
        <time>2019-03-17T07:44:52.389000Z</time>
      </trkpt>
      <trkpt lat="35.92509059" lon="120.18834958">
        <time>2019-03-17T07:44:56.395000Z</time>
      </trkpt>
      <trkpt lat="35.92507614" lon="120.18846861">
        <time>2019-03-17T07:44:58.402000Z</time>
      </trkpt>
      <trkpt lat="35.92510155" lon="120.18858689">
        <time>2019-03-17T07:45:05.396000Z</time>
      </trkpt>
      <trkpt lat="35.92510155" lon="120.18858689">
        <time>2019-03-17T07:45:09.392000Z</time>
      </trkpt>
      <trkpt lat="35.92513561" lon="120.18869827">
        <time>2019-03-17T07:45:09.406000Z</time>
      </trkpt>
      <trkpt lat="35.92516765" lon="120.18882642">
        <time>2019-03-17T07:45:14.412000Z</time>
      </trkpt>
      <trkpt lat="35.92519914" lon="120.18895597">
        <time>2019-03-17T07:45:19.400000Z</time>
      </trkpt>
      <trkpt lat="35.92523222" lon="120.1890622">
        <time>2019-03-17T07:45:23.400000Z</time>
      </trkpt>
      <trkpt lat="35.92523865" lon="120.18918406">
        <time>2019-03-17T07:45:27.396000Z</time>
      </trkpt>
      <trkpt lat="35.92523728" lon="120.18930326">
        <time>2019-03-17T07:45:31.403000Z</time>
      </trkpt>
      <trkpt lat="35.92525334" lon="120.18942394">
        <time>2019-03-17T07:45:35.404000Z</time>
      </trkpt>
      <trkpt lat="35.92528273" lon="120.18954485">
        <time>2019-03-17T07:45:39.403000Z</time>
      </trkpt>
      <trkpt lat="35.92529308" lon="120.18967828">
        <time>2019-03-17T07:45:43.404000Z</time>
      </trkpt>
      <trkpt lat="35.92532989" lon="120.18980687">
        <time>2019-03-17T07:45:47.405000Z</time>
      </trkpt>
      <trkpt lat="35.92541168" lon="120.18990852">
        <time>2019-03-17T07:45:51.393000Z</time>
      </trkpt>
      <trkpt lat="35.9254644" lon="120.19000099">
        <time>2019-03-17T07:45:54.409000Z</time>
      </trkpt>
      <trkpt lat="35.92551899" lon="120.19012405">
        <time>2019-03-17T07:45:58.399000Z</time>
      </trkpt>
      <trkpt lat="35.92556988" lon="120.19022322">
        <time>2019-03-17T07:46:01.402000Z</time>
      </trkpt>
      <trkpt lat="35.92564985" lon="120.19032896">
        <time>2019-03-17T07:46:05.402000Z</time>
      </trkpt>
      <trkpt lat="35.92573997" lon="120.19040493">
        <time>2019-03-17T07:46:09.408000Z</time>
      </trkpt>
      <trkpt lat="35.92583433" lon="120.19049049">
        <time>2019-03-17T07:46:13.496000Z</time>
      </trkpt>
      <trkpt lat="35.9259117" lon="120.19054826">
        <time>2019-03-17T07:46:16.410000Z</time>
      </trkpt>
      <trkpt lat="35.92600097" lon="120.19061938">
        <time>2019-03-17T07:46:20.402000Z</time>
      </trkpt>
      <trkpt lat="35.92607352" lon="120.19070738">
        <time>2019-03-17T07:46:24.455000Z</time>
      </trkpt>
      <trkpt lat="35.92615671" lon="120.19079166">
        <time>2019-03-17T07:46:28.406000Z</time>
      </trkpt>
      <trkpt lat="35.92626075" lon="120.19084043">
        <time>2019-03-17T07:46:32.397000Z</time>
      </trkpt>
      <trkpt lat="35.92636544" lon="120.1909008">
        <time>2019-03-17T07:46:36.391000Z</time>
      </trkpt>
      <trkpt lat="35.92645774" lon="120.19097518">
        <time>2019-03-17T07:46:40.406000Z</time>
      </trkpt>
      <trkpt lat="35.9265547" lon="120.1910255">
        <time>2019-03-17T07:46:44.401000Z</time>
      </trkpt>
      <trkpt lat="35.92664862" lon="120.19103863">
        <time>2019-03-17T07:46:49.405000Z</time>
      </trkpt>
      <trkpt lat="35.92675513" lon="120.19104625">
        <time>2019-03-17T07:46:53.409000Z</time>
      </trkpt>
      <trkpt lat="35.92685922" lon="120.19107819">
        <time>2019-03-17T07:46:57.399000Z</time>
      </trkpt>
      <trkpt lat="35.92696583" lon="120.19110001">
        <time>2019-03-17T07:47:01.410000Z</time>
      </trkpt>
      <trkpt lat="35.92707692" lon="120.19111982">
        <time>2019-03-17T07:47:05.395000Z</time>
      </trkpt>
      <trkpt lat="35.92716836" lon="120.1911235">
        <time>2019-03-17T07:47:08.406000Z</time>
      </trkpt>
      <trkpt lat="35.92727303" lon="120.19111887">
        <time>2019-03-17T07:47:12.408000Z</time>
      </trkpt>
      <trkpt lat="35.92739349" lon="120.19110146">
        <time>2019-03-17T07:47:16.404000Z</time>
      </trkpt>
      <trkpt lat="35.92748386" lon="120.19107625">
        <time>2019-03-17T07:47:19.398000Z</time>
      </trkpt>
      <trkpt lat="35.92758284" lon="120.19104607">
        <time>2019-03-17T07:47:23.394000Z</time>
      </trkpt>
      <trkpt lat="35.92767497" lon="120.19099937">
        <time>2019-03-17T07:47:28.401000Z</time>
      </trkpt>
      <trkpt lat="35.92776432" lon="120.19096459">
        <time>2019-03-17T07:47:32.415000Z</time>
      </trkpt>
      <trkpt lat="35.92786022" lon="120.19093107">
        <time>2019-03-17T07:47:36.400000Z</time>
      </trkpt>
      <trkpt lat="35.92794788" lon="120.19088403">
        <time>2019-03-17T07:47:40.386000Z</time>
      </trkpt>
      <trkpt lat="35.92803856" lon="120.19082946">
        <time>2019-03-17T07:47:44.402000Z</time>
      </trkpt>
      <trkpt lat="35.92812332" lon="120.19076845">
        <time>2019-03-17T07:47:48.405000Z</time>
      </trkpt>
      <trkpt lat="35.92820645" lon="120.19071109">
        <time>2019-03-17T07:47:52.407000Z</time>
      </trkpt>
      <trkpt lat="35.92830194" lon="120.19069218">
        <time>2019-03-17T07:47:56.402000Z</time>
      </trkpt>
      <trkpt lat="35.92841432" lon="120.19069607">
        <time>2019-03-17T07:48:01.406000Z</time>
      </trkpt>
      <trkpt lat="35.92851418" lon="120.19070636">
        <time>2019-03-17T07:48:06.405000Z</time>
      </trkpt>
      <trkpt lat="35.92861558" lon="120.1907491">
        <time>2019-03-17T07:48:11.404000Z</time>
      </trkpt>
      <trkpt lat="35.92872824" lon="120.19078202">
        <time>2019-03-17T07:48:15.402000Z</time>
      </trkpt>
      <trkpt lat="35.92883343" lon="120.19080361">
        <time>2019-03-17T07:48:19.397000Z</time>
      </trkpt>
      <trkpt lat="35.92893087" lon="120.19083259">
        <time>2019-03-17T07:48:23.404000Z</time>
      </trkpt>
      <trkpt lat="35.92902708" lon="120.19086903">
        <time>2019-03-17T07:48:27.400000Z</time>
      </trkpt>
      <trkpt lat="35.92912262" lon="120.19089965">
        <time>2019-03-17T07:48:31.416000Z</time>
      </trkpt>
      <trkpt lat="35.9292173" lon="120.19093394">
        <time>2019-03-17T07:48:35.390000Z</time>
      </trkpt>
      <trkpt lat="35.92931613" lon="120.19096344">
        <time>2019-03-17T07:48:39.399000Z</time>
      </trkpt>
      <trkpt lat="35.92943038" lon="120.19099891">
        <time>2019-03-17T07:48:43.399000Z</time>
      </trkpt>
      <trkpt lat="35.92952115" lon="120.19102506">
        <time>2019-03-17T07:48:46.399000Z</time>
      </trkpt>
      <trkpt lat="35.92963378" lon="120.19105218">
        <time>2019-03-17T07:48:50.392000Z</time>
      </trkpt>
      <trkpt lat="35.92973392" lon="120.19109735">
        <time>2019-03-17T07:48:54.396000Z</time>
      </trkpt>
      <trkpt lat="35.92982326" lon="120.19111908">
        <time>2019-03-17T07:48:58.400000Z</time>
      </trkpt>
      <trkpt lat="35.92992037" lon="120.19114914">
        <time>2019-03-17T07:49:02.402000Z</time>
      </trkpt>
      <trkpt lat="35.93001544" lon="120.19118268">
        <time>2019-03-17T07:49:06.434000Z</time>
      </trkpt>
      <trkpt lat="35.9300829" lon="120.19126786">
        <time>2019-03-17T07:49:10.397000Z</time>
      </trkpt>
      <trkpt lat="35.93017159" lon="120.19132272">
        <time>2019-03-17T07:49:14.409000Z</time>
      </trkpt>
      <trkpt lat="35.93028445" lon="120.19132793">
        <time>2019-03-17T07:49:18.407000Z</time>
      </trkpt>
      <trkpt lat="35.93038907" lon="120.19131278">
        <time>2019-03-17T07:49:22.391000Z</time>
      </trkpt>
      <trkpt lat="35.93049608" lon="120.19132951">
        <time>2019-03-17T07:49:26.407000Z</time>
      </trkpt>
      <trkpt lat="35.93059297" lon="120.19133553">
        <time>2019-03-17T07:49:29.392000Z</time>
      </trkpt>
      <trkpt lat="35.93070112" lon="120.19130599">
        <time>2019-03-17T07:49:32.394000Z</time>
      </trkpt>
      <trkpt lat="35.93080243" lon="120.19126308">
        <time>2019-03-17T07:49:35.400000Z</time>
      </trkpt>
      <trkpt lat="35.93090447" lon="120.19123465">
        <time>2019-03-17T07:49:38.398000Z</time>
      </trkpt>
      <trkpt lat="35.93101137" lon="120.19124039">
        <time>2019-03-17T07:49:41.395000Z</time>
      </trkpt>
      <trkpt lat="35.93110909" lon="120.19124123">
        <time>2019-03-17T07:49:44.379000Z</time>
      </trkpt>
      <trkpt lat="35.93120566" lon="120.19125456">
        <time>2019-03-17T07:49:47.393000Z</time>
      </trkpt>
      <trkpt lat="35.93131571" lon="120.19127633">
        <time>2019-03-17T07:49:51.404000Z</time>
      </trkpt>
      <trkpt lat="35.93142456" lon="120.19130881">
        <time>2019-03-17T07:49:55.378000Z</time>
      </trkpt>
      <trkpt lat="35.93152954" lon="120.1913442">
        <time>2019-03-17T07:49:59.424000Z</time>
      </trkpt>
      <trkpt lat="35.93162342" lon="120.19137345">
        <time>2019-03-17T07:50:03.405000Z</time>
      </trkpt>
      <trkpt lat="35.93173142" lon="120.19140219">
        <time>2019-03-17T07:50:07.404000Z</time>
      </trkpt>
      <trkpt lat="35.93184241" lon="120.19143428">
        <time>2019-03-17T07:50:11.402000Z</time>
      </trkpt>
      <trkpt lat="35.93196154" lon="120.19143614">
        <time>2019-03-17T07:50:15.394000Z</time>
      </trkpt>
      <trkpt lat="35.93205197" lon="120.19145128">
        <time>2019-03-17T07:50:18.388000Z</time>
      </trkpt>
      <trkpt lat="35.93205197" lon="120.19145128">
        <time>2019-03-17T07:50:21.384000Z</time>
      </trkpt>
      <trkpt lat="35.93216088" lon="120.19147368">
        <time>2019-03-17T07:50:22.410000Z</time>
      </trkpt>
      <trkpt lat="35.93224223" lon="120.19153723">
        <time>2019-03-17T07:50:26.400000Z</time>
      </trkpt>
      <trkpt lat="35.93230332" lon="120.19164836">
        <time>2019-03-17T07:50:30.406000Z</time>
      </trkpt>
      <trkpt lat="35.93230332" lon="120.19164836">
        <time>2019-03-17T07:50:31.386000Z</time>
      </trkpt>
      <trkpt lat="35.93234811" lon="120.19176809">
        <time>2019-03-17T07:50:34.399000Z</time>
      </trkpt>
      <trkpt lat="35.9323853" lon="120.19189063">
        <time>2019-03-17T07:50:38.400000Z</time>
      </trkpt>
      <trkpt lat="35.9323951" lon="120.1920283">
        <time>2019-03-17T07:50:42.397000Z</time>
      </trkpt>
      <trkpt lat="35.93242312" lon="120.19216624">
        <time>2019-03-17T07:50:46.399000Z</time>
      </trkpt>
      <trkpt lat="35.93249265" lon="120.19226965">
        <time>2019-03-17T07:50:50.405000Z</time>
      </trkpt>
      <trkpt lat="35.93256037" lon="120.19235486">
        <time>2019-03-17T07:50:54.393000Z</time>
      </trkpt>
      <trkpt lat="35.93261777" lon="120.19246132">
        <time>2019-03-17T07:50:58.395000Z</time>
      </trkpt>
      <trkpt lat="35.93267312" lon="120.19255892">
        <time>2019-03-17T07:51:01.399000Z</time>
      </trkpt>
      <trkpt lat="35.93272477" lon="120.19267717">
        <time>2019-03-17T07:51:05.399000Z</time>
      </trkpt>
      <trkpt lat="35.93278585" lon="120.19278596">
        <time>2019-03-17T07:51:09.399000Z</time>
      </trkpt>
      <trkpt lat="35.93285248" lon="120.19288002">
        <time>2019-03-17T07:51:13.401000Z</time>
      </trkpt>
      <trkpt lat="35.93280811" lon="120.19299824">
        <time>2019-03-17T07:51:17.409000Z</time>
      </trkpt>
      <trkpt lat="35.93272931" lon="120.19305395">
        <time>2019-03-17T07:51:20.399000Z</time>
      </trkpt>
      <trkpt lat="35.93266357" lon="120.19315796">
        <time>2019-03-17T07:51:24.400000Z</time>
      </trkpt>
      <trkpt lat="35.93263984" lon="120.19327725">
        <time>2019-03-17T07:51:28.398000Z</time>
      </trkpt>
      <trkpt lat="35.93265712" lon="120.19339174">
        <time>2019-03-17T07:51:32.402000Z</time>
      </trkpt>
      <trkpt lat="35.93268634" lon="120.19351258">
        <time>2019-03-17T07:51:36.401000Z</time>
      </trkpt>
      <trkpt lat="35.93267648" lon="120.19362377">
        <time>2019-03-17T07:51:40.398000Z</time>
      </trkpt>
      <trkpt lat="35.93256694" lon="120.19367013">
        <time>2019-03-17T07:51:44.391000Z</time>
      </trkpt>
      <trkpt lat="35.93246714" lon="120.19372752">
        <time>2019-03-17T07:51:48.401000Z</time>
      </trkpt>
      <trkpt lat="35.93238793" lon="120.19380166">
        <time>2019-03-17T07:51:52.389000Z</time>
      </trkpt>
      <trkpt lat="35.93234497" lon="120.19390888">
        <time>2019-03-17T07:51:56.400000Z</time>
      </trkpt>
      <trkpt lat="35.93229286" lon="120.1940102">
        <time>2019-03-17T07:52:00.399000Z</time>
      </trkpt>
      <trkpt lat="35.93226212" lon="120.19413025">
        <time>2019-03-17T07:52:04.407000Z</time>
      </trkpt>
      <trkpt lat="35.93223134" lon="120.19425247">
        <time>2019-03-17T07:52:08.400000Z</time>
      </trkpt>
      <trkpt lat="35.93221385" lon="120.19437319">
        <time>2019-03-17T07:52:12.400000Z</time>
      </trkpt>
      <trkpt lat="35.93219009" lon="120.1944898">
        <time>2019-03-17T07:52:16.403000Z</time>
      </trkpt>
      <trkpt lat="35.93217765" lon="120.19461126">
        <time>2019-03-17T07:52:20.405000Z</time>
      </trkpt>
      <trkpt lat="35.93218177" lon="120.19474229">
        <time>2019-03-17T07:52:24.404000Z</time>
      </trkpt>
      <trkpt lat="35.93217601" lon="120.19488381">
        <time>2019-03-17T07:52:28.451000Z</time>
      </trkpt>
      <trkpt lat="35.93214314" lon="120.19499913">
        <time>2019-03-17T07:52:32.409000Z</time>
      </trkpt>
      <trkpt lat="35.93207603" lon="120.19508509">
        <time>2019-03-17T07:52:36.399000Z</time>
      </trkpt>
      <trkpt lat="35.9319968" lon="120.19515808">
        <time>2019-03-17T07:52:40.417000Z</time>
      </trkpt>
      <trkpt lat="35.93192289" lon="120.19522744">
        <time>2019-03-17T07:52:44.398000Z</time>
      </trkpt>
      <trkpt lat="35.93184896" lon="120.19530732">
        <time>2019-03-17T07:52:48.401000Z</time>
      </trkpt>
      <trkpt lat="35.93181652" lon="120.19544005">
        <time>2019-03-17T07:52:52.419000Z</time>
      </trkpt>
      <trkpt lat="35.93181602" lon="120.19558033">
        <time>2019-03-17T07:52:56.408000Z</time>
      </trkpt>
      <trkpt lat="35.93179312" lon="120.19570521">
        <time>2019-03-17T07:53:00.402000Z</time>
      </trkpt>
      <trkpt lat="35.93178936" lon="120.19583442">
        <time>2019-03-17T07:53:04.399000Z</time>
      </trkpt>
      <trkpt lat="35.93180185" lon="120.19597449">
        <time>2019-03-17T07:53:08.431000Z</time>
      </trkpt>
      <trkpt lat="35.93178984" lon="120.19611028">
        <time>2019-03-17T07:53:12.404000Z</time>
      </trkpt>
      <trkpt lat="35.93176394" lon="120.19621656">
        <time>2019-03-17T07:53:15.388000Z</time>
      </trkpt>
      <trkpt lat="35.93174155" lon="120.19633016">
        <time>2019-03-17T07:53:18.401000Z</time>
      </trkpt>
      <trkpt lat="35.93172362" lon="120.19644577">
        <time>2019-03-17T07:53:21.401000Z</time>
      </trkpt>
      <trkpt lat="35.93170237" lon="120.19655731">
        <time>2019-03-17T07:53:24.397000Z</time>
      </trkpt>
      <trkpt lat="35.93174587" lon="120.19668456">
        <time>2019-03-17T07:53:28.458000Z</time>
      </trkpt>
      <trkpt lat="35.93177623" lon="120.19680669">
        <time>2019-03-17T07:53:32.408000Z</time>
      </trkpt>
      <trkpt lat="35.93184895" lon="120.19690849">
        <time>2019-03-17T07:53:36.404000Z</time>
      </trkpt>
      <trkpt lat="35.93192253" lon="120.19700977">
        <time>2019-03-17T07:53:40.397000Z</time>
      </trkpt>
      <trkpt lat="35.931979" lon="120.19712788">
        <time>2019-03-17T07:53:44.406000Z</time>
      </trkpt>
      <trkpt lat="35.93201245" lon="120.19723561">
        <time>2019-03-17T07:53:47.397000Z</time>
      </trkpt>
      <trkpt lat="35.93206051" lon="120.19736314">
        <time>2019-03-17T07:53:51.403000Z</time>
      </trkpt>
      <trkpt lat="35.93210536" lon="120.19746266">
        <time>2019-03-17T07:53:54.408000Z</time>
      </trkpt>
      <trkpt lat="35.93214222" lon="120.19759319">
        <time>2019-03-17T07:53:58.406000Z</time>
      </trkpt>
      <trkpt lat="35.93216229" lon="120.19772017">
        <time>2019-03-17T07:54:02.402000Z</time>
      </trkpt>
      <trkpt lat="35.93220235" lon="120.1978371">
        <time>2019-03-17T07:54:06.407000Z</time>
      </trkpt>
      <trkpt lat="35.93223927" lon="120.197948">
        <time>2019-03-17T07:54:10.407000Z</time>
      </trkpt>
      <trkpt lat="35.93228465" lon="120.19806507">
        <time>2019-03-17T07:54:14.430000Z</time>
      </trkpt>
      <trkpt lat="35.93231621" lon="120.19819402">
        <time>2019-03-17T07:54:18.387000Z</time>
      </trkpt>
      <trkpt lat="35.93236024" lon="120.1983191">
        <time>2019-03-17T07:54:22.399000Z</time>
      </trkpt>
      <trkpt lat="35.93241187" lon="120.19841253">
        <time>2019-03-17T07:54:25.406000Z</time>
      </trkpt>
      <trkpt lat="35.9324975" lon="120.19847244">
        <time>2019-03-17T07:54:28.383000Z</time>
      </trkpt>
      <trkpt lat="35.93259274" lon="120.19851884">
        <time>2019-03-17T07:54:31.406000Z</time>
      </trkpt>
      <trkpt lat="35.93268431" lon="120.19854881">
        <time>2019-03-17T07:54:34.397000Z</time>
      </trkpt>
      <trkpt lat="35.93276247" lon="120.19861104">
        <time>2019-03-17T07:54:37.391000Z</time>
      </trkpt>
      <trkpt lat="35.93281904" lon="120.19869837">
        <time>2019-03-17T07:54:40.404000Z</time>
      </trkpt>
      <trkpt lat="35.93286354" lon="120.19882946">
        <time>2019-03-17T07:54:44.403000Z</time>
      </trkpt>
      <trkpt lat="35.93289515" lon="120.19896202">
        <time>2019-03-17T07:54:48.406000Z</time>
      </trkpt>
      <trkpt lat="35.93291406" lon="120.19910448">
        <time>2019-03-17T07:54:52.402000Z</time>
      </trkpt>
      <trkpt lat="35.93289662" lon="120.1992411">
        <time>2019-03-17T07:54:56.404000Z</time>
      </trkpt>
      <trkpt lat="35.93289662" lon="120.1992411">
        <time>2019-03-17T07:55:01.396000Z</time>
      </trkpt>
      <trkpt lat="35.93289149" lon="120.19935348">
        <time>2019-03-17T07:55:02.392000Z</time>
      </trkpt>
      <trkpt lat="35.93287114" lon="120.19947231">
        <time>2019-03-17T07:55:06.396000Z</time>
      </trkpt>
      <trkpt lat="35.93282063" lon="120.19959387">
        <time>2019-03-17T07:55:10.397000Z</time>
      </trkpt>
      <trkpt lat="35.93282063" lon="120.19959387">
        <time>2019-03-17T07:55:11.400000Z</time>
      </trkpt>
      <trkpt lat="35.93274395" lon="120.19968368">
        <time>2019-03-17T07:55:14.403000Z</time>
      </trkpt>
      <trkpt lat="35.93272223" lon="120.19981826">
        <time>2019-03-17T07:55:19.394000Z</time>
      </trkpt>
      <trkpt lat="35.93274965" lon="120.19993925">
        <time>2019-03-17T07:55:23.408000Z</time>
      </trkpt>
      <trkpt lat="35.93275308" lon="120.20006036">
        <time>2019-03-17T07:55:27.402000Z</time>
      </trkpt>
      <trkpt lat="35.93277727" lon="120.20018028">
        <time>2019-03-17T07:55:31.403000Z</time>
      </trkpt>
      <trkpt lat="35.93281172" lon="120.20029713">
        <time>2019-03-17T07:55:35.401000Z</time>
      </trkpt>
      <trkpt lat="35.93287211" lon="120.20038739">
        <time>2019-03-17T07:55:39.393000Z</time>
      </trkpt>
      <trkpt lat="35.93292017" lon="120.2005022">
        <time>2019-03-17T07:55:43.402000Z</time>
      </trkpt>
      <trkpt lat="35.93297326" lon="120.20062102">
        <time>2019-03-17T07:55:47.403000Z</time>
      </trkpt>
      <trkpt lat="35.93302727" lon="120.20074259">
        <time>2019-03-17T07:55:51.400000Z</time>
      </trkpt>
      <trkpt lat="35.93310443" lon="120.20084635">
        <time>2019-03-17T07:55:56.396000Z</time>
      </trkpt>
      <trkpt lat="35.93318347" lon="120.20092544">
        <time>2019-03-17T07:56:00.401000Z</time>
      </trkpt>
      <trkpt lat="35.93326196" lon="120.20101188">
        <time>2019-03-17T07:56:04.418000Z</time>
      </trkpt>
      <trkpt lat="35.93333022" lon="120.20109715">
        <time>2019-03-17T07:56:08.401000Z</time>
      </trkpt>
      <trkpt lat="35.93339601" lon="120.20122009">
        <time>2019-03-17T07:56:12.411000Z</time>
      </trkpt>
      <trkpt lat="35.93344541" lon="120.20135192">
        <time>2019-03-17T07:56:16.396000Z</time>
      </trkpt>
      <trkpt lat="35.93349054" lon="120.20146952">
        <time>2019-03-17T07:56:20.403000Z</time>
      </trkpt>
      <trkpt lat="35.93353224" lon="120.20158864">
        <time>2019-03-17T07:56:24.405000Z</time>
      </trkpt>
      <trkpt lat="35.93358086" lon="120.20171456">
        <time>2019-03-17T07:56:28.406000Z</time>
      </trkpt>
      <trkpt lat="35.93361946" lon="120.2018429">
        <time>2019-03-17T07:56:32.396000Z</time>
      </trkpt>
      <trkpt lat="35.93362365" lon="120.20196542">
        <time>2019-03-17T07:56:36.407000Z</time>
      </trkpt>
      <trkpt lat="35.93364761" lon="120.20210109">
        <time>2019-03-17T07:56:40.405000Z</time>
      </trkpt>
      <trkpt lat="35.93367265" lon="120.20223028">
        <time>2019-03-17T07:56:44.402000Z</time>
      </trkpt>
      <trkpt lat="35.93370608" lon="120.2023578">
        <time>2019-03-17T07:56:48.403000Z</time>
      </trkpt>
      <trkpt lat="35.93375801" lon="120.20246645">
        <time>2019-03-17T07:56:53.407000Z</time>
      </trkpt>
      <trkpt lat="35.93380686" lon="120.20258573">
        <time>2019-03-17T07:56:57.409000Z</time>
      </trkpt>
      <trkpt lat="35.93384008" lon="120.20271317">
        <time>2019-03-17T07:57:01.413000Z</time>
      </trkpt>
      <trkpt lat="35.93387566" lon="120.2028184">
        <time>2019-03-17T07:57:04.402000Z</time>
      </trkpt>
      <trkpt lat="35.93391825" lon="120.20294817">
        <time>2019-03-17T07:57:08.420000Z</time>
      </trkpt>
      <trkpt lat="35.93396321" lon="120.203083">
        <time>2019-03-17T07:57:12.422000Z</time>
      </trkpt>
      <trkpt lat="35.93401036" lon="120.20321621">
        <time>2019-03-17T07:57:16.406000Z</time>
      </trkpt>
      <trkpt lat="35.93404131" lon="120.20333411">
        <time>2019-03-17T07:57:20.403000Z</time>
      </trkpt>
      <trkpt lat="35.93406341" lon="120.20346009">
        <time>2019-03-17T07:57:24.395000Z</time>
      </trkpt>
      <trkpt lat="35.93405477" lon="120.20358791">
        <time>2019-03-17T07:57:28.412000Z</time>
      </trkpt>
      <trkpt lat="35.93403467" lon="120.20371161">
        <time>2019-03-17T07:57:32.419000Z</time>
      </trkpt>
      <trkpt lat="35.93403015" lon="120.20385136">
        <time>2019-03-17T07:57:36.417000Z</time>
      </trkpt>
      <trkpt lat="35.93402105" lon="120.20399418">
        <time>2019-03-17T07:57:40.403000Z</time>
      </trkpt>
      <trkpt lat="35.93403663" lon="120.20412542">
        <time>2019-03-17T07:57:44.388000Z</time>
      </trkpt>
      <trkpt lat="35.93406873" lon="120.20422994">
        <time>2019-03-17T07:57:48.395000Z</time>
      </trkpt>
      <trkpt lat="35.93410203" lon="120.20434799">
        <time>2019-03-17T07:57:52.402000Z</time>
      </trkpt>
      <trkpt lat="35.93416002" lon="120.20446107">
        <time>2019-03-17T07:57:56.409000Z</time>
      </trkpt>
      <trkpt lat="35.9342219" lon="120.20455515">
        <time>2019-03-17T07:58:00.397000Z</time>
      </trkpt>
      <trkpt lat="35.93428353" lon="120.20464138">
        <time>2019-03-17T07:58:04.396000Z</time>
      </trkpt>
      <trkpt lat="35.93433702" lon="120.20474294">
        <time>2019-03-17T07:58:08.394000Z</time>
      </trkpt>
      <trkpt lat="35.93436601" lon="120.20487783">
        <time>2019-03-17T07:58:12.402000Z</time>
      </trkpt>
      <trkpt lat="35.93439726" lon="120.20500342">
        <time>2019-03-17T07:58:16.416000Z</time>
      </trkpt>
      <trkpt lat="35.93443765" lon="120.20511039">
        <time>2019-03-17T07:58:20.404000Z</time>
      </trkpt>
      <trkpt lat="35.93449673" lon="120.20521197">
        <time>2019-03-17T07:58:24.402000Z</time>
      </trkpt>
      <trkpt lat="35.93455721" lon="120.20531163">
        <time>2019-03-17T07:58:28.402000Z</time>
      </trkpt>
      <trkpt lat="35.9346222" lon="120.20539906">
        <time>2019-03-17T07:58:32.414000Z</time>
      </trkpt>
      <trkpt lat="35.934673" lon="120.20550788">
        <time>2019-03-17T07:58:36.405000Z</time>
      </trkpt>
      <trkpt lat="35.93471935" lon="120.20563616">
        <time>2019-03-17T07:58:40.404000Z</time>
      </trkpt>
      <trkpt lat="35.9347713" lon="120.20576638">
        <time>2019-03-17T07:58:44.394000Z</time>
      </trkpt>
      <trkpt lat="35.93482054" lon="120.20587677">
        <time>2019-03-17T07:58:48.404000Z</time>
      </trkpt>
      <trkpt lat="35.93487885" lon="120.20596756">
        <time>2019-03-17T07:58:52.403000Z</time>
      </trkpt>
      <trkpt lat="35.93490803" lon="120.20608306">
        <time>2019-03-17T07:58:56.416000Z</time>
      </trkpt>
      <trkpt lat="35.93494062" lon="120.20619382">
        <time>2019-03-17T07:59:00.405000Z</time>
      </trkpt>
      <trkpt lat="35.93497629" lon="120.20630916">
        <time>2019-03-17T07:59:04.398000Z</time>
      </trkpt>
      <trkpt lat="35.93504318" lon="120.20641051">
        <time>2019-03-17T07:59:08.390000Z</time>
      </trkpt>
      <trkpt lat="35.9351185" lon="120.20650931">
        <time>2019-03-17T07:59:12.383000Z</time>
      </trkpt>
      <trkpt lat="35.9351185" lon="120.20650931">
        <time>2019-03-17T07:59:12.857000Z</time>
      </trkpt>
      <trkpt lat="35.93517255" lon="120.20660947">
        <time>2019-03-17T07:59:16.386000Z</time>
      </trkpt>
      <trkpt lat="35.93523616" lon="120.2067137">
        <time>2019-03-17T07:59:20.392000Z</time>
      </trkpt>
      <trkpt lat="35.93523616" lon="120.2067137">
        <time>2019-03-17T07:59:22.850000Z</time>
      </trkpt>
      <trkpt lat="35.93529719" lon="120.20680603">
        <time>2019-03-17T07:59:24.399000Z</time>
      </trkpt>
      <trkpt lat="35.9353701" lon="120.206899">
        <time>2019-03-17T07:59:28.400000Z</time>
      </trkpt>
      <trkpt lat="35.93540748" lon="120.20700347">
        <time>2019-03-17T07:59:32.386000Z</time>
      </trkpt>
      <trkpt lat="35.93540748" lon="120.20700347">
        <time>2019-03-17T07:59:34.279000Z</time>
      </trkpt>
      <trkpt lat="35.93541831" lon="120.20712331">
        <time>2019-03-17T07:59:39.407000Z</time>
      </trkpt>
      <trkpt lat="35.93546559" lon="120.20723387">
        <time>2019-03-17T07:59:46.393000Z</time>
      </trkpt>
      <trkpt lat="35.93551208" lon="120.2073373">
        <time>2019-03-17T07:59:53.396000Z</time>
      </trkpt>
      <trkpt lat="35.93556608" lon="120.20743647">
        <time>2019-03-17T08:00:00.386000Z</time>
      </trkpt>
      <trkpt lat="35.93556608" lon="120.20743647">
        <time>2019-03-17T08:00:02.863000Z</time>
      </trkpt>
      <trkpt lat="35.93564553" lon="120.20751835">
        <time>2019-03-17T08:00:08.388000Z</time>
      </trkpt>
      <trkpt lat="35.93572236" lon="120.20762142">
        <time>2019-03-17T08:00:14.398000Z</time>
      </trkpt>
      <trkpt lat="35.93572236" lon="120.20762142">
        <time>2019-03-17T08:00:14.867000Z</time>
      </trkpt>
      <trkpt lat="35.93579285" lon="120.20771415">
        <time>2019-03-17T08:00:18.402000Z</time>
      </trkpt>
      <trkpt lat="35.9358619" lon="120.20779738">
        <time>2019-03-17T08:00:22.453000Z</time>
      </trkpt>
      <trkpt lat="35.9358619" lon="120.20779738">
        <time>2019-03-17T08:00:24.388000Z</time>
      </trkpt>
      <trkpt lat="35.93595598" lon="120.20787238">
        <time>2019-03-17T08:00:27.404000Z</time>
      </trkpt>
      <trkpt lat="35.93601555" lon="120.20796792">
        <time>2019-03-17T08:00:31.392000Z</time>
      </trkpt>
      <trkpt lat="35.93609395" lon="120.20804695">
        <time>2019-03-17T08:00:35.396000Z</time>
      </trkpt>
      <trkpt lat="35.93617853" lon="120.20813405">
        <time>2019-03-17T08:00:39.394000Z</time>
      </trkpt>
      <trkpt lat="35.93626017" lon="120.2082138">
        <time>2019-03-17T08:00:43.403000Z</time>
      </trkpt>
      <trkpt lat="35.9363394" lon="120.20829437">
        <time>2019-03-17T08:00:47.404000Z</time>
      </trkpt>
      <trkpt lat="35.93641349" lon="120.20837938">
        <time>2019-03-17T08:00:51.403000Z</time>
      </trkpt>
      <trkpt lat="35.93646993" lon="120.20846709">
        <time>2019-03-17T08:00:55.398000Z</time>
      </trkpt>
      <trkpt lat="35.93654545" lon="120.20856027">
        <time>2019-03-17T08:00:59.397000Z</time>
      </trkpt>
      <trkpt lat="35.93663942" lon="120.20863728">
        <time>2019-03-17T08:01:03.399000Z</time>
      </trkpt>
      <trkpt lat="35.93672721" lon="120.20870079">
        <time>2019-03-17T08:01:08.409000Z</time>
      </trkpt>
      <trkpt lat="35.93679616" lon="120.20878806">
        <time>2019-03-17T08:01:12.405000Z</time>
      </trkpt>
      <trkpt lat="35.93684831" lon="120.20889388">
        <time>2019-03-17T08:01:16.402000Z</time>
      </trkpt>
      <trkpt lat="35.93691004" lon="120.20899011">
        <time>2019-03-17T08:01:20.396000Z</time>
      </trkpt>
      <trkpt lat="35.93698918" lon="120.20908658">
        <time>2019-03-17T08:01:24.414000Z</time>
      </trkpt>
      <trkpt lat="35.93704191" lon="120.20918764">
        <time>2019-03-17T08:01:28.389000Z</time>
      </trkpt>
      <trkpt lat="35.93712172" lon="120.20925497">
        <time>2019-03-17T08:01:32.418000Z</time>
      </trkpt>
      <trkpt lat="35.93721694" lon="120.20932554">
        <time>2019-03-17T08:01:36.407000Z</time>
      </trkpt>
      <trkpt lat="35.93730436" lon="120.20940011">
        <time>2019-03-17T08:01:40.404000Z</time>
      </trkpt>
      <trkpt lat="35.93730436" lon="120.20940011">
        <time>2019-03-17T08:01:44.403000Z</time>
      </trkpt>
      <trkpt lat="35.93823799" lon="120.20987383">
        <time>2019-03-17T08:02:17.412000Z</time>
      </trkpt>
      <trkpt lat="35.93833207" lon="120.20990085">
        <time>2019-03-17T08:02:20.400000Z</time>
      </trkpt>
      <trkpt lat="35.93844215" lon="120.20994347">
        <time>2019-03-17T08:02:24.409000Z</time>
      </trkpt>
      <trkpt lat="35.9385531" lon="120.20995098">
        <time>2019-03-17T08:02:28.408000Z</time>
      </trkpt>
      <trkpt lat="35.93865706" lon="120.20994366">
        <time>2019-03-17T08:02:32.401000Z</time>
      </trkpt>
      <trkpt lat="35.93877492" lon="120.20993864">
        <time>2019-03-17T08:02:36.400000Z</time>
      </trkpt>
      <trkpt lat="35.93888808" lon="120.20995383">
        <time>2019-03-17T08:02:40.408000Z</time>
      </trkpt>
      <trkpt lat="35.93899069" lon="120.20995136">
        <time>2019-03-17T08:02:45.410000Z</time>
      </trkpt>
      <trkpt lat="35.93910105" lon="120.20992413">
        <time>2019-03-17T08:02:50.407000Z</time>
      </trkpt>
      <trkpt lat="35.93919157" lon="120.20991497">
        <time>2019-03-17T08:02:54.386000Z</time>
      </trkpt>
      <trkpt lat="35.93929314" lon="120.20987384">
        <time>2019-03-17T08:02:59.410000Z</time>
      </trkpt>
      <trkpt lat="35.93938849" lon="120.20984929">
        <time>2019-03-17T08:03:03.411000Z</time>
      </trkpt>
      <trkpt lat="35.93947719" lon="120.20981801">
        <time>2019-03-17T08:03:07.408000Z</time>
      </trkpt>
      <trkpt lat="35.93958697" lon="120.20981727">
        <time>2019-03-17T08:03:12.395000Z</time>
      </trkpt>
      <trkpt lat="35.93968707" lon="120.20981874">
        <time>2019-03-17T08:03:17.476000Z</time>
      </trkpt>
      <trkpt lat="35.93968707" lon="120.20981874">
        <time>2019-03-17T08:03:21.960000Z</time>
      </trkpt>
      <trkpt lat="35.93978136" lon="120.20978659">
        <time>2019-03-17T08:03:22.413000Z</time>
      </trkpt>
      <trkpt lat="35.93987325" lon="120.20974825">
        <time>2019-03-17T08:03:28.408000Z</time>
      </trkpt>
      <trkpt lat="35.93987325" lon="120.20974825">
        <time>2019-03-17T08:03:31.963000Z</time>
      </trkpt>
      <trkpt lat="35.93996949" lon="120.20972314">
        <time>2019-03-17T08:03:32.397000Z</time>
      </trkpt>
      <trkpt lat="35.94005991" lon="120.20967409">
        <time>2019-03-17T08:03:36.411000Z</time>
      </trkpt>
      <trkpt lat="35.94015914" lon="120.20962617">
        <time>2019-03-17T08:03:40.414000Z</time>
      </trkpt>
      <trkpt lat="35.94025188" lon="120.20954649">
        <time>2019-03-17T08:03:44.411000Z</time>
      </trkpt>
      <trkpt lat="35.94031601" lon="120.2094287">
        <time>2019-03-17T08:03:48.393000Z</time>
      </trkpt>
      <trkpt lat="35.9403406" lon="120.209304">
        <time>2019-03-17T08:03:52.409000Z</time>
      </trkpt>
      <trkpt lat="35.94040824" lon="120.20921035">
        <time>2019-03-17T08:03:56.411000Z</time>
      </trkpt>
      <trkpt lat="35.94047644" lon="120.209114">
        <time>2019-03-17T08:04:00.408000Z</time>
      </trkpt>
      <trkpt lat="35.94055222" lon="120.20901059">
        <time>2019-03-17T08:04:04.411000Z</time>
      </trkpt>
      <trkpt lat="35.94065495" lon="120.20895163">
        <time>2019-03-17T08:04:08.406000Z</time>
      </trkpt>
      <trkpt lat="35.94075747" lon="120.20889909">
        <time>2019-03-17T08:04:12.408000Z</time>
      </trkpt>
      <trkpt lat="35.94085556" lon="120.20887445">
        <time>2019-03-17T08:04:16.398000Z</time>
      </trkpt>
      <trkpt lat="35.94095466" lon="120.20888279">
        <time>2019-03-17T08:04:20.405000Z</time>
      </trkpt>
      <trkpt lat="35.941055" lon="120.20890565">
        <time>2019-03-17T08:04:24.401000Z</time>
      </trkpt>
      <trkpt lat="35.941055" lon="120.20890565">
        <time>2019-03-17T08:04:27.403000Z</time>
      </trkpt>
      <trkpt lat="35.9411342" lon="120.20897725">
        <time>2019-03-17T08:04:31.411000Z</time>
      </trkpt>
      <trkpt lat="35.94119969" lon="120.20906065">
        <time>2019-03-17T08:04:38.385000Z</time>
      </trkpt>
      <trkpt lat="35.94126469" lon="120.20915844">
        <time>2019-03-17T08:04:44.398000Z</time>
      </trkpt>
      <trkpt lat="35.94133131" lon="120.20924851">
        <time>2019-03-17T08:04:52.400000Z</time>
      </trkpt>
      <trkpt lat="35.94133131" lon="120.20924851">
        <time>2019-03-17T08:04:56.623000Z</time>
      </trkpt>
      <trkpt lat="35.94143469" lon="120.20928076">
        <time>2019-03-17T08:04:57.399000Z</time>
      </trkpt>
      <trkpt lat="35.94152547" lon="120.20928657">
        <time>2019-03-17T08:05:01.399000Z</time>
      </trkpt>
      <trkpt lat="35.94162552" lon="120.20931209">
        <time>2019-03-17T08:05:05.396000Z</time>
      </trkpt>
      <trkpt lat="35.94172593" lon="120.20933837">
        <time>2019-03-17T08:05:09.401000Z</time>
      </trkpt>
      <trkpt lat="35.94183021" lon="120.20931361">
        <time>2019-03-17T08:05:13.416000Z</time>
      </trkpt>
      <trkpt lat="35.94193285" lon="120.20929523">
        <time>2019-03-17T08:05:17.408000Z</time>
      </trkpt>
      <trkpt lat="35.94204132" lon="120.20927501">
        <time>2019-03-17T08:05:21.402000Z</time>
      </trkpt>
      <trkpt lat="35.94213443" lon="120.20926208">
        <time>2019-03-17T08:05:25.392000Z</time>
      </trkpt>
      <trkpt lat="35.94222451" lon="120.20923577">
        <time>2019-03-17T08:05:30.411000Z</time>
      </trkpt>
      <trkpt lat="35.9423035" lon="120.20916294">
        <time>2019-03-17T08:05:34.412000Z</time>
      </trkpt>
      <trkpt lat="35.94238616" lon="120.20909019">
        <time>2019-03-17T08:05:38.401000Z</time>
      </trkpt>
      <trkpt lat="35.94246557" lon="120.20902126">
        <time>2019-03-17T08:05:42.402000Z</time>
      </trkpt>
      <trkpt lat="35.94257235" lon="120.20897698">
        <time>2019-03-17T08:05:46.415000Z</time>
      </trkpt>
      <trkpt lat="35.94257235" lon="120.20897698">
        <time>2019-03-17T08:05:50.395000Z</time>
      </trkpt>
      <trkpt lat="35.94266884" lon="120.208972">
        <time>2019-03-17T08:05:51.602000Z</time>
      </trkpt>
      <trkpt lat="35.94277015" lon="120.20896733">
        <time>2019-03-17T08:05:57.407000Z</time>
      </trkpt>
      <trkpt lat="35.94277015" lon="120.20896733">
        <time>2019-03-17T08:06:02.006000Z</time>
      </trkpt>
      <trkpt lat="35.94287071" lon="120.208965">
        <time>2019-03-17T08:06:03.395000Z</time>
      </trkpt>
      <trkpt lat="35.94298352" lon="120.20895338">
        <time>2019-03-17T08:06:09.440000Z</time>
      </trkpt>
      <trkpt lat="35.94309399" lon="120.20894558">
        <time>2019-03-17T08:06:13.397000Z</time>
      </trkpt>
      <trkpt lat="35.94320899" lon="120.20893093">
        <time>2019-03-17T08:06:17.402000Z</time>
      </trkpt>
      <trkpt lat="35.94331709" lon="120.20887783">
        <time>2019-03-17T08:06:21.411000Z</time>
      </trkpt>
      <trkpt lat="35.94342691" lon="120.20885146">
        <time>2019-03-17T08:06:25.400000Z</time>
      </trkpt>
      <trkpt lat="35.94353291" lon="120.20884273">
        <time>2019-03-17T08:06:29.403000Z</time>
      </trkpt>
      <trkpt lat="35.94364055" lon="120.20878002">
        <time>2019-03-17T08:06:33.409000Z</time>
      </trkpt>
      <trkpt lat="35.94374719" lon="120.20876323">
        <time>2019-03-17T08:06:37.421000Z</time>
      </trkpt>
      <trkpt lat="35.94385244" lon="120.20880949">
        <time>2019-03-17T08:06:41.404000Z</time>
      </trkpt>
      <trkpt lat="35.94394982" lon="120.20885498">
        <time>2019-03-17T08:06:45.419000Z</time>
      </trkpt>
      <trkpt lat="35.94403538" lon="120.2089019">
        <time>2019-03-17T08:06:49.404000Z</time>
      </trkpt>
      <trkpt lat="35.94413272" lon="120.20894365">
        <time>2019-03-17T08:06:54.397000Z</time>
      </trkpt>
      <trkpt lat="35.94422329" lon="120.20895314">
        <time>2019-03-17T08:07:00.403000Z</time>
      </trkpt>
      <trkpt lat="35.94422329" lon="120.20895314">
        <time>2019-03-17T08:07:02.066000Z</time>
      </trkpt>
      <trkpt lat="35.94431912" lon="120.20894675">
        <time>2019-03-17T08:07:07.395000Z</time>
      </trkpt>
      <trkpt lat="35.94442348" lon="120.20892937">
        <time>2019-03-17T08:07:15.391000Z</time>
      </trkpt>
      <trkpt lat="35.94451774" lon="120.20891526">
        <time>2019-03-17T08:07:20.396000Z</time>
      </trkpt>
      <trkpt lat="35.94451774" lon="120.20891526">
        <time>2019-03-17T08:07:22.403000Z</time>
      </trkpt>
      <trkpt lat="35.94461757" lon="120.20888349">
        <time>2019-03-17T08:07:26.403000Z</time>
      </trkpt>
      <trkpt lat="35.94473109" lon="120.20884908">
        <time>2019-03-17T08:07:30.398000Z</time>
      </trkpt>
      <trkpt lat="35.94484126" lon="120.20882535">
        <time>2019-03-17T08:07:34.419000Z</time>
      </trkpt>
      <trkpt lat="35.94495817" lon="120.20881243">
        <time>2019-03-17T08:07:38.403000Z</time>
      </trkpt>
      <trkpt lat="35.94505872" lon="120.20879004">
        <time>2019-03-17T08:07:42.404000Z</time>
      </trkpt>
      <trkpt lat="35.94514983" lon="120.20877003">
        <time>2019-03-17T08:07:46.408000Z</time>
      </trkpt>
      <trkpt lat="35.94525778" lon="120.20878589">
        <time>2019-03-17T08:07:51.399000Z</time>
      </trkpt>
      <trkpt lat="35.94536495" lon="120.20877766">
        <time>2019-03-17T08:07:56.406000Z</time>
      </trkpt>
      <trkpt lat="35.94546424" lon="120.20878951">
        <time>2019-03-17T08:08:00.420000Z</time>
      </trkpt>
      <trkpt lat="35.94555417" lon="120.2087959">
        <time>2019-03-17T08:08:04.405000Z</time>
      </trkpt>
      <trkpt lat="35.94565368" lon="120.20876875">
        <time>2019-03-17T08:08:08.448000Z</time>
      </trkpt>
      <trkpt lat="35.94575918" lon="120.20873508">
        <time>2019-03-17T08:08:13.408000Z</time>
      </trkpt>
      <trkpt lat="35.94585591" lon="120.20871139">
        <time>2019-03-17T08:08:17.415000Z</time>
      </trkpt>
      <trkpt lat="35.94595677" lon="120.20870099">
        <time>2019-03-17T08:08:21.403000Z</time>
      </trkpt>
      <trkpt lat="35.94595677" lon="120.20870099">
        <time>2019-03-17T08:08:23.115000Z</time>
      </trkpt>
      <trkpt lat="35.94605145" lon="120.20870179">
        <time>2019-03-17T08:08:26.404000Z</time>
      </trkpt>
      <trkpt lat="35.9461419" lon="120.20869686">
        <time>2019-03-17T08:08:32.403000Z</time>
      </trkpt>
      <trkpt lat="35.94623225" lon="120.20871273">
        <time>2019-03-17T08:08:38.407000Z</time>
      </trkpt>
      <trkpt lat="35.94633533" lon="120.20871148">
        <time>2019-03-17T08:08:45.392000Z</time>
      </trkpt>
      <trkpt lat="35.9464392" lon="120.20867198">
        <time>2019-03-17T08:08:48.402000Z</time>
      </trkpt>
      <trkpt lat="35.9464392" lon="120.20867198">
        <time>2019-03-17T08:08:50.121000Z</time>
      </trkpt>
      <trkpt lat="35.94652966" lon="120.20864333">
        <time>2019-03-17T08:08:51.411000Z</time>
      </trkpt>
      <trkpt lat="35.94663992" lon="120.20860883">
        <time>2019-03-17T08:08:55.385000Z</time>
      </trkpt>
      <trkpt lat="35.94672858" lon="120.20857622">
        <time>2019-03-17T08:08:59.409000Z</time>
      </trkpt>
      <trkpt lat="35.94683133" lon="120.20854381">
        <time>2019-03-17T08:09:03.410000Z</time>
      </trkpt>
      <trkpt lat="35.94692399" lon="120.20855764">
        <time>2019-03-17T08:09:07.417000Z</time>
      </trkpt>
      <trkpt lat="35.94692399" lon="120.20855764">
        <time>2019-03-17T08:09:14.179000Z</time>
      </trkpt>
      <trkpt lat="35.94700856" lon="120.20848022">
        <time>2019-03-17T08:09:14.402000Z</time>
      </trkpt>
      <trkpt lat="35.94700729" lon="120.20836094">
        <time>2019-03-17T08:09:21.414000Z</time>
      </trkpt>
      <trkpt lat="35.94700729" lon="120.20836094">
        <time>2019-03-17T08:09:28.145000Z</time>
      </trkpt>
      <trkpt lat="35.94700216" lon="120.20822898">
        <time>2019-03-17T08:09:28.419000Z</time>
      </trkpt>
      <trkpt lat="35.94698325" lon="120.20810412">
        <time>2019-03-17T08:09:33.405000Z</time>
      </trkpt>
      <trkpt lat="35.94697473" lon="120.20797007">
        <time>2019-03-17T08:09:37.404000Z</time>
      </trkpt>
      <trkpt lat="35.94694791" lon="120.20783927">
        <time>2019-03-17T08:09:41.412000Z</time>
      </trkpt>
      <trkpt lat="35.9469365" lon="120.20771459">
        <time>2019-03-17T08:09:45.396000Z</time>
      </trkpt>
      <trkpt lat="35.94691659" lon="120.20759479">
        <time>2019-03-17T08:09:49.412000Z</time>
      </trkpt>
      <trkpt lat="35.94690041" lon="120.20746192">
        <time>2019-03-17T08:09:53.408000Z</time>
      </trkpt>
      <trkpt lat="35.94688173" lon="120.20733877">
        <time>2019-03-17T08:09:57.387000Z</time>
      </trkpt>
      <trkpt lat="35.94689414" lon="120.2072279">
        <time>2019-03-17T08:10:01.398000Z</time>
      </trkpt>
      <trkpt lat="35.94695908" lon="120.20713067">
        <time>2019-03-17T08:10:05.400000Z</time>
      </trkpt>
      <trkpt lat="35.94701074" lon="120.20702861">
        <time>2019-03-17T08:10:09.399000Z</time>
      </trkpt>
      <trkpt lat="35.94706282" lon="120.2069055">
        <time>2019-03-17T08:10:14.408000Z</time>
      </trkpt>
      <trkpt lat="35.94710465" lon="120.2067975">
        <time>2019-03-17T08:10:18.411000Z</time>
      </trkpt>
      <trkpt lat="35.94715057" lon="120.20666767">
        <time>2019-03-17T08:10:22.401000Z</time>
      </trkpt>
      <trkpt lat="35.9472116" lon="120.20654437">
        <time>2019-03-17T08:10:26.408000Z</time>
      </trkpt>
      <trkpt lat="35.94726042" lon="120.2064255">
        <time>2019-03-17T08:10:30.406000Z</time>
      </trkpt>
      <trkpt lat="35.94731816" lon="120.20631043">
        <time>2019-03-17T08:10:34.414000Z</time>
      </trkpt>
      <trkpt lat="35.94736555" lon="120.20619899">
        <time>2019-03-17T08:10:38.494000Z</time>
      </trkpt>
      <trkpt lat="35.94741566" lon="120.20608581">
        <time>2019-03-17T08:10:42.410000Z</time>
      </trkpt>
      <trkpt lat="35.94746682" lon="120.20599141">
        <time>2019-03-17T08:10:46.402000Z</time>
      </trkpt>
      <trkpt lat="35.94751145" lon="120.20587515">
        <time>2019-03-17T08:10:50.401000Z</time>
      </trkpt>
      <trkpt lat="35.94755084" lon="120.20575356">
        <time>2019-03-17T08:10:54.404000Z</time>
      </trkpt>
      <trkpt lat="35.94760696" lon="120.20563999">
        <time>2019-03-17T08:10:58.408000Z</time>
      </trkpt>
      <trkpt lat="35.94765774" lon="120.205522">
        <time>2019-03-17T08:11:02.393000Z</time>
      </trkpt>
      <trkpt lat="35.94765774" lon="120.205522">
        <time>2019-03-17T08:11:04.323000Z</time>
      </trkpt>
      <trkpt lat="35.94767605" lon="120.20539912">
        <time>2019-03-17T08:11:07.402000Z</time>
      </trkpt>
      <trkpt lat="35.94773283" lon="120.20530078">
        <time>2019-03-17T08:11:13.470000Z</time>
      </trkpt>
      <trkpt lat="35.94773283" lon="120.20530078">
        <time>2019-03-17T08:11:15.200000Z</time>
      </trkpt>
      <trkpt lat="35.94777793" lon="120.20518167">
        <time>2019-03-17T08:11:18.412000Z</time>
      </trkpt>
      <trkpt lat="35.94779754" lon="120.20506173">
        <time>2019-03-17T08:11:23.400000Z</time>
      </trkpt>
      <trkpt lat="35.9478404" lon="120.20495411">
        <time>2019-03-17T08:11:27.386000Z</time>
      </trkpt>
      <trkpt lat="35.94787233" lon="120.20482527">
        <time>2019-03-17T08:11:32.416000Z</time>
      </trkpt>
      <trkpt lat="35.94788508" lon="120.20470808">
        <time>2019-03-17T08:11:36.403000Z</time>
      </trkpt>
      <trkpt lat="35.94788323" lon="120.20458457">
        <time>2019-03-17T08:11:40.394000Z</time>
      </trkpt>
      <trkpt lat="35.94787702" lon="120.20446205">
        <time>2019-03-17T08:11:44.390000Z</time>
      </trkpt>
      <trkpt lat="35.94785495" lon="120.20433477">
        <time>2019-03-17T08:11:48.408000Z</time>
      </trkpt>
      <trkpt lat="35.94792174" lon="120.20425645">
        <time>2019-03-17T08:11:52.409000Z</time>
      </trkpt>
      <trkpt lat="35.94792174" lon="120.20425645">
        <time>2019-03-17T08:11:53.371000Z</time>
      </trkpt>
      <trkpt lat="35.94801956" lon="120.20428182">
        <time>2019-03-17T08:11:59.401000Z</time>
      </trkpt>
      <trkpt lat="35.94801956" lon="120.20428182">
        <time>2019-03-17T08:12:04.214000Z</time>
      </trkpt>
      <trkpt lat="35.94810116" lon="120.20435429">
        <time>2019-03-17T08:12:05.403000Z</time>
      </trkpt>
      <trkpt lat="35.94818373" lon="120.20442756">
        <time>2019-03-17T08:12:09.398000Z</time>
      </trkpt>
      <trkpt lat="35.94818373" lon="120.20442756">
        <time>2019-03-17T08:12:13.415000Z</time>
      </trkpt>
      <trkpt lat="35.94853064" lon="120.20486291">
        <time>2019-03-17T08:12:29.417000Z</time>
      </trkpt>
      <trkpt lat="35.94860588" lon="120.20493914">
        <time>2019-03-17T08:12:33.393000Z</time>
      </trkpt>
      <trkpt lat="35.94868045" lon="120.20501531">
        <time>2019-03-17T08:12:37.399000Z</time>
      </trkpt>
      <trkpt lat="35.94868045" lon="120.20501531">
        <time>2019-03-17T08:12:41.402000Z</time>
      </trkpt>
      <trkpt lat="35.94905778" lon="120.20537281">
        <time>2019-03-17T08:12:54.399000Z</time>
      </trkpt>
      <trkpt lat="35.94911787" lon="120.2054612">
        <time>2019-03-17T08:12:57.395000Z</time>
      </trkpt>
      <trkpt lat="35.94917352" lon="120.20555505">
        <time>2019-03-17T08:13:00.401000Z</time>
      </trkpt>
      <trkpt lat="35.94927176" lon="120.20564002">
        <time>2019-03-17T08:13:04.412000Z</time>
      </trkpt>
      <trkpt lat="35.94935235" lon="120.20569039">
        <time>2019-03-17T08:13:07.389000Z</time>
      </trkpt>
      <trkpt lat="35.94935235" lon="120.20569039">
        <time>2019-03-17T08:13:10.246000Z</time>
      </trkpt>
      <trkpt lat="35.94943018" lon="120.20576211">
        <time>2019-03-17T08:13:12.412000Z</time>
      </trkpt>
      <trkpt lat="35.94950136" lon="120.20582992">
        <time>2019-03-17T08:13:18.405000Z</time>
      </trkpt>
      <trkpt lat="35.94957999" lon="120.2058995">
        <time>2019-03-17T08:13:25.395000Z</time>
      </trkpt>
      <trkpt lat="35.94965864" lon="120.20595758">
        <time>2019-03-17T08:13:32.445000Z</time>
      </trkpt>
      <trkpt lat="35.94972242" lon="120.20603665">
        <time>2019-03-17T08:13:39.396000Z</time>
      </trkpt>
      <trkpt lat="35.94972242" lon="120.20603665">
        <time>2019-03-17T08:13:42.261000Z</time>
      </trkpt>
      <trkpt lat="35.94981631" lon="120.20608481">
        <time>2019-03-17T08:13:43.405000Z</time>
      </trkpt>
      <trkpt lat="35.94991072" lon="120.20602631">
        <time>2019-03-17T08:13:46.399000Z</time>
      </trkpt>
      <trkpt lat="35.94999223" lon="120.20597653">
        <time>2019-03-17T08:13:49.390000Z</time>
      </trkpt>
      <trkpt lat="35.95008759" lon="120.20589625">
        <time>2019-03-17T08:13:53.468000Z</time>
      </trkpt>
      <trkpt lat="35.9501706" lon="120.2058343">
        <time>2019-03-17T08:13:57.397000Z</time>
      </trkpt>
      <trkpt lat="35.95025044" lon="120.20578056">
        <time>2019-03-17T08:14:01.413000Z</time>
      </trkpt>
      <trkpt lat="35.95033333" lon="120.2057198">
        <time>2019-03-17T08:14:06.409000Z</time>
      </trkpt>
      <trkpt lat="35.95043347" lon="120.20566454">
        <time>2019-03-17T08:14:11.401000Z</time>
      </trkpt>
      <trkpt lat="35.95053547" lon="120.20561843">
        <time>2019-03-17T08:14:16.409000Z</time>
      </trkpt>
      <trkpt lat="35.95060667" lon="120.20553103">
        <time>2019-03-17T08:14:21.406000Z</time>
      </trkpt>
      <trkpt lat="35.95059942" lon="120.2054125">
        <time>2019-03-17T08:14:25.415000Z</time>
      </trkpt>
      <trkpt lat="35.95058454" lon="120.20529734">
        <time>2019-03-17T08:14:29.407000Z</time>
      </trkpt>
      <trkpt lat="35.95058116" lon="120.20517146">
        <time>2019-03-17T08:14:33.397000Z</time>
      </trkpt>
      <trkpt lat="35.95056741" lon="120.20504824">
        <time>2019-03-17T08:14:37.397000Z</time>
      </trkpt>
      <trkpt lat="35.95054386" lon="120.20493967">
        <time>2019-03-17T08:14:41.399000Z</time>
      </trkpt>
      <trkpt lat="35.95054386" lon="120.20493967">
        <time>2019-03-17T08:14:48.289000Z</time>
      </trkpt>
      <trkpt lat="35.95060397" lon="120.20483889">
        <time>2019-03-17T08:14:51.398000Z</time>
      </trkpt>
      <trkpt lat="35.95071316" lon="120.20483004">
        <time>2019-03-17T08:14:56.405000Z</time>
      </trkpt>
      <trkpt lat="35.95071316" lon="120.20483004">
        <time>2019-03-17T08:14:58.294000Z</time>
      </trkpt>
      <trkpt lat="35.95080937" lon="120.20477275">
        <time>2019-03-17T08:15:00.400000Z</time>
      </trkpt>
      <trkpt lat="35.95087763" lon="120.20466727">
        <time>2019-03-17T08:15:04.408000Z</time>
      </trkpt>
      <trkpt lat="35.95098485" lon="120.20462085">
        <time>2019-03-17T08:15:08.420000Z</time>
      </trkpt>
      <trkpt lat="35.95109784" lon="120.20460831">
        <time>2019-03-17T08:15:12.395000Z</time>
      </trkpt>
      <trkpt lat="35.9512017" lon="120.20458468">
        <time>2019-03-17T08:15:16.424000Z</time>
      </trkpt>
      <trkpt lat="35.9513088" lon="120.20458572">
        <time>2019-03-17T08:15:20.397000Z</time>
      </trkpt>
      <trkpt lat="35.95141158" lon="120.20461456">
        <time>2019-03-17T08:15:24.414000Z</time>
      </trkpt>
      <trkpt lat="35.95152268" lon="120.20459186">
        <time>2019-03-17T08:15:29.391000Z</time>
      </trkpt>
      <trkpt lat="35.95162743" lon="120.20455001">
        <time>2019-03-17T08:15:33.407000Z</time>
      </trkpt>
      <trkpt lat="35.95173003" lon="120.20452873">
        <time>2019-03-17T08:15:37.396000Z</time>
      </trkpt>
      <trkpt lat="35.95182771" lon="120.20452583">
        <time>2019-03-17T08:15:41.408000Z</time>
      </trkpt>
      <trkpt lat="35.95193419" lon="120.20452269">
        <time>2019-03-17T08:15:45.399000Z</time>
      </trkpt>
      <trkpt lat="35.95203628" lon="120.20448298">
        <time>2019-03-17T08:15:49.409000Z</time>
      </trkpt>
      <trkpt lat="35.9521364" lon="120.20443544">
        <time>2019-03-17T08:15:53.400000Z</time>
      </trkpt>
      <trkpt lat="35.95224359" lon="120.20442818">
        <time>2019-03-17T08:15:58.401000Z</time>
      </trkpt>
      <trkpt lat="35.95224359" lon="120.20442818">
        <time>2019-03-17T08:16:00.723000Z</time>
      </trkpt>
      <trkpt lat="35.95234606" lon="120.20443568">
        <time>2019-03-17T08:16:04.397000Z</time>
      </trkpt>
      <trkpt lat="35.95243802" lon="120.20444702">
        <time>2019-03-17T08:16:09.401000Z</time>
      </trkpt>
      <trkpt lat="35.95243802" lon="120.20444702">
        <time>2019-03-17T08:16:10.749000Z</time>
      </trkpt>
      <trkpt lat="35.95254072" lon="120.20444825">
        <time>2019-03-17T08:16:13.410000Z</time>
      </trkpt>
      <trkpt lat="35.95263918" lon="120.20443297">
        <time>2019-03-17T08:16:17.400000Z</time>
      </trkpt>
      <trkpt lat="35.95274608" lon="120.20439912">
        <time>2019-03-17T08:16:21.402000Z</time>
      </trkpt>
      <trkpt lat="35.95284491" lon="120.20435756">
        <time>2019-03-17T08:16:25.398000Z</time>
      </trkpt>
      <trkpt lat="35.95293845" lon="120.20434345">
        <time>2019-03-17T08:16:29.397000Z</time>
      </trkpt>
      <trkpt lat="35.95303189" lon="120.20431626">
        <time>2019-03-17T08:16:35.392000Z</time>
      </trkpt>
      <trkpt lat="35.95303189" lon="120.20431626">
        <time>2019-03-17T08:16:36.327000Z</time>
      </trkpt>
      <trkpt lat="35.95312359" lon="120.20426757">
        <time>2019-03-17T08:16:43.405000Z</time>
      </trkpt>
      <trkpt lat="35.95312359" lon="120.20426757">
        <time>2019-03-17T08:16:46.329000Z</time>
      </trkpt>
      <trkpt lat="35.95321564" lon="120.20426309">
        <time>2019-03-17T08:16:47.400000Z</time>
      </trkpt>
      <trkpt lat="35.95330811" lon="120.20425143">
        <time>2019-03-17T08:16:51.401000Z</time>
      </trkpt>
      <trkpt lat="35.95341029" lon="120.20423874">
        <time>2019-03-17T08:16:55.414000Z</time>
      </trkpt>
      <trkpt lat="35.9535053" lon="120.20420849">
        <time>2019-03-17T08:16:59.393000Z</time>
      </trkpt>
      <trkpt lat="35.95359859" lon="120.20419535">
        <time>2019-03-17T08:17:03.385000Z</time>
      </trkpt>
      <trkpt lat="35.95369166" lon="120.20418481">
        <time>2019-03-17T08:17:07.607000Z</time>
      </trkpt>
      <trkpt lat="35.95379786" lon="120.20417331">
        <time>2019-03-17T08:17:12.402000Z</time>
      </trkpt>
      <trkpt lat="35.95389606" lon="120.20417097">
        <time>2019-03-17T08:17:16.403000Z</time>
      </trkpt>
      <trkpt lat="35.95400938" lon="120.20416672">
        <time>2019-03-17T08:17:20.401000Z</time>
      </trkpt>
      <trkpt lat="35.95410697" lon="120.20415254">
        <time>2019-03-17T08:17:24.401000Z</time>
      </trkpt>
      <trkpt lat="35.95420789" lon="120.20414634">
        <time>2019-03-17T08:17:28.393000Z</time>
      </trkpt>
      <trkpt lat="35.95420789" lon="120.20414634">
        <time>2019-03-17T08:17:32.839000Z</time>
      </trkpt>
      <trkpt lat="35.95429999" lon="120.204142">
        <time>2019-03-17T08:17:33.386000Z</time>
      </trkpt>
      <trkpt lat="35.95440132" lon="120.20413799">
        <time>2019-03-17T08:17:40.385000Z</time>
      </trkpt>
      <trkpt lat="35.95440132" lon="120.20413799">
        <time>2019-03-17T08:17:43.359000Z</time>
      </trkpt>
      <trkpt lat="35.95450168" lon="120.20413103">
        <time>2019-03-17T08:17:45.391000Z</time>
      </trkpt>
      <trkpt lat="35.9546122" lon="120.20411202">
        <time>2019-03-17T08:17:50.390000Z</time>
      </trkpt>
      <trkpt lat="35.95470737" lon="120.20409086">
        <time>2019-03-17T08:17:54.396000Z</time>
      </trkpt>
      <trkpt lat="35.95480204" lon="120.20405283">
        <time>2019-03-17T08:17:58.392000Z</time>
      </trkpt>
      <trkpt lat="35.95489716" lon="120.20406595">
        <time>2019-03-17T08:18:02.396000Z</time>
      </trkpt>
      <trkpt lat="35.95498627" lon="120.20411843">
        <time>2019-03-17T08:18:06.387000Z</time>
      </trkpt>
      <trkpt lat="35.95498627" lon="120.20411843">
        <time>2019-03-17T08:18:10.865000Z</time>
      </trkpt>
      <trkpt lat="35.95505915" lon="120.20420613">
        <time>2019-03-17T08:18:13.393000Z</time>
      </trkpt>
      <trkpt lat="35.95509414" lon="120.20430984">
        <time>2019-03-17T08:18:20.390000Z</time>
      </trkpt>
      <trkpt lat="35.95510945" lon="120.20443546">
        <time>2019-03-17T08:18:27.396000Z</time>
      </trkpt>
      <trkpt lat="35.95511091" lon="120.20445024">
        <time>2019-03-17T08:18:28.638000Z</time>
      </trkpt>
    </trkseg>
  </trk>
</gpx>