<?xml version="1.0" encoding="UTF-8"?>
<gpx xmlns="http://www.topografix.com/GPX/1/1" xmlns:gpxtpx="http://www.garmin.com/xmlschemas/TrackPointExtension/v1" xmlns:xsi="http://www.w3.org/2001/XMLSchema-instance" xsi:schemaLocation="http://www.topografix.com/GPX/1/1 http://www.topografix.com/GPX/1/1/gpx.xsd" version="1.1" creator="gpx.py -- https://github.com/tkrajina/gpxpy">
  <trk>
    <name>Sunday Morning Run</name>
    <trkseg>
      <trkpt lat="35.93404684" lon="120.16879475">
        <time>2019-03-23T22:43:45.298000Z</time>
      </trkpt>
      <trkpt lat="35.93404684" lon="120.16879475">
        <time>2019-03-23T22:43:49.304000Z</time>
      </trkpt>
      <trkpt lat="35.93404684" lon="120.16879475">
        <time>2019-03-23T22:44:09.297000Z</time>
      </trkpt>
      <trkpt lat="35.93404684" lon="120.16879475">
        <time>2019-03-23T22:44:09.306000Z</time>
      </trkpt>
      <trkpt lat="35.93413939" lon="120.16880201">
        <time>2019-03-23T22:44:12.304000Z</time>
      </trkpt>
      <trkpt lat="35.93425567" lon="120.16885528">
        <time>2019-03-23T22:44:18.322000Z</time>
      </trkpt>
      <trkpt lat="35.9343486" lon="120.16888196">
        <time>2019-03-23T22:44:21.316000Z</time>
      </trkpt>
      <trkpt lat="35.93441916" lon="120.16899689">
        <time>2019-03-23T22:44:26.321000Z</time>
      </trkpt>
      <trkpt lat="35.93443452" lon="120.16910974">
        <time>2019-03-23T22:44:29.312000Z</time>
      </trkpt>
      <trkpt lat="35.93445588" lon="120.16922124">
        <time>2019-03-23T22:44:32.298000Z</time>
      </trkpt>
      <trkpt lat="35.93449132" lon="120.16933289">
        <time>2019-03-23T22:44:35.324000Z</time>
      </trkpt>
      <trkpt lat="35.93455589" lon="120.16943585">
        <time>2019-03-23T22:44:38.323000Z</time>
      </trkpt>
      <trkpt lat="35.93462387" lon="120.16954234">
        <time>2019-03-23T22:44:42.325000Z</time>
      </trkpt>
      <trkpt lat="35.93469494" lon="120.1696508">
        <time>2019-03-23T22:44:46.299000Z</time>
      </trkpt>
      <trkpt lat="35.93469494" lon="120.1696508">
        <time>2019-03-23T22:44:50.989000Z</time>
      </trkpt>
      <trkpt lat="35.93469494" lon="120.1696508">
        <time>2019-03-23T22:45:42.297000Z</time>
      </trkpt>
      <trkpt lat="35.93483587" lon="120.16970856">
        <time>2019-03-23T22:45:42.336000Z</time>
      </trkpt>
      <trkpt lat="35.93490296" lon="120.16980536">
        <time>2019-03-23T22:45:47.311000Z</time>
      </trkpt>
      <trkpt lat="35.93490296" lon="120.16980536">
        <time>2019-03-23T22:45:51.326000Z</time>
      </trkpt>
      <trkpt lat="35.93531516" lon="120.1700999">
        <time>2019-03-23T22:46:06.324000Z</time>
      </trkpt>
      <trkpt lat="35.93539812" lon="120.17015661">
        <time>2019-03-23T22:46:10.492000Z</time>
      </trkpt>
      <trkpt lat="35.93547929" lon="120.17020876">
        <time>2019-03-23T22:46:14.323000Z</time>
      </trkpt>
      <trkpt lat="35.93556363" lon="120.17025864">
        <time>2019-03-23T22:46:18.309000Z</time>
      </trkpt>
      <trkpt lat="35.93563871" lon="120.17032892">
        <time>2019-03-23T22:46:22.316000Z</time>
      </trkpt>
      <trkpt lat="35.93572071" lon="120.170408">
        <time>2019-03-23T22:46:26.320000Z</time>
      </trkpt>
      <trkpt lat="35.93578331" lon="120.17049485">
        <time>2019-03-23T22:46:30.322000Z</time>
      </trkpt>
      <trkpt lat="35.93585641" lon="120.17060001">
        <time>2019-03-23T22:46:34.315000Z</time>
      </trkpt>
      <trkpt lat="35.93590307" lon="120.1706988">
        <time>2019-03-23T22:46:37.317000Z</time>
      </trkpt>
      <trkpt lat="35.93594797" lon="120.17082597">
        <time>2019-03-23T22:46:41.326000Z</time>
      </trkpt>
      <trkpt lat="35.93599226" lon="120.17095465">
        <time>2019-03-23T22:46:45.327000Z</time>
      </trkpt>
      <trkpt lat="35.93605027" lon="120.17106849">
        <time>2019-03-23T22:46:49.306000Z</time>
      </trkpt>
      <trkpt lat="35.93605027" lon="120.17106849">
        <time>2019-03-23T22:46:55.029000Z</time>
      </trkpt>
      <trkpt lat="35.93608239" lon="120.17118095">
        <time>2019-03-23T22:46:55.327000Z</time>
      </trkpt>
      <trkpt lat="35.93608239" lon="120.17118095">
        <time>2019-03-23T22:47:46.305000Z</time>
      </trkpt>
      <trkpt lat="35.93608239" lon="120.17118095">
        <time>2019-03-23T22:47:46.321000Z</time>
      </trkpt>
      <trkpt lat="35.9361543" lon="120.17127261">
        <time>2019-03-23T22:47:49.317000Z</time>
      </trkpt>
      <trkpt lat="35.93618882" lon="120.17139675">
        <time>2019-03-23T22:47:54.312000Z</time>
      </trkpt>
      <trkpt lat="35.93618882" lon="120.17139675">
        <time>2019-03-23T22:47:56.044000Z</time>
      </trkpt>
      <trkpt lat="35.93622739" lon="120.17150952">
        <time>2019-03-23T22:47:58.305000Z</time>
      </trkpt>
      <trkpt lat="35.93625996" lon="120.17163765">
        <time>2019-03-23T22:48:02.312000Z</time>
      </trkpt>
      <trkpt lat="35.93630025" lon="120.17176365">
        <time>2019-03-23T22:48:06.304000Z</time>
      </trkpt>
      <trkpt lat="35.93633552" lon="120.17189459">
        <time>2019-03-23T22:48:10.336000Z</time>
      </trkpt>
      <trkpt lat="35.9363732" lon="120.17200717">
        <time>2019-03-23T22:48:14.320000Z</time>
      </trkpt>
      <trkpt lat="35.9364093" lon="120.17212858">
        <time>2019-03-23T22:48:18.437000Z</time>
      </trkpt>
      <trkpt lat="35.93643018" lon="120.17224781">
        <time>2019-03-23T22:48:22.332000Z</time>
      </trkpt>
      <trkpt lat="35.9364521" lon="120.17236974">
        <time>2019-03-23T22:48:26.307000Z</time>
      </trkpt>
      <trkpt lat="35.93647773" lon="120.17250371">
        <time>2019-03-23T22:48:30.321000Z</time>
      </trkpt>
      <trkpt lat="35.93649227" lon="120.17263295">
        <time>2019-03-23T22:48:34.326000Z</time>
      </trkpt>
      <trkpt lat="35.93652459" lon="120.17274331">
        <time>2019-03-23T22:48:38.328000Z</time>
      </trkpt>
      <trkpt lat="35.93655227" lon="120.17286597">
        <time>2019-03-23T22:48:42.306000Z</time>
      </trkpt>
      <trkpt lat="35.93655227" lon="120.17286597">
        <time>2019-03-23T22:49:23.307000Z</time>
      </trkpt>
      <trkpt lat="35.9365543" lon="120.17299894">
        <time>2019-03-23T22:49:23.320000Z</time>
      </trkpt>
      <trkpt lat="35.93658247" lon="120.17311408">
        <time>2019-03-23T22:49:27.307000Z</time>
      </trkpt>
      <trkpt lat="35.93660576" lon="120.17323446">
        <time>2019-03-23T22:49:31.317000Z</time>
      </trkpt>
      <trkpt lat="35.93660576" lon="120.17323446">
        <time>2019-03-23T22:49:33.089000Z</time>
      </trkpt>
      <trkpt lat="35.93662265" lon="120.17335694">
        <time>2019-03-23T22:49:35.316000Z</time>
      </trkpt>
      <trkpt lat="35.93663734" lon="120.17347849">
        <time>2019-03-23T22:49:39.310000Z</time>
      </trkpt>
      <trkpt lat="35.93666495" lon="120.17360811">
        <time>2019-03-23T22:49:43.318000Z</time>
      </trkpt>
      <trkpt lat="35.93670032" lon="120.17371721">
        <time>2019-03-23T22:49:47.336000Z</time>
      </trkpt>
      <trkpt lat="35.9367364" lon="120.17385123">
        <time>2019-03-23T22:49:52.320000Z</time>
      </trkpt>
      <trkpt lat="35.93677336" lon="120.17397642">
        <time>2019-03-23T22:49:56.326000Z</time>
      </trkpt>
      <trkpt lat="35.93679622" lon="120.17408402">
        <time>2019-03-23T22:49:59.314000Z</time>
      </trkpt>
      <trkpt lat="35.93681713" lon="120.1741931">
        <time>2019-03-23T22:50:02.316000Z</time>
      </trkpt>
      <trkpt lat="35.9368383" lon="120.17430321">
        <time>2019-03-23T22:50:05.319000Z</time>
      </trkpt>
      <trkpt lat="35.93686207" lon="120.17441373">
        <time>2019-03-23T22:50:08.325000Z</time>
      </trkpt>
      <trkpt lat="35.93686207" lon="120.17441373">
        <time>2019-03-23T22:50:52.303000Z</time>
      </trkpt>
      <trkpt lat="35.93688856" lon="120.17455129">
        <time>2019-03-23T22:50:52.311000Z</time>
      </trkpt>
      <trkpt lat="35.93692758" lon="120.17467796">
        <time>2019-03-23T22:50:58.304000Z</time>
      </trkpt>
      <trkpt lat="35.93692758" lon="120.17467796">
        <time>2019-03-23T22:51:02.110000Z</time>
      </trkpt>
      <trkpt lat="35.93699995" lon="120.17476367">
        <time>2019-03-23T22:51:02.323000Z</time>
      </trkpt>
      <trkpt lat="35.93709123" lon="120.17483808">
        <time>2019-03-23T22:51:06.320000Z</time>
      </trkpt>
      <trkpt lat="35.93718532" lon="120.17489564">
        <time>2019-03-23T22:51:10.301000Z</time>
      </trkpt>
      <trkpt lat="35.93728841" lon="120.17493944">
        <time>2019-03-23T22:51:14.313000Z</time>
      </trkpt>
      <trkpt lat="35.9373812" lon="120.17499583">
        <time>2019-03-23T22:51:19.337000Z</time>
      </trkpt>
      <trkpt lat="35.93746694" lon="120.17507792">
        <time>2019-03-23T22:51:24.320000Z</time>
      </trkpt>
      <trkpt lat="35.93754549" lon="120.17514737">
        <time>2019-03-23T22:51:28.315000Z</time>
      </trkpt>
      <trkpt lat="35.93761965" lon="120.1752512">
        <time>2019-03-23T22:51:33.326000Z</time>
      </trkpt>
      <trkpt lat="35.9376911" lon="120.17535162">
        <time>2019-03-23T22:51:38.326000Z</time>
      </trkpt>
      <trkpt lat="35.93779886" lon="120.17540244">
        <time>2019-03-23T22:51:43.322000Z</time>
      </trkpt>
      <trkpt lat="35.93788768" lon="120.17547275">
        <time>2019-03-23T22:51:47.320000Z</time>
      </trkpt>
      <trkpt lat="35.93797479" lon="120.17554824">
        <time>2019-03-23T22:51:51.324000Z</time>
      </trkpt>
      <trkpt lat="35.93806356" lon="120.17560213">
        <time>2019-03-23T22:51:55.393000Z</time>
      </trkpt>
      <trkpt lat="35.93812841" lon="120.17570088">
        <time>2019-03-23T22:51:59.315000Z</time>
      </trkpt>
      <trkpt lat="35.93822106" lon="120.17575201">
        <time>2019-03-23T22:52:03.315000Z</time>
      </trkpt>
      <trkpt lat="35.93832353" lon="120.17571248">
        <time>2019-03-23T22:52:07.321000Z</time>
      </trkpt>
      <trkpt lat="35.93838715" lon="120.17580285">
        <time>2019-03-23T22:52:11.324000Z</time>
      </trkpt>
      <trkpt lat="35.93844756" lon="120.17589401">
        <time>2019-03-23T22:52:15.319000Z</time>
      </trkpt>
      <trkpt lat="35.93853659" lon="120.17595262">
        <time>2019-03-23T22:52:19.321000Z</time>
      </trkpt>
      <trkpt lat="35.93862839" lon="120.17600582">
        <time>2019-03-23T22:52:23.327000Z</time>
      </trkpt>
      <trkpt lat="35.93870212" lon="120.17607414">
        <time>2019-03-23T22:52:27.335000Z</time>
      </trkpt>
      <trkpt lat="35.93878347" lon="120.17613716">
        <time>2019-03-23T22:52:31.317000Z</time>
      </trkpt>
      <trkpt lat="35.93887318" lon="120.17620002">
        <time>2019-03-23T22:52:35.331000Z</time>
      </trkpt>
      <trkpt lat="35.93896759" lon="120.1762621">
        <time>2019-03-23T22:52:39.310000Z</time>
      </trkpt>
      <trkpt lat="35.93906993" lon="120.17628826">
        <time>2019-03-23T22:52:43.306000Z</time>
      </trkpt>
      <trkpt lat="35.93917088" lon="120.17626636">
        <time>2019-03-23T22:52:47.332000Z</time>
      </trkpt>
      <trkpt lat="35.93927116" lon="120.17628287">
        <time>2019-03-23T22:52:51.315000Z</time>
      </trkpt>
      <trkpt lat="35.93934477" lon="120.1763473">
        <time>2019-03-23T22:52:54.322000Z</time>
      </trkpt>
      <trkpt lat="35.939437" lon="120.17642797">
        <time>2019-03-23T22:52:58.317000Z</time>
      </trkpt>
      <trkpt lat="35.93953815" lon="120.17647563">
        <time>2019-03-23T22:53:02.315000Z</time>
      </trkpt>
      <trkpt lat="35.93960354" lon="120.17657432">
        <time>2019-03-23T22:53:06.324000Z</time>
      </trkpt>
      <trkpt lat="35.93960354" lon="120.17657432">
        <time>2019-03-23T22:53:11.732000Z</time>
      </trkpt>
    </trkseg>
  </trk>
</gpx>