<?xml version="1.0" encoding="UTF-8"?>
<gpx xmlns="http://www.topografix.com/GPX/1/1" xmlns:gpxtpx="http://www.garmin.com/xmlschemas/TrackPointExtension/v1" xmlns:xsi="http://www.w3.org/2001/XMLSchema-instance" xsi:schemaLocation="http://www.topografix.com/GPX/1/1 http://www.topografix.com/GPX/1/1/gpx.xsd" version="1.1" creator="gpx.py -- https://github.com/tkrajina/gpxpy">
  <trk>
    <name>Sunday Morning Run</name>
    <trkseg>
      <trkpt lat="35.94137792" lon="120.20927054">
        <time>2019-03-23T22:10:57.288000Z</time>
      </trkpt>
      <trkpt lat="35.94137792" lon="120.20927054">
        <time>2019-03-23T22:11:06.291000Z</time>
      </trkpt>
      <trkpt lat="35.94137792" lon="120.20927054">
        <time>2019-03-23T22:11:06.297000Z</time>
      </trkpt>
      <trkpt lat="35.94147205" lon="120.20926159">
        <time>2019-03-23T22:11:08.292000Z</time>
      </trkpt>
      <trkpt lat="35.94158479" lon="120.20929006">
        <time>2019-03-23T22:11:15.311000Z</time>
      </trkpt>
      <trkpt lat="35.94167951" lon="120.20928408">
        <time>2019-03-23T22:11:18.310000Z</time>
      </trkpt>
      <trkpt lat="35.94178087" lon="120.20933071">
        <time>2019-03-23T22:11:22.309000Z</time>
      </trkpt>
      <trkpt lat="35.94189205" lon="120.20929675">
        <time>2019-03-23T22:11:26.307000Z</time>
      </trkpt>
      <trkpt lat="35.94200326" lon="120.20930203">
        <time>2019-03-23T22:11:30.314000Z</time>
      </trkpt>
      <trkpt lat="35.94209475" lon="120.20929231">
        <time>2019-03-23T22:11:33.302000Z</time>
      </trkpt>
      <trkpt lat="35.94218462" lon="120.20929306">
        <time>2019-03-23T22:11:36.328000Z</time>
      </trkpt>
      <trkpt lat="35.94228865" lon="120.20921946">
        <time>2019-03-23T22:11:40.313000Z</time>
      </trkpt>
      <trkpt lat="35.94239181" lon="120.20920951">
        <time>2019-03-23T22:11:44.317000Z</time>
      </trkpt>
      <trkpt lat="35.9425587" lon="120.20890454">
        <time>2019-03-23T22:11:48.323000Z</time>
      </trkpt>
      <trkpt lat="35.94266654" lon="120.20891478">
        <time>2019-03-23T22:11:52.308000Z</time>
      </trkpt>
      <trkpt lat="35.94276395" lon="120.2089108">
        <time>2019-03-23T22:11:55.316000Z</time>
      </trkpt>
      <trkpt lat="35.94286904" lon="120.20891741">
        <time>2019-03-23T22:11:58.305000Z</time>
      </trkpt>
      <trkpt lat="35.94296097" lon="120.2089073">
        <time>2019-03-23T22:12:01.295000Z</time>
      </trkpt>
      <trkpt lat="35.94296097" lon="120.2089073">
        <time>2019-03-23T22:12:04.297000Z</time>
      </trkpt>
      <trkpt lat="35.94305529" lon="120.20889828">
        <time>2019-03-23T22:12:06.314000Z</time>
      </trkpt>
      <trkpt lat="35.94314935" lon="120.20888113">
        <time>2019-03-23T22:12:09.312000Z</time>
      </trkpt>
      <trkpt lat="35.94325387" lon="120.20884948">
        <time>2019-03-23T22:12:12.302000Z</time>
      </trkpt>
      <trkpt lat="35.94325387" lon="120.20884948">
        <time>2019-03-23T22:12:14.301000Z</time>
      </trkpt>
      <trkpt lat="35.94334835" lon="120.20880674">
        <time>2019-03-23T22:12:15.304000Z</time>
      </trkpt>
      <trkpt lat="35.94344682" lon="120.208755">
        <time>2019-03-23T22:12:20.312000Z</time>
      </trkpt>
      <trkpt lat="35.9435367" lon="120.20875376">
        <time>2019-03-23T22:12:23.303000Z</time>
      </trkpt>
      <trkpt lat="35.94363025" lon="120.20875913">
        <time>2019-03-23T22:12:26.315000Z</time>
      </trkpt>
      <trkpt lat="35.94372723" lon="120.20875045">
        <time>2019-03-23T22:12:29.302000Z</time>
      </trkpt>
      <trkpt lat="35.94382621" lon="120.20877007">
        <time>2019-03-23T22:12:32.314000Z</time>
      </trkpt>
      <trkpt lat="35.94392556" lon="120.20880595">
        <time>2019-03-23T22:12:35.310000Z</time>
      </trkpt>
      <trkpt lat="35.94402241" lon="120.20884512">
        <time>2019-03-23T22:12:38.310000Z</time>
      </trkpt>
      <trkpt lat="35.94411614" lon="120.20890403">
        <time>2019-03-23T22:12:41.321000Z</time>
      </trkpt>
      <trkpt lat="35.94422194" lon="120.2089066">
        <time>2019-03-23T22:12:44.317000Z</time>
      </trkpt>
      <trkpt lat="35.9443184" lon="120.2089089">
        <time>2019-03-23T22:12:47.310000Z</time>
      </trkpt>
      <trkpt lat="35.94441359" lon="120.20890689">
        <time>2019-03-23T22:12:50.311000Z</time>
      </trkpt>
      <trkpt lat="35.94450452" lon="120.20889134">
        <time>2019-03-23T22:12:53.325000Z</time>
      </trkpt>
      <trkpt lat="35.94462081" lon="120.20886418">
        <time>2019-03-23T22:12:57.324000Z</time>
      </trkpt>
      <trkpt lat="35.94474001" lon="120.20884209">
        <time>2019-03-23T22:13:01.293000Z</time>
      </trkpt>
      <trkpt lat="35.94484525" lon="120.20881955">
        <time>2019-03-23T22:13:05.294000Z</time>
      </trkpt>
      <trkpt lat="35.94493894" lon="120.20879114">
        <time>2019-03-23T22:13:09.308000Z</time>
      </trkpt>
      <trkpt lat="35.94503987" lon="120.20878383">
        <time>2019-03-23T22:13:13.303000Z</time>
      </trkpt>
      <trkpt lat="35.94514067" lon="120.20881551">
        <time>2019-03-23T22:13:17.313000Z</time>
      </trkpt>
      <trkpt lat="35.94525313" lon="120.20880574">
        <time>2019-03-23T22:13:21.312000Z</time>
      </trkpt>
      <trkpt lat="35.94535737" lon="120.20880093">
        <time>2019-03-23T22:13:25.313000Z</time>
      </trkpt>
      <trkpt lat="35.94546271" lon="120.20877869">
        <time>2019-03-23T22:13:29.311000Z</time>
      </trkpt>
      <trkpt lat="35.94557732" lon="120.20876606">
        <time>2019-03-23T22:13:33.298000Z</time>
      </trkpt>
      <trkpt lat="35.94569418" lon="120.20874998">
        <time>2019-03-23T22:13:37.311000Z</time>
      </trkpt>
      <trkpt lat="35.94581105" lon="120.20872397">
        <time>2019-03-23T22:13:41.320000Z</time>
      </trkpt>
      <trkpt lat="35.94590252" lon="120.20871756">
        <time>2019-03-23T22:13:44.312000Z</time>
      </trkpt>
      <trkpt lat="35.94599739" lon="120.20871029">
        <time>2019-03-23T22:13:47.312000Z</time>
      </trkpt>
      <trkpt lat="35.9461124" lon="120.20869177">
        <time>2019-03-23T22:13:51.307000Z</time>
      </trkpt>
      <trkpt lat="35.94622497" lon="120.20870195">
        <time>2019-03-23T22:13:55.324000Z</time>
      </trkpt>
      <trkpt lat="35.94633042" lon="120.20868418">
        <time>2019-03-23T22:13:59.306000Z</time>
      </trkpt>
      <trkpt lat="35.94643555" lon="120.20866088">
        <time>2019-03-23T22:14:03.323000Z</time>
      </trkpt>
      <trkpt lat="35.94653227" lon="120.20864798">
        <time>2019-03-23T22:14:07.310000Z</time>
      </trkpt>
      <trkpt lat="35.94662827" lon="120.20862766">
        <time>2019-03-23T22:14:11.311000Z</time>
      </trkpt>
      <trkpt lat="35.94672844" lon="120.2086124">
        <time>2019-03-23T22:14:15.316000Z</time>
      </trkpt>
      <trkpt lat="35.9468366" lon="120.20860037">
        <time>2019-03-23T22:14:19.309000Z</time>
      </trkpt>
      <trkpt lat="35.94694599" lon="120.20857282">
        <time>2019-03-23T22:14:23.302000Z</time>
      </trkpt>
      <trkpt lat="35.94695401" lon="120.20844483">
        <time>2019-03-23T22:14:27.308000Z</time>
      </trkpt>
      <trkpt lat="35.9469455" lon="120.20830181">
        <time>2019-03-23T22:14:31.322000Z</time>
      </trkpt>
      <trkpt lat="35.94695273" lon="120.20816575">
        <time>2019-03-23T22:14:35.325000Z</time>
      </trkpt>
      <trkpt lat="35.94694838" lon="120.20804083">
        <time>2019-03-23T22:14:39.306000Z</time>
      </trkpt>
      <trkpt lat="35.94693397" lon="120.20791861">
        <time>2019-03-23T22:14:43.306000Z</time>
      </trkpt>
      <trkpt lat="35.94691423" lon="120.20777989">
        <time>2019-03-23T22:14:47.299000Z</time>
      </trkpt>
      <trkpt lat="35.94691447" lon="120.2076682">
        <time>2019-03-23T22:14:50.306000Z</time>
      </trkpt>
      <trkpt lat="35.94691498" lon="120.20755233">
        <time>2019-03-23T22:14:53.318000Z</time>
      </trkpt>
      <trkpt lat="35.94690476" lon="120.20743625">
        <time>2019-03-23T22:14:56.309000Z</time>
      </trkpt>
      <trkpt lat="35.94689" lon="120.2073017">
        <time>2019-03-23T22:15:00.298000Z</time>
      </trkpt>
      <trkpt lat="35.94688583" lon="120.20717283">
        <time>2019-03-23T22:15:04.305000Z</time>
      </trkpt>
      <trkpt lat="35.94693063" lon="120.20705228">
        <time>2019-03-23T22:15:08.322000Z</time>
      </trkpt>
      <trkpt lat="35.94698734" lon="120.20693934">
        <time>2019-03-23T22:15:12.308000Z</time>
      </trkpt>
      <trkpt lat="35.9470303" lon="120.2068259">
        <time>2019-03-23T22:15:16.307000Z</time>
      </trkpt>
      <trkpt lat="35.94707583" lon="120.20670004">
        <time>2019-03-23T22:15:20.313000Z</time>
      </trkpt>
      <trkpt lat="35.94712445" lon="120.20660495">
        <time>2019-03-23T22:15:23.299000Z</time>
      </trkpt>
      <trkpt lat="35.9471839" lon="120.20647892">
        <time>2019-03-23T22:15:27.306000Z</time>
      </trkpt>
      <trkpt lat="35.94722619" lon="120.20637139">
        <time>2019-03-23T22:15:30.311000Z</time>
      </trkpt>
      <trkpt lat="35.94727534" lon="120.20627487">
        <time>2019-03-23T22:15:33.317000Z</time>
      </trkpt>
      <trkpt lat="35.94732248" lon="120.20615399">
        <time>2019-03-23T22:15:37.309000Z</time>
      </trkpt>
      <trkpt lat="35.94736768" lon="120.20603131">
        <time>2019-03-23T22:15:41.307000Z</time>
      </trkpt>
      <trkpt lat="35.94741007" lon="120.20589517">
        <time>2019-03-23T22:15:45.330000Z</time>
      </trkpt>
      <trkpt lat="35.94746792" lon="120.20576777">
        <time>2019-03-23T22:15:49.300000Z</time>
      </trkpt>
      <trkpt lat="35.94751688" lon="120.20563736">
        <time>2019-03-23T22:15:53.329000Z</time>
      </trkpt>
      <trkpt lat="35.94756162" lon="120.20550679">
        <time>2019-03-23T22:15:57.311000Z</time>
      </trkpt>
      <trkpt lat="35.94760615" lon="120.20538214">
        <time>2019-03-23T22:16:01.325000Z</time>
      </trkpt>
      <trkpt lat="35.94763773" lon="120.20527762">
        <time>2019-03-23T22:16:04.306000Z</time>
      </trkpt>
      <trkpt lat="35.94768839" lon="120.20517736">
        <time>2019-03-23T22:16:07.361000Z</time>
      </trkpt>
      <trkpt lat="35.94775005" lon="120.20507576">
        <time>2019-03-23T22:16:10.321000Z</time>
      </trkpt>
      <trkpt lat="35.94780127" lon="120.20497457">
        <time>2019-03-23T22:16:13.316000Z</time>
      </trkpt>
      <trkpt lat="35.94784758" lon="120.20484876">
        <time>2019-03-23T22:16:17.294000Z</time>
      </trkpt>
      <trkpt lat="35.94784758" lon="120.20484876">
        <time>2019-03-23T22:16:18.891000Z</time>
      </trkpt>
      <trkpt lat="35.94786416" lon="120.20472886">
        <time>2019-03-23T22:16:20.321000Z</time>
      </trkpt>
      <trkpt lat="35.94788188" lon="120.20461108">
        <time>2019-03-23T22:16:23.296000Z</time>
      </trkpt>
      <trkpt lat="35.9478824" lon="120.20449814">
        <time>2019-03-23T22:16:26.313000Z</time>
      </trkpt>
      <trkpt lat="35.94786949" lon="120.20438374">
        <time>2019-03-23T22:16:29.305000Z</time>
      </trkpt>
      <trkpt lat="35.94786949" lon="120.20438374">
        <time>2019-03-23T22:16:31.910000Z</time>
      </trkpt>
      <trkpt lat="35.94785035" lon="120.20427171">
        <time>2019-03-23T22:16:32.320000Z</time>
      </trkpt>
      <trkpt lat="35.94782282" lon="120.20416089">
        <time>2019-03-23T22:16:35.318000Z</time>
      </trkpt>
      <trkpt lat="35.9477796" lon="120.20406243">
        <time>2019-03-23T22:16:38.330000Z</time>
      </trkpt>
      <trkpt lat="35.94773743" lon="120.20392488">
        <time>2019-03-23T22:16:42.328000Z</time>
      </trkpt>
      <trkpt lat="35.94772373" lon="120.20380157">
        <time>2019-03-23T22:16:45.317000Z</time>
      </trkpt>
      <trkpt lat="35.94771893" lon="120.20367305">
        <time>2019-03-23T22:16:48.310000Z</time>
      </trkpt>
      <trkpt lat="35.94770929" lon="120.20355701">
        <time>2019-03-23T22:16:51.302000Z</time>
      </trkpt>
      <trkpt lat="35.94768976" lon="120.20344713">
        <time>2019-03-23T22:16:54.309000Z</time>
      </trkpt>
      <trkpt lat="35.94767215" lon="120.20333732">
        <time>2019-03-23T22:16:57.315000Z</time>
      </trkpt>
      <trkpt lat="35.94766646" lon="120.20318914">
        <time>2019-03-23T22:17:01.315000Z</time>
      </trkpt>
      <trkpt lat="35.94767467" lon="120.20307312">
        <time>2019-03-23T22:17:04.323000Z</time>
      </trkpt>
      <trkpt lat="35.94768222" lon="120.20292908">
        <time>2019-03-23T22:17:08.312000Z</time>
      </trkpt>
      <trkpt lat="35.9477022" lon="120.20279975">
        <time>2019-03-23T22:17:12.317000Z</time>
      </trkpt>
      <trkpt lat="35.94777592" lon="120.20269222">
        <time>2019-03-23T22:17:16.319000Z</time>
      </trkpt>
      <trkpt lat="35.94777677" lon="120.20255303">
        <time>2019-03-23T22:17:20.314000Z</time>
      </trkpt>
      <trkpt lat="35.94776551" lon="120.20241964">
        <time>2019-03-23T22:17:24.311000Z</time>
      </trkpt>
      <trkpt lat="35.94774847" lon="120.20228219">
        <time>2019-03-23T22:17:28.314000Z</time>
      </trkpt>
      <trkpt lat="35.94771983" lon="120.20217471">
        <time>2019-03-23T22:17:31.310000Z</time>
      </trkpt>
      <trkpt lat="35.9476492" lon="120.2020631">
        <time>2019-03-23T22:17:35.309000Z</time>
      </trkpt>
      <trkpt lat="35.94758903" lon="120.20197907">
        <time>2019-03-23T22:17:38.302000Z</time>
      </trkpt>
      <trkpt lat="35.94756498" lon="120.20186786">
        <time>2019-03-23T22:17:41.313000Z</time>
      </trkpt>
      <trkpt lat="35.94752577" lon="120.20174468">
        <time>2019-03-23T22:17:45.313000Z</time>
      </trkpt>
      <trkpt lat="35.94749673" lon="120.201617">
        <time>2019-03-23T22:17:49.306000Z</time>
      </trkpt>
      <trkpt lat="35.94745277" lon="120.20149154">
        <time>2019-03-23T22:17:53.305000Z</time>
      </trkpt>
      <trkpt lat="35.94741554" lon="120.20139034">
        <time>2019-03-23T22:17:56.321000Z</time>
      </trkpt>
      <trkpt lat="35.9473719" lon="120.20125391">
        <time>2019-03-23T22:18:00.309000Z</time>
      </trkpt>
      <trkpt lat="35.94733214" lon="120.20111401">
        <time>2019-03-23T22:18:04.315000Z</time>
      </trkpt>
      <trkpt lat="35.94728696" lon="120.20097985">
        <time>2019-03-23T22:18:08.314000Z</time>
      </trkpt>
      <trkpt lat="35.94724088" lon="120.20085672">
        <time>2019-03-23T22:18:12.313000Z</time>
      </trkpt>
      <trkpt lat="35.94719316" lon="120.20076167">
        <time>2019-03-23T22:18:15.300000Z</time>
      </trkpt>
      <trkpt lat="35.94714704" lon="120.20066043">
        <time>2019-03-23T22:18:18.311000Z</time>
      </trkpt>
      <trkpt lat="35.94710266" lon="120.20053715">
        <time>2019-03-23T22:18:22.306000Z</time>
      </trkpt>
      <trkpt lat="35.94706408" lon="120.20041326">
        <time>2019-03-23T22:18:26.317000Z</time>
      </trkpt>
      <trkpt lat="35.9470181" lon="120.20027725">
        <time>2019-03-23T22:18:30.398000Z</time>
      </trkpt>
      <trkpt lat="35.94698472" lon="120.20017201">
        <time>2019-03-23T22:18:33.318000Z</time>
      </trkpt>
      <trkpt lat="35.94695721" lon="120.20006398">
        <time>2019-03-23T22:18:36.306000Z</time>
      </trkpt>
      <trkpt lat="35.94692514" lon="120.19995395">
        <time>2019-03-23T22:18:39.302000Z</time>
      </trkpt>
      <trkpt lat="35.94687221" lon="120.1998256">
        <time>2019-03-23T22:18:43.305000Z</time>
      </trkpt>
      <trkpt lat="35.94684483" lon="120.19968583">
        <time>2019-03-23T22:18:47.311000Z</time>
      </trkpt>
      <trkpt lat="35.946831" lon="120.19956919">
        <time>2019-03-23T22:18:50.315000Z</time>
      </trkpt>
      <trkpt lat="35.94679668" lon="120.19943153">
        <time>2019-03-23T22:18:54.402000Z</time>
      </trkpt>
      <trkpt lat="35.94676356" lon="120.19930339">
        <time>2019-03-23T22:18:58.309000Z</time>
      </trkpt>
      <trkpt lat="35.94673989" lon="120.19919263">
        <time>2019-03-23T22:19:01.309000Z</time>
      </trkpt>
      <trkpt lat="35.9466986" lon="120.19905713">
        <time>2019-03-23T22:19:05.313000Z</time>
      </trkpt>
      <trkpt lat="35.94666058" lon="120.19891698">
        <time>2019-03-23T22:19:09.325000Z</time>
      </trkpt>
      <trkpt lat="35.94665371" lon="120.19879628">
        <time>2019-03-23T22:19:12.306000Z</time>
      </trkpt>
      <trkpt lat="35.94665639" lon="120.19868495">
        <time>2019-03-23T22:19:15.322000Z</time>
      </trkpt>
      <trkpt lat="35.94669218" lon="120.19854366">
        <time>2019-03-23T22:19:19.319000Z</time>
      </trkpt>
      <trkpt lat="35.94671074" lon="120.19843313">
        <time>2019-03-23T22:19:22.318000Z</time>
      </trkpt>
      <trkpt lat="35.94668313" lon="120.19832677">
        <time>2019-03-23T22:19:25.315000Z</time>
      </trkpt>
      <trkpt lat="35.9466516" lon="120.19822063">
        <time>2019-03-23T22:19:28.308000Z</time>
      </trkpt>
      <trkpt lat="35.94659053" lon="120.19813879">
        <time>2019-03-23T22:19:31.335000Z</time>
      </trkpt>
      <trkpt lat="35.94651732" lon="120.19807299">
        <time>2019-03-23T22:19:34.301000Z</time>
      </trkpt>
      <trkpt lat="35.94643725" lon="120.19801564">
        <time>2019-03-23T22:19:37.320000Z</time>
      </trkpt>
      <trkpt lat="35.94635067" lon="120.19797229">
        <time>2019-03-23T22:19:40.347000Z</time>
      </trkpt>
      <trkpt lat="35.94624238" lon="120.19791205">
        <time>2019-03-23T22:19:44.320000Z</time>
      </trkpt>
      <trkpt lat="35.94615793" lon="120.19782415">
        <time>2019-03-23T22:19:48.314000Z</time>
      </trkpt>
      <trkpt lat="35.94606938" lon="120.19774343">
        <time>2019-03-23T22:19:52.307000Z</time>
      </trkpt>
      <trkpt lat="35.94599851" lon="120.19766581">
        <time>2019-03-23T22:19:55.309000Z</time>
      </trkpt>
      <trkpt lat="35.94591886" lon="120.19755944">
        <time>2019-03-23T22:19:59.314000Z</time>
      </trkpt>
      <trkpt lat="35.94586206" lon="120.19747184">
        <time>2019-03-23T22:20:02.526000Z</time>
      </trkpt>
      <trkpt lat="35.94577719" lon="120.19740823">
        <time>2019-03-23T22:20:05.320000Z</time>
      </trkpt>
      <trkpt lat="35.94569042" lon="120.19736048">
        <time>2019-03-23T22:20:08.315000Z</time>
      </trkpt>
      <trkpt lat="35.94559159" lon="120.19728985">
        <time>2019-03-23T22:20:12.302000Z</time>
      </trkpt>
      <trkpt lat="35.94550531" lon="120.19719925">
        <time>2019-03-23T22:20:16.335000Z</time>
      </trkpt>
      <trkpt lat="35.94544176" lon="120.1970944">
        <time>2019-03-23T22:20:20.311000Z</time>
      </trkpt>
      <trkpt lat="35.94536789" lon="120.19699008">
        <time>2019-03-23T22:20:24.311000Z</time>
      </trkpt>
      <trkpt lat="35.94530702" lon="120.19687242">
        <time>2019-03-23T22:20:28.318000Z</time>
      </trkpt>
      <trkpt lat="35.9452844" lon="120.1967578">
        <time>2019-03-23T22:20:31.316000Z</time>
      </trkpt>
      <trkpt lat="35.94526392" lon="120.19661686">
        <time>2019-03-23T22:20:35.310000Z</time>
      </trkpt>
      <trkpt lat="35.94527036" lon="120.19647837">
        <time>2019-03-23T22:20:39.322000Z</time>
      </trkpt>
      <trkpt lat="35.94527128" lon="120.19636472">
        <time>2019-03-23T22:20:42.317000Z</time>
      </trkpt>
      <trkpt lat="35.94528584" lon="120.1962529">
        <time>2019-03-23T22:20:45.316000Z</time>
      </trkpt>
      <trkpt lat="35.94532414" lon="120.19612165">
        <time>2019-03-23T22:20:49.327000Z</time>
      </trkpt>
      <trkpt lat="35.94536765" lon="120.19601498">
        <time>2019-03-23T22:20:52.311000Z</time>
      </trkpt>
      <trkpt lat="35.94541155" lon="120.19589961">
        <time>2019-03-23T22:20:55.311000Z</time>
      </trkpt>
      <trkpt lat="35.94543737" lon="120.19578377">
        <time>2019-03-23T22:20:58.320000Z</time>
      </trkpt>
      <trkpt lat="35.94545772" lon="120.19563895">
        <time>2019-03-23T22:21:02.326000Z</time>
      </trkpt>
      <trkpt lat="35.94545881" lon="120.19552296">
        <time>2019-03-23T22:21:05.318000Z</time>
      </trkpt>
      <trkpt lat="35.94544578" lon="120.195411">
        <time>2019-03-23T22:21:08.325000Z</time>
      </trkpt>
      <trkpt lat="35.94543895" lon="120.1952977">
        <time>2019-03-23T22:21:11.311000Z</time>
      </trkpt>
      <trkpt lat="35.945433" lon="120.19517848">
        <time>2019-03-23T22:21:14.314000Z</time>
      </trkpt>
      <trkpt lat="35.94543219" lon="120.19505036">
        <time>2019-03-23T22:21:18.367000Z</time>
      </trkpt>
      <trkpt lat="35.94541508" lon="120.19491604">
        <time>2019-03-23T22:21:22.297000Z</time>
      </trkpt>
      <trkpt lat="35.94543196" lon="120.19477734">
        <time>2019-03-23T22:21:26.321000Z</time>
      </trkpt>
      <trkpt lat="35.94545057" lon="120.19463941">
        <time>2019-03-23T22:21:30.307000Z</time>
      </trkpt>
      <trkpt lat="35.94547529" lon="120.19452912">
        <time>2019-03-23T22:21:33.321000Z</time>
      </trkpt>
      <trkpt lat="35.94551429" lon="120.19442663">
        <time>2019-03-23T22:21:36.307000Z</time>
      </trkpt>
      <trkpt lat="35.94556178" lon="120.19429539">
        <time>2019-03-23T22:21:40.310000Z</time>
      </trkpt>
      <trkpt lat="35.94563022" lon="120.19418171">
        <time>2019-03-23T22:21:44.329000Z</time>
      </trkpt>
      <trkpt lat="35.94573414" lon="120.19412879">
        <time>2019-03-23T22:21:48.310000Z</time>
      </trkpt>
      <trkpt lat="35.94583667" lon="120.19409075">
        <time>2019-03-23T22:21:52.322000Z</time>
      </trkpt>
      <trkpt lat="35.94592665" lon="120.19402429">
        <time>2019-03-23T22:21:56.306000Z</time>
      </trkpt>
      <trkpt lat="35.94597149" lon="120.19390374">
        <time>2019-03-23T22:22:00.332000Z</time>
      </trkpt>
      <trkpt lat="35.94600492" lon="120.19377217">
        <time>2019-03-23T22:22:04.557000Z</time>
      </trkpt>
      <trkpt lat="35.94600893" lon="120.19365857">
        <time>2019-03-23T22:22:07.307000Z</time>
      </trkpt>
      <trkpt lat="35.94600857" lon="120.19354384">
        <time>2019-03-23T22:22:10.316000Z</time>
      </trkpt>
      <trkpt lat="35.94599458" lon="120.19343095">
        <time>2019-03-23T22:22:13.311000Z</time>
      </trkpt>
      <trkpt lat="35.94598229" lon="120.19329305">
        <time>2019-03-23T22:22:17.324000Z</time>
      </trkpt>
      <trkpt lat="35.94598351" lon="120.19316266">
        <time>2019-03-23T22:22:21.321000Z</time>
      </trkpt>
      <trkpt lat="35.94597854" lon="120.19303003">
        <time>2019-03-23T22:22:25.317000Z</time>
      </trkpt>
      <trkpt lat="35.94596312" lon="120.19288949">
        <time>2019-03-23T22:22:29.315000Z</time>
      </trkpt>
      <trkpt lat="35.94595562" lon="120.19274623">
        <time>2019-03-23T22:22:33.313000Z</time>
      </trkpt>
      <trkpt lat="35.94594107" lon="120.19260318">
        <time>2019-03-23T22:22:37.320000Z</time>
      </trkpt>
      <trkpt lat="35.945933" lon="120.19247053">
        <time>2019-03-23T22:22:41.302000Z</time>
      </trkpt>
      <trkpt lat="35.94592213" lon="120.19234504">
        <time>2019-03-23T22:22:45.320000Z</time>
      </trkpt>
      <trkpt lat="35.94589182" lon="120.19222445">
        <time>2019-03-23T22:22:49.326000Z</time>
      </trkpt>
      <trkpt lat="35.94586134" lon="120.19209775">
        <time>2019-03-23T22:22:53.313000Z</time>
      </trkpt>
      <trkpt lat="35.94583458" lon="120.19196734">
        <time>2019-03-23T22:22:57.313000Z</time>
      </trkpt>
      <trkpt lat="35.94580733" lon="120.19185835">
        <time>2019-03-23T22:23:00.313000Z</time>
      </trkpt>
      <trkpt lat="35.94578651" lon="120.19174044">
        <time>2019-03-23T22:23:03.297000Z</time>
      </trkpt>
      <trkpt lat="35.94575426" lon="120.19163427">
        <time>2019-03-23T22:23:06.324000Z</time>
      </trkpt>
      <trkpt lat="35.94571695" lon="120.1915276">
        <time>2019-03-23T22:23:09.314000Z</time>
      </trkpt>
      <trkpt lat="35.9456856" lon="120.19140994">
        <time>2019-03-23T22:23:12.317000Z</time>
      </trkpt>
      <trkpt lat="35.94565155" lon="120.19129532">
        <time>2019-03-23T22:23:15.308000Z</time>
      </trkpt>
      <trkpt lat="35.94559643" lon="120.1911649">
        <time>2019-03-23T22:23:19.327000Z</time>
      </trkpt>
      <trkpt lat="35.94554336" lon="120.19106676">
        <time>2019-03-23T22:23:22.311000Z</time>
      </trkpt>
      <trkpt lat="35.9454935" lon="120.19096613">
        <time>2019-03-23T22:23:25.323000Z</time>
      </trkpt>
      <trkpt lat="35.945442" lon="120.19086286">
        <time>2019-03-23T22:23:28.326000Z</time>
      </trkpt>
      <trkpt lat="35.94538347" lon="120.19076617">
        <time>2019-03-23T22:23:31.302000Z</time>
      </trkpt>
      <trkpt lat="35.94533361" lon="120.19066297">
        <time>2019-03-23T22:23:34.313000Z</time>
      </trkpt>
      <trkpt lat="35.94531205" lon="120.19055259">
        <time>2019-03-23T22:23:37.316000Z</time>
      </trkpt>
      <trkpt lat="35.94531187" lon="120.19043949">
        <time>2019-03-23T22:23:40.321000Z</time>
      </trkpt>
      <trkpt lat="35.94526931" lon="120.19033408">
        <time>2019-03-23T22:23:43.325000Z</time>
      </trkpt>
      <trkpt lat="35.94520748" lon="120.19022313">
        <time>2019-03-23T22:23:47.316000Z</time>
      </trkpt>
      <trkpt lat="35.94513896" lon="120.19012303">
        <time>2019-03-23T22:23:51.309000Z</time>
      </trkpt>
      <trkpt lat="35.94507437" lon="120.19001501">
        <time>2019-03-23T22:23:55.305000Z</time>
      </trkpt>
      <trkpt lat="35.94503125" lon="120.18987838">
        <time>2019-03-23T22:23:59.325000Z</time>
      </trkpt>
      <trkpt lat="35.94498457" lon="120.18975431">
        <time>2019-03-23T22:24:03.312000Z</time>
      </trkpt>
      <trkpt lat="35.94492801" lon="120.18964308">
        <time>2019-03-23T22:24:07.324000Z</time>
      </trkpt>
      <trkpt lat="35.9448366" lon="120.1895791">
        <time>2019-03-23T22:24:11.307000Z</time>
      </trkpt>
      <trkpt lat="35.94475483" lon="120.18949169">
        <time>2019-03-23T22:24:15.324000Z</time>
      </trkpt>
      <trkpt lat="35.94467244" lon="120.18940364">
        <time>2019-03-23T22:24:19.317000Z</time>
      </trkpt>
      <trkpt lat="35.94456588" lon="120.18937317">
        <time>2019-03-23T22:24:23.441000Z</time>
      </trkpt>
      <trkpt lat="35.94446648" lon="120.18930642">
        <time>2019-03-23T22:24:27.323000Z</time>
      </trkpt>
      <trkpt lat="35.94437541" lon="120.18921986">
        <time>2019-03-23T22:24:31.315000Z</time>
      </trkpt>
      <trkpt lat="35.94429632" lon="120.18912418">
        <time>2019-03-23T22:24:35.320000Z</time>
      </trkpt>
      <trkpt lat="35.94423565" lon="120.18902578">
        <time>2019-03-23T22:24:39.321000Z</time>
      </trkpt>
      <trkpt lat="35.9441867" lon="120.1889072">
        <time>2019-03-23T22:24:43.324000Z</time>
      </trkpt>
      <trkpt lat="35.94416418" lon="120.18879804">
        <time>2019-03-23T22:24:46.327000Z</time>
      </trkpt>
      <trkpt lat="35.94416149" lon="120.18867927">
        <time>2019-03-23T22:24:49.321000Z</time>
      </trkpt>
      <trkpt lat="35.94417655" lon="120.188549">
        <time>2019-03-23T22:24:53.307000Z</time>
      </trkpt>
      <trkpt lat="35.94422787" lon="120.18843825">
        <time>2019-03-23T22:24:57.314000Z</time>
      </trkpt>
      <trkpt lat="35.94424639" lon="120.18831025">
        <time>2019-03-23T22:25:01.300000Z</time>
      </trkpt>
      <trkpt lat="35.9442111" lon="120.18818001">
        <time>2019-03-23T22:25:05.316000Z</time>
      </trkpt>
      <trkpt lat="35.94415229" lon="120.1880565">
        <time>2019-03-23T22:25:09.320000Z</time>
      </trkpt>
      <trkpt lat="35.94410006" lon="120.18792745">
        <time>2019-03-23T22:25:13.313000Z</time>
      </trkpt>
      <trkpt lat="35.94405997" lon="120.18779039">
        <time>2019-03-23T22:25:17.315000Z</time>
      </trkpt>
      <trkpt lat="35.94403742" lon="120.18767885">
        <time>2019-03-23T22:25:20.309000Z</time>
      </trkpt>
      <trkpt lat="35.94403742" lon="120.18767885">
        <time>2019-03-23T22:25:21.296000Z</time>
      </trkpt>
      <trkpt lat="35.94399923" lon="120.18754434">
        <time>2019-03-23T22:25:24.297000Z</time>
      </trkpt>
      <trkpt lat="35.94395863" lon="120.18742127">
        <time>2019-03-23T22:25:28.322000Z</time>
      </trkpt>
      <trkpt lat="35.94395863" lon="120.18742127">
        <time>2019-03-23T22:25:31.309000Z</time>
      </trkpt>
      <trkpt lat="35.94392578" lon="120.1872938">
        <time>2019-03-23T22:25:32.305000Z</time>
      </trkpt>
      <trkpt lat="35.94390206" lon="120.18716799">
        <time>2019-03-23T22:25:36.328000Z</time>
      </trkpt>
      <trkpt lat="35.94387015" lon="120.18702702">
        <time>2019-03-23T22:25:40.310000Z</time>
      </trkpt>
      <trkpt lat="35.94384493" lon="120.1868906">
        <time>2019-03-23T22:25:44.318000Z</time>
      </trkpt>
      <trkpt lat="35.94380757" lon="120.1867807">
        <time>2019-03-23T22:25:47.320000Z</time>
      </trkpt>
      <trkpt lat="35.94376023" lon="120.18667799">
        <time>2019-03-23T22:25:50.305000Z</time>
      </trkpt>
      <trkpt lat="35.94371141" lon="120.18654678">
        <time>2019-03-23T22:25:54.322000Z</time>
      </trkpt>
      <trkpt lat="35.94366839" lon="120.18640849">
        <time>2019-03-23T22:25:58.307000Z</time>
      </trkpt>
      <trkpt lat="35.94362241" lon="120.18631169">
        <time>2019-03-23T22:26:01.329000Z</time>
      </trkpt>
      <trkpt lat="35.94358789" lon="120.18617542">
        <time>2019-03-23T22:26:05.303000Z</time>
      </trkpt>
      <trkpt lat="35.94355542" lon="120.18606226">
        <time>2019-03-23T22:26:08.318000Z</time>
      </trkpt>
      <trkpt lat="35.9435262" lon="120.18594666">
        <time>2019-03-23T22:26:11.320000Z</time>
      </trkpt>
      <trkpt lat="35.94349787" lon="120.18583151">
        <time>2019-03-23T22:26:14.324000Z</time>
      </trkpt>
      <trkpt lat="35.9434516" lon="120.18569682">
        <time>2019-03-23T22:26:18.313000Z</time>
      </trkpt>
      <trkpt lat="35.94341152" lon="120.18556871">
        <time>2019-03-23T22:26:22.307000Z</time>
      </trkpt>
      <trkpt lat="35.94339373" lon="120.18542995">
        <time>2019-03-23T22:26:27.451000Z</time>
      </trkpt>
      <trkpt lat="35.94334601" lon="120.18530783">
        <time>2019-03-23T22:26:31.314000Z</time>
      </trkpt>
      <trkpt lat="35.94327937" lon="120.18518689">
        <time>2019-03-23T22:26:35.326000Z</time>
      </trkpt>
      <trkpt lat="35.9432238" lon="120.18509066">
        <time>2019-03-23T22:26:38.313000Z</time>
      </trkpt>
      <trkpt lat="35.94315976" lon="120.18497951">
        <time>2019-03-23T22:26:42.311000Z</time>
      </trkpt>
      <trkpt lat="35.943118" lon="120.18486846">
        <time>2019-03-23T22:26:46.328000Z</time>
      </trkpt>
      <trkpt lat="35.94306829" lon="120.18475239">
        <time>2019-03-23T22:26:50.447000Z</time>
      </trkpt>
      <trkpt lat="35.9430208" lon="120.18464707">
        <time>2019-03-23T22:26:54.308000Z</time>
      </trkpt>
      <trkpt lat="35.94295971" lon="120.1845208">
        <time>2019-03-23T22:26:58.320000Z</time>
      </trkpt>
      <trkpt lat="35.94291696" lon="120.18442238">
        <time>2019-03-23T22:27:01.341000Z</time>
      </trkpt>
      <trkpt lat="35.94286622" lon="120.18430529">
        <time>2019-03-23T22:27:05.311000Z</time>
      </trkpt>
      <trkpt lat="35.94281194" lon="120.18421371">
        <time>2019-03-23T22:27:09.313000Z</time>
      </trkpt>
      <trkpt lat="35.94273826" lon="120.18414279">
        <time>2019-03-23T22:27:13.323000Z</time>
      </trkpt>
      <trkpt lat="35.94267556" lon="120.18402966">
        <time>2019-03-23T22:27:17.484000Z</time>
      </trkpt>
      <trkpt lat="35.94263797" lon="120.18390274">
        <time>2019-03-23T22:27:21.310000Z</time>
      </trkpt>
      <trkpt lat="35.94264381" lon="120.18377364">
        <time>2019-03-23T22:27:25.327000Z</time>
      </trkpt>
      <trkpt lat="35.94255514" lon="120.18369207">
        <time>2019-03-23T22:27:29.301000Z</time>
      </trkpt>
      <trkpt lat="35.94247053" lon="120.18364455">
        <time>2019-03-23T22:27:32.304000Z</time>
      </trkpt>
      <trkpt lat="35.94235847" lon="120.1835924">
        <time>2019-03-23T22:27:36.327000Z</time>
      </trkpt>
      <trkpt lat="35.94227312" lon="120.18349454">
        <time>2019-03-23T22:27:40.307000Z</time>
      </trkpt>
      <trkpt lat="35.94224383" lon="120.18335417">
        <time>2019-03-23T22:27:44.323000Z</time>
      </trkpt>
      <trkpt lat="35.94226164" lon="120.18322107">
        <time>2019-03-23T22:27:48.327000Z</time>
      </trkpt>
      <trkpt lat="35.94220518" lon="120.18310407">
        <time>2019-03-23T22:27:53.313000Z</time>
      </trkpt>
      <trkpt lat="35.94214891" lon="120.18300179">
        <time>2019-03-23T22:27:57.317000Z</time>
      </trkpt>
      <trkpt lat="35.94210671" lon="120.18288862">
        <time>2019-03-23T22:28:01.323000Z</time>
      </trkpt>
      <trkpt lat="35.94205941" lon="120.18277829">
        <time>2019-03-23T22:28:05.355000Z</time>
      </trkpt>
      <trkpt lat="35.94200789" lon="120.18264572">
        <time>2019-03-23T22:28:09.325000Z</time>
      </trkpt>
      <trkpt lat="35.94194277" lon="120.18252133">
        <time>2019-03-23T22:28:13.322000Z</time>
      </trkpt>
      <trkpt lat="35.94190546" lon="120.1824192">
        <time>2019-03-23T22:28:16.324000Z</time>
      </trkpt>
      <trkpt lat="35.94185982" lon="120.18231308">
        <time>2019-03-23T22:28:19.321000Z</time>
      </trkpt>
      <trkpt lat="35.94179643" lon="120.18222276">
        <time>2019-03-23T22:28:22.314000Z</time>
      </trkpt>
      <trkpt lat="35.94173475" lon="120.18213236">
        <time>2019-03-23T22:28:25.507000Z</time>
      </trkpt>
      <trkpt lat="35.94166129" lon="120.18202298">
        <time>2019-03-23T22:28:29.306000Z</time>
      </trkpt>
      <trkpt lat="35.94160698" lon="120.18190628">
        <time>2019-03-23T22:28:33.312000Z</time>
      </trkpt>
      <trkpt lat="35.94154575" lon="120.18180491">
        <time>2019-03-23T22:28:37.318000Z</time>
      </trkpt>
      <trkpt lat="35.94147398" lon="120.18171946">
        <time>2019-03-23T22:28:41.321000Z</time>
      </trkpt>
      <trkpt lat="35.94139257" lon="120.18162457">
        <time>2019-03-23T22:28:45.319000Z</time>
      </trkpt>
      <trkpt lat="35.94129508" lon="120.18154589">
        <time>2019-03-23T22:28:49.304000Z</time>
      </trkpt>
      <trkpt lat="35.94121845" lon="120.18148449">
        <time>2019-03-23T22:28:52.319000Z</time>
      </trkpt>
      <trkpt lat="35.94113015" lon="120.18138421">
        <time>2019-03-23T22:28:56.314000Z</time>
      </trkpt>
      <trkpt lat="35.94106037" lon="120.181302">
        <time>2019-03-23T22:28:59.311000Z</time>
      </trkpt>
      <trkpt lat="35.94099383" lon="120.18122742">
        <time>2019-03-23T22:29:02.323000Z</time>
      </trkpt>
      <trkpt lat="35.94091759" lon="120.18112068">
        <time>2019-03-23T22:29:06.315000Z</time>
      </trkpt>
      <trkpt lat="35.94083441" lon="120.18103199">
        <time>2019-03-23T22:29:10.310000Z</time>
      </trkpt>
      <trkpt lat="35.94075852" lon="120.18097092">
        <time>2019-03-23T22:29:13.310000Z</time>
      </trkpt>
      <trkpt lat="35.94067386" lon="120.18091544">
        <time>2019-03-23T22:29:16.320000Z</time>
      </trkpt>
      <trkpt lat="35.94059619" lon="120.18085607">
        <time>2019-03-23T22:29:19.318000Z</time>
      </trkpt>
      <trkpt lat="35.94048505" lon="120.18081631">
        <time>2019-03-23T22:29:23.321000Z</time>
      </trkpt>
      <trkpt lat="35.94037563" lon="120.18080202">
        <time>2019-03-23T22:29:27.327000Z</time>
      </trkpt>
      <trkpt lat="35.94027758" lon="120.18073006">
        <time>2019-03-23T22:29:31.311000Z</time>
      </trkpt>
      <trkpt lat="35.94021078" lon="120.18065004">
        <time>2019-03-23T22:29:34.338000Z</time>
      </trkpt>
      <trkpt lat="35.940161" lon="120.18052067">
        <time>2019-03-23T22:29:38.318000Z</time>
      </trkpt>
      <trkpt lat="35.94013334" lon="120.18039439">
        <time>2019-03-23T22:29:42.317000Z</time>
      </trkpt>
      <trkpt lat="35.94009369" lon="120.18028045">
        <time>2019-03-23T22:29:46.313000Z</time>
      </trkpt>
      <trkpt lat="35.94004182" lon="120.18018521">
        <time>2019-03-23T22:29:50.300000Z</time>
      </trkpt>
      <trkpt lat="35.94000826" lon="120.1800803">
        <time>2019-03-23T22:29:54.306000Z</time>
      </trkpt>
      <trkpt lat="35.93998074" lon="120.17996863">
        <time>2019-03-23T22:29:58.406000Z</time>
      </trkpt>
      <trkpt lat="35.9399409" lon="120.17986035">
        <time>2019-03-23T22:30:02.313000Z</time>
      </trkpt>
      <trkpt lat="35.9398993" lon="120.17974134">
        <time>2019-03-23T22:30:06.308000Z</time>
      </trkpt>
      <trkpt lat="35.93985862" lon="120.17961807">
        <time>2019-03-23T22:30:10.302000Z</time>
      </trkpt>
      <trkpt lat="35.93984571" lon="120.17949028">
        <time>2019-03-23T22:30:14.309000Z</time>
      </trkpt>
      <trkpt lat="35.93983514" lon="120.17936723">
        <time>2019-03-23T22:30:18.319000Z</time>
      </trkpt>
      <trkpt lat="35.9398029" lon="120.17924288">
        <time>2019-03-23T22:30:22.320000Z</time>
      </trkpt>
      <trkpt lat="35.93976344" lon="120.17911526">
        <time>2019-03-23T22:30:26.321000Z</time>
      </trkpt>
      <trkpt lat="35.93971305" lon="120.17900189">
        <time>2019-03-23T22:30:30.305000Z</time>
      </trkpt>
      <trkpt lat="35.939658" lon="120.17888372">
        <time>2019-03-23T22:30:34.315000Z</time>
      </trkpt>
      <trkpt lat="35.93959612" lon="120.17876442">
        <time>2019-03-23T22:30:38.308000Z</time>
      </trkpt>
      <trkpt lat="35.93952091" lon="120.17864901">
        <time>2019-03-23T22:30:42.314000Z</time>
      </trkpt>
      <trkpt lat="35.93946966" lon="120.17855767">
        <time>2019-03-23T22:30:45.412000Z</time>
      </trkpt>
      <trkpt lat="35.93940728" lon="120.17843321">
        <time>2019-03-23T22:30:49.312000Z</time>
      </trkpt>
      <trkpt lat="35.93933769" lon="120.17832005">
        <time>2019-03-23T22:30:53.317000Z</time>
      </trkpt>
      <trkpt lat="35.93926893" lon="120.17822177">
        <time>2019-03-23T22:30:57.326000Z</time>
      </trkpt>
      <trkpt lat="35.93919633" lon="120.17811693">
        <time>2019-03-23T22:31:01.316000Z</time>
      </trkpt>
      <trkpt lat="35.93913521" lon="120.17799238">
        <time>2019-03-23T22:31:05.325000Z</time>
      </trkpt>
      <trkpt lat="35.93906364" lon="120.17788413">
        <time>2019-03-23T22:31:09.332000Z</time>
      </trkpt>
      <trkpt lat="35.938987" lon="120.17779555">
        <time>2019-03-23T22:31:13.316000Z</time>
      </trkpt>
      <trkpt lat="35.93892409" lon="120.17767971">
        <time>2019-03-23T22:31:17.310000Z</time>
      </trkpt>
      <trkpt lat="35.93886396" lon="120.17756806">
        <time>2019-03-23T22:31:21.315000Z</time>
      </trkpt>
      <trkpt lat="35.9388035" lon="120.17746106">
        <time>2019-03-23T22:31:25.322000Z</time>
      </trkpt>
      <trkpt lat="35.93874462" lon="120.1773617">
        <time>2019-03-23T22:31:29.320000Z</time>
      </trkpt>
      <trkpt lat="35.93867972" lon="120.17724905">
        <time>2019-03-23T22:31:33.300000Z</time>
      </trkpt>
      <trkpt lat="35.938605" lon="120.1771377">
        <time>2019-03-23T22:31:37.313000Z</time>
      </trkpt>
      <trkpt lat="35.93852898" lon="120.1770303">
        <time>2019-03-23T22:31:41.317000Z</time>
      </trkpt>
      <trkpt lat="35.93846587" lon="120.17691552">
        <time>2019-03-23T22:31:45.309000Z</time>
      </trkpt>
      <trkpt lat="35.9383967" lon="120.17680465">
        <time>2019-03-23T22:31:49.320000Z</time>
      </trkpt>
      <trkpt lat="35.93835663" lon="120.17670281">
        <time>2019-03-23T22:31:52.333000Z</time>
      </trkpt>
      <trkpt lat="35.93833502" lon="120.1765859">
        <time>2019-03-23T22:31:55.328000Z</time>
      </trkpt>
      <trkpt lat="35.93829238" lon="120.17647958">
        <time>2019-03-23T22:31:58.311000Z</time>
      </trkpt>
      <trkpt lat="35.93821289" lon="120.17636889">
        <time>2019-03-23T22:32:02.432000Z</time>
      </trkpt>
      <trkpt lat="35.9381526" lon="120.17628088">
        <time>2019-03-23T22:32:05.324000Z</time>
      </trkpt>
      <trkpt lat="35.93807861" lon="120.17616732">
        <time>2019-03-23T22:32:09.330000Z</time>
      </trkpt>
      <trkpt lat="35.93800377" lon="120.17606267">
        <time>2019-03-23T22:32:13.316000Z</time>
      </trkpt>
      <trkpt lat="35.93793074" lon="120.17596804">
        <time>2019-03-23T22:32:17.325000Z</time>
      </trkpt>
      <trkpt lat="35.93788286" lon="120.17585338">
        <time>2019-03-23T22:32:21.320000Z</time>
      </trkpt>
      <trkpt lat="35.93781934" lon="120.17573696">
        <time>2019-03-23T22:32:25.319000Z</time>
      </trkpt>
      <trkpt lat="35.93776783" lon="120.17561946">
        <time>2019-03-23T22:32:29.317000Z</time>
      </trkpt>
      <trkpt lat="35.93771757" lon="120.17550305">
        <time>2019-03-23T22:32:33.316000Z</time>
      </trkpt>
      <trkpt lat="35.93765954" lon="120.1753955">
        <time>2019-03-23T22:32:37.315000Z</time>
      </trkpt>
      <trkpt lat="35.93760813" lon="120.17528385">
        <time>2019-03-23T22:32:41.316000Z</time>
      </trkpt>
      <trkpt lat="35.93754651" lon="120.17518163">
        <time>2019-03-23T22:32:45.320000Z</time>
      </trkpt>
      <trkpt lat="35.93748309" lon="120.17506654">
        <time>2019-03-23T22:32:49.302000Z</time>
      </trkpt>
      <trkpt lat="35.93740606" lon="120.17496553">
        <time>2019-03-23T22:32:53.314000Z</time>
      </trkpt>
      <trkpt lat="35.93730414" lon="120.17490274">
        <time>2019-03-23T22:32:57.321000Z</time>
      </trkpt>
      <trkpt lat="35.93720054" lon="120.17484749">
        <time>2019-03-23T22:33:01.316000Z</time>
      </trkpt>
      <trkpt lat="35.93708803" lon="120.17479639">
        <time>2019-03-23T22:33:05.312000Z</time>
      </trkpt>
      <trkpt lat="35.937003" lon="120.17475125">
        <time>2019-03-23T22:33:08.315000Z</time>
      </trkpt>
      <trkpt lat="35.93692697" lon="120.1746452">
        <time>2019-03-23T22:33:12.306000Z</time>
      </trkpt>
      <trkpt lat="35.9368886" lon="120.17451204">
        <time>2019-03-23T22:33:16.321000Z</time>
      </trkpt>
      <trkpt lat="35.93688268" lon="120.1743773">
        <time>2019-03-23T22:33:20.311000Z</time>
      </trkpt>
      <trkpt lat="35.93686214" lon="120.17426655">
        <time>2019-03-23T22:33:24.475000Z</time>
      </trkpt>
      <trkpt lat="35.93682798" lon="120.174148">
        <time>2019-03-23T22:33:28.314000Z</time>
      </trkpt>
      <trkpt lat="35.93679213" lon="120.17402648">
        <time>2019-03-23T22:33:32.298000Z</time>
      </trkpt>
      <trkpt lat="35.93674559" lon="120.17390548">
        <time>2019-03-23T22:33:36.447000Z</time>
      </trkpt>
      <trkpt lat="35.93670616" lon="120.17376458">
        <time>2019-03-23T22:33:40.306000Z</time>
      </trkpt>
      <trkpt lat="35.93667213" lon="120.17362299">
        <time>2019-03-23T22:33:44.321000Z</time>
      </trkpt>
      <trkpt lat="35.9366574" lon="120.17348896">
        <time>2019-03-23T22:33:48.317000Z</time>
      </trkpt>
      <trkpt lat="35.93663461" lon="120.17335275">
        <time>2019-03-23T22:33:52.325000Z</time>
      </trkpt>
      <trkpt lat="35.93661323" lon="120.17321635">
        <time>2019-03-23T22:33:56.328000Z</time>
      </trkpt>
      <trkpt lat="35.93657955" lon="120.17307754">
        <time>2019-03-23T22:34:00.327000Z</time>
      </trkpt>
      <trkpt lat="35.93654925" lon="120.17295668">
        <time>2019-03-23T22:34:04.319000Z</time>
      </trkpt>
      <trkpt lat="35.9365288" lon="120.17283638">
        <time>2019-03-23T22:34:08.314000Z</time>
      </trkpt>
      <trkpt lat="35.93650538" lon="120.17270325">
        <time>2019-03-23T22:34:12.316000Z</time>
      </trkpt>
      <trkpt lat="35.9364807" lon="120.17258219">
        <time>2019-03-23T22:34:16.312000Z</time>
      </trkpt>
      <trkpt lat="35.93645454" lon="120.17245021">
        <time>2019-03-23T22:34:20.317000Z</time>
      </trkpt>
      <trkpt lat="35.93640274" lon="120.17232081">
        <time>2019-03-23T22:34:24.327000Z</time>
      </trkpt>
      <trkpt lat="35.93637626" lon="120.17220178">
        <time>2019-03-23T22:34:28.326000Z</time>
      </trkpt>
      <trkpt lat="35.93634737" lon="120.17209008">
        <time>2019-03-23T22:34:32.328000Z</time>
      </trkpt>
      <trkpt lat="35.93632158" lon="120.17197784">
        <time>2019-03-23T22:34:36.305000Z</time>
      </trkpt>
      <trkpt lat="35.93629684" lon="120.17184368">
        <time>2019-03-23T22:34:40.512000Z</time>
      </trkpt>
      <trkpt lat="35.9362618" lon="120.17172069">
        <time>2019-03-23T22:34:44.317000Z</time>
      </trkpt>
      <trkpt lat="35.93622238" lon="120.17159958">
        <time>2019-03-23T22:34:48.313000Z</time>
      </trkpt>
      <trkpt lat="35.93617705" lon="120.17148101">
        <time>2019-03-23T22:34:52.326000Z</time>
      </trkpt>
      <trkpt lat="35.93614797" lon="120.17135275">
        <time>2019-03-23T22:34:56.316000Z</time>
      </trkpt>
      <trkpt lat="35.93609436" lon="120.17122742">
        <time>2019-03-23T22:35:00.325000Z</time>
      </trkpt>
      <trkpt lat="35.93605062" lon="120.17109093">
        <time>2019-03-23T22:35:04.314000Z</time>
      </trkpt>
      <trkpt lat="35.93598909" lon="120.17096534">
        <time>2019-03-23T22:35:08.312000Z</time>
      </trkpt>
      <trkpt lat="35.93593066" lon="120.170845">
        <time>2019-03-23T22:35:12.316000Z</time>
      </trkpt>
      <trkpt lat="35.93588181" lon="120.17072133">
        <time>2019-03-23T22:35:16.324000Z</time>
      </trkpt>
      <trkpt lat="35.9358327" lon="120.17059971">
        <time>2019-03-23T22:35:20.322000Z</time>
      </trkpt>
      <trkpt lat="35.93576689" lon="120.17048262">
        <time>2019-03-23T22:35:24.317000Z</time>
      </trkpt>
      <trkpt lat="35.93569206" lon="120.17041008">
        <time>2019-03-23T22:35:28.318000Z</time>
      </trkpt>
      <trkpt lat="35.93561801" lon="120.17030737">
        <time>2019-03-23T22:35:32.320000Z</time>
      </trkpt>
      <trkpt lat="35.93554317" lon="120.17024449">
        <time>2019-03-23T22:35:35.320000Z</time>
      </trkpt>
      <trkpt lat="35.93545541" lon="120.17017791">
        <time>2019-03-23T22:35:38.312000Z</time>
      </trkpt>
      <trkpt lat="35.93537017" lon="120.17013284">
        <time>2019-03-23T22:35:41.309000Z</time>
      </trkpt>
      <trkpt lat="35.93526404" lon="120.17010082">
        <time>2019-03-23T22:35:45.318000Z</time>
      </trkpt>
      <trkpt lat="35.93516728" lon="120.17006341">
        <time>2019-03-23T22:35:49.326000Z</time>
      </trkpt>
      <trkpt lat="35.9350668" lon="120.17001008">
        <time>2019-03-23T22:35:53.302000Z</time>
      </trkpt>
      <trkpt lat="35.93497881" lon="120.1699465">
        <time>2019-03-23T22:35:57.312000Z</time>
      </trkpt>
      <trkpt lat="35.93490694" lon="120.16984161">
        <time>2019-03-23T22:36:01.308000Z</time>
      </trkpt>
      <trkpt lat="35.93485308" lon="120.16970898">
        <time>2019-03-23T22:36:05.303000Z</time>
      </trkpt>
      <trkpt lat="35.93481114" lon="120.16957645">
        <time>2019-03-23T22:36:09.319000Z</time>
      </trkpt>
      <trkpt lat="35.93476377" lon="120.16944095">
        <time>2019-03-23T22:36:13.332000Z</time>
      </trkpt>
      <trkpt lat="35.93472953" lon="120.16930596">
        <time>2019-03-23T22:36:17.325000Z</time>
      </trkpt>
      <trkpt lat="35.9347134" lon="120.16918128">
        <time>2019-03-23T22:36:21.324000Z</time>
      </trkpt>
      <trkpt lat="35.93469787" lon="120.16905525">
        <time>2019-03-23T22:36:25.317000Z</time>
      </trkpt>
      <trkpt lat="35.93468552" lon="120.16892587">
        <time>2019-03-23T22:36:29.322000Z</time>
      </trkpt>
      <trkpt lat="35.93459453" lon="120.16886195">
        <time>2019-03-23T22:36:33.323000Z</time>
      </trkpt>
      <trkpt lat="35.93449947" lon="120.16885065">
        <time>2019-03-23T22:36:39.337000Z</time>
      </trkpt>
      <trkpt lat="35.93438958" lon="120.16884284">
        <time>2019-03-23T22:36:51.323000Z</time>
      </trkpt>
      <trkpt lat="35.93428678" lon="120.16880468">
        <time>2019-03-23T22:36:55.305000Z</time>
      </trkpt>
      <trkpt lat="35.93428678" lon="120.16880468">
        <time>2019-03-23T22:36:58.616000Z</time>
      </trkpt>
      <trkpt lat="35.93417195" lon="120.16881351">
        <time>2019-03-23T22:36:59.313000Z</time>
      </trkpt>
      <trkpt lat="35.93413481" lon="120.16882649">
        <time>2019-03-23T22:37:02.242000Z</time>
      </trkpt>
    </trkseg>
  </trk>
</gpx>