<?xml version="1.0" encoding="UTF-8"?>
<gpx xmlns="http://www.topografix.com/GPX/1/1" xmlns:gpxtpx="http://www.garmin.com/xmlschemas/TrackPointExtension/v1" xmlns:xsi="http://www.w3.org/2001/XMLSchema-instance" xsi:schemaLocation="http://www.topografix.com/GPX/1/1 http://www.topografix.com/GPX/1/1/gpx.xsd" version="1.1" creator="gpx.py -- https://github.com/tkrajina/gpxpy">
  <trk>
    <name>星期五 早晨跑步</name>
    <trkseg>
      <trkpt lat="35.95714241" lon="120.20993019">
        <time>2019-04-18T22:04:58.358000Z</time>
      </trkpt>
      <trkpt lat="35.95723634" lon="120.20995376">
        <time>2019-04-18T22:05:01.357000Z</time>
      </trkpt>
      <trkpt lat="35.95733904" lon="120.20995659">
        <time>2019-04-18T22:05:06.356000Z</time>
      </trkpt>
      <trkpt lat="35.95742094" lon="120.20988172">
        <time>2019-04-18T22:05:10.356000Z</time>
      </trkpt>
      <trkpt lat="35.95752183" lon="120.2098334">
        <time>2019-04-18T22:05:13.359000Z</time>
      </trkpt>
      <trkpt lat="35.95764482" lon="120.2098275">
        <time>2019-04-18T22:05:16.357000Z</time>
      </trkpt>
      <trkpt lat="35.95775388" lon="120.20982008">
        <time>2019-04-18T22:05:19.360000Z</time>
      </trkpt>
      <trkpt lat="35.95784537" lon="120.20985384">
        <time>2019-04-18T22:05:22.361000Z</time>
      </trkpt>
      <trkpt lat="35.95790534" lon="120.20993673">
        <time>2019-04-18T22:05:25.356000Z</time>
      </trkpt>
      <trkpt lat="35.95798092" lon="120.2100134">
        <time>2019-04-18T22:05:28.358000Z</time>
      </trkpt>
      <trkpt lat="35.95802179" lon="120.21013369">
        <time>2019-04-18T22:05:32.365000Z</time>
      </trkpt>
      <trkpt lat="35.95801933" lon="120.21026181">
        <time>2019-04-18T22:05:36.361000Z</time>
      </trkpt>
      <trkpt lat="35.95802972" lon="120.21038181">
        <time>2019-04-18T22:05:40.354000Z</time>
      </trkpt>
      <trkpt lat="35.95803569" lon="120.21050127">
        <time>2019-04-18T22:05:44.364000Z</time>
      </trkpt>
      <trkpt lat="35.95799415" lon="120.2106242">
        <time>2019-04-18T22:05:50.367000Z</time>
      </trkpt>
      <trkpt lat="35.95789637" lon="120.21064095">
        <time>2019-04-18T22:05:54.360000Z</time>
      </trkpt>
      <trkpt lat="35.957792" lon="120.2106365">
        <time>2019-04-18T22:05:58.382000Z</time>
      </trkpt>
      <trkpt lat="35.95770182" lon="120.21066384">
        <time>2019-04-18T22:06:02.358000Z</time>
      </trkpt>
      <trkpt lat="35.95760685" lon="120.21069202">
        <time>2019-04-18T22:06:06.367000Z</time>
      </trkpt>
      <trkpt lat="35.95751948" lon="120.21074629">
        <time>2019-04-18T22:06:10.359000Z</time>
      </trkpt>
      <trkpt lat="35.9574221" lon="120.21078912">
        <time>2019-04-18T22:06:14.363000Z</time>
      </trkpt>
      <trkpt lat="35.95732656" lon="120.21079351">
        <time>2019-04-18T22:06:18.368000Z</time>
      </trkpt>
      <trkpt lat="35.9572252" lon="120.21079937">
        <time>2019-04-18T22:06:22.355000Z</time>
      </trkpt>
      <trkpt lat="35.95712894" lon="120.21083707">
        <time>2019-04-18T22:06:26.367000Z</time>
      </trkpt>
      <trkpt lat="35.95703002" lon="120.21087613">
        <time>2019-04-18T22:06:30.366000Z</time>
      </trkpt>
      <trkpt lat="35.95692353" lon="120.21088948">
        <time>2019-04-18T22:06:34.438000Z</time>
      </trkpt>
      <trkpt lat="35.95681823" lon="120.21090396">
        <time>2019-04-18T22:06:38.363000Z</time>
      </trkpt>
      <trkpt lat="35.95672411" lon="120.21093471">
        <time>2019-04-18T22:06:42.364000Z</time>
      </trkpt>
      <trkpt lat="35.95662242" lon="120.21096403">
        <time>2019-04-18T22:06:46.364000Z</time>
      </trkpt>
      <trkpt lat="35.95652125" lon="120.21096927">
        <time>2019-04-18T22:06:50.358000Z</time>
      </trkpt>
      <trkpt lat="35.95641533" lon="120.21099268">
        <time>2019-04-18T22:06:54.376000Z</time>
      </trkpt>
      <trkpt lat="35.95629795" lon="120.21101322">
        <time>2019-04-18T22:06:58.361000Z</time>
      </trkpt>
      <trkpt lat="35.95620296" lon="120.21101028">
        <time>2019-04-18T22:07:02.362000Z</time>
      </trkpt>
      <trkpt lat="35.95610299" lon="120.21100446">
        <time>2019-04-18T22:07:06.371000Z</time>
      </trkpt>
      <trkpt lat="35.9560057" lon="120.21102063">
        <time>2019-04-18T22:07:10.370000Z</time>
      </trkpt>
      <trkpt lat="35.95593053" lon="120.21109555">
        <time>2019-04-18T22:07:15.359000Z</time>
      </trkpt>
      <trkpt lat="35.95584718" lon="120.21115588">
        <time>2019-04-18T22:07:21.371000Z</time>
      </trkpt>
      <trkpt lat="35.95579554" lon="120.21125758">
        <time>2019-04-18T22:07:25.364000Z</time>
      </trkpt>
      <trkpt lat="35.95573181" lon="120.21136981">
        <time>2019-04-18T22:07:30.528000Z</time>
      </trkpt>
      <trkpt lat="35.95562607" lon="120.21139788">
        <time>2019-04-18T22:07:35.376000Z</time>
      </trkpt>
      <trkpt lat="35.95554313" lon="120.21145568">
        <time>2019-04-18T22:07:39.367000Z</time>
      </trkpt>
      <trkpt lat="35.95551021" lon="120.21156058">
        <time>2019-04-18T22:07:42.365000Z</time>
      </trkpt>
      <trkpt lat="35.95548854" lon="120.21168929">
        <time>2019-04-18T22:07:46.359000Z</time>
      </trkpt>
      <trkpt lat="35.9554824" lon="120.21181163">
        <time>2019-04-18T22:07:50.359000Z</time>
      </trkpt>
      <trkpt lat="35.95553882" lon="120.2119046">
        <time>2019-04-18T22:07:54.357000Z</time>
      </trkpt>
      <trkpt lat="35.95556674" lon="120.21202864">
        <time>2019-04-18T22:07:58.365000Z</time>
      </trkpt>
      <trkpt lat="35.95558417" lon="120.21214567">
        <time>2019-04-18T22:08:02.365000Z</time>
      </trkpt>
      <trkpt lat="35.95560935" lon="120.212257">
        <time>2019-04-18T22:08:06.365000Z</time>
      </trkpt>
      <trkpt lat="35.95561378" lon="120.21239033">
        <time>2019-04-18T22:08:11.372000Z</time>
      </trkpt>
      <trkpt lat="35.95563365" lon="120.21252487">
        <time>2019-04-18T22:08:17.354000Z</time>
      </trkpt>
      <trkpt lat="35.9556598" lon="120.21265466">
        <time>2019-04-18T22:08:22.358000Z</time>
      </trkpt>
      <trkpt lat="35.95569599" lon="120.21276349">
        <time>2019-04-18T22:08:26.354000Z</time>
      </trkpt>
      <trkpt lat="35.95574953" lon="120.21286347">
        <time>2019-04-18T22:08:30.361000Z</time>
      </trkpt>
      <trkpt lat="35.95578055" lon="120.21296886">
        <time>2019-04-18T22:08:34.356000Z</time>
      </trkpt>
      <trkpt lat="35.95579127" lon="120.21308136">
        <time>2019-04-18T22:08:39.359000Z</time>
      </trkpt>
      <trkpt lat="35.95578162" lon="120.2132">
        <time>2019-04-18T22:08:43.355000Z</time>
      </trkpt>
      <trkpt lat="35.95576191" lon="120.21331503">
        <time>2019-04-18T22:08:47.353000Z</time>
      </trkpt>
      <trkpt lat="35.95569491" lon="120.2134007">
        <time>2019-04-18T22:08:52.359000Z</time>
      </trkpt>
      <trkpt lat="35.95560279" lon="120.21344852">
        <time>2019-04-18T22:08:57.360000Z</time>
      </trkpt>
      <trkpt lat="35.95550558" lon="120.213468">
        <time>2019-04-18T22:09:01.361000Z</time>
      </trkpt>
      <trkpt lat="35.95541778" lon="120.2134991">
        <time>2019-04-18T22:09:05.360000Z</time>
      </trkpt>
      <trkpt lat="35.9553174" lon="120.21351844">
        <time>2019-04-18T22:09:11.368000Z</time>
      </trkpt>
      <trkpt lat="35.95521752" lon="120.21356711">
        <time>2019-04-18T22:09:15.373000Z</time>
      </trkpt>
      <trkpt lat="35.95511304" lon="120.21360208">
        <time>2019-04-18T22:09:19.351000Z</time>
      </trkpt>
      <trkpt lat="35.95500773" lon="120.21364327">
        <time>2019-04-18T22:09:23.351000Z</time>
      </trkpt>
      <trkpt lat="35.95490715" lon="120.21366555">
        <time>2019-04-18T22:09:27.365000Z</time>
      </trkpt>
      <trkpt lat="35.95481727" lon="120.21364455">
        <time>2019-04-18T22:09:31.357000Z</time>
      </trkpt>
      <trkpt lat="35.95472585" lon="120.21367163">
        <time>2019-04-18T22:09:36.356000Z</time>
      </trkpt>
      <trkpt lat="35.95463785" lon="120.21371356">
        <time>2019-04-18T22:09:40.357000Z</time>
      </trkpt>
      <trkpt lat="35.95454695" lon="120.21374417">
        <time>2019-04-18T22:09:45.359000Z</time>
      </trkpt>
      <trkpt lat="35.95444801" lon="120.21381638">
        <time>2019-04-18T22:09:49.357000Z</time>
      </trkpt>
      <trkpt lat="35.95435576" lon="120.2138769">
        <time>2019-04-18T22:09:52.381000Z</time>
      </trkpt>
      <trkpt lat="35.95425483" lon="120.21392092">
        <time>2019-04-18T22:09:55.368000Z</time>
      </trkpt>
      <trkpt lat="35.95415054" lon="120.21396124">
        <time>2019-04-18T22:09:59.360000Z</time>
      </trkpt>
      <trkpt lat="35.95407114" lon="120.214031">
        <time>2019-04-18T22:10:02.357000Z</time>
      </trkpt>
      <trkpt lat="35.95398314" lon="120.2140934">
        <time>2019-04-18T22:10:05.381000Z</time>
      </trkpt>
      <trkpt lat="35.95386931" lon="120.21412391">
        <time>2019-04-18T22:10:09.358000Z</time>
      </trkpt>
      <trkpt lat="35.95375531" lon="120.21411448">
        <time>2019-04-18T22:10:13.359000Z</time>
      </trkpt>
      <trkpt lat="35.95365045" lon="120.21409002">
        <time>2019-04-18T22:10:17.365000Z</time>
      </trkpt>
      <trkpt lat="35.95355093" lon="120.21403915">
        <time>2019-04-18T22:10:21.363000Z</time>
      </trkpt>
      <trkpt lat="35.95347933" lon="120.21396091">
        <time>2019-04-18T22:10:24.365000Z</time>
      </trkpt>
      <trkpt lat="35.9533781" lon="120.21394127">
        <time>2019-04-18T22:10:28.350000Z</time>
      </trkpt>
      <trkpt lat="35.95328474" lon="120.21392183">
        <time>2019-04-18T22:10:32.358000Z</time>
      </trkpt>
      <trkpt lat="35.95319084" lon="120.21395716">
        <time>2019-04-18T22:10:36.359000Z</time>
      </trkpt>
      <trkpt lat="35.95308862" lon="120.21394668">
        <time>2019-04-18T22:10:41.358000Z</time>
      </trkpt>
      <trkpt lat="35.95299458" lon="120.21394033">
        <time>2019-04-18T22:10:45.353000Z</time>
      </trkpt>
      <trkpt lat="35.9529187" lon="120.21388023">
        <time>2019-04-18T22:10:49.360000Z</time>
      </trkpt>
      <trkpt lat="35.95285564" lon="120.21377296">
        <time>2019-04-18T22:10:53.361000Z</time>
      </trkpt>
      <trkpt lat="35.95281346" lon="120.21364205">
        <time>2019-04-18T22:10:57.360000Z</time>
      </trkpt>
      <trkpt lat="35.95280691" lon="120.21352079">
        <time>2019-04-18T22:11:01.359000Z</time>
      </trkpt>
      <trkpt lat="35.95279925" lon="120.21338257">
        <time>2019-04-18T22:11:06.356000Z</time>
      </trkpt>
      <trkpt lat="35.95277966" lon="120.21327396">
        <time>2019-04-18T22:11:10.357000Z</time>
      </trkpt>
      <trkpt lat="35.9527399" lon="120.21316774">
        <time>2019-04-18T22:11:14.358000Z</time>
      </trkpt>
      <trkpt lat="35.95270634" lon="120.21305574">
        <time>2019-04-18T22:11:18.368000Z</time>
      </trkpt>
      <trkpt lat="35.95266565" lon="120.21295354">
        <time>2019-04-18T22:11:22.362000Z</time>
      </trkpt>
      <trkpt lat="35.95261994" lon="120.21285069">
        <time>2019-04-18T22:11:26.357000Z</time>
      </trkpt>
      <trkpt lat="35.95259871" lon="120.21272875">
        <time>2019-04-18T22:11:30.363000Z</time>
      </trkpt>
      <trkpt lat="35.95257186" lon="120.21261812">
        <time>2019-04-18T22:11:34.389000Z</time>
      </trkpt>
      <trkpt lat="35.95255703" lon="120.21249742">
        <time>2019-04-18T22:11:38.362000Z</time>
      </trkpt>
      <trkpt lat="35.952559" lon="120.21236443">
        <time>2019-04-18T22:11:42.353000Z</time>
      </trkpt>
      <trkpt lat="35.95254702" lon="120.21223231">
        <time>2019-04-18T22:11:46.367000Z</time>
      </trkpt>
      <trkpt lat="35.95251798" lon="120.21211531">
        <time>2019-04-18T22:11:50.356000Z</time>
      </trkpt>
      <trkpt lat="35.95248445" lon="120.21200272">
        <time>2019-04-18T22:11:54.356000Z</time>
      </trkpt>
      <trkpt lat="35.95249984" lon="120.21188528">
        <time>2019-04-18T22:11:58.352000Z</time>
      </trkpt>
      <trkpt lat="35.95247018" lon="120.21177839">
        <time>2019-04-18T22:12:02.357000Z</time>
      </trkpt>
      <trkpt lat="35.95244624" lon="120.21165495">
        <time>2019-04-18T22:12:06.356000Z</time>
      </trkpt>
      <trkpt lat="35.95240859" lon="120.21153744">
        <time>2019-04-18T22:12:10.371000Z</time>
      </trkpt>
      <trkpt lat="35.95239431" lon="120.21141684">
        <time>2019-04-18T22:12:14.357000Z</time>
      </trkpt>
      <trkpt lat="35.95241145" lon="120.21128652">
        <time>2019-04-18T22:12:18.357000Z</time>
      </trkpt>
      <trkpt lat="35.95240258" lon="120.21115945">
        <time>2019-04-18T22:12:22.391000Z</time>
      </trkpt>
      <trkpt lat="35.95239674" lon="120.21103932">
        <time>2019-04-18T22:12:26.372000Z</time>
      </trkpt>
      <trkpt lat="35.95236415" lon="120.21092051">
        <time>2019-04-18T22:12:30.355000Z</time>
      </trkpt>
      <trkpt lat="35.95232058" lon="120.21081239">
        <time>2019-04-18T22:12:34.394000Z</time>
      </trkpt>
      <trkpt lat="35.95227257" lon="120.21069378">
        <time>2019-04-18T22:12:38.360000Z</time>
      </trkpt>
      <trkpt lat="35.95224023" lon="120.21057719">
        <time>2019-04-18T22:12:42.364000Z</time>
      </trkpt>
      <trkpt lat="35.95218877" lon="120.21046">
        <time>2019-04-18T22:12:46.359000Z</time>
      </trkpt>
      <trkpt lat="35.95218877" lon="120.21046">
        <time>2019-04-18T22:12:49.353000Z</time>
      </trkpt>
      <trkpt lat="35.95214976" lon="120.21034839">
        <time>2019-04-18T22:12:51.365000Z</time>
      </trkpt>
      <trkpt lat="35.95214976" lon="120.21034839">
        <time>2019-04-18T22:13:43.354000Z</time>
      </trkpt>
      <trkpt lat="35.95214976" lon="120.21034839">
        <time>2019-04-18T22:13:43.368000Z</time>
      </trkpt>
      <trkpt lat="35.95203439" lon="120.21040632">
        <time>2019-04-18T22:13:46.347000Z</time>
      </trkpt>
      <trkpt lat="35.95194771" lon="120.21043649">
        <time>2019-04-18T22:13:50.353000Z</time>
      </trkpt>
      <trkpt lat="35.95194771" lon="120.21043649">
        <time>2019-04-18T22:13:53.353000Z</time>
      </trkpt>
      <trkpt lat="35.951856" lon="120.2104596">
        <time>2019-04-18T22:13:54.350000Z</time>
      </trkpt>
      <trkpt lat="35.95176362" lon="120.2104761">
        <time>2019-04-18T22:13:58.353000Z</time>
      </trkpt>
      <trkpt lat="35.95176362" lon="120.2104761">
        <time>2019-04-18T22:14:02.359000Z</time>
      </trkpt>
      <trkpt lat="35.94720167" lon="120.2116369">
        <time>2019-04-18T22:16:59.367000Z</time>
      </trkpt>
      <trkpt lat="35.94709152" lon="120.21165084">
        <time>2019-04-18T22:17:02.353000Z</time>
      </trkpt>
      <trkpt lat="35.94709152" lon="120.21165084">
        <time>2019-04-18T22:17:05.360000Z</time>
      </trkpt>
      <trkpt lat="35.9459059" lon="120.21194858">
        <time>2019-04-18T22:17:55.363000Z</time>
      </trkpt>
      <trkpt lat="35.9459059" lon="120.21194858">
        <time>2019-04-18T22:18:00.356000Z</time>
      </trkpt>
      <trkpt lat="35.94542099" lon="120.2121934">
        <time>2019-04-18T22:18:12.365000Z</time>
      </trkpt>
      <trkpt lat="35.94533686" lon="120.21225323">
        <time>2019-04-18T22:18:15.360000Z</time>
      </trkpt>
      <trkpt lat="35.94533686" lon="120.21225323">
        <time>2019-04-18T22:18:16.039000Z</time>
      </trkpt>
      <trkpt lat="35.94525379" lon="120.21230242">
        <time>2019-04-18T22:18:18.356000Z</time>
      </trkpt>
      <trkpt lat="35.94516123" lon="120.21231329">
        <time>2019-04-18T22:18:22.361000Z</time>
      </trkpt>
      <trkpt lat="35.94505722" lon="120.21231369">
        <time>2019-04-18T22:18:26.359000Z</time>
      </trkpt>
      <trkpt lat="35.94495451" lon="120.2123261">
        <time>2019-04-18T22:18:30.360000Z</time>
      </trkpt>
      <trkpt lat="35.94487866" lon="120.21239343">
        <time>2019-04-18T22:18:34.355000Z</time>
      </trkpt>
      <trkpt lat="35.94479764" lon="120.21247428">
        <time>2019-04-18T22:18:38.359000Z</time>
      </trkpt>
      <trkpt lat="35.94469703" lon="120.2125241">
        <time>2019-04-18T22:18:42.357000Z</time>
      </trkpt>
      <trkpt lat="35.94462283" lon="120.21261417">
        <time>2019-04-18T22:18:46.359000Z</time>
      </trkpt>
      <trkpt lat="35.94453302" lon="120.21267629">
        <time>2019-04-18T22:18:51.359000Z</time>
      </trkpt>
      <trkpt lat="35.94445454" lon="120.21275442">
        <time>2019-04-18T22:18:55.418000Z</time>
      </trkpt>
      <trkpt lat="35.94436259" lon="120.21279439">
        <time>2019-04-18T22:18:59.354000Z</time>
      </trkpt>
      <trkpt lat="35.94427958" lon="120.21285462">
        <time>2019-04-18T22:19:03.359000Z</time>
      </trkpt>
      <trkpt lat="35.94419481" lon="120.21292125">
        <time>2019-04-18T22:19:07.359000Z</time>
      </trkpt>
      <trkpt lat="35.94410501" lon="120.21299937">
        <time>2019-04-18T22:19:11.370000Z</time>
      </trkpt>
      <trkpt lat="35.94400711" lon="120.21304996">
        <time>2019-04-18T22:19:15.366000Z</time>
      </trkpt>
      <trkpt lat="35.94389666" lon="120.21304163">
        <time>2019-04-18T22:19:19.353000Z</time>
      </trkpt>
      <trkpt lat="35.9437973" lon="120.21297662">
        <time>2019-04-18T22:19:23.358000Z</time>
      </trkpt>
      <trkpt lat="35.94373535" lon="120.21286598">
        <time>2019-04-18T22:19:27.355000Z</time>
      </trkpt>
      <trkpt lat="35.94369078" lon="120.21273687">
        <time>2019-04-18T22:19:31.352000Z</time>
      </trkpt>
      <trkpt lat="35.94363758" lon="120.21262293">
        <time>2019-04-18T22:19:35.373000Z</time>
      </trkpt>
      <trkpt lat="35.94359727" lon="120.21250726">
        <time>2019-04-18T22:19:39.356000Z</time>
      </trkpt>
      <trkpt lat="35.94352911" lon="120.21242907">
        <time>2019-04-18T22:19:43.387000Z</time>
      </trkpt>
      <trkpt lat="35.94343174" lon="120.21236782">
        <time>2019-04-18T22:19:47.349000Z</time>
      </trkpt>
      <trkpt lat="35.94343174" lon="120.21236782">
        <time>2019-04-18T22:19:51.358000Z</time>
      </trkpt>
      <trkpt lat="35.94309072" lon="120.21195451">
        <time>2019-04-18T22:20:04.373000Z</time>
      </trkpt>
      <trkpt lat="35.9429971" lon="120.21190028">
        <time>2019-04-18T22:20:09.363000Z</time>
      </trkpt>
      <trkpt lat="35.9429148" lon="120.21184037">
        <time>2019-04-18T22:20:14.359000Z</time>
      </trkpt>
      <trkpt lat="35.94286273" lon="120.21172929">
        <time>2019-04-18T22:20:18.361000Z</time>
      </trkpt>
      <trkpt lat="35.9427828" lon="120.21165026">
        <time>2019-04-18T22:20:23.353000Z</time>
      </trkpt>
      <trkpt lat="35.94274054" lon="120.21151951">
        <time>2019-04-18T22:20:27.357000Z</time>
      </trkpt>
      <trkpt lat="35.94270295" lon="120.21139171">
        <time>2019-04-18T22:20:31.358000Z</time>
      </trkpt>
      <trkpt lat="35.94264217" lon="120.21130417">
        <time>2019-04-18T22:20:34.364000Z</time>
      </trkpt>
      <trkpt lat="35.94255248" lon="120.21121093">
        <time>2019-04-18T22:20:38.359000Z</time>
      </trkpt>
      <trkpt lat="35.94247687" lon="120.21111266">
        <time>2019-04-18T22:20:42.358000Z</time>
      </trkpt>
      <trkpt lat="35.94240739" lon="120.21102602">
        <time>2019-04-18T22:20:46.350000Z</time>
      </trkpt>
      <trkpt lat="35.9423462" lon="120.21093296">
        <time>2019-04-18T22:20:50.356000Z</time>
      </trkpt>
      <trkpt lat="35.94229139" lon="120.21081902">
        <time>2019-04-18T22:20:54.354000Z</time>
      </trkpt>
      <trkpt lat="35.94227465" lon="120.21068333">
        <time>2019-04-18T22:20:58.356000Z</time>
      </trkpt>
      <trkpt lat="35.94221434" lon="120.21059056">
        <time>2019-04-18T22:21:02.356000Z</time>
      </trkpt>
      <trkpt lat="35.94214447" lon="120.21049282">
        <time>2019-04-18T22:21:06.349000Z</time>
      </trkpt>
      <trkpt lat="35.94208925" lon="120.21037122">
        <time>2019-04-18T22:21:10.362000Z</time>
      </trkpt>
      <trkpt lat="35.94207662" lon="120.21025839">
        <time>2019-04-18T22:21:13.356000Z</time>
      </trkpt>
      <trkpt lat="35.94205834" lon="120.21013238">
        <time>2019-04-18T22:21:17.350000Z</time>
      </trkpt>
      <trkpt lat="35.94198541" lon="120.21005451">
        <time>2019-04-18T22:21:21.362000Z</time>
      </trkpt>
      <trkpt lat="35.94191303" lon="120.20996865">
        <time>2019-04-18T22:21:25.358000Z</time>
      </trkpt>
      <trkpt lat="35.94187846" lon="120.20986075">
        <time>2019-04-18T22:21:28.358000Z</time>
      </trkpt>
      <trkpt lat="35.94184678" lon="120.20975626">
        <time>2019-04-18T22:21:31.358000Z</time>
      </trkpt>
      <trkpt lat="35.94181317" lon="120.20962023">
        <time>2019-04-18T22:21:35.373000Z</time>
      </trkpt>
      <trkpt lat="35.94181317" lon="120.20962023">
        <time>2019-04-18T22:21:39.362000Z</time>
      </trkpt>
      <trkpt lat="35.94179511" lon="120.20949052">
        <time>2019-04-18T22:21:40.357000Z</time>
      </trkpt>
      <trkpt lat="35.94179284" lon="120.2093723">
        <time>2019-04-18T22:21:46.357000Z</time>
      </trkpt>
      <trkpt lat="35.94179284" lon="120.2093723">
        <time>2019-04-18T22:25:46.348000Z</time>
      </trkpt>
      <trkpt lat="35.94179284" lon="120.2093723">
        <time>2019-04-18T22:25:46.356000Z</time>
      </trkpt>
      <trkpt lat="35.94189047" lon="120.20928644">
        <time>2019-04-18T22:25:48.357000Z</time>
      </trkpt>
      <trkpt lat="35.9419816" lon="120.20925616">
        <time>2019-04-18T22:25:52.357000Z</time>
      </trkpt>
      <trkpt lat="35.94207478" lon="120.20923836">
        <time>2019-04-18T22:25:56.360000Z</time>
      </trkpt>
      <trkpt lat="35.9421814" lon="120.20922605">
        <time>2019-04-18T22:26:00.361000Z</time>
      </trkpt>
      <trkpt lat="35.94228578" lon="120.20917642">
        <time>2019-04-18T22:26:04.353000Z</time>
      </trkpt>
      <trkpt lat="35.94239819" lon="120.20912005">
        <time>2019-04-18T22:26:08.355000Z</time>
      </trkpt>
      <trkpt lat="35.94248314" lon="120.20906312">
        <time>2019-04-18T22:26:11.355000Z</time>
      </trkpt>
      <trkpt lat="35.94256655" lon="120.20900916">
        <time>2019-04-18T22:26:14.356000Z</time>
      </trkpt>
      <trkpt lat="35.94267149" lon="120.20894593">
        <time>2019-04-18T22:26:18.350000Z</time>
      </trkpt>
      <trkpt lat="35.94278141" lon="120.20892315">
        <time>2019-04-18T22:26:22.353000Z</time>
      </trkpt>
      <trkpt lat="35.94287187" lon="120.20892171">
        <time>2019-04-18T22:26:25.364000Z</time>
      </trkpt>
      <trkpt lat="35.94297113" lon="120.20892482">
        <time>2019-04-18T22:26:28.357000Z</time>
      </trkpt>
      <trkpt lat="35.94306427" lon="120.20889884">
        <time>2019-04-18T22:26:31.357000Z</time>
      </trkpt>
      <trkpt lat="35.94317886" lon="120.20885445">
        <time>2019-04-18T22:26:35.361000Z</time>
      </trkpt>
      <trkpt lat="35.94327649" lon="120.20884116">
        <time>2019-04-18T22:26:38.342000Z</time>
      </trkpt>
      <trkpt lat="35.94336732" lon="120.20881869">
        <time>2019-04-18T22:26:41.358000Z</time>
      </trkpt>
      <trkpt lat="35.94345637" lon="120.20878742">
        <time>2019-04-18T22:26:44.359000Z</time>
      </trkpt>
      <trkpt lat="35.94354463" lon="120.2087527">
        <time>2019-04-18T22:26:47.348000Z</time>
      </trkpt>
      <trkpt lat="35.94366018" lon="120.20871485">
        <time>2019-04-18T22:26:51.357000Z</time>
      </trkpt>
      <trkpt lat="35.9437687" lon="120.20867496">
        <time>2019-04-18T22:26:55.359000Z</time>
      </trkpt>
      <trkpt lat="35.94386636" lon="120.20866865">
        <time>2019-04-18T22:26:58.347000Z</time>
      </trkpt>
      <trkpt lat="35.94397535" lon="120.20871362">
        <time>2019-04-18T22:27:02.360000Z</time>
      </trkpt>
      <trkpt lat="35.94405806" lon="120.2087619">
        <time>2019-04-18T22:27:05.352000Z</time>
      </trkpt>
      <trkpt lat="35.94414054" lon="120.20882032">
        <time>2019-04-18T22:27:08.353000Z</time>
      </trkpt>
      <trkpt lat="35.94423437" lon="120.2088587">
        <time>2019-04-18T22:27:11.360000Z</time>
      </trkpt>
      <trkpt lat="35.94432641" lon="120.20886693">
        <time>2019-04-18T22:27:14.367000Z</time>
      </trkpt>
      <trkpt lat="35.94443961" lon="120.20888375">
        <time>2019-04-18T22:27:18.351000Z</time>
      </trkpt>
      <trkpt lat="35.94452984" lon="120.20888766">
        <time>2019-04-18T22:27:21.357000Z</time>
      </trkpt>
      <trkpt lat="35.94462574" lon="120.20885185">
        <time>2019-04-18T22:27:24.358000Z</time>
      </trkpt>
      <trkpt lat="35.94472173" lon="120.2088391">
        <time>2019-04-18T22:27:27.352000Z</time>
      </trkpt>
      <trkpt lat="35.94483333" lon="120.20880035">
        <time>2019-04-18T22:27:31.358000Z</time>
      </trkpt>
      <trkpt lat="35.94493614" lon="120.20879796">
        <time>2019-04-18T22:27:35.476000Z</time>
      </trkpt>
      <trkpt lat="35.94504446" lon="120.20878946">
        <time>2019-04-18T22:27:39.444000Z</time>
      </trkpt>
      <trkpt lat="35.9451627" lon="120.20877982">
        <time>2019-04-18T22:27:43.360000Z</time>
      </trkpt>
      <trkpt lat="35.94527874" lon="120.20877192">
        <time>2019-04-18T22:27:47.518000Z</time>
      </trkpt>
      <trkpt lat="35.94539731" lon="120.2087727">
        <time>2019-04-18T22:27:51.358000Z</time>
      </trkpt>
      <trkpt lat="35.94548635" lon="120.20875432">
        <time>2019-04-18T22:27:54.357000Z</time>
      </trkpt>
      <trkpt lat="35.9455936" lon="120.20874513">
        <time>2019-04-18T22:27:58.351000Z</time>
      </trkpt>
      <trkpt lat="35.94570992" lon="120.20873865">
        <time>2019-04-18T22:28:02.366000Z</time>
      </trkpt>
      <trkpt lat="35.94580203" lon="120.20873352">
        <time>2019-04-18T22:28:05.358000Z</time>
      </trkpt>
      <trkpt lat="35.94590167" lon="120.2087197">
        <time>2019-04-18T22:28:08.354000Z</time>
      </trkpt>
      <trkpt lat="35.94599759" lon="120.20868977">
        <time>2019-04-18T22:28:11.360000Z</time>
      </trkpt>
      <trkpt lat="35.9461162" lon="120.20866155">
        <time>2019-04-18T22:28:15.562000Z</time>
      </trkpt>
      <trkpt lat="35.94622423" lon="120.20866108">
        <time>2019-04-18T22:28:19.360000Z</time>
      </trkpt>
      <trkpt lat="35.94634239" lon="120.20864405">
        <time>2019-04-18T22:28:23.364000Z</time>
      </trkpt>
      <trkpt lat="35.94645537" lon="120.20863463">
        <time>2019-04-18T22:28:27.355000Z</time>
      </trkpt>
      <trkpt lat="35.94654993" lon="120.20863091">
        <time>2019-04-18T22:28:30.358000Z</time>
      </trkpt>
      <trkpt lat="35.946641" lon="120.2086325">
        <time>2019-04-18T22:28:33.358000Z</time>
      </trkpt>
      <trkpt lat="35.94676117" lon="120.20861985">
        <time>2019-04-18T22:28:37.374000Z</time>
      </trkpt>
      <trkpt lat="35.94685866" lon="120.20860715">
        <time>2019-04-18T22:28:40.363000Z</time>
      </trkpt>
      <trkpt lat="35.94695556" lon="120.2085957">
        <time>2019-04-18T22:28:43.364000Z</time>
      </trkpt>
      <trkpt lat="35.94704797" lon="120.20857683">
        <time>2019-04-18T22:28:46.356000Z</time>
      </trkpt>
      <trkpt lat="35.94710069" lon="120.20845425">
        <time>2019-04-18T22:28:50.360000Z</time>
      </trkpt>
      <trkpt lat="35.94708226" lon="120.20834399">
        <time>2019-04-18T22:28:53.364000Z</time>
      </trkpt>
      <trkpt lat="35.94705329" lon="120.20821986">
        <time>2019-04-18T22:28:57.359000Z</time>
      </trkpt>
      <trkpt lat="35.94703131" lon="120.20810752">
        <time>2019-04-18T22:29:01.358000Z</time>
      </trkpt>
      <trkpt lat="35.94702509" lon="120.20797014">
        <time>2019-04-18T22:29:05.355000Z</time>
      </trkpt>
      <trkpt lat="35.94702214" lon="120.20784206">
        <time>2019-04-18T22:29:09.373000Z</time>
      </trkpt>
      <trkpt lat="35.9470077" lon="120.20772551">
        <time>2019-04-18T22:29:13.355000Z</time>
      </trkpt>
      <trkpt lat="35.94698953" lon="120.20758334">
        <time>2019-04-18T22:29:17.362000Z</time>
      </trkpt>
      <trkpt lat="35.94698769" lon="120.20743752">
        <time>2019-04-18T22:29:21.359000Z</time>
      </trkpt>
      <trkpt lat="35.94698167" lon="120.2073246">
        <time>2019-04-18T22:29:24.359000Z</time>
      </trkpt>
      <trkpt lat="35.94699945" lon="120.20721332">
        <time>2019-04-18T22:29:27.371000Z</time>
      </trkpt>
      <trkpt lat="35.94703756" lon="120.20710836">
        <time>2019-04-18T22:29:30.353000Z</time>
      </trkpt>
      <trkpt lat="35.94710579" lon="120.20698693">
        <time>2019-04-18T22:29:34.361000Z</time>
      </trkpt>
      <trkpt lat="35.94716195" lon="120.20685919">
        <time>2019-04-18T22:29:38.358000Z</time>
      </trkpt>
      <trkpt lat="35.94721522" lon="120.20673224">
        <time>2019-04-18T22:29:42.355000Z</time>
      </trkpt>
      <trkpt lat="35.94726557" lon="120.20660405">
        <time>2019-04-18T22:29:46.358000Z</time>
      </trkpt>
      <trkpt lat="35.94730879" lon="120.2065061">
        <time>2019-04-18T22:29:49.359000Z</time>
      </trkpt>
      <trkpt lat="35.94736988" lon="120.20637911">
        <time>2019-04-18T22:29:53.363000Z</time>
      </trkpt>
      <trkpt lat="35.94740766" lon="120.2062746">
        <time>2019-04-18T22:29:56.372000Z</time>
      </trkpt>
      <trkpt lat="35.94744409" lon="120.20616736">
        <time>2019-04-18T22:29:59.375000Z</time>
      </trkpt>
      <trkpt lat="35.94748467" lon="120.20606638">
        <time>2019-04-18T22:30:02.359000Z</time>
      </trkpt>
      <trkpt lat="35.94752983" lon="120.20596602">
        <time>2019-04-18T22:30:05.364000Z</time>
      </trkpt>
      <trkpt lat="35.94758065" lon="120.20583981">
        <time>2019-04-18T22:30:09.363000Z</time>
      </trkpt>
      <trkpt lat="35.94763276" lon="120.20570947">
        <time>2019-04-18T22:30:13.360000Z</time>
      </trkpt>
      <trkpt lat="35.94769335" lon="120.20559342">
        <time>2019-04-18T22:30:17.366000Z</time>
      </trkpt>
      <trkpt lat="35.94774492" lon="120.20546662">
        <time>2019-04-18T22:30:21.364000Z</time>
      </trkpt>
      <trkpt lat="35.94778911" lon="120.20536487">
        <time>2019-04-18T22:30:24.355000Z</time>
      </trkpt>
      <trkpt lat="35.94784612" lon="120.20524959">
        <time>2019-04-18T22:30:28.361000Z</time>
      </trkpt>
      <trkpt lat="35.94788875" lon="120.2051156">
        <time>2019-04-18T22:30:32.357000Z</time>
      </trkpt>
      <trkpt lat="35.94790993" lon="120.20500634">
        <time>2019-04-18T22:30:35.358000Z</time>
      </trkpt>
      <trkpt lat="35.94792012" lon="120.20489444">
        <time>2019-04-18T22:30:38.360000Z</time>
      </trkpt>
      <trkpt lat="35.94791948" lon="120.20477669">
        <time>2019-04-18T22:30:41.360000Z</time>
      </trkpt>
      <trkpt lat="35.94791862" lon="120.20465747">
        <time>2019-04-18T22:30:44.360000Z</time>
      </trkpt>
      <trkpt lat="35.94792364" lon="120.20452643">
        <time>2019-04-18T22:30:48.360000Z</time>
      </trkpt>
      <trkpt lat="35.94792464" lon="120.2043936">
        <time>2019-04-18T22:30:52.362000Z</time>
      </trkpt>
      <trkpt lat="35.94794001" lon="120.2042842">
        <time>2019-04-18T22:30:56.360000Z</time>
      </trkpt>
      <trkpt lat="35.94805207" lon="120.20431447">
        <time>2019-04-18T22:31:00.368000Z</time>
      </trkpt>
      <trkpt lat="35.94815695" lon="120.20436245">
        <time>2019-04-18T22:31:04.362000Z</time>
      </trkpt>
      <trkpt lat="35.94823478" lon="120.20442932">
        <time>2019-04-18T22:31:08.353000Z</time>
      </trkpt>
      <trkpt lat="35.94830662" lon="120.20449941">
        <time>2019-04-18T22:31:12.370000Z</time>
      </trkpt>
      <trkpt lat="35.94840383" lon="120.20458921">
        <time>2019-04-18T22:31:16.363000Z</time>
      </trkpt>
      <trkpt lat="35.94849007" lon="120.20465267">
        <time>2019-04-18T22:31:19.362000Z</time>
      </trkpt>
      <trkpt lat="35.94856936" lon="120.20474692">
        <time>2019-04-18T22:31:23.378000Z</time>
      </trkpt>
      <trkpt lat="35.94863876" lon="120.20483016">
        <time>2019-04-18T22:31:27.360000Z</time>
      </trkpt>
      <trkpt lat="35.94872287" lon="120.20490759">
        <time>2019-04-18T22:31:31.356000Z</time>
      </trkpt>
      <trkpt lat="35.94881343" lon="120.20497528">
        <time>2019-04-18T22:31:35.355000Z</time>
      </trkpt>
      <trkpt lat="35.94888965" lon="120.20507366">
        <time>2019-04-18T22:31:39.366000Z</time>
      </trkpt>
      <trkpt lat="35.94897672" lon="120.20515347">
        <time>2019-04-18T22:31:43.359000Z</time>
      </trkpt>
      <trkpt lat="35.94906319" lon="120.20525372">
        <time>2019-04-18T22:31:47.363000Z</time>
      </trkpt>
      <trkpt lat="35.94913903" lon="120.20534793">
        <time>2019-04-18T22:31:51.360000Z</time>
      </trkpt>
      <trkpt lat="35.94921442" lon="120.20542573">
        <time>2019-04-18T22:31:55.358000Z</time>
      </trkpt>
      <trkpt lat="35.94928559" lon="120.20550747">
        <time>2019-04-18T22:31:59.363000Z</time>
      </trkpt>
      <trkpt lat="35.94936415" lon="120.20560879">
        <time>2019-04-18T22:32:03.357000Z</time>
      </trkpt>
      <trkpt lat="35.94944533" lon="120.20570424">
        <time>2019-04-18T22:32:07.370000Z</time>
      </trkpt>
      <trkpt lat="35.9495155" lon="120.20581288">
        <time>2019-04-18T22:32:11.365000Z</time>
      </trkpt>
      <trkpt lat="35.94959709" lon="120.20588188">
        <time>2019-04-18T22:32:14.368000Z</time>
      </trkpt>
      <trkpt lat="35.94968341" lon="120.20594447">
        <time>2019-04-18T22:32:17.359000Z</time>
      </trkpt>
      <trkpt lat="35.94977469" lon="120.20597426">
        <time>2019-04-18T22:32:20.360000Z</time>
      </trkpt>
      <trkpt lat="35.94986233" lon="120.20594348">
        <time>2019-04-18T22:32:23.367000Z</time>
      </trkpt>
      <trkpt lat="35.94994894" lon="120.20589502">
        <time>2019-04-18T22:32:26.360000Z</time>
      </trkpt>
      <trkpt lat="35.95003658" lon="120.20585195">
        <time>2019-04-18T22:32:29.359000Z</time>
      </trkpt>
      <trkpt lat="35.95011972" lon="120.20580419">
        <time>2019-04-18T22:32:32.362000Z</time>
      </trkpt>
      <trkpt lat="35.95023171" lon="120.20576394">
        <time>2019-04-18T22:32:36.358000Z</time>
      </trkpt>
      <trkpt lat="35.95032528" lon="120.20574363">
        <time>2019-04-18T22:32:39.359000Z</time>
      </trkpt>
      <trkpt lat="35.95041263" lon="120.20566702">
        <time>2019-04-18T22:32:43.369000Z</time>
      </trkpt>
      <trkpt lat="35.95049412" lon="120.2056181">
        <time>2019-04-18T22:32:47.358000Z</time>
      </trkpt>
      <trkpt lat="35.95059909" lon="120.20559587">
        <time>2019-04-18T22:32:51.358000Z</time>
      </trkpt>
      <trkpt lat="35.95070388" lon="120.20552884">
        <time>2019-04-18T22:32:55.361000Z</time>
      </trkpt>
      <trkpt lat="35.95071595" lon="120.20538979">
        <time>2019-04-18T22:32:59.353000Z</time>
      </trkpt>
      <trkpt lat="35.95069168" lon="120.20525973">
        <time>2019-04-18T22:33:03.362000Z</time>
      </trkpt>
      <trkpt lat="35.95066863" lon="120.20513439">
        <time>2019-04-18T22:33:07.348000Z</time>
      </trkpt>
      <trkpt lat="35.95063973" lon="120.20500543">
        <time>2019-04-18T22:33:11.354000Z</time>
      </trkpt>
      <trkpt lat="35.95059959" lon="120.20488799">
        <time>2019-04-18T22:33:17.359000Z</time>
      </trkpt>
      <trkpt lat="35.95059959" lon="120.20488799">
        <time>2019-04-18T22:33:19.355000Z</time>
      </trkpt>
      <trkpt lat="35.95059712" lon="120.20477378">
        <time>2019-04-18T22:33:25.360000Z</time>
      </trkpt>
      <trkpt lat="35.95059712" lon="120.20477378">
        <time>2019-04-18T22:33:51.364000Z</time>
      </trkpt>
      <trkpt lat="35.95059712" lon="120.20477378">
        <time>2019-04-18T22:33:51.381000Z</time>
      </trkpt>
      <trkpt lat="35.95070786" lon="120.2048042">
        <time>2019-04-18T22:33:54.362000Z</time>
      </trkpt>
      <trkpt lat="35.95081007" lon="120.20477106">
        <time>2019-04-18T22:33:58.352000Z</time>
      </trkpt>
      <trkpt lat="35.95089032" lon="120.20467686">
        <time>2019-04-18T22:34:02.357000Z</time>
      </trkpt>
      <trkpt lat="35.95098094" lon="120.20459927">
        <time>2019-04-18T22:34:06.358000Z</time>
      </trkpt>
      <trkpt lat="35.95107332" lon="120.20458079">
        <time>2019-04-18T22:34:09.358000Z</time>
      </trkpt>
      <trkpt lat="35.95117934" lon="120.20454183">
        <time>2019-04-18T22:34:13.354000Z</time>
      </trkpt>
      <trkpt lat="35.95128636" lon="120.20452389">
        <time>2019-04-18T22:34:17.361000Z</time>
      </trkpt>
      <trkpt lat="35.95140425" lon="120.20451822">
        <time>2019-04-18T22:34:21.363000Z</time>
      </trkpt>
      <trkpt lat="35.95150623" lon="120.20450442">
        <time>2019-04-18T22:34:24.365000Z</time>
      </trkpt>
      <trkpt lat="35.95160372" lon="120.20448579">
        <time>2019-04-18T22:34:27.358000Z</time>
      </trkpt>
      <trkpt lat="35.95172317" lon="120.20447115">
        <time>2019-04-18T22:34:31.359000Z</time>
      </trkpt>
      <trkpt lat="35.95181696" lon="120.20447083">
        <time>2019-04-18T22:34:34.539000Z</time>
      </trkpt>
      <trkpt lat="35.95190822" lon="120.20445334">
        <time>2019-04-18T22:34:37.359000Z</time>
      </trkpt>
      <trkpt lat="35.95200719" lon="120.20444178">
        <time>2019-04-18T22:34:41.086000Z</time>
      </trkpt>
      <trkpt lat="35.95210611" lon="120.20444176">
        <time>2019-04-18T22:34:43.360000Z</time>
      </trkpt>
      <trkpt lat="35.95220592" lon="120.2044417">
        <time>2019-04-18T22:34:46.366000Z</time>
      </trkpt>
      <trkpt lat="35.95231124" lon="120.20441004">
        <time>2019-04-18T22:34:49.445000Z</time>
      </trkpt>
      <trkpt lat="35.95240674" lon="120.20439073">
        <time>2019-04-18T22:34:52.358000Z</time>
      </trkpt>
      <trkpt lat="35.9525154" lon="120.20435055">
        <time>2019-04-18T22:34:56.359000Z</time>
      </trkpt>
      <trkpt lat="35.9526355" lon="120.20435901">
        <time>2019-04-18T22:35:00.365000Z</time>
      </trkpt>
      <trkpt lat="35.95272769" lon="120.20436185">
        <time>2019-04-18T22:35:03.359000Z</time>
      </trkpt>
      <trkpt lat="35.95283115" lon="120.20435191">
        <time>2019-04-18T22:35:06.360000Z</time>
      </trkpt>
      <trkpt lat="35.952931" lon="120.20434688">
        <time>2019-04-18T22:35:09.540000Z</time>
      </trkpt>
      <trkpt lat="35.95302741" lon="120.20432546">
        <time>2019-04-18T22:35:12.357000Z</time>
      </trkpt>
      <trkpt lat="35.95314225" lon="120.20429633">
        <time>2019-04-18T22:35:16.384000Z</time>
      </trkpt>
      <trkpt lat="35.95323954" lon="120.20428112">
        <time>2019-04-18T22:35:19.354000Z</time>
      </trkpt>
      <trkpt lat="35.95333575" lon="120.20426574">
        <time>2019-04-18T22:35:22.355000Z</time>
      </trkpt>
      <trkpt lat="35.95345183" lon="120.20426974">
        <time>2019-04-18T22:35:26.366000Z</time>
      </trkpt>
      <trkpt lat="35.95355307" lon="120.2042486">
        <time>2019-04-18T22:35:30.356000Z</time>
      </trkpt>
      <trkpt lat="35.95364666" lon="120.2042153">
        <time>2019-04-18T22:35:34.360000Z</time>
      </trkpt>
      <trkpt lat="35.95375284" lon="120.20420176">
        <time>2019-04-18T22:35:38.359000Z</time>
      </trkpt>
      <trkpt lat="35.95384455" lon="120.2041852">
        <time>2019-04-18T22:35:41.357000Z</time>
      </trkpt>
      <trkpt lat="35.95395048" lon="120.20416653">
        <time>2019-04-18T22:35:45.362000Z</time>
      </trkpt>
      <trkpt lat="35.95405071" lon="120.20414452">
        <time>2019-04-18T22:35:49.361000Z</time>
      </trkpt>
      <trkpt lat="35.95413982" lon="120.20411974">
        <time>2019-04-18T22:35:52.358000Z</time>
      </trkpt>
      <trkpt lat="35.95422821" lon="120.2040865">
        <time>2019-04-18T22:35:55.361000Z</time>
      </trkpt>
      <trkpt lat="35.9543357" lon="120.20404561">
        <time>2019-04-18T22:35:59.366000Z</time>
      </trkpt>
      <trkpt lat="35.95444771" lon="120.20400767">
        <time>2019-04-18T22:36:03.359000Z</time>
      </trkpt>
      <trkpt lat="35.95455447" lon="120.20397706">
        <time>2019-04-18T22:36:07.364000Z</time>
      </trkpt>
      <trkpt lat="35.95467449" lon="120.20396336">
        <time>2019-04-18T22:36:11.360000Z</time>
      </trkpt>
      <trkpt lat="35.95476726" lon="120.2039537">
        <time>2019-04-18T22:36:14.357000Z</time>
      </trkpt>
      <trkpt lat="35.95485947" lon="120.20395627">
        <time>2019-04-18T22:36:17.360000Z</time>
      </trkpt>
      <trkpt lat="35.95495027" lon="120.20396262">
        <time>2019-04-18T22:36:20.363000Z</time>
      </trkpt>
      <trkpt lat="35.95504117" lon="120.20397464">
        <time>2019-04-18T22:36:23.361000Z</time>
      </trkpt>
      <trkpt lat="35.95515938" lon="120.20397427">
        <time>2019-04-18T22:36:27.352000Z</time>
      </trkpt>
      <trkpt lat="35.95527373" lon="120.20397848">
        <time>2019-04-18T22:36:31.357000Z</time>
      </trkpt>
      <trkpt lat="35.9553663" lon="120.20403785">
        <time>2019-04-18T22:36:35.358000Z</time>
      </trkpt>
      <trkpt lat="35.95536713" lon="120.20416618">
        <time>2019-04-18T22:36:39.355000Z</time>
      </trkpt>
      <trkpt lat="35.95534278" lon="120.20430475">
        <time>2019-04-18T22:36:43.374000Z</time>
      </trkpt>
      <trkpt lat="35.95536152" lon="120.20443136">
        <time>2019-04-18T22:36:47.359000Z</time>
      </trkpt>
      <trkpt lat="35.95536885" lon="120.20454988">
        <time>2019-04-18T22:36:51.358000Z</time>
      </trkpt>
      <trkpt lat="35.95541208" lon="120.20465589">
        <time>2019-04-18T22:36:55.358000Z</time>
      </trkpt>
      <trkpt lat="35.95545076" lon="120.20477104">
        <time>2019-04-18T22:36:59.354000Z</time>
      </trkpt>
      <trkpt lat="35.95548266" lon="120.20489248">
        <time>2019-04-18T22:37:03.362000Z</time>
      </trkpt>
      <trkpt lat="35.95550055" lon="120.20503113">
        <time>2019-04-18T22:37:07.353000Z</time>
      </trkpt>
      <trkpt lat="35.95550925" lon="120.20516013">
        <time>2019-04-18T22:37:11.360000Z</time>
      </trkpt>
      <trkpt lat="35.95551279" lon="120.20527928">
        <time>2019-04-18T22:37:15.368000Z</time>
      </trkpt>
      <trkpt lat="35.95554466" lon="120.20540779">
        <time>2019-04-18T22:37:20.370000Z</time>
      </trkpt>
      <trkpt lat="35.95554855" lon="120.20552677">
        <time>2019-04-18T22:37:24.363000Z</time>
      </trkpt>
      <trkpt lat="35.95556883" lon="120.2056467">
        <time>2019-04-18T22:37:28.367000Z</time>
      </trkpt>
      <trkpt lat="35.95557708" lon="120.20577047">
        <time>2019-04-18T22:37:32.358000Z</time>
      </trkpt>
      <trkpt lat="35.95561468" lon="120.20587886">
        <time>2019-04-18T22:37:36.359000Z</time>
      </trkpt>
      <trkpt lat="35.95564498" lon="120.20599489">
        <time>2019-04-18T22:37:40.356000Z</time>
      </trkpt>
      <trkpt lat="35.95566945" lon="120.20613128">
        <time>2019-04-18T22:37:44.360000Z</time>
      </trkpt>
      <trkpt lat="35.9556812" lon="120.20624265">
        <time>2019-04-18T22:37:47.359000Z</time>
      </trkpt>
      <trkpt lat="35.95569391" lon="120.20635616">
        <time>2019-04-18T22:37:50.361000Z</time>
      </trkpt>
      <trkpt lat="35.95571024" lon="120.2064918">
        <time>2019-04-18T22:37:54.354000Z</time>
      </trkpt>
      <trkpt lat="35.955721" lon="120.20662398">
        <time>2019-04-18T22:37:58.360000Z</time>
      </trkpt>
      <trkpt lat="35.95572796" lon="120.20675295">
        <time>2019-04-18T22:38:02.369000Z</time>
      </trkpt>
      <trkpt lat="35.95573568" lon="120.20689661">
        <time>2019-04-18T22:38:06.370000Z</time>
      </trkpt>
      <trkpt lat="35.95573936" lon="120.20702418">
        <time>2019-04-18T22:38:10.362000Z</time>
      </trkpt>
      <trkpt lat="35.9557504" lon="120.20714472">
        <time>2019-04-18T22:38:14.379000Z</time>
      </trkpt>
      <trkpt lat="35.95575969" lon="120.20727127">
        <time>2019-04-18T22:38:18.363000Z</time>
      </trkpt>
      <trkpt lat="35.95576198" lon="120.2073963">
        <time>2019-04-18T22:38:22.361000Z</time>
      </trkpt>
      <trkpt lat="35.95577441" lon="120.20753167">
        <time>2019-04-18T22:38:26.360000Z</time>
      </trkpt>
      <trkpt lat="35.95580938" lon="120.20764799">
        <time>2019-04-18T22:38:30.363000Z</time>
      </trkpt>
      <trkpt lat="35.95587729" lon="120.20773446">
        <time>2019-04-18T22:38:35.366000Z</time>
      </trkpt>
      <trkpt lat="35.95597666" lon="120.20772651">
        <time>2019-04-18T22:38:39.364000Z</time>
      </trkpt>
      <trkpt lat="35.95606371" lon="120.20769655">
        <time>2019-04-18T22:38:43.357000Z</time>
      </trkpt>
      <trkpt lat="35.95616157" lon="120.20767115">
        <time>2019-04-18T22:38:47.367000Z</time>
      </trkpt>
      <trkpt lat="35.95625684" lon="120.20768992">
        <time>2019-04-18T22:38:51.352000Z</time>
      </trkpt>
      <trkpt lat="35.95635774" lon="120.20766939">
        <time>2019-04-18T22:38:55.358000Z</time>
      </trkpt>
      <trkpt lat="35.95645989" lon="120.20761409">
        <time>2019-04-18T22:38:59.358000Z</time>
      </trkpt>
      <trkpt lat="35.95656052" lon="120.20759288">
        <time>2019-04-18T22:39:03.353000Z</time>
      </trkpt>
      <trkpt lat="35.9566139" lon="120.20770254">
        <time>2019-04-18T22:39:09.357000Z</time>
      </trkpt>
      <trkpt lat="35.95662092" lon="120.2078282">
        <time>2019-04-18T22:39:13.357000Z</time>
      </trkpt>
      <trkpt lat="35.95660228" lon="120.2079527">
        <time>2019-04-18T22:39:17.372000Z</time>
      </trkpt>
      <trkpt lat="35.95659419" lon="120.20807335">
        <time>2019-04-18T22:39:21.352000Z</time>
      </trkpt>
      <trkpt lat="35.95658689" lon="120.20818494">
        <time>2019-04-18T22:39:25.360000Z</time>
      </trkpt>
      <trkpt lat="35.95659207" lon="120.2083013">
        <time>2019-04-18T22:39:29.362000Z</time>
      </trkpt>
      <trkpt lat="35.95660296" lon="120.20841492">
        <time>2019-04-18T22:39:33.354000Z</time>
      </trkpt>
      <trkpt lat="35.95660777" lon="120.20853473">
        <time>2019-04-18T22:39:37.364000Z</time>
      </trkpt>
      <trkpt lat="35.95663396" lon="120.20865918">
        <time>2019-04-18T22:39:42.355000Z</time>
      </trkpt>
      <trkpt lat="35.95663396" lon="120.20865918">
        <time>2019-04-18T22:39:44.138000Z</time>
      </trkpt>
      <trkpt lat="35.95663865" lon="120.20869544">
        <time>2019-04-18T22:39:44.943000Z</time>
      </trkpt>
    </trkseg>
  </trk>
</gpx>