<?xml version="1.0" encoding="UTF-8"?>
<gpx xmlns="http://www.topografix.com/GPX/1/1" xmlns:gpxtpx="http://www.garmin.com/xmlschemas/TrackPointExtension/v1" xmlns:xsi="http://www.w3.org/2001/XMLSchema-instance" xsi:schemaLocation="http://www.topografix.com/GPX/1/1 http://www.topografix.com/GPX/1/1/gpx.xsd" version="1.1" creator="gpx.py -- https://github.com/tkrajina/gpxpy">
  <trk>
    <name>星期六 早晨跑步</name>
    <trkseg>
      <trkpt lat="35.95689851" lon="120.20987885">
        <time>2019-05-17T22:21:57.261000Z</time>
      </trkpt>
      <trkpt lat="35.95690861" lon="120.2098736">
        <time>2019-05-17T22:21:58.108000Z</time>
      </trkpt>
      <trkpt lat="35.95701118" lon="120.20984301">
        <time>2019-05-17T22:22:05.106000Z</time>
      </trkpt>
      <trkpt lat="35.95711107" lon="120.20981351">
        <time>2019-05-17T22:22:09.139000Z</time>
      </trkpt>
      <trkpt lat="35.9572069" lon="120.20978838">
        <time>2019-05-17T22:22:12.120000Z</time>
      </trkpt>
      <trkpt lat="35.95731798" lon="120.20978048">
        <time>2019-05-17T22:22:16.126000Z</time>
      </trkpt>
      <trkpt lat="35.95731798" lon="120.20978048">
        <time>2019-05-17T22:22:18.133000Z</time>
      </trkpt>
      <trkpt lat="35.95742474" lon="120.20976085">
        <time>2019-05-17T22:22:21.138000Z</time>
      </trkpt>
      <trkpt lat="35.95752104" lon="120.20974615">
        <time>2019-05-17T22:22:25.137000Z</time>
      </trkpt>
      <trkpt lat="35.95761302" lon="120.20972096">
        <time>2019-05-17T22:22:30.122000Z</time>
      </trkpt>
      <trkpt lat="35.95770218" lon="120.2097057">
        <time>2019-05-17T22:22:33.149000Z</time>
      </trkpt>
      <trkpt lat="35.95780045" lon="120.20970339">
        <time>2019-05-17T22:22:36.129000Z</time>
      </trkpt>
      <trkpt lat="35.95790388" lon="120.20975357">
        <time>2019-05-17T22:22:40.139000Z</time>
      </trkpt>
      <trkpt lat="35.95791894" lon="120.20986569">
        <time>2019-05-17T22:22:43.126000Z</time>
      </trkpt>
      <trkpt lat="35.9579575" lon="120.20998098">
        <time>2019-05-17T22:22:47.127000Z</time>
      </trkpt>
      <trkpt lat="35.9579749" lon="120.21010046">
        <time>2019-05-17T22:22:51.143000Z</time>
      </trkpt>
      <trkpt lat="35.95801621" lon="120.21020136">
        <time>2019-05-17T22:22:55.124000Z</time>
      </trkpt>
      <trkpt lat="35.95801121" lon="120.21032167">
        <time>2019-05-17T22:22:58.128000Z</time>
      </trkpt>
      <trkpt lat="35.95799483" lon="120.21045497">
        <time>2019-05-17T22:23:02.124000Z</time>
      </trkpt>
      <trkpt lat="35.9579915" lon="120.21059119">
        <time>2019-05-17T22:23:06.104000Z</time>
      </trkpt>
      <trkpt lat="35.95793777" lon="120.21069058">
        <time>2019-05-17T22:23:12.123000Z</time>
      </trkpt>
      <trkpt lat="35.95784584" lon="120.21071692">
        <time>2019-05-17T22:23:15.111000Z</time>
      </trkpt>
      <trkpt lat="35.9577493" lon="120.2107358">
        <time>2019-05-17T22:23:18.107000Z</time>
      </trkpt>
      <trkpt lat="35.95765754" lon="120.21074607">
        <time>2019-05-17T22:23:24.110000Z</time>
      </trkpt>
      <trkpt lat="35.95757026" lon="120.21080063">
        <time>2019-05-17T22:23:28.116000Z</time>
      </trkpt>
      <trkpt lat="35.95748253" lon="120.21083134">
        <time>2019-05-17T22:23:32.110000Z</time>
      </trkpt>
      <trkpt lat="35.95739389" lon="120.21087356">
        <time>2019-05-17T22:23:36.120000Z</time>
      </trkpt>
      <trkpt lat="35.95730675" lon="120.21092541">
        <time>2019-05-17T22:23:39.112000Z</time>
      </trkpt>
      <trkpt lat="35.95721247" lon="120.21095086">
        <time>2019-05-17T22:23:42.125000Z</time>
      </trkpt>
      <trkpt lat="35.95710698" lon="120.21098511">
        <time>2019-05-17T22:23:46.103000Z</time>
      </trkpt>
      <trkpt lat="35.95701358" lon="120.21102824">
        <time>2019-05-17T22:23:50.121000Z</time>
      </trkpt>
      <trkpt lat="35.95690111" lon="120.21103802">
        <time>2019-05-17T22:23:54.129000Z</time>
      </trkpt>
      <trkpt lat="35.95679096" lon="120.21104615">
        <time>2019-05-17T22:23:58.138000Z</time>
      </trkpt>
      <trkpt lat="35.95668923" lon="120.21105311">
        <time>2019-05-17T22:24:02.130000Z</time>
      </trkpt>
      <trkpt lat="35.95657889" lon="120.21107907">
        <time>2019-05-17T22:24:07.131000Z</time>
      </trkpt>
      <trkpt lat="35.95646747" lon="120.2111105">
        <time>2019-05-17T22:24:11.132000Z</time>
      </trkpt>
      <trkpt lat="35.95635987" lon="120.21112657">
        <time>2019-05-17T22:24:15.118000Z</time>
      </trkpt>
      <trkpt lat="35.95625388" lon="120.21113468">
        <time>2019-05-17T22:24:19.123000Z</time>
      </trkpt>
      <trkpt lat="35.95614735" lon="120.21114916">
        <time>2019-05-17T22:24:23.132000Z</time>
      </trkpt>
      <trkpt lat="35.95603981" lon="120.21115887">
        <time>2019-05-17T22:24:27.130000Z</time>
      </trkpt>
      <trkpt lat="35.95593239" lon="120.21116411">
        <time>2019-05-17T22:24:31.126000Z</time>
      </trkpt>
      <trkpt lat="35.95584211" lon="120.21117591">
        <time>2019-05-17T22:24:35.136000Z</time>
      </trkpt>
      <trkpt lat="35.95575349" lon="120.21122017">
        <time>2019-05-17T22:24:40.123000Z</time>
      </trkpt>
      <trkpt lat="35.95573307" lon="120.21135608">
        <time>2019-05-17T22:24:44.141000Z</time>
      </trkpt>
      <trkpt lat="35.95564896" lon="120.21145362">
        <time>2019-05-17T22:24:48.123000Z</time>
      </trkpt>
      <trkpt lat="35.95555138" lon="120.211518">
        <time>2019-05-17T22:24:52.126000Z</time>
      </trkpt>
      <trkpt lat="35.95553608" lon="120.21164231">
        <time>2019-05-17T22:24:56.141000Z</time>
      </trkpt>
      <trkpt lat="35.95555264" lon="120.21176875">
        <time>2019-05-17T22:25:00.131000Z</time>
      </trkpt>
      <trkpt lat="35.95559376" lon="120.21188203">
        <time>2019-05-17T22:25:04.135000Z</time>
      </trkpt>
      <trkpt lat="35.95561104" lon="120.21201017">
        <time>2019-05-17T22:25:08.110000Z</time>
      </trkpt>
      <trkpt lat="35.955621" lon="120.21213571">
        <time>2019-05-17T22:25:12.125000Z</time>
      </trkpt>
      <trkpt lat="35.95565701" lon="120.21225125">
        <time>2019-05-17T22:25:16.121000Z</time>
      </trkpt>
      <trkpt lat="35.95570744" lon="120.21236809">
        <time>2019-05-17T22:25:20.116000Z</time>
      </trkpt>
      <trkpt lat="35.95574436" lon="120.21247861">
        <time>2019-05-17T22:25:24.117000Z</time>
      </trkpt>
      <trkpt lat="35.95578012" lon="120.21260143">
        <time>2019-05-17T22:25:29.115000Z</time>
      </trkpt>
      <trkpt lat="35.955824" lon="120.21272392">
        <time>2019-05-17T22:25:34.124000Z</time>
      </trkpt>
      <trkpt lat="35.95586257" lon="120.21282709">
        <time>2019-05-17T22:25:38.119000Z</time>
      </trkpt>
      <trkpt lat="35.95588604" lon="120.21296328">
        <time>2019-05-17T22:25:43.124000Z</time>
      </trkpt>
      <trkpt lat="35.95592347" lon="120.2130721">
        <time>2019-05-17T22:25:47.131000Z</time>
      </trkpt>
      <trkpt lat="35.95595461" lon="120.21318381">
        <time>2019-05-17T22:25:51.131000Z</time>
      </trkpt>
      <trkpt lat="35.95591156" lon="120.21330443">
        <time>2019-05-17T22:25:55.133000Z</time>
      </trkpt>
      <trkpt lat="35.95584731" lon="120.21340919">
        <time>2019-05-17T22:25:59.119000Z</time>
      </trkpt>
      <trkpt lat="35.95575947" lon="120.21348084">
        <time>2019-05-17T22:26:03.132000Z</time>
      </trkpt>
      <trkpt lat="35.95564969" lon="120.21348449">
        <time>2019-05-17T22:26:07.123000Z</time>
      </trkpt>
      <trkpt lat="35.95553528" lon="120.21349811">
        <time>2019-05-17T22:26:11.124000Z</time>
      </trkpt>
      <trkpt lat="35.95542607" lon="120.21354323">
        <time>2019-05-17T22:26:15.124000Z</time>
      </trkpt>
      <trkpt lat="35.95532493" lon="120.21359478">
        <time>2019-05-17T22:26:19.128000Z</time>
      </trkpt>
      <trkpt lat="35.95522326" lon="120.2136281">
        <time>2019-05-17T22:26:23.126000Z</time>
      </trkpt>
      <trkpt lat="35.95512587" lon="120.21368728">
        <time>2019-05-17T22:26:27.115000Z</time>
      </trkpt>
      <trkpt lat="35.95502596" lon="120.21372304">
        <time>2019-05-17T22:26:31.128000Z</time>
      </trkpt>
      <trkpt lat="35.95492301" lon="120.21373893">
        <time>2019-05-17T22:26:35.121000Z</time>
      </trkpt>
      <trkpt lat="35.95482181" lon="120.2137598">
        <time>2019-05-17T22:26:39.137000Z</time>
      </trkpt>
      <trkpt lat="35.95472387" lon="120.21377719">
        <time>2019-05-17T22:26:43.110000Z</time>
      </trkpt>
      <trkpt lat="35.95461895" lon="120.21379154">
        <time>2019-05-17T22:26:47.129000Z</time>
      </trkpt>
      <trkpt lat="35.95451064" lon="120.21378593">
        <time>2019-05-17T22:26:51.124000Z</time>
      </trkpt>
      <trkpt lat="35.95440469" lon="120.21380729">
        <time>2019-05-17T22:26:55.115000Z</time>
      </trkpt>
      <trkpt lat="35.95429118" lon="120.21383905">
        <time>2019-05-17T22:27:00.118000Z</time>
      </trkpt>
      <trkpt lat="35.95418756" lon="120.21387829">
        <time>2019-05-17T22:27:04.228000Z</time>
      </trkpt>
      <trkpt lat="35.95409977" lon="120.2139368">
        <time>2019-05-17T22:27:08.123000Z</time>
      </trkpt>
      <trkpt lat="35.95399689" lon="120.21395178">
        <time>2019-05-17T22:27:12.117000Z</time>
      </trkpt>
      <trkpt lat="35.95388343" lon="120.21395996">
        <time>2019-05-17T22:27:16.148000Z</time>
      </trkpt>
      <trkpt lat="35.95377062" lon="120.2139445">
        <time>2019-05-17T22:27:20.123000Z</time>
      </trkpt>
      <trkpt lat="35.9536659" lon="120.21390974">
        <time>2019-05-17T22:27:24.128000Z</time>
      </trkpt>
      <trkpt lat="35.95355603" lon="120.21394199">
        <time>2019-05-17T22:27:28.121000Z</time>
      </trkpt>
      <trkpt lat="35.95346692" lon="120.21397277">
        <time>2019-05-17T22:27:32.115000Z</time>
      </trkpt>
      <trkpt lat="35.95337763" lon="120.21400658">
        <time>2019-05-17T22:27:36.125000Z</time>
      </trkpt>
      <trkpt lat="35.95327862" lon="120.21400423">
        <time>2019-05-17T22:27:40.126000Z</time>
      </trkpt>
      <trkpt lat="35.95317789" lon="120.21396186">
        <time>2019-05-17T22:27:44.126000Z</time>
      </trkpt>
      <trkpt lat="35.9530703" lon="120.21392672">
        <time>2019-05-17T22:27:48.124000Z</time>
      </trkpt>
      <trkpt lat="35.95296697" lon="120.21387394">
        <time>2019-05-17T22:27:52.125000Z</time>
      </trkpt>
      <trkpt lat="35.9528713" lon="120.21379558">
        <time>2019-05-17T22:27:56.112000Z</time>
      </trkpt>
      <trkpt lat="35.95282894" lon="120.21369709">
        <time>2019-05-17T22:27:59.127000Z</time>
      </trkpt>
      <trkpt lat="35.95279778" lon="120.21356439">
        <time>2019-05-17T22:28:03.128000Z</time>
      </trkpt>
      <trkpt lat="35.95276372" lon="120.2134452">
        <time>2019-05-17T22:28:07.132000Z</time>
      </trkpt>
      <trkpt lat="35.95272716" lon="120.21331393">
        <time>2019-05-17T22:28:11.125000Z</time>
      </trkpt>
      <trkpt lat="35.95269689" lon="120.21318163">
        <time>2019-05-17T22:28:15.134000Z</time>
      </trkpt>
      <trkpt lat="35.95267665" lon="120.21305159">
        <time>2019-05-17T22:28:19.154000Z</time>
      </trkpt>
      <trkpt lat="35.9526456" lon="120.21292816">
        <time>2019-05-17T22:28:23.179000Z</time>
      </trkpt>
      <trkpt lat="35.95261192" lon="120.21280236">
        <time>2019-05-17T22:28:27.301000Z</time>
      </trkpt>
      <trkpt lat="35.95258362" lon="120.21267454">
        <time>2019-05-17T22:28:31.123000Z</time>
      </trkpt>
      <trkpt lat="35.95255669" lon="120.2125376">
        <time>2019-05-17T22:28:35.141000Z</time>
      </trkpt>
      <trkpt lat="35.95252661" lon="120.21239774">
        <time>2019-05-17T22:28:39.119000Z</time>
      </trkpt>
      <trkpt lat="35.95250266" lon="120.21228666">
        <time>2019-05-17T22:28:42.129000Z</time>
      </trkpt>
      <trkpt lat="35.95247924" lon="120.21214792">
        <time>2019-05-17T22:28:46.123000Z</time>
      </trkpt>
      <trkpt lat="35.95245764" lon="120.21202128">
        <time>2019-05-17T22:28:50.124000Z</time>
      </trkpt>
      <trkpt lat="35.95242136" lon="120.21190196">
        <time>2019-05-17T22:28:54.127000Z</time>
      </trkpt>
      <trkpt lat="35.95238566" lon="120.2117765">
        <time>2019-05-17T22:28:58.127000Z</time>
      </trkpt>
      <trkpt lat="35.95234768" lon="120.21164605">
        <time>2019-05-17T22:29:02.136000Z</time>
      </trkpt>
      <trkpt lat="35.95232179" lon="120.21150653">
        <time>2019-05-17T22:29:06.114000Z</time>
      </trkpt>
      <trkpt lat="35.95230841" lon="120.21137188">
        <time>2019-05-17T22:29:10.116000Z</time>
      </trkpt>
      <trkpt lat="35.95228711" lon="120.21123527">
        <time>2019-05-17T22:29:14.111000Z</time>
      </trkpt>
      <trkpt lat="35.95225452" lon="120.21110108">
        <time>2019-05-17T22:29:18.110000Z</time>
      </trkpt>
      <trkpt lat="35.9522224" lon="120.21095774">
        <time>2019-05-17T22:29:22.105000Z</time>
      </trkpt>
      <trkpt lat="35.95219466" lon="120.21082903">
        <time>2019-05-17T22:29:26.121000Z</time>
      </trkpt>
      <trkpt lat="35.95217031" lon="120.21070372">
        <time>2019-05-17T22:29:30.108000Z</time>
      </trkpt>
      <trkpt lat="35.95213763" lon="120.2105784">
        <time>2019-05-17T22:29:34.118000Z</time>
      </trkpt>
      <trkpt lat="35.95211345" lon="120.21045017">
        <time>2019-05-17T22:29:38.115000Z</time>
      </trkpt>
      <trkpt lat="35.95205667" lon="120.21034993">
        <time>2019-05-17T22:29:44.118000Z</time>
      </trkpt>
      <trkpt lat="35.95205667" lon="120.21034993">
        <time>2019-05-17T22:29:45.119000Z</time>
      </trkpt>
      <trkpt lat="35.95205667" lon="120.21034993">
        <time>2019-05-17T22:30:06.128000Z</time>
      </trkpt>
      <trkpt lat="35.95196013" lon="120.21041441">
        <time>2019-05-17T22:30:08.126000Z</time>
      </trkpt>
      <trkpt lat="35.95186298" lon="120.21045555">
        <time>2019-05-17T22:30:12.125000Z</time>
      </trkpt>
      <trkpt lat="35.95176842" lon="120.21050543">
        <time>2019-05-17T22:30:16.114000Z</time>
      </trkpt>
      <trkpt lat="35.95167174" lon="120.21055956">
        <time>2019-05-17T22:30:20.120000Z</time>
      </trkpt>
      <trkpt lat="35.95156656" lon="120.21059123">
        <time>2019-05-17T22:30:24.133000Z</time>
      </trkpt>
      <trkpt lat="35.9514625" lon="120.21056792">
        <time>2019-05-17T22:30:28.129000Z</time>
      </trkpt>
      <trkpt lat="35.95137038" lon="120.2106013">
        <time>2019-05-17T22:30:33.141000Z</time>
      </trkpt>
      <trkpt lat="35.95126274" lon="120.21063645">
        <time>2019-05-17T22:30:37.118000Z</time>
      </trkpt>
      <trkpt lat="35.95116887" lon="120.21066195">
        <time>2019-05-17T22:30:40.121000Z</time>
      </trkpt>
      <trkpt lat="35.95107783" lon="120.21068039">
        <time>2019-05-17T22:30:43.121000Z</time>
      </trkpt>
      <trkpt lat="35.95098415" lon="120.21070275">
        <time>2019-05-17T22:30:46.124000Z</time>
      </trkpt>
      <trkpt lat="35.95087062" lon="120.21074975">
        <time>2019-05-17T22:30:50.119000Z</time>
      </trkpt>
      <trkpt lat="35.95078666" lon="120.21080444">
        <time>2019-05-17T22:30:53.120000Z</time>
      </trkpt>
      <trkpt lat="35.95067581" lon="120.2108168">
        <time>2019-05-17T22:30:57.127000Z</time>
      </trkpt>
      <trkpt lat="35.95056482" lon="120.2108327">
        <time>2019-05-17T22:31:01.116000Z</time>
      </trkpt>
      <trkpt lat="35.95044978" lon="120.21084797">
        <time>2019-05-17T22:31:05.129000Z</time>
      </trkpt>
      <trkpt lat="35.95035789" lon="120.21091389">
        <time>2019-05-17T22:31:09.139000Z</time>
      </trkpt>
      <trkpt lat="35.95024894" lon="120.21094278">
        <time>2019-05-17T22:31:14.121000Z</time>
      </trkpt>
      <trkpt lat="35.95013809" lon="120.21094439">
        <time>2019-05-17T22:31:18.124000Z</time>
      </trkpt>
      <trkpt lat="35.95003081" lon="120.21097205">
        <time>2019-05-17T22:31:22.127000Z</time>
      </trkpt>
      <trkpt lat="35.94993702" lon="120.21100958">
        <time>2019-05-17T22:31:26.123000Z</time>
      </trkpt>
      <trkpt lat="35.94983114" lon="120.21104782">
        <time>2019-05-17T22:31:30.107000Z</time>
      </trkpt>
      <trkpt lat="35.94972086" lon="120.21108862">
        <time>2019-05-17T22:31:34.127000Z</time>
      </trkpt>
      <trkpt lat="35.94960673" lon="120.21110394">
        <time>2019-05-17T22:31:38.115000Z</time>
      </trkpt>
      <trkpt lat="35.94949476" lon="120.21113275">
        <time>2019-05-17T22:31:42.128000Z</time>
      </trkpt>
      <trkpt lat="35.94938856" lon="120.21115806">
        <time>2019-05-17T22:31:46.125000Z</time>
      </trkpt>
      <trkpt lat="35.94928157" lon="120.21119373">
        <time>2019-05-17T22:31:50.139000Z</time>
      </trkpt>
      <trkpt lat="35.94918679" lon="120.21122566">
        <time>2019-05-17T22:31:53.119000Z</time>
      </trkpt>
      <trkpt lat="35.94909217" lon="120.21121664">
        <time>2019-05-17T22:31:56.119000Z</time>
      </trkpt>
      <trkpt lat="35.94899997" lon="120.2112307">
        <time>2019-05-17T22:31:59.119000Z</time>
      </trkpt>
      <trkpt lat="35.9489063" lon="120.21123907">
        <time>2019-05-17T22:32:02.125000Z</time>
      </trkpt>
      <trkpt lat="35.94880282" lon="120.21124257">
        <time>2019-05-17T22:32:06.119000Z</time>
      </trkpt>
      <trkpt lat="35.94870811" lon="120.21126053">
        <time>2019-05-17T22:32:10.114000Z</time>
      </trkpt>
      <trkpt lat="35.94860828" lon="120.21129735">
        <time>2019-05-17T22:32:14.136000Z</time>
      </trkpt>
      <trkpt lat="35.94860828" lon="120.21129735">
        <time>2019-05-17T22:32:19.117000Z</time>
      </trkpt>
      <trkpt lat="35.9485445" lon="120.21138578">
        <time>2019-05-17T22:32:19.127000Z</time>
      </trkpt>
      <trkpt lat="35.9484463" lon="120.21138469">
        <time>2019-05-17T22:32:25.116000Z</time>
      </trkpt>
      <trkpt lat="35.94835528" lon="120.211382">
        <time>2019-05-17T22:32:34.118000Z</time>
      </trkpt>
      <trkpt lat="35.94824927" lon="120.21138873">
        <time>2019-05-17T22:32:44.127000Z</time>
      </trkpt>
      <trkpt lat="35.9481548" lon="120.2113987">
        <time>2019-05-17T22:32:50.157000Z</time>
      </trkpt>
      <trkpt lat="35.94805468" lon="120.21143418">
        <time>2019-05-17T22:32:57.168000Z</time>
      </trkpt>
      <trkpt lat="35.94805468" lon="120.21143418">
        <time>2019-05-17T22:32:57.657000Z</time>
      </trkpt>
      <trkpt lat="35.94795047" lon="120.21145537">
        <time>2019-05-17T22:33:02.112000Z</time>
      </trkpt>
      <trkpt lat="35.94784953" lon="120.21147989">
        <time>2019-05-17T22:33:06.101000Z</time>
      </trkpt>
      <trkpt lat="35.94775209" lon="120.21151687">
        <time>2019-05-17T22:33:10.127000Z</time>
      </trkpt>
      <trkpt lat="35.94764018" lon="120.21154581">
        <time>2019-05-17T22:33:14.136000Z</time>
      </trkpt>
      <trkpt lat="35.94752539" lon="120.21155933">
        <time>2019-05-17T22:33:18.113000Z</time>
      </trkpt>
      <trkpt lat="35.94741591" lon="120.21157294">
        <time>2019-05-17T22:33:22.131000Z</time>
      </trkpt>
      <trkpt lat="35.9473273" lon="120.21159123">
        <time>2019-05-17T22:33:25.106000Z</time>
      </trkpt>
      <trkpt lat="35.94722796" lon="120.21160727">
        <time>2019-05-17T22:33:28.106000Z</time>
      </trkpt>
      <trkpt lat="35.9471113" lon="120.21162505">
        <time>2019-05-17T22:33:32.132000Z</time>
      </trkpt>
      <trkpt lat="35.94700236" lon="120.21165088">
        <time>2019-05-17T22:33:36.130000Z</time>
      </trkpt>
      <trkpt lat="35.94688949" lon="120.21167668">
        <time>2019-05-17T22:33:40.109000Z</time>
      </trkpt>
      <trkpt lat="35.94678097" lon="120.21170479">
        <time>2019-05-17T22:33:44.123000Z</time>
      </trkpt>
      <trkpt lat="35.94668483" lon="120.21176048">
        <time>2019-05-17T22:33:48.120000Z</time>
      </trkpt>
      <trkpt lat="35.94657446" lon="120.21178934">
        <time>2019-05-17T22:33:52.123000Z</time>
      </trkpt>
      <trkpt lat="35.94646616" lon="120.21183451">
        <time>2019-05-17T22:33:56.114000Z</time>
      </trkpt>
      <trkpt lat="35.94635432" lon="120.21186781">
        <time>2019-05-17T22:34:00.120000Z</time>
      </trkpt>
      <trkpt lat="35.94625565" lon="120.21194068">
        <time>2019-05-17T22:34:04.115000Z</time>
      </trkpt>
      <trkpt lat="35.94614364" lon="120.21197509">
        <time>2019-05-17T22:34:08.119000Z</time>
      </trkpt>
      <trkpt lat="35.94605426" lon="120.21199338">
        <time>2019-05-17T22:34:11.136000Z</time>
      </trkpt>
      <trkpt lat="35.94594529" lon="120.21204772">
        <time>2019-05-17T22:34:15.106000Z</time>
      </trkpt>
      <trkpt lat="35.94585298" lon="120.2120413">
        <time>2019-05-17T22:34:20.116000Z</time>
      </trkpt>
      <trkpt lat="35.94585298" lon="120.2120413">
        <time>2019-05-17T22:34:20.698000Z</time>
      </trkpt>
      <trkpt lat="35.94575596" lon="120.21206833">
        <time>2019-05-17T22:34:28.126000Z</time>
      </trkpt>
      <trkpt lat="35.94575596" lon="120.21206833">
        <time>2019-05-17T22:34:30.701000Z</time>
      </trkpt>
      <trkpt lat="35.94566754" lon="120.21211001">
        <time>2019-05-17T22:34:32.119000Z</time>
      </trkpt>
      <trkpt lat="35.94557453" lon="120.212154">
        <time>2019-05-17T22:34:36.143000Z</time>
      </trkpt>
      <trkpt lat="35.94548224" lon="120.21219825">
        <time>2019-05-17T22:34:40.141000Z</time>
      </trkpt>
      <trkpt lat="35.94537522" lon="120.21225026">
        <time>2019-05-17T22:34:44.123000Z</time>
      </trkpt>
      <trkpt lat="35.9452653" lon="120.21230945">
        <time>2019-05-17T22:34:48.119000Z</time>
      </trkpt>
      <trkpt lat="35.94518191" lon="120.21235276">
        <time>2019-05-17T22:34:51.120000Z</time>
      </trkpt>
      <trkpt lat="35.9450833" lon="120.21238543">
        <time>2019-05-17T22:34:55.126000Z</time>
      </trkpt>
      <trkpt lat="35.94498084" lon="120.21243495">
        <time>2019-05-17T22:34:59.126000Z</time>
      </trkpt>
      <trkpt lat="35.94487503" lon="120.21249243">
        <time>2019-05-17T22:35:03.133000Z</time>
      </trkpt>
      <trkpt lat="35.94477012" lon="120.21252063">
        <time>2019-05-17T22:35:07.127000Z</time>
      </trkpt>
      <trkpt lat="35.94469415" lon="120.21259161">
        <time>2019-05-17T22:35:11.139000Z</time>
      </trkpt>
      <trkpt lat="35.94460273" lon="120.21262375">
        <time>2019-05-17T22:35:15.140000Z</time>
      </trkpt>
      <trkpt lat="35.94450753" lon="120.21267908">
        <time>2019-05-17T22:35:19.127000Z</time>
      </trkpt>
      <trkpt lat="35.94441076" lon="120.21273972">
        <time>2019-05-17T22:35:23.134000Z</time>
      </trkpt>
      <trkpt lat="35.94431524" lon="120.21280435">
        <time>2019-05-17T22:35:27.129000Z</time>
      </trkpt>
      <trkpt lat="35.94422669" lon="120.21284352">
        <time>2019-05-17T22:35:32.133000Z</time>
      </trkpt>
      <trkpt lat="35.94422669" lon="120.21284352">
        <time>2019-05-17T22:35:35.755000Z</time>
      </trkpt>
      <trkpt lat="35.94413658" lon="120.21288633">
        <time>2019-05-17T22:35:37.121000Z</time>
      </trkpt>
      <trkpt lat="35.94404686" lon="120.21294616">
        <time>2019-05-17T22:35:44.125000Z</time>
      </trkpt>
      <trkpt lat="35.94395169" lon="120.2129679">
        <time>2019-05-17T22:35:55.106000Z</time>
      </trkpt>
      <trkpt lat="35.94386314" lon="120.21300422">
        <time>2019-05-17T22:36:04.120000Z</time>
      </trkpt>
      <trkpt lat="35.94378016" lon="120.21295908">
        <time>2019-05-17T22:36:11.119000Z</time>
      </trkpt>
      <trkpt lat="35.94378016" lon="120.21295908">
        <time>2019-05-17T22:36:15.997000Z</time>
      </trkpt>
      <trkpt lat="35.9437099" lon="120.21285884">
        <time>2019-05-17T22:36:16.127000Z</time>
      </trkpt>
      <trkpt lat="35.94364609" lon="120.21276958">
        <time>2019-05-17T22:36:19.120000Z</time>
      </trkpt>
      <trkpt lat="35.94357443" lon="120.21267736">
        <time>2019-05-17T22:36:22.125000Z</time>
      </trkpt>
      <trkpt lat="35.94351178" lon="120.21258908">
        <time>2019-05-17T22:36:25.159000Z</time>
      </trkpt>
      <trkpt lat="35.94343159" lon="120.2124913">
        <time>2019-05-17T22:36:29.124000Z</time>
      </trkpt>
      <trkpt lat="35.94336732" lon="120.21238646">
        <time>2019-05-17T22:36:33.106000Z</time>
      </trkpt>
      <trkpt lat="35.94331591" lon="120.21227665">
        <time>2019-05-17T22:36:37.216000Z</time>
      </trkpt>
      <trkpt lat="35.94327937" lon="120.21215683">
        <time>2019-05-17T22:36:41.119000Z</time>
      </trkpt>
      <trkpt lat="35.94321832" lon="120.21206039">
        <time>2019-05-17T22:36:45.115000Z</time>
      </trkpt>
      <trkpt lat="35.9431584" lon="120.21196371">
        <time>2019-05-17T22:36:49.109000Z</time>
      </trkpt>
      <trkpt lat="35.94310592" lon="120.21187338">
        <time>2019-05-17T22:36:53.133000Z</time>
      </trkpt>
      <trkpt lat="35.94305392" lon="120.21176612">
        <time>2019-05-17T22:36:57.123000Z</time>
      </trkpt>
      <trkpt lat="35.9429886" lon="120.21164554">
        <time>2019-05-17T22:37:01.134000Z</time>
      </trkpt>
      <trkpt lat="35.9429254" lon="120.21152745">
        <time>2019-05-17T22:37:05.140000Z</time>
      </trkpt>
      <trkpt lat="35.94286025" lon="120.21143635">
        <time>2019-05-17T22:37:09.102000Z</time>
      </trkpt>
      <trkpt lat="35.9427983" lon="120.21133899">
        <time>2019-05-17T22:37:13.103000Z</time>
      </trkpt>
      <trkpt lat="35.94274241" lon="120.21123311">
        <time>2019-05-17T22:37:17.108000Z</time>
      </trkpt>
      <trkpt lat="35.94269873" lon="120.21113246">
        <time>2019-05-17T22:37:20.134000Z</time>
      </trkpt>
      <trkpt lat="35.94263832" lon="120.21104428">
        <time>2019-05-17T22:37:23.125000Z</time>
      </trkpt>
      <trkpt lat="35.94256593" lon="120.21093057">
        <time>2019-05-17T22:37:27.124000Z</time>
      </trkpt>
      <trkpt lat="35.94250388" lon="120.21082388">
        <time>2019-05-17T22:37:31.121000Z</time>
      </trkpt>
      <trkpt lat="35.94244437" lon="120.21071274">
        <time>2019-05-17T22:37:35.133000Z</time>
      </trkpt>
      <trkpt lat="35.94237855" lon="120.21060743">
        <time>2019-05-17T22:37:39.137000Z</time>
      </trkpt>
      <trkpt lat="35.94230396" lon="120.21051857">
        <time>2019-05-17T22:37:43.129000Z</time>
      </trkpt>
      <trkpt lat="35.94223269" lon="120.21041359">
        <time>2019-05-17T22:37:47.134000Z</time>
      </trkpt>
      <trkpt lat="35.94217324" lon="120.21029869">
        <time>2019-05-17T22:37:51.127000Z</time>
      </trkpt>
      <trkpt lat="35.94211563" lon="120.21018584">
        <time>2019-05-17T22:37:55.124000Z</time>
      </trkpt>
      <trkpt lat="35.94206095" lon="120.21007324">
        <time>2019-05-17T22:37:59.121000Z</time>
      </trkpt>
      <trkpt lat="35.94200019" lon="120.20996481">
        <time>2019-05-17T22:38:03.121000Z</time>
      </trkpt>
      <trkpt lat="35.94193374" lon="120.20985685">
        <time>2019-05-17T22:38:07.120000Z</time>
      </trkpt>
      <trkpt lat="35.94187494" lon="120.20974932">
        <time>2019-05-17T22:38:11.121000Z</time>
      </trkpt>
      <trkpt lat="35.94181171" lon="120.20964553">
        <time>2019-05-17T22:38:15.129000Z</time>
      </trkpt>
      <trkpt lat="35.94175142" lon="120.20955128">
        <time>2019-05-17T22:38:19.121000Z</time>
      </trkpt>
      <trkpt lat="35.94171837" lon="120.20944451">
        <time>2019-05-17T22:38:24.138000Z</time>
      </trkpt>
      <trkpt lat="35.94171837" lon="120.20944451">
        <time>2019-05-17T22:38:28.867000Z</time>
      </trkpt>
      <trkpt lat="35.94170654" lon="120.20933104">
        <time>2019-05-17T22:38:32.121000Z</time>
      </trkpt>
      <trkpt lat="35.94170654" lon="120.20933104">
        <time>2019-05-17T22:41:41.128000Z</time>
      </trkpt>
      <trkpt lat="35.94178382" lon="120.20926741">
        <time>2019-05-17T22:41:41.175000Z</time>
      </trkpt>
      <trkpt lat="35.94187513" lon="120.2092868">
        <time>2019-05-17T22:41:49.127000Z</time>
      </trkpt>
      <trkpt lat="35.94198223" lon="120.20927364">
        <time>2019-05-17T22:41:54.101000Z</time>
      </trkpt>
      <trkpt lat="35.94198223" lon="120.20927364">
        <time>2019-05-17T22:41:57.969000Z</time>
      </trkpt>
      <trkpt lat="35.94207996" lon="120.20924507">
        <time>2019-05-17T22:41:58.101000Z</time>
      </trkpt>
      <trkpt lat="35.94217314" lon="120.20921146">
        <time>2019-05-17T22:42:02.109000Z</time>
      </trkpt>
      <trkpt lat="35.94226784" lon="120.20917828">
        <time>2019-05-17T22:42:06.122000Z</time>
      </trkpt>
      <trkpt lat="35.94235737" lon="120.20913563">
        <time>2019-05-17T22:42:10.126000Z</time>
      </trkpt>
      <trkpt lat="35.94244713" lon="120.20907815">
        <time>2019-05-17T22:42:14.128000Z</time>
      </trkpt>
      <trkpt lat="35.94253895" lon="120.20902748">
        <time>2019-05-17T22:42:18.119000Z</time>
      </trkpt>
      <trkpt lat="35.94262794" lon="120.20898254">
        <time>2019-05-17T22:42:22.113000Z</time>
      </trkpt>
      <trkpt lat="35.94272794" lon="120.20893165">
        <time>2019-05-17T22:42:26.114000Z</time>
      </trkpt>
      <trkpt lat="35.94284495" lon="120.20890929">
        <time>2019-05-17T22:42:30.128000Z</time>
      </trkpt>
      <trkpt lat="35.94296295" lon="120.20889912">
        <time>2019-05-17T22:42:34.121000Z</time>
      </trkpt>
      <trkpt lat="35.94305646" lon="120.20889311">
        <time>2019-05-17T22:42:37.131000Z</time>
      </trkpt>
      <trkpt lat="35.94315138" lon="120.20887747">
        <time>2019-05-17T22:42:40.134000Z</time>
      </trkpt>
      <trkpt lat="35.94324395" lon="120.20885714">
        <time>2019-05-17T22:42:43.103000Z</time>
      </trkpt>
      <trkpt lat="35.94333735" lon="120.20883163">
        <time>2019-05-17T22:42:46.131000Z</time>
      </trkpt>
      <trkpt lat="35.94342446" lon="120.20879711">
        <time>2019-05-17T22:42:49.135000Z</time>
      </trkpt>
      <trkpt lat="35.94351334" lon="120.20876704">
        <time>2019-05-17T22:42:52.127000Z</time>
      </trkpt>
      <trkpt lat="35.94360524" lon="120.20873536">
        <time>2019-05-17T22:42:55.225000Z</time>
      </trkpt>
      <trkpt lat="35.94369659" lon="120.20871483">
        <time>2019-05-17T22:42:58.122000Z</time>
      </trkpt>
      <trkpt lat="35.94381376" lon="120.20873177">
        <time>2019-05-17T22:43:02.105000Z</time>
      </trkpt>
      <trkpt lat="35.94390438" lon="120.20874779">
        <time>2019-05-17T22:43:05.136000Z</time>
      </trkpt>
      <trkpt lat="35.94399847" lon="120.20876911">
        <time>2019-05-17T22:43:08.118000Z</time>
      </trkpt>
      <trkpt lat="35.94408319" lon="120.20881392">
        <time>2019-05-17T22:43:11.136000Z</time>
      </trkpt>
      <trkpt lat="35.94418866" lon="120.20888041">
        <time>2019-05-17T22:43:15.123000Z</time>
      </trkpt>
      <trkpt lat="35.94427997" lon="120.20890267">
        <time>2019-05-17T22:43:18.127000Z</time>
      </trkpt>
      <trkpt lat="35.94439692" lon="120.20890908">
        <time>2019-05-17T22:43:22.106000Z</time>
      </trkpt>
      <trkpt lat="35.94451198" lon="120.20891079">
        <time>2019-05-17T22:43:26.122000Z</time>
      </trkpt>
      <trkpt lat="35.94460091" lon="120.20889434">
        <time>2019-05-17T22:43:29.131000Z</time>
      </trkpt>
      <trkpt lat="35.9447082" lon="120.20887146">
        <time>2019-05-17T22:43:33.116000Z</time>
      </trkpt>
      <trkpt lat="35.94482072" lon="120.20883792">
        <time>2019-05-17T22:43:37.129000Z</time>
      </trkpt>
      <trkpt lat="35.94493237" lon="120.20881773">
        <time>2019-05-17T22:43:41.125000Z</time>
      </trkpt>
      <trkpt lat="35.94504816" lon="120.20882472">
        <time>2019-05-17T22:43:45.113000Z</time>
      </trkpt>
      <trkpt lat="35.94515977" lon="120.20880992">
        <time>2019-05-17T22:43:49.117000Z</time>
      </trkpt>
      <trkpt lat="35.94526421" lon="120.20878845">
        <time>2019-05-17T22:43:53.118000Z</time>
      </trkpt>
      <trkpt lat="35.94537086" lon="120.20877829">
        <time>2019-05-17T22:43:57.117000Z</time>
      </trkpt>
      <trkpt lat="35.94548733" lon="120.20877152">
        <time>2019-05-17T22:44:01.127000Z</time>
      </trkpt>
      <trkpt lat="35.94559973" lon="120.20876256">
        <time>2019-05-17T22:44:05.118000Z</time>
      </trkpt>
      <trkpt lat="35.94570824" lon="120.20874741">
        <time>2019-05-17T22:44:09.127000Z</time>
      </trkpt>
      <trkpt lat="35.94580505" lon="120.20873807">
        <time>2019-05-17T22:44:13.132000Z</time>
      </trkpt>
      <trkpt lat="35.94590426" lon="120.20871629">
        <time>2019-05-17T22:44:17.127000Z</time>
      </trkpt>
      <trkpt lat="35.94601751" lon="120.20869755">
        <time>2019-05-17T22:44:21.123000Z</time>
      </trkpt>
      <trkpt lat="35.94612258" lon="120.20869778">
        <time>2019-05-17T22:44:25.124000Z</time>
      </trkpt>
      <trkpt lat="35.94623461" lon="120.20869441">
        <time>2019-05-17T22:44:29.128000Z</time>
      </trkpt>
      <trkpt lat="35.94633921" lon="120.20867914">
        <time>2019-05-17T22:44:33.129000Z</time>
      </trkpt>
      <trkpt lat="35.94644465" lon="120.20866426">
        <time>2019-05-17T22:44:37.136000Z</time>
      </trkpt>
      <trkpt lat="35.94654991" lon="120.20866088">
        <time>2019-05-17T22:44:41.136000Z</time>
      </trkpt>
      <trkpt lat="35.94664461" lon="120.2086438">
        <time>2019-05-17T22:44:45.125000Z</time>
      </trkpt>
      <trkpt lat="35.94675174" lon="120.20862333">
        <time>2019-05-17T22:44:49.126000Z</time>
      </trkpt>
      <trkpt lat="35.94686264" lon="120.20862478">
        <time>2019-05-17T22:44:53.116000Z</time>
      </trkpt>
      <trkpt lat="35.94697011" lon="120.20860846">
        <time>2019-05-17T22:44:57.121000Z</time>
      </trkpt>
      <trkpt lat="35.94705907" lon="120.20853916">
        <time>2019-05-17T22:45:01.121000Z</time>
      </trkpt>
      <trkpt lat="35.94705763" lon="120.20839339">
        <time>2019-05-17T22:45:05.106000Z</time>
      </trkpt>
      <trkpt lat="35.94704268" lon="120.20825584">
        <time>2019-05-17T22:45:09.106000Z</time>
      </trkpt>
      <trkpt lat="35.94702206" lon="120.20812103">
        <time>2019-05-17T22:45:13.124000Z</time>
      </trkpt>
      <trkpt lat="35.94701008" lon="120.20798945">
        <time>2019-05-17T22:45:17.124000Z</time>
      </trkpt>
      <trkpt lat="35.94699911" lon="120.20785997">
        <time>2019-05-17T22:45:21.108000Z</time>
      </trkpt>
      <trkpt lat="35.94698395" lon="120.20773242">
        <time>2019-05-17T22:45:25.115000Z</time>
      </trkpt>
      <trkpt lat="35.94697274" lon="120.20759565">
        <time>2019-05-17T22:45:29.103000Z</time>
      </trkpt>
      <trkpt lat="35.94696451" lon="120.20745419">
        <time>2019-05-17T22:45:33.104000Z</time>
      </trkpt>
      <trkpt lat="35.94695478" lon="120.20731935">
        <time>2019-05-17T22:45:37.104000Z</time>
      </trkpt>
      <trkpt lat="35.94695271" lon="120.20718779">
        <time>2019-05-17T22:45:41.106000Z</time>
      </trkpt>
      <trkpt lat="35.9469983" lon="120.20706484">
        <time>2019-05-17T22:45:45.113000Z</time>
      </trkpt>
      <trkpt lat="35.94704993" lon="120.20694314">
        <time>2019-05-17T22:45:49.102000Z</time>
      </trkpt>
      <trkpt lat="35.94710311" lon="120.20682566">
        <time>2019-05-17T22:45:53.098000Z</time>
      </trkpt>
      <trkpt lat="35.94715871" lon="120.20670569">
        <time>2019-05-17T22:45:57.103000Z</time>
      </trkpt>
      <trkpt lat="35.9472103" lon="120.20657918">
        <time>2019-05-17T22:46:01.110000Z</time>
      </trkpt>
      <trkpt lat="35.94726259" lon="120.20645187">
        <time>2019-05-17T22:46:05.108000Z</time>
      </trkpt>
      <trkpt lat="35.94732035" lon="120.20632188">
        <time>2019-05-17T22:46:09.117000Z</time>
      </trkpt>
      <trkpt lat="35.94737535" lon="120.20619091">
        <time>2019-05-17T22:46:13.111000Z</time>
      </trkpt>
      <trkpt lat="35.94742837" lon="120.20606566">
        <time>2019-05-17T22:46:17.113000Z</time>
      </trkpt>
      <trkpt lat="35.94746979" lon="120.20593271">
        <time>2019-05-17T22:46:21.118000Z</time>
      </trkpt>
      <trkpt lat="35.9475151" lon="120.20583498">
        <time>2019-05-17T22:46:24.121000Z</time>
      </trkpt>
      <trkpt lat="35.94757641" lon="120.20571839">
        <time>2019-05-17T22:46:28.125000Z</time>
      </trkpt>
      <trkpt lat="35.94762784" lon="120.20559242">
        <time>2019-05-17T22:46:32.110000Z</time>
      </trkpt>
      <trkpt lat="35.94766446" lon="120.20545819">
        <time>2019-05-17T22:46:36.130000Z</time>
      </trkpt>
      <trkpt lat="35.94771576" lon="120.20533073">
        <time>2019-05-17T22:46:40.140000Z</time>
      </trkpt>
      <trkpt lat="35.94776671" lon="120.2051989">
        <time>2019-05-17T22:46:44.124000Z</time>
      </trkpt>
      <trkpt lat="35.94782119" lon="120.2050723">
        <time>2019-05-17T22:46:48.111000Z</time>
      </trkpt>
      <trkpt lat="35.94787643" lon="120.20495304">
        <time>2019-05-17T22:46:52.123000Z</time>
      </trkpt>
      <trkpt lat="35.94791051" lon="120.20482131">
        <time>2019-05-17T22:46:56.123000Z</time>
      </trkpt>
      <trkpt lat="35.94791371" lon="120.20468146">
        <time>2019-05-17T22:47:00.110000Z</time>
      </trkpt>
      <trkpt lat="35.94791389" lon="120.20453835">
        <time>2019-05-17T22:47:04.120000Z</time>
      </trkpt>
      <trkpt lat="35.94790639" lon="120.20439504">
        <time>2019-05-17T22:47:08.118000Z</time>
      </trkpt>
      <trkpt lat="35.94788707" lon="120.20426297">
        <time>2019-05-17T22:47:12.104000Z</time>
      </trkpt>
      <trkpt lat="35.94793667" lon="120.20416727">
        <time>2019-05-17T22:47:17.116000Z</time>
      </trkpt>
      <trkpt lat="35.94802564" lon="120.20421811">
        <time>2019-05-17T22:47:20.108000Z</time>
      </trkpt>
      <trkpt lat="35.94811135" lon="120.20426947">
        <time>2019-05-17T22:47:23.106000Z</time>
      </trkpt>
      <trkpt lat="35.94820648" lon="120.20434962">
        <time>2019-05-17T22:47:27.118000Z</time>
      </trkpt>
      <trkpt lat="35.94829418" lon="120.20444092">
        <time>2019-05-17T22:47:31.105000Z</time>
      </trkpt>
      <trkpt lat="35.94838307" lon="120.2045386">
        <time>2019-05-17T22:47:35.110000Z</time>
      </trkpt>
      <trkpt lat="35.94847677" lon="120.20462052">
        <time>2019-05-17T22:47:39.114000Z</time>
      </trkpt>
      <trkpt lat="35.94855643" lon="120.20470579">
        <time>2019-05-17T22:47:43.105000Z</time>
      </trkpt>
      <trkpt lat="35.94863514" lon="120.20479634">
        <time>2019-05-17T22:47:47.097000Z</time>
      </trkpt>
      <trkpt lat="35.94872668" lon="120.20487474">
        <time>2019-05-17T22:47:51.124000Z</time>
      </trkpt>
      <trkpt lat="35.94879002" lon="120.20497428">
        <time>2019-05-17T22:47:55.120000Z</time>
      </trkpt>
      <trkpt lat="35.94886583" lon="120.20507278">
        <time>2019-05-17T22:47:59.125000Z</time>
      </trkpt>
      <trkpt lat="35.9489493" lon="120.20515681">
        <time>2019-05-17T22:48:03.117000Z</time>
      </trkpt>
      <trkpt lat="35.94902741" lon="120.20524932">
        <time>2019-05-17T22:48:07.120000Z</time>
      </trkpt>
      <trkpt lat="35.94910651" lon="120.20534598">
        <time>2019-05-17T22:48:11.108000Z</time>
      </trkpt>
      <trkpt lat="35.94919712" lon="120.2054242">
        <time>2019-05-17T22:48:15.110000Z</time>
      </trkpt>
      <trkpt lat="35.94927895" lon="120.20550511">
        <time>2019-05-17T22:48:19.123000Z</time>
      </trkpt>
      <trkpt lat="35.94934699" lon="120.20559019">
        <time>2019-05-17T22:48:25.125000Z</time>
      </trkpt>
      <trkpt lat="35.94934699" lon="120.20559019">
        <time>2019-05-17T22:48:28.118000Z</time>
      </trkpt>
      <trkpt lat="35.94942928" lon="120.20566097">
        <time>2019-05-17T22:48:34.129000Z</time>
      </trkpt>
      <trkpt lat="35.94948955" lon="120.20574528">
        <time>2019-05-17T22:48:41.128000Z</time>
      </trkpt>
      <trkpt lat="35.9495608" lon="120.2058241">
        <time>2019-05-17T22:48:48.119000Z</time>
      </trkpt>
      <trkpt lat="35.94963532" lon="120.20590652">
        <time>2019-05-17T22:48:56.101000Z</time>
      </trkpt>
      <trkpt lat="35.94969331" lon="120.20599573">
        <time>2019-05-17T22:49:04.104000Z</time>
      </trkpt>
      <trkpt lat="35.94969331" lon="120.20599573">
        <time>2019-05-17T22:49:24.128000Z</time>
      </trkpt>
      <trkpt lat="35.94982337" lon="120.20595643">
        <time>2019-05-17T22:49:24.146000Z</time>
      </trkpt>
      <trkpt lat="35.94992772" lon="120.20590745">
        <time>2019-05-17T22:49:28.136000Z</time>
      </trkpt>
      <trkpt lat="35.95003258" lon="120.20586006">
        <time>2019-05-17T22:49:32.122000Z</time>
      </trkpt>
      <trkpt lat="35.95003258" lon="120.20586006">
        <time>2019-05-17T22:49:33.902000Z</time>
      </trkpt>
      <trkpt lat="35.95014012" lon="120.20580662">
        <time>2019-05-17T22:49:36.118000Z</time>
      </trkpt>
      <trkpt lat="35.95024806" lon="120.20576807">
        <time>2019-05-17T22:49:40.119000Z</time>
      </trkpt>
      <trkpt lat="35.95035594" lon="120.20573317">
        <time>2019-05-17T22:49:44.134000Z</time>
      </trkpt>
      <trkpt lat="35.95046509" lon="120.20569808">
        <time>2019-05-17T22:49:48.126000Z</time>
      </trkpt>
      <trkpt lat="35.95057164" lon="120.20565498">
        <time>2019-05-17T22:49:52.121000Z</time>
      </trkpt>
      <trkpt lat="35.95065518" lon="120.20556201">
        <time>2019-05-17T22:49:56.123000Z</time>
      </trkpt>
      <trkpt lat="35.95066331" lon="120.20542458">
        <time>2019-05-17T22:50:00.129000Z</time>
      </trkpt>
      <trkpt lat="35.95063763" lon="120.20528586">
        <time>2019-05-17T22:50:04.118000Z</time>
      </trkpt>
      <trkpt lat="35.95061535" lon="120.20514628">
        <time>2019-05-17T22:50:08.123000Z</time>
      </trkpt>
      <trkpt lat="35.95058209" lon="120.20500513">
        <time>2019-05-17T22:50:12.120000Z</time>
      </trkpt>
      <trkpt lat="35.95056694" lon="120.20488674">
        <time>2019-05-17T22:50:18.135000Z</time>
      </trkpt>
      <trkpt lat="35.95067753" lon="120.20482233">
        <time>2019-05-17T22:50:22.123000Z</time>
      </trkpt>
      <trkpt lat="35.95077323" lon="120.20478048">
        <time>2019-05-17T22:50:25.118000Z</time>
      </trkpt>
      <trkpt lat="35.95084594" lon="120.20470969">
        <time>2019-05-17T22:50:28.111000Z</time>
      </trkpt>
      <trkpt lat="35.95091575" lon="120.20462944">
        <time>2019-05-17T22:50:31.139000Z</time>
      </trkpt>
      <trkpt lat="35.95099603" lon="120.20457224">
        <time>2019-05-17T22:50:34.125000Z</time>
      </trkpt>
      <trkpt lat="35.95108607" lon="120.20454942">
        <time>2019-05-17T22:50:37.127000Z</time>
      </trkpt>
      <trkpt lat="35.95120237" lon="120.20453285">
        <time>2019-05-17T22:50:41.120000Z</time>
      </trkpt>
      <trkpt lat="35.95131238" lon="120.20451846">
        <time>2019-05-17T22:50:45.121000Z</time>
      </trkpt>
      <trkpt lat="35.95142446" lon="120.20451634">
        <time>2019-05-17T22:50:49.126000Z</time>
      </trkpt>
      <trkpt lat="35.95152359" lon="120.2045009">
        <time>2019-05-17T22:50:53.108000Z</time>
      </trkpt>
      <trkpt lat="35.95162853" lon="120.20450137">
        <time>2019-05-17T22:50:57.126000Z</time>
      </trkpt>
      <trkpt lat="35.95174165" lon="120.2044871">
        <time>2019-05-17T22:51:01.137000Z</time>
      </trkpt>
      <trkpt lat="35.95183463" lon="120.20444483">
        <time>2019-05-17T22:51:08.105000Z</time>
      </trkpt>
      <trkpt lat="35.95193146" lon="120.20440478">
        <time>2019-05-17T22:51:15.119000Z</time>
      </trkpt>
      <trkpt lat="35.95193146" lon="120.20440478">
        <time>2019-05-17T22:51:17.017000Z</time>
      </trkpt>
      <trkpt lat="35.95204296" lon="120.20440261">
        <time>2019-05-17T22:51:20.122000Z</time>
      </trkpt>
      <trkpt lat="35.95214997" lon="120.20440429">
        <time>2019-05-17T22:51:24.127000Z</time>
      </trkpt>
      <trkpt lat="35.95214997" lon="120.20440429">
        <time>2019-05-17T22:51:27.068000Z</time>
      </trkpt>
      <trkpt lat="35.95224936" lon="120.20439703">
        <time>2019-05-17T22:51:28.114000Z</time>
      </trkpt>
      <trkpt lat="35.9523432" lon="120.20438686">
        <time>2019-05-17T22:51:32.119000Z</time>
      </trkpt>
      <trkpt lat="35.95244089" lon="120.20437663">
        <time>2019-05-17T22:51:36.124000Z</time>
      </trkpt>
      <trkpt lat="35.95255251" lon="120.20436322">
        <time>2019-05-17T22:51:40.128000Z</time>
      </trkpt>
      <trkpt lat="35.95266229" lon="120.20432753">
        <time>2019-05-17T22:51:44.136000Z</time>
      </trkpt>
      <trkpt lat="35.95277496" lon="120.20430882">
        <time>2019-05-17T22:51:48.117000Z</time>
      </trkpt>
      <trkpt lat="35.95289067" lon="120.20428074">
        <time>2019-05-17T22:51:52.125000Z</time>
      </trkpt>
      <trkpt lat="35.9530009" lon="120.20425756">
        <time>2019-05-17T22:51:56.132000Z</time>
      </trkpt>
      <trkpt lat="35.95310968" lon="120.20424749">
        <time>2019-05-17T22:52:00.135000Z</time>
      </trkpt>
      <trkpt lat="35.95322051" lon="120.2042546">
        <time>2019-05-17T22:52:04.128000Z</time>
      </trkpt>
      <trkpt lat="35.95332561" lon="120.20422557">
        <time>2019-05-17T22:52:08.123000Z</time>
      </trkpt>
      <trkpt lat="35.95344132" lon="120.2041935">
        <time>2019-05-17T22:52:12.127000Z</time>
      </trkpt>
      <trkpt lat="35.95353157" lon="120.20417567">
        <time>2019-05-17T22:52:15.130000Z</time>
      </trkpt>
      <trkpt lat="35.95363837" lon="120.2041701">
        <time>2019-05-17T22:52:19.234000Z</time>
      </trkpt>
      <trkpt lat="35.95374958" lon="120.20416494">
        <time>2019-05-17T22:52:23.107000Z</time>
      </trkpt>
      <trkpt lat="35.95385693" lon="120.20413424">
        <time>2019-05-17T22:52:27.117000Z</time>
      </trkpt>
      <trkpt lat="35.95396573" lon="120.20411388">
        <time>2019-05-17T22:52:31.128000Z</time>
      </trkpt>
      <trkpt lat="35.95407843" lon="120.20410073">
        <time>2019-05-17T22:52:35.121000Z</time>
      </trkpt>
      <trkpt lat="35.95417803" lon="120.20408149">
        <time>2019-05-17T22:52:39.130000Z</time>
      </trkpt>
      <trkpt lat="35.95428561" lon="120.20406981">
        <time>2019-05-17T22:52:43.105000Z</time>
      </trkpt>
      <trkpt lat="35.95438607" lon="120.20404581">
        <time>2019-05-17T22:52:47.122000Z</time>
      </trkpt>
      <trkpt lat="35.95448134" lon="120.20403441">
        <time>2019-05-17T22:52:51.129000Z</time>
      </trkpt>
      <trkpt lat="35.9545771" lon="120.20401836">
        <time>2019-05-17T22:52:57.113000Z</time>
      </trkpt>
      <trkpt lat="35.9545771" lon="120.20401836">
        <time>2019-05-17T22:53:01.119000Z</time>
      </trkpt>
      <trkpt lat="35.95468136" lon="120.20401792">
        <time>2019-05-17T22:53:04.123000Z</time>
      </trkpt>
      <trkpt lat="35.9547782" lon="120.20400132">
        <time>2019-05-17T22:53:12.129000Z</time>
      </trkpt>
      <trkpt lat="35.95487413" lon="120.20399319">
        <time>2019-05-17T22:53:21.118000Z</time>
      </trkpt>
      <trkpt lat="35.95497069" lon="120.20400708">
        <time>2019-05-17T22:53:28.125000Z</time>
      </trkpt>
      <trkpt lat="35.95506375" lon="120.20400281">
        <time>2019-05-17T22:53:32.119000Z</time>
      </trkpt>
      <trkpt lat="35.95506375" lon="120.20400281">
        <time>2019-05-17T22:53:32.311000Z</time>
      </trkpt>
      <trkpt lat="35.95515372" lon="120.20399954">
        <time>2019-05-17T22:53:35.109000Z</time>
      </trkpt>
      <trkpt lat="35.95526189" lon="120.2040368">
        <time>2019-05-17T22:53:39.119000Z</time>
      </trkpt>
      <trkpt lat="35.95531421" lon="120.20415475">
        <time>2019-05-17T22:53:43.108000Z</time>
      </trkpt>
      <trkpt lat="35.95536161" lon="120.20427282">
        <time>2019-05-17T22:53:47.123000Z</time>
      </trkpt>
      <trkpt lat="35.95537762" lon="120.20440406">
        <time>2019-05-17T22:53:51.120000Z</time>
      </trkpt>
      <trkpt lat="35.95538276" lon="120.20453293">
        <time>2019-05-17T22:53:55.128000Z</time>
      </trkpt>
      <trkpt lat="35.95539942" lon="120.20464941">
        <time>2019-05-17T22:53:59.362000Z</time>
      </trkpt>
      <trkpt lat="35.95542548" lon="120.20475839">
        <time>2019-05-17T22:54:03.124000Z</time>
      </trkpt>
      <trkpt lat="35.95546159" lon="120.204868">
        <time>2019-05-17T22:54:07.109000Z</time>
      </trkpt>
      <trkpt lat="35.95549318" lon="120.20498951">
        <time>2019-05-17T22:54:11.128000Z</time>
      </trkpt>
      <trkpt lat="35.95551759" lon="120.20511464">
        <time>2019-05-17T22:54:15.137000Z</time>
      </trkpt>
      <trkpt lat="35.95552907" lon="120.20523902">
        <time>2019-05-17T22:54:19.146000Z</time>
      </trkpt>
      <trkpt lat="35.95553375" lon="120.20536714">
        <time>2019-05-17T22:54:23.126000Z</time>
      </trkpt>
      <trkpt lat="35.95555503" lon="120.20549617">
        <time>2019-05-17T22:54:27.120000Z</time>
      </trkpt>
      <trkpt lat="35.95558318" lon="120.20561475">
        <time>2019-05-17T22:54:31.125000Z</time>
      </trkpt>
      <trkpt lat="35.95560134" lon="120.20574273">
        <time>2019-05-17T22:54:35.106000Z</time>
      </trkpt>
      <trkpt lat="35.95560559" lon="120.20587633">
        <time>2019-05-17T22:54:39.120000Z</time>
      </trkpt>
      <trkpt lat="35.95562574" lon="120.20601575">
        <time>2019-05-17T22:54:43.116000Z</time>
      </trkpt>
      <trkpt lat="35.95566455" lon="120.20614887">
        <time>2019-05-17T22:54:47.126000Z</time>
      </trkpt>
      <trkpt lat="35.95570321" lon="120.20628106">
        <time>2019-05-17T22:54:51.111000Z</time>
      </trkpt>
      <trkpt lat="35.95571785" lon="120.20641278">
        <time>2019-05-17T22:54:55.108000Z</time>
      </trkpt>
      <trkpt lat="35.95571286" lon="120.20654091">
        <time>2019-05-17T22:54:59.107000Z</time>
      </trkpt>
      <trkpt lat="35.95572556" lon="120.20667595">
        <time>2019-05-17T22:55:03.119000Z</time>
      </trkpt>
      <trkpt lat="35.95575203" lon="120.20680953">
        <time>2019-05-17T22:55:07.119000Z</time>
      </trkpt>
      <trkpt lat="35.95575399" lon="120.2069508">
        <time>2019-05-17T22:55:11.126000Z</time>
      </trkpt>
      <trkpt lat="35.95575779" lon="120.20708908">
        <time>2019-05-17T22:55:15.123000Z</time>
      </trkpt>
      <trkpt lat="35.95576605" lon="120.20722626">
        <time>2019-05-17T22:55:19.120000Z</time>
      </trkpt>
      <trkpt lat="35.95576453" lon="120.20735975">
        <time>2019-05-17T22:55:23.124000Z</time>
      </trkpt>
      <trkpt lat="35.95576046" lon="120.2074827">
        <time>2019-05-17T22:55:27.119000Z</time>
      </trkpt>
      <trkpt lat="35.95575942" lon="120.20760144">
        <time>2019-05-17T22:55:34.141000Z</time>
      </trkpt>
      <trkpt lat="35.95575942" lon="120.20760144">
        <time>2019-05-17T22:55:34.399000Z</time>
      </trkpt>
      <trkpt lat="35.95581672" lon="120.20769572">
        <time>2019-05-17T22:55:39.173000Z</time>
      </trkpt>
      <trkpt lat="35.95591544" lon="120.20772458">
        <time>2019-05-17T22:55:43.127000Z</time>
      </trkpt>
      <trkpt lat="35.95591544" lon="120.20772458">
        <time>2019-05-17T22:55:44.121000Z</time>
      </trkpt>
      <trkpt lat="35.95601194" lon="120.20769277">
        <time>2019-05-17T22:55:47.133000Z</time>
      </trkpt>
      <trkpt lat="35.95610183" lon="120.20764294">
        <time>2019-05-17T22:55:51.121000Z</time>
      </trkpt>
      <trkpt lat="35.95620111" lon="120.20760758">
        <time>2019-05-17T22:55:55.124000Z</time>
      </trkpt>
      <trkpt lat="35.95630371" lon="120.20756926">
        <time>2019-05-17T22:55:59.120000Z</time>
      </trkpt>
      <trkpt lat="35.95640727" lon="120.20755227">
        <time>2019-05-17T22:56:03.119000Z</time>
      </trkpt>
      <trkpt lat="35.95650364" lon="120.20752219">
        <time>2019-05-17T22:56:10.116000Z</time>
      </trkpt>
      <trkpt lat="35.95651773" lon="120.20751424">
        <time>2019-05-17T22:56:11.277000Z</time>
      </trkpt>
    </trkseg>
  </trk>
</gpx>