<?xml version="1.0" encoding="UTF-8"?>
<gpx xmlns="http://www.topografix.com/GPX/1/1" xmlns:gpxtpx="http://www.garmin.com/xmlschemas/TrackPointExtension/v1" xmlns:xsi="http://www.w3.org/2001/XMLSchema-instance" xsi:schemaLocation="http://www.topografix.com/GPX/1/1 http://www.topografix.com/GPX/1/1/gpx.xsd" version="1.1" creator="gpx.py -- https://github.com/tkrajina/gpxpy">
  <trk>
    <name>星期四 夜跑</name>
    <trkseg>
      <trkpt lat="35.95690397" lon="120.20995506">
        <time>2019-07-04T13:47:10.703000Z</time>
      </trkpt>
      <trkpt lat="35.95691059" lon="120.20994274">
        <time>2019-07-04T13:47:11.006000Z</time>
      </trkpt>
      <trkpt lat="35.95691059" lon="120.20994274">
        <time>2019-07-04T13:47:13.008000Z</time>
      </trkpt>
      <trkpt lat="35.95691059" lon="120.20994274">
        <time>2019-07-04T13:47:17.016000Z</time>
      </trkpt>
      <trkpt lat="35.95691059" lon="120.20994274">
        <time>2019-07-04T13:47:17.022000Z</time>
      </trkpt>
      <trkpt lat="35.95699926" lon="120.20991058">
        <time>2019-07-04T13:47:21.002000Z</time>
      </trkpt>
      <trkpt lat="35.95699926" lon="120.20991058">
        <time>2019-07-04T13:47:38.014000Z</time>
      </trkpt>
      <trkpt lat="35.95713588" lon="120.20988505">
        <time>2019-07-04T13:47:38.028000Z</time>
      </trkpt>
      <trkpt lat="35.95723316" lon="120.20985723">
        <time>2019-07-04T13:47:43.033000Z</time>
      </trkpt>
      <trkpt lat="35.95734366" lon="120.20982919">
        <time>2019-07-04T13:47:47.034000Z</time>
      </trkpt>
      <trkpt lat="35.95746335" lon="120.20980021">
        <time>2019-07-04T13:47:51.025000Z</time>
      </trkpt>
      <trkpt lat="35.95755584" lon="120.20976307">
        <time>2019-07-04T13:47:55.026000Z</time>
      </trkpt>
      <trkpt lat="35.9576494" lon="120.20975174">
        <time>2019-07-04T13:48:00.017000Z</time>
      </trkpt>
      <trkpt lat="35.95774184" lon="120.20973707">
        <time>2019-07-04T13:48:03.024000Z</time>
      </trkpt>
      <trkpt lat="35.95782998" lon="120.20979797">
        <time>2019-07-04T13:48:07.030000Z</time>
      </trkpt>
      <trkpt lat="35.95790505" lon="120.20987521">
        <time>2019-07-04T13:48:11.019000Z</time>
      </trkpt>
      <trkpt lat="35.95793256" lon="120.21000587">
        <time>2019-07-04T13:48:16.068000Z</time>
      </trkpt>
      <trkpt lat="35.95798104" lon="120.21010515">
        <time>2019-07-04T13:48:20.021000Z</time>
      </trkpt>
      <trkpt lat="35.95798104" lon="120.21010515">
        <time>2019-07-04T13:48:21.752000Z</time>
      </trkpt>
      <trkpt lat="35.95798088" lon="120.21022607">
        <time>2019-07-04T13:48:26.015000Z</time>
      </trkpt>
      <trkpt lat="35.95798508" lon="120.21034562">
        <time>2019-07-04T13:48:34.005000Z</time>
      </trkpt>
      <trkpt lat="35.95798508" lon="120.21034562">
        <time>2019-07-04T13:48:41.028000Z</time>
      </trkpt>
      <trkpt lat="35.95798508" lon="120.21034562">
        <time>2019-07-04T13:48:41.045000Z</time>
      </trkpt>
      <trkpt lat="35.9579332" lon="120.21051494">
        <time>2019-07-04T13:48:44.030000Z</time>
      </trkpt>
      <trkpt lat="35.95792094" lon="120.21064322">
        <time>2019-07-04T13:48:48.021000Z</time>
      </trkpt>
      <trkpt lat="35.95792094" lon="120.21064322">
        <time>2019-07-04T13:48:50.756000Z</time>
      </trkpt>
      <trkpt lat="35.95787005" lon="120.21074119">
        <time>2019-07-04T13:48:52.019000Z</time>
      </trkpt>
      <trkpt lat="35.95776461" lon="120.21077006">
        <time>2019-07-04T13:48:57.033000Z</time>
      </trkpt>
      <trkpt lat="35.95767445" lon="120.21077197">
        <time>2019-07-04T13:49:00.012000Z</time>
      </trkpt>
      <trkpt lat="35.9575764" lon="120.21078419">
        <time>2019-07-04T13:49:03.028000Z</time>
      </trkpt>
      <trkpt lat="35.95748369" lon="120.21080556">
        <time>2019-07-04T13:49:06.027000Z</time>
      </trkpt>
      <trkpt lat="35.95739303" lon="120.21083912">
        <time>2019-07-04T13:49:09.013000Z</time>
      </trkpt>
      <trkpt lat="35.95730335" lon="120.21085579">
        <time>2019-07-04T13:49:12.033000Z</time>
      </trkpt>
      <trkpt lat="35.95720956" lon="120.21087651">
        <time>2019-07-04T13:49:15.039000Z</time>
      </trkpt>
      <trkpt lat="35.9570971" lon="120.21088445">
        <time>2019-07-04T13:49:19.025000Z</time>
      </trkpt>
      <trkpt lat="35.95700283" lon="120.21088883">
        <time>2019-07-04T13:49:22.040000Z</time>
      </trkpt>
      <trkpt lat="35.95690866" lon="120.21088794">
        <time>2019-07-04T13:49:25.024000Z</time>
      </trkpt>
      <trkpt lat="35.9568225" lon="120.21093276">
        <time>2019-07-04T13:49:28.028000Z</time>
      </trkpt>
      <trkpt lat="35.95673283" lon="120.21095863">
        <time>2019-07-04T13:49:31.014000Z</time>
      </trkpt>
      <trkpt lat="35.95662178" lon="120.21099697">
        <time>2019-07-04T13:49:35.032000Z</time>
      </trkpt>
      <trkpt lat="35.95651168" lon="120.21100844">
        <time>2019-07-04T13:49:39.028000Z</time>
      </trkpt>
      <trkpt lat="35.95642084" lon="120.21104072">
        <time>2019-07-04T13:49:43.009000Z</time>
      </trkpt>
      <trkpt lat="35.95642084" lon="120.21104072">
        <time>2019-07-04T13:49:45.006000Z</time>
      </trkpt>
      <trkpt lat="35.95631609" lon="120.21104519">
        <time>2019-07-04T13:49:49.019000Z</time>
      </trkpt>
      <trkpt lat="35.95621276" lon="120.21106827">
        <time>2019-07-04T13:49:54.011000Z</time>
      </trkpt>
      <trkpt lat="35.95612138" lon="120.21107849">
        <time>2019-07-04T13:49:59.009000Z</time>
      </trkpt>
      <trkpt lat="35.95612138" lon="120.21107849">
        <time>2019-07-04T13:49:59.802000Z</time>
      </trkpt>
      <trkpt lat="35.95601098" lon="120.21109557">
        <time>2019-07-04T13:50:04.015000Z</time>
      </trkpt>
      <trkpt lat="35.95601098" lon="120.21109557">
        <time>2019-07-04T13:50:18.006000Z</time>
      </trkpt>
      <trkpt lat="35.95590011" lon="120.21108817">
        <time>2019-07-04T13:50:18.027000Z</time>
      </trkpt>
      <trkpt lat="35.95579892" lon="120.21112241">
        <time>2019-07-04T13:50:24.022000Z</time>
      </trkpt>
      <trkpt lat="35.95579892" lon="120.21112241">
        <time>2019-07-04T13:50:28.013000Z</time>
      </trkpt>
      <trkpt lat="35.95574778" lon="120.21124157">
        <time>2019-07-04T13:50:29.021000Z</time>
      </trkpt>
      <trkpt lat="35.95573418" lon="120.21135956">
        <time>2019-07-04T13:50:33.023000Z</time>
      </trkpt>
      <trkpt lat="35.95575747" lon="120.21147177">
        <time>2019-07-04T13:50:37.024000Z</time>
      </trkpt>
      <trkpt lat="35.95575452" lon="120.21161033">
        <time>2019-07-04T13:50:41.033000Z</time>
      </trkpt>
      <trkpt lat="35.95570471" lon="120.21171796">
        <time>2019-07-04T13:50:45.023000Z</time>
      </trkpt>
      <trkpt lat="35.95564772" lon="120.21183946">
        <time>2019-07-04T13:50:49.015000Z</time>
      </trkpt>
      <trkpt lat="35.95563313" lon="120.21198641">
        <time>2019-07-04T13:50:53.017000Z</time>
      </trkpt>
      <trkpt lat="35.95564355" lon="120.21210718">
        <time>2019-07-04T13:50:56.030000Z</time>
      </trkpt>
      <trkpt lat="35.95565794" lon="120.2122236">
        <time>2019-07-04T13:50:59.026000Z</time>
      </trkpt>
      <trkpt lat="35.95569217" lon="120.21235704">
        <time>2019-07-04T13:51:03.030000Z</time>
      </trkpt>
      <trkpt lat="35.95570507" lon="120.21249291">
        <time>2019-07-04T13:51:07.020000Z</time>
      </trkpt>
      <trkpt lat="35.95572108" lon="120.21261268">
        <time>2019-07-04T13:51:11.035000Z</time>
      </trkpt>
      <trkpt lat="35.95575007" lon="120.2127295">
        <time>2019-07-04T13:51:15.025000Z</time>
      </trkpt>
      <trkpt lat="35.95579975" lon="120.21283244">
        <time>2019-07-04T13:51:19.024000Z</time>
      </trkpt>
      <trkpt lat="35.95585206" lon="120.21294137">
        <time>2019-07-04T13:51:23.018000Z</time>
      </trkpt>
      <trkpt lat="35.95585206" lon="120.21294137">
        <time>2019-07-04T13:51:27.884000Z</time>
      </trkpt>
      <trkpt lat="35.95587669" lon="120.21305637">
        <time>2019-07-04T13:51:28.011000Z</time>
      </trkpt>
      <trkpt lat="35.95592944" lon="120.21315937">
        <time>2019-07-04T13:51:37.017000Z</time>
      </trkpt>
      <trkpt lat="35.95587863" lon="120.21328994">
        <time>2019-07-04T13:51:42.016000Z</time>
      </trkpt>
      <trkpt lat="35.95587863" lon="120.21328994">
        <time>2019-07-04T13:51:42.848000Z</time>
      </trkpt>
      <trkpt lat="35.95584446" lon="120.21341189">
        <time>2019-07-04T13:51:46.006000Z</time>
      </trkpt>
      <trkpt lat="35.95575312" lon="120.21345992">
        <time>2019-07-04T13:51:51.024000Z</time>
      </trkpt>
      <trkpt lat="35.95575312" lon="120.21345992">
        <time>2019-07-04T13:51:52.852000Z</time>
      </trkpt>
      <trkpt lat="35.95565101" lon="120.21348182">
        <time>2019-07-04T13:51:58.018000Z</time>
      </trkpt>
      <trkpt lat="35.95556228" lon="120.21351081">
        <time>2019-07-04T13:52:05.023000Z</time>
      </trkpt>
      <trkpt lat="35.95547216" lon="120.21354422">
        <time>2019-07-04T13:52:13.028000Z</time>
      </trkpt>
      <trkpt lat="35.95538395" lon="120.21357514">
        <time>2019-07-04T13:52:23.027000Z</time>
      </trkpt>
      <trkpt lat="35.95538395" lon="120.21357514">
        <time>2019-07-04T13:52:54.018000Z</time>
      </trkpt>
      <trkpt lat="35.95518607" lon="120.21362205">
        <time>2019-07-04T13:52:54.034000Z</time>
      </trkpt>
      <trkpt lat="35.95508921" lon="120.21363228">
        <time>2019-07-04T13:52:58.021000Z</time>
      </trkpt>
      <trkpt lat="35.95497113" lon="120.21363743">
        <time>2019-07-04T13:53:02.028000Z</time>
      </trkpt>
      <trkpt lat="35.95486758" lon="120.21366087">
        <time>2019-07-04T13:53:05.019000Z</time>
      </trkpt>
      <trkpt lat="35.95476605" lon="120.21367967">
        <time>2019-07-04T13:53:08.020000Z</time>
      </trkpt>
      <trkpt lat="35.95467446" lon="120.21370082">
        <time>2019-07-04T13:53:11.036000Z</time>
      </trkpt>
      <trkpt lat="35.95458569" lon="120.21372819">
        <time>2019-07-04T13:53:14.022000Z</time>
      </trkpt>
      <trkpt lat="35.95449763" lon="120.21376497">
        <time>2019-07-04T13:53:17.019000Z</time>
      </trkpt>
      <trkpt lat="35.95438345" lon="120.21379615">
        <time>2019-07-04T13:53:21.016000Z</time>
      </trkpt>
      <trkpt lat="35.95428935" lon="120.21383935">
        <time>2019-07-04T13:53:25.018000Z</time>
      </trkpt>
      <trkpt lat="35.95417326" lon="120.21384988">
        <time>2019-07-04T13:53:29.020000Z</time>
      </trkpt>
      <trkpt lat="35.95406051" lon="120.21385379">
        <time>2019-07-04T13:53:33.029000Z</time>
      </trkpt>
      <trkpt lat="35.9539617" lon="120.21388439">
        <time>2019-07-04T13:53:36.057000Z</time>
      </trkpt>
      <trkpt lat="35.95386312" lon="120.21391256">
        <time>2019-07-04T13:53:39.022000Z</time>
      </trkpt>
      <trkpt lat="35.95375253" lon="120.21395579">
        <time>2019-07-04T13:53:43.022000Z</time>
      </trkpt>
      <trkpt lat="35.95366136" lon="120.2139791">
        <time>2019-07-04T13:53:46.034000Z</time>
      </trkpt>
      <trkpt lat="35.95355036" lon="120.21402467">
        <time>2019-07-04T13:53:50.036000Z</time>
      </trkpt>
      <trkpt lat="35.95344167" lon="120.21403028">
        <time>2019-07-04T13:53:54.023000Z</time>
      </trkpt>
      <trkpt lat="35.95333574" lon="120.21407069">
        <time>2019-07-04T13:53:59.018000Z</time>
      </trkpt>
      <trkpt lat="35.95322267" lon="120.21405238">
        <time>2019-07-04T13:54:03.021000Z</time>
      </trkpt>
      <trkpt lat="35.95313877" lon="120.21400166">
        <time>2019-07-04T13:54:06.006000Z</time>
      </trkpt>
      <trkpt lat="35.95305392" lon="120.2139407">
        <time>2019-07-04T13:54:09.011000Z</time>
      </trkpt>
      <trkpt lat="35.95297733" lon="120.21386734">
        <time>2019-07-04T13:54:12.028000Z</time>
      </trkpt>
      <trkpt lat="35.95290499" lon="120.21380126">
        <time>2019-07-04T13:54:15.022000Z</time>
      </trkpt>
      <trkpt lat="35.95283174" lon="120.21372534">
        <time>2019-07-04T13:54:18.026000Z</time>
      </trkpt>
      <trkpt lat="35.95278062" lon="120.21359919">
        <time>2019-07-04T13:54:22.010000Z</time>
      </trkpt>
      <trkpt lat="35.95278062" lon="120.21359919">
        <time>2019-07-04T13:54:26.047000Z</time>
      </trkpt>
      <trkpt lat="35.95275061" lon="120.21348472">
        <time>2019-07-04T13:54:28.048000Z</time>
      </trkpt>
      <trkpt lat="35.95271483" lon="120.21335949">
        <time>2019-07-04T13:54:33.011000Z</time>
      </trkpt>
      <trkpt lat="35.95271483" lon="120.21335949">
        <time>2019-07-04T13:54:36.920000Z</time>
      </trkpt>
      <trkpt lat="35.95268503" lon="120.21323348">
        <time>2019-07-04T13:54:37.045000Z</time>
      </trkpt>
      <trkpt lat="35.95265908" lon="120.21312237">
        <time>2019-07-04T13:54:41.015000Z</time>
      </trkpt>
      <trkpt lat="35.95263991" lon="120.21301293">
        <time>2019-07-04T13:54:45.060000Z</time>
      </trkpt>
      <trkpt lat="35.95260475" lon="120.21288794">
        <time>2019-07-04T13:54:49.017000Z</time>
      </trkpt>
      <trkpt lat="35.95258023" lon="120.21275699">
        <time>2019-07-04T13:54:53.019000Z</time>
      </trkpt>
      <trkpt lat="35.95256718" lon="120.21264034">
        <time>2019-07-04T13:54:56.029000Z</time>
      </trkpt>
      <trkpt lat="35.95254049" lon="120.21250155">
        <time>2019-07-04T13:55:00.014000Z</time>
      </trkpt>
      <trkpt lat="35.95251075" lon="120.2123664">
        <time>2019-07-04T13:55:04.038000Z</time>
      </trkpt>
      <trkpt lat="35.95246892" lon="120.21223222">
        <time>2019-07-04T13:55:08.016000Z</time>
      </trkpt>
      <trkpt lat="35.9524496" lon="120.21210406">
        <time>2019-07-04T13:55:12.018000Z</time>
      </trkpt>
      <trkpt lat="35.9524278" lon="120.21198014">
        <time>2019-07-04T13:55:16.020000Z</time>
      </trkpt>
      <trkpt lat="35.95240377" lon="120.21185971">
        <time>2019-07-04T13:55:20.034000Z</time>
      </trkpt>
      <trkpt lat="35.95237691" lon="120.2117348">
        <time>2019-07-04T13:55:24.012000Z</time>
      </trkpt>
      <trkpt lat="35.95236059" lon="120.21161479">
        <time>2019-07-04T13:55:28.023000Z</time>
      </trkpt>
      <trkpt lat="35.95232244" lon="120.21148854">
        <time>2019-07-04T13:55:32.019000Z</time>
      </trkpt>
      <trkpt lat="35.95229017" lon="120.21136457">
        <time>2019-07-04T13:55:36.024000Z</time>
      </trkpt>
      <trkpt lat="35.95225935" lon="120.21123654">
        <time>2019-07-04T13:55:40.061000Z</time>
      </trkpt>
      <trkpt lat="35.95223533" lon="120.21110447">
        <time>2019-07-04T13:55:44.022000Z</time>
      </trkpt>
      <trkpt lat="35.9521963" lon="120.2109739">
        <time>2019-07-04T13:55:48.016000Z</time>
      </trkpt>
      <trkpt lat="35.95218978" lon="120.21083783">
        <time>2019-07-04T13:55:51.014000Z</time>
      </trkpt>
      <trkpt lat="35.95216993" lon="120.21070496">
        <time>2019-07-04T13:55:54.011000Z</time>
      </trkpt>
      <trkpt lat="35.95214137" lon="120.21058041">
        <time>2019-07-04T13:55:57.014000Z</time>
      </trkpt>
      <trkpt lat="35.95211" lon="120.21045681">
        <time>2019-07-04T13:56:00.008000Z</time>
      </trkpt>
      <trkpt lat="35.95206854" lon="120.21035244">
        <time>2019-07-04T13:56:03.018000Z</time>
      </trkpt>
      <trkpt lat="35.95197123" lon="120.21034544">
        <time>2019-07-04T13:56:06.049000Z</time>
      </trkpt>
      <trkpt lat="35.95185512" lon="120.2103955">
        <time>2019-07-04T13:56:09.363000Z</time>
      </trkpt>
      <trkpt lat="35.95176785" lon="120.21046998">
        <time>2019-07-04T13:56:13.027000Z</time>
      </trkpt>
      <trkpt lat="35.95167659" lon="120.21053692">
        <time>2019-07-04T13:56:17.012000Z</time>
      </trkpt>
      <trkpt lat="35.95167659" lon="120.21053692">
        <time>2019-07-04T13:56:17.955000Z</time>
      </trkpt>
      <trkpt lat="35.95160349" lon="120.21060233">
        <time>2019-07-04T13:56:24.021000Z</time>
      </trkpt>
      <trkpt lat="35.95150218" lon="120.21058892">
        <time>2019-07-04T13:56:32.029000Z</time>
      </trkpt>
      <trkpt lat="35.9514025" lon="120.210604">
        <time>2019-07-04T13:56:41.029000Z</time>
      </trkpt>
      <trkpt lat="35.9513053" lon="120.21063789">
        <time>2019-07-04T13:56:51.023000Z</time>
      </trkpt>
      <trkpt lat="35.95121532" lon="120.21064069">
        <time>2019-07-04T13:56:58.020000Z</time>
      </trkpt>
      <trkpt lat="35.95111476" lon="120.21067017">
        <time>2019-07-04T13:57:07.018000Z</time>
      </trkpt>
      <trkpt lat="35.95111476" lon="120.21067017">
        <time>2019-07-04T13:57:08.998000Z</time>
      </trkpt>
      <trkpt lat="35.95102895" lon="120.21071693">
        <time>2019-07-04T13:57:11.013000Z</time>
      </trkpt>
      <trkpt lat="35.9509166" lon="120.21072173">
        <time>2019-07-04T13:57:16.028000Z</time>
      </trkpt>
      <trkpt lat="35.9508129" lon="120.2107329">
        <time>2019-07-04T13:57:22.029000Z</time>
      </trkpt>
      <trkpt lat="35.95071068" lon="120.2107708">
        <time>2019-07-04T13:57:26.029000Z</time>
      </trkpt>
      <trkpt lat="35.95061817" lon="120.21078569">
        <time>2019-07-04T13:57:29.041000Z</time>
      </trkpt>
      <trkpt lat="35.95050313" lon="120.21082558">
        <time>2019-07-04T13:57:33.006000Z</time>
      </trkpt>
      <trkpt lat="35.95041213" lon="120.21085401">
        <time>2019-07-04T13:57:37.007000Z</time>
      </trkpt>
      <trkpt lat="35.95030724" lon="120.21087732">
        <time>2019-07-04T13:57:41.021000Z</time>
      </trkpt>
      <trkpt lat="35.95019732" lon="120.21091302">
        <time>2019-07-04T13:57:47.031000Z</time>
      </trkpt>
      <trkpt lat="35.95009812" lon="120.21092787">
        <time>2019-07-04T13:57:50.045000Z</time>
      </trkpt>
      <trkpt lat="35.94999528" lon="120.21095687">
        <time>2019-07-04T13:57:53.021000Z</time>
      </trkpt>
      <trkpt lat="35.94989269" lon="120.21098438">
        <time>2019-07-04T13:57:58.022000Z</time>
      </trkpt>
      <trkpt lat="35.94989269" lon="120.21098438">
        <time>2019-07-04T13:58:00.037000Z</time>
      </trkpt>
      <trkpt lat="35.94981076" lon="120.21104841">
        <time>2019-07-04T13:58:03.025000Z</time>
      </trkpt>
      <trkpt lat="35.94971257" lon="120.21104919">
        <time>2019-07-04T13:58:08.018000Z</time>
      </trkpt>
      <trkpt lat="35.94962599" lon="120.21110224">
        <time>2019-07-04T13:58:12.023000Z</time>
      </trkpt>
      <trkpt lat="35.94953291" lon="120.21116326">
        <time>2019-07-04T13:58:18.306000Z</time>
      </trkpt>
      <trkpt lat="35.94944051" lon="120.21119427">
        <time>2019-07-04T13:58:22.031000Z</time>
      </trkpt>
      <trkpt lat="35.94933402" lon="120.21121436">
        <time>2019-07-04T13:58:26.012000Z</time>
      </trkpt>
      <trkpt lat="35.94924113" lon="120.21124217">
        <time>2019-07-04T13:58:29.036000Z</time>
      </trkpt>
      <trkpt lat="35.94914086" lon="120.21122893">
        <time>2019-07-04T13:58:32.030000Z</time>
      </trkpt>
      <trkpt lat="35.94904736" lon="120.21123523">
        <time>2019-07-04T13:58:35.023000Z</time>
      </trkpt>
      <trkpt lat="35.94892492" lon="120.21125454">
        <time>2019-07-04T13:58:39.021000Z</time>
      </trkpt>
      <trkpt lat="35.94882194" lon="120.21128646">
        <time>2019-07-04T13:58:42.017000Z</time>
      </trkpt>
      <trkpt lat="35.94871033" lon="120.21130913">
        <time>2019-07-04T13:58:45.024000Z</time>
      </trkpt>
      <trkpt lat="35.94861437" lon="120.21132311">
        <time>2019-07-04T13:58:48.008000Z</time>
      </trkpt>
      <trkpt lat="35.948514" lon="120.2113387">
        <time>2019-07-04T13:58:51.008000Z</time>
      </trkpt>
      <trkpt lat="35.94840213" lon="120.21133393">
        <time>2019-07-04T13:58:55.040000Z</time>
      </trkpt>
      <trkpt lat="35.94831353" lon="120.21136169">
        <time>2019-07-04T13:59:00.009000Z</time>
      </trkpt>
      <trkpt lat="35.94831353" lon="120.21136169">
        <time>2019-07-04T13:59:13.021000Z</time>
      </trkpt>
      <trkpt lat="35.94813651" lon="120.21134819">
        <time>2019-07-04T13:59:13.051000Z</time>
      </trkpt>
      <trkpt lat="35.94804712" lon="120.21138538">
        <time>2019-07-04T13:59:17.166000Z</time>
      </trkpt>
      <trkpt lat="35.94795893" lon="120.21141154">
        <time>2019-07-04T13:59:20.018000Z</time>
      </trkpt>
      <trkpt lat="35.94795893" lon="120.21141154">
        <time>2019-07-04T13:59:23.019000Z</time>
      </trkpt>
      <trkpt lat="35.94784438" lon="120.21145111">
        <time>2019-07-04T13:59:24.027000Z</time>
      </trkpt>
      <trkpt lat="35.94773293" lon="120.21148204">
        <time>2019-07-04T13:59:28.005000Z</time>
      </trkpt>
      <trkpt lat="35.94761887" lon="120.2115153">
        <time>2019-07-04T13:59:32.030000Z</time>
      </trkpt>
      <trkpt lat="35.9475358" lon="120.21155766">
        <time>2019-07-04T13:59:35.018000Z</time>
      </trkpt>
      <trkpt lat="35.94741749" lon="120.21158174">
        <time>2019-07-04T13:59:39.029000Z</time>
      </trkpt>
      <trkpt lat="35.94730607" lon="120.21161916">
        <time>2019-07-04T13:59:43.026000Z</time>
      </trkpt>
      <trkpt lat="35.94719882" lon="120.2116436">
        <time>2019-07-04T13:59:47.072000Z</time>
      </trkpt>
      <trkpt lat="35.94719882" lon="120.2116436">
        <time>2019-07-04T13:59:54.018000Z</time>
      </trkpt>
      <trkpt lat="35.94710632" lon="120.21163505">
        <time>2019-07-04T13:59:54.062000Z</time>
      </trkpt>
      <trkpt lat="35.94700815" lon="120.21164426">
        <time>2019-07-04T13:59:59.026000Z</time>
      </trkpt>
      <trkpt lat="35.94700815" lon="120.21164426">
        <time>2019-07-04T14:00:04.017000Z</time>
      </trkpt>
      <trkpt lat="35.94689219" lon="120.21166599">
        <time>2019-07-04T14:00:04.037000Z</time>
      </trkpt>
      <trkpt lat="35.94679747" lon="120.21170833">
        <time>2019-07-04T14:00:07.022000Z</time>
      </trkpt>
      <trkpt lat="35.94670349" lon="120.21173932">
        <time>2019-07-04T14:00:10.018000Z</time>
      </trkpt>
      <trkpt lat="35.94659525" lon="120.21177258">
        <time>2019-07-04T14:00:14.028000Z</time>
      </trkpt>
      <trkpt lat="35.94649211" lon="120.21181129">
        <time>2019-07-04T14:00:18.027000Z</time>
      </trkpt>
      <trkpt lat="35.94639459" lon="120.21184811">
        <time>2019-07-04T14:00:22.018000Z</time>
      </trkpt>
      <trkpt lat="35.94629216" lon="120.2118843">
        <time>2019-07-04T14:00:26.029000Z</time>
      </trkpt>
      <trkpt lat="35.94619018" lon="120.21192018">
        <time>2019-07-04T14:00:30.022000Z</time>
      </trkpt>
      <trkpt lat="35.94608471" lon="120.21195887">
        <time>2019-07-04T14:00:34.025000Z</time>
      </trkpt>
      <trkpt lat="35.94598803" lon="120.21200438">
        <time>2019-07-04T14:00:38.017000Z</time>
      </trkpt>
      <trkpt lat="35.94588931" lon="120.21205342">
        <time>2019-07-04T14:00:42.019000Z</time>
      </trkpt>
      <trkpt lat="35.94580235" lon="120.21208765">
        <time>2019-07-04T14:00:45.008000Z</time>
      </trkpt>
      <trkpt lat="35.94569674" lon="120.21209929">
        <time>2019-07-04T14:00:51.018000Z</time>
      </trkpt>
      <trkpt lat="35.94569674" lon="120.21209929">
        <time>2019-07-04T14:00:52.218000Z</time>
      </trkpt>
      <trkpt lat="35.94561234" lon="120.21213758">
        <time>2019-07-04T14:00:56.015000Z</time>
      </trkpt>
      <trkpt lat="35.94550363" lon="120.21217868">
        <time>2019-07-04T14:01:01.031000Z</time>
      </trkpt>
      <trkpt lat="35.94550363" lon="120.21217868">
        <time>2019-07-04T14:01:02.302000Z</time>
      </trkpt>
      <trkpt lat="35.94540817" lon="120.21222006">
        <time>2019-07-04T14:01:05.010000Z</time>
      </trkpt>
      <trkpt lat="35.94530312" lon="120.2122482">
        <time>2019-07-04T14:01:09.032000Z</time>
      </trkpt>
      <trkpt lat="35.94519778" lon="120.21231111">
        <time>2019-07-04T14:01:13.016000Z</time>
      </trkpt>
      <trkpt lat="35.94509005" lon="120.21236508">
        <time>2019-07-04T14:01:17.013000Z</time>
      </trkpt>
      <trkpt lat="35.9450037" lon="120.21240158">
        <time>2019-07-04T14:01:23.017000Z</time>
      </trkpt>
      <trkpt lat="35.9450037" lon="120.21240158">
        <time>2019-07-04T14:01:25.022000Z</time>
      </trkpt>
      <trkpt lat="35.94491788" lon="120.21244068">
        <time>2019-07-04T14:01:29.018000Z</time>
      </trkpt>
      <trkpt lat="35.94482211" lon="120.21248502">
        <time>2019-07-04T14:01:38.020000Z</time>
      </trkpt>
      <trkpt lat="35.94482211" lon="120.21248502">
        <time>2019-07-04T14:01:39.015000Z</time>
      </trkpt>
      <trkpt lat="35.94474006" lon="120.21255237">
        <time>2019-07-04T14:01:42.022000Z</time>
      </trkpt>
      <trkpt lat="35.94463417" lon="120.21261087">
        <time>2019-07-04T14:01:46.025000Z</time>
      </trkpt>
      <trkpt lat="35.94451816" lon="120.21264775">
        <time>2019-07-04T14:01:50.024000Z</time>
      </trkpt>
      <trkpt lat="35.9444287" lon="120.21268733">
        <time>2019-07-04T14:01:53.024000Z</time>
      </trkpt>
      <trkpt lat="35.94432647" lon="120.21276031">
        <time>2019-07-04T14:01:58.016000Z</time>
      </trkpt>
      <trkpt lat="35.94421863" lon="120.21283309">
        <time>2019-07-04T14:02:02.033000Z</time>
      </trkpt>
      <trkpt lat="35.94413494" lon="120.21289021">
        <time>2019-07-04T14:02:05.010000Z</time>
      </trkpt>
      <trkpt lat="35.9440487" lon="120.21293915">
        <time>2019-07-04T14:02:08.009000Z</time>
      </trkpt>
      <trkpt lat="35.9439464" lon="120.21300246">
        <time>2019-07-04T14:02:12.024000Z</time>
      </trkpt>
      <trkpt lat="35.94384704" lon="120.21306238">
        <time>2019-07-04T14:02:16.010000Z</time>
      </trkpt>
      <trkpt lat="35.94374969" lon="120.21305091">
        <time>2019-07-04T14:02:20.019000Z</time>
      </trkpt>
      <trkpt lat="35.94369024" lon="120.21296498">
        <time>2019-07-04T14:02:23.038000Z</time>
      </trkpt>
      <trkpt lat="35.94362857" lon="120.21284678">
        <time>2019-07-04T14:02:27.051000Z</time>
      </trkpt>
      <trkpt lat="35.94359445" lon="120.21274401">
        <time>2019-07-04T14:02:30.080000Z</time>
      </trkpt>
      <trkpt lat="35.94352746" lon="120.2126324">
        <time>2019-07-04T14:02:34.018000Z</time>
      </trkpt>
      <trkpt lat="35.94337564" lon="120.21239168">
        <time>2019-07-04T14:02:43.024000Z</time>
      </trkpt>
      <trkpt lat="35.94334569" lon="120.21226726">
        <time>2019-07-04T14:02:47.010000Z</time>
      </trkpt>
      <trkpt lat="35.94334569" lon="120.21226726">
        <time>2019-07-04T14:02:52.025000Z</time>
      </trkpt>
      <trkpt lat="35.94326082" lon="120.21216617">
        <time>2019-07-04T14:02:55.078000Z</time>
      </trkpt>
      <trkpt lat="35.94320983" lon="120.21206329">
        <time>2019-07-04T14:02:58.032000Z</time>
      </trkpt>
      <trkpt lat="35.94313048" lon="120.21197222">
        <time>2019-07-04T14:03:02.021000Z</time>
      </trkpt>
      <trkpt lat="35.94307418" lon="120.21188471">
        <time>2019-07-04T14:03:05.017000Z</time>
      </trkpt>
      <trkpt lat="35.94303216" lon="120.21178143">
        <time>2019-07-04T14:03:08.279000Z</time>
      </trkpt>
      <trkpt lat="35.94296024" lon="120.21166927">
        <time>2019-07-04T14:03:12.025000Z</time>
      </trkpt>
      <trkpt lat="35.942902" lon="120.2115412">
        <time>2019-07-04T14:03:16.030000Z</time>
      </trkpt>
      <trkpt lat="35.94284042" lon="120.21144144">
        <time>2019-07-04T14:03:19.023000Z</time>
      </trkpt>
      <trkpt lat="35.94276239" lon="120.21134912">
        <time>2019-07-04T14:03:23.034000Z</time>
      </trkpt>
      <trkpt lat="35.9426878" lon="120.2112576">
        <time>2019-07-04T14:03:27.161000Z</time>
      </trkpt>
      <trkpt lat="35.9426585" lon="120.21115262">
        <time>2019-07-04T14:03:30.021000Z</time>
      </trkpt>
      <trkpt lat="35.9426585" lon="120.21115262">
        <time>2019-07-04T14:03:33.017000Z</time>
      </trkpt>
      <trkpt lat="35.94260988" lon="120.21104159">
        <time>2019-07-04T14:03:34.022000Z</time>
      </trkpt>
      <trkpt lat="35.94252758" lon="120.21094914">
        <time>2019-07-04T14:03:39.045000Z</time>
      </trkpt>
      <trkpt lat="35.94245745" lon="120.21084816">
        <time>2019-07-04T14:03:43.025000Z</time>
      </trkpt>
      <trkpt lat="35.94245745" lon="120.21084816">
        <time>2019-07-04T14:03:44.014000Z</time>
      </trkpt>
      <trkpt lat="35.94240087" lon="120.21072602">
        <time>2019-07-04T14:03:47.023000Z</time>
      </trkpt>
      <trkpt lat="35.94233027" lon="120.21063182">
        <time>2019-07-04T14:03:52.037000Z</time>
      </trkpt>
      <trkpt lat="35.94233027" lon="120.21063182">
        <time>2019-07-04T14:03:55.014000Z</time>
      </trkpt>
      <trkpt lat="35.9422678" lon="120.21053505">
        <time>2019-07-04T14:03:58.023000Z</time>
      </trkpt>
      <trkpt lat="35.94221446" lon="120.21044369">
        <time>2019-07-04T14:04:04.007000Z</time>
      </trkpt>
      <trkpt lat="35.94215871" lon="120.21034265">
        <time>2019-07-04T14:04:11.025000Z</time>
      </trkpt>
      <trkpt lat="35.94209505" lon="120.21025894">
        <time>2019-07-04T14:04:19.009000Z</time>
      </trkpt>
      <trkpt lat="35.94204333" lon="120.21016801">
        <time>2019-07-04T14:04:25.005000Z</time>
      </trkpt>
      <trkpt lat="35.94199557" lon="120.21005909">
        <time>2019-07-04T14:04:30.022000Z</time>
      </trkpt>
      <trkpt lat="35.94199557" lon="120.21005909">
        <time>2019-07-04T14:04:31.034000Z</time>
      </trkpt>
      <trkpt lat="35.94194182" lon="120.20995055">
        <time>2019-07-04T14:04:34.027000Z</time>
      </trkpt>
      <trkpt lat="35.9418916" lon="120.20984165">
        <time>2019-07-04T14:04:38.027000Z</time>
      </trkpt>
      <trkpt lat="35.94182506" lon="120.20974259">
        <time>2019-07-04T14:04:42.022000Z</time>
      </trkpt>
      <trkpt lat="35.94174868" lon="120.2096544">
        <time>2019-07-04T14:04:46.018000Z</time>
      </trkpt>
      <trkpt lat="35.94169279" lon="120.20953218">
        <time>2019-07-04T14:04:50.015000Z</time>
      </trkpt>
      <trkpt lat="35.94168459" lon="120.20939714">
        <time>2019-07-04T14:04:54.023000Z</time>
      </trkpt>
      <trkpt lat="35.94161771" lon="120.20929312">
        <time>2019-07-04T14:04:58.027000Z</time>
      </trkpt>
      <trkpt lat="35.9415107" lon="120.20926641">
        <time>2019-07-04T14:05:02.039000Z</time>
      </trkpt>
      <trkpt lat="35.94140064" lon="120.20926457">
        <time>2019-07-04T14:05:06.028000Z</time>
      </trkpt>
      <trkpt lat="35.94131717" lon="120.20919069">
        <time>2019-07-04T14:05:10.022000Z</time>
      </trkpt>
      <trkpt lat="35.9412705" lon="120.20906291">
        <time>2019-07-04T14:05:14.020000Z</time>
      </trkpt>
      <trkpt lat="35.94120479" lon="120.208969">
        <time>2019-07-04T14:05:18.024000Z</time>
      </trkpt>
      <trkpt lat="35.94112979" lon="120.20889347">
        <time>2019-07-04T14:05:22.017000Z</time>
      </trkpt>
      <trkpt lat="35.94103727" lon="120.20883619">
        <time>2019-07-04T14:05:26.047000Z</time>
      </trkpt>
      <trkpt lat="35.94092882" lon="120.20879026">
        <time>2019-07-04T14:05:30.026000Z</time>
      </trkpt>
      <trkpt lat="35.94083088" lon="120.20879172">
        <time>2019-07-04T14:05:34.040000Z</time>
      </trkpt>
      <trkpt lat="35.94073328" lon="120.20881267">
        <time>2019-07-04T14:05:38.017000Z</time>
      </trkpt>
      <trkpt lat="35.9406357" lon="120.20885156">
        <time>2019-07-04T14:05:42.019000Z</time>
      </trkpt>
      <trkpt lat="35.94054841" lon="120.20891409">
        <time>2019-07-04T14:05:46.028000Z</time>
      </trkpt>
      <trkpt lat="35.94047108" lon="120.20898585">
        <time>2019-07-04T14:05:50.025000Z</time>
      </trkpt>
      <trkpt lat="35.9404058" lon="120.20906679">
        <time>2019-07-04T14:05:56.023000Z</time>
      </trkpt>
      <trkpt lat="35.9404058" lon="120.20906679">
        <time>2019-07-04T14:05:56.217000Z</time>
      </trkpt>
      <trkpt lat="35.94036034" lon="120.20917903">
        <time>2019-07-04T14:06:03.037000Z</time>
      </trkpt>
      <trkpt lat="35.94036034" lon="120.20917903">
        <time>2019-07-04T14:06:07.084000Z</time>
      </trkpt>
      <trkpt lat="35.94033799" lon="120.20929548">
        <time>2019-07-04T14:06:07.160000Z</time>
      </trkpt>
      <trkpt lat="35.94032832" lon="120.20941654">
        <time>2019-07-04T14:06:11.032000Z</time>
      </trkpt>
      <trkpt lat="35.94031366" lon="120.20953543">
        <time>2019-07-04T14:06:15.030000Z</time>
      </trkpt>
      <trkpt lat="35.9402198" lon="120.20959023">
        <time>2019-07-04T14:06:19.021000Z</time>
      </trkpt>
      <trkpt lat="35.94011677" lon="120.2096037">
        <time>2019-07-04T14:06:23.082000Z</time>
      </trkpt>
      <trkpt lat="35.94001691" lon="120.20962874">
        <time>2019-07-04T14:06:27.029000Z</time>
      </trkpt>
      <trkpt lat="35.93992111" lon="120.20965738">
        <time>2019-07-04T14:06:31.028000Z</time>
      </trkpt>
      <trkpt lat="35.93982495" lon="120.20968815">
        <time>2019-07-04T14:06:35.013000Z</time>
      </trkpt>
      <trkpt lat="35.93972439" lon="120.2097249">
        <time>2019-07-04T14:06:39.020000Z</time>
      </trkpt>
      <trkpt lat="35.93961787" lon="120.20976562">
        <time>2019-07-04T14:06:44.030000Z</time>
      </trkpt>
      <trkpt lat="35.9395253" lon="120.20981014">
        <time>2019-07-04T14:06:48.029000Z</time>
      </trkpt>
      <trkpt lat="35.93942257" lon="120.20984481">
        <time>2019-07-04T14:06:52.025000Z</time>
      </trkpt>
      <trkpt lat="35.93932242" lon="120.20987481">
        <time>2019-07-04T14:06:56.045000Z</time>
      </trkpt>
      <trkpt lat="35.93922031" lon="120.20990587">
        <time>2019-07-04T14:07:00.026000Z</time>
      </trkpt>
      <trkpt lat="35.93911807" lon="120.20993962">
        <time>2019-07-04T14:07:04.081000Z</time>
      </trkpt>
      <trkpt lat="35.93901661" lon="120.20997148">
        <time>2019-07-04T14:07:08.044000Z</time>
      </trkpt>
      <trkpt lat="35.93891615" lon="120.20999635">
        <time>2019-07-04T14:07:12.039000Z</time>
      </trkpt>
      <trkpt lat="35.9388152" lon="120.21000724">
        <time>2019-07-04T14:07:16.062000Z</time>
      </trkpt>
      <trkpt lat="35.93871786" lon="120.2100219">
        <time>2019-07-04T14:07:20.015000Z</time>
      </trkpt>
      <trkpt lat="35.93862788" lon="120.21003167">
        <time>2019-07-04T14:07:24.032000Z</time>
      </trkpt>
      <trkpt lat="35.93853662" lon="120.21002116">
        <time>2019-07-04T14:07:28.033000Z</time>
      </trkpt>
      <trkpt lat="35.9384476" lon="120.21000587">
        <time>2019-07-04T14:07:32.029000Z</time>
      </trkpt>
      <trkpt lat="35.93835653" lon="120.20999458">
        <time>2019-07-04T14:07:36.028000Z</time>
      </trkpt>
      <trkpt lat="35.9382691" lon="120.20994498">
        <time>2019-07-04T14:07:40.043000Z</time>
      </trkpt>
      <trkpt lat="35.93817971" lon="120.20990278">
        <time>2019-07-04T14:07:44.024000Z</time>
      </trkpt>
      <trkpt lat="35.93807185" lon="120.20985028">
        <time>2019-07-04T14:07:48.032000Z</time>
      </trkpt>
      <trkpt lat="35.93797111" lon="120.20979">
        <time>2019-07-04T14:07:52.028000Z</time>
      </trkpt>
      <trkpt lat="35.93788213" lon="120.20973578">
        <time>2019-07-04T14:07:56.071000Z</time>
      </trkpt>
      <trkpt lat="35.93778599" lon="120.20966422">
        <time>2019-07-04T14:08:00.027000Z</time>
      </trkpt>
      <trkpt lat="35.93769138" lon="120.20960902">
        <time>2019-07-04T14:08:04.030000Z</time>
      </trkpt>
      <trkpt lat="35.9376038" lon="120.2095414">
        <time>2019-07-04T14:08:10.027000Z</time>
      </trkpt>
      <trkpt lat="35.9376038" lon="120.2095414">
        <time>2019-07-04T14:08:11.020000Z</time>
      </trkpt>
      <trkpt lat="35.93752664" lon="120.20947428">
        <time>2019-07-04T14:08:18.013000Z</time>
      </trkpt>
      <trkpt lat="35.93744657" lon="120.20940804">
        <time>2019-07-04T14:08:26.019000Z</time>
      </trkpt>
      <trkpt lat="35.93737697" lon="120.20932161">
        <time>2019-07-04T14:08:33.022000Z</time>
      </trkpt>
      <trkpt lat="35.93737697" lon="120.20932161">
        <time>2019-07-04T14:08:35.138000Z</time>
      </trkpt>
      <trkpt lat="35.93727188" lon="120.20927808">
        <time>2019-07-04T14:08:37.032000Z</time>
      </trkpt>
      <trkpt lat="35.93718302" lon="120.20920611">
        <time>2019-07-04T14:08:41.025000Z</time>
      </trkpt>
      <trkpt lat="35.93708921" lon="120.20913994">
        <time>2019-07-04T14:08:45.038000Z</time>
      </trkpt>
      <trkpt lat="35.93700572" lon="120.20907447">
        <time>2019-07-04T14:08:49.020000Z</time>
      </trkpt>
      <trkpt lat="35.9369272" lon="120.20901062">
        <time>2019-07-04T14:08:53.025000Z</time>
      </trkpt>
      <trkpt lat="35.93684356" lon="120.20892811">
        <time>2019-07-04T14:08:57.010000Z</time>
      </trkpt>
      <trkpt lat="35.93676436" lon="120.20884547">
        <time>2019-07-04T14:09:01.033000Z</time>
      </trkpt>
      <trkpt lat="35.93669135" lon="120.20877411">
        <time>2019-07-04T14:09:05.023000Z</time>
      </trkpt>
      <trkpt lat="35.93660903" lon="120.20869112">
        <time>2019-07-04T14:09:09.023000Z</time>
      </trkpt>
      <trkpt lat="35.93652287" lon="120.20859399">
        <time>2019-07-04T14:09:13.050000Z</time>
      </trkpt>
      <trkpt lat="35.93645318" lon="120.20851187">
        <time>2019-07-04T14:09:18.015000Z</time>
      </trkpt>
      <trkpt lat="35.93645318" lon="120.20851187">
        <time>2019-07-04T14:09:24.024000Z</time>
      </trkpt>
      <trkpt lat="35.93638642" lon="120.20842596">
        <time>2019-07-04T14:09:25.022000Z</time>
      </trkpt>
      <trkpt lat="35.93630886" lon="120.20834689">
        <time>2019-07-04T14:09:32.025000Z</time>
      </trkpt>
      <trkpt lat="35.93624697" lon="120.20826144">
        <time>2019-07-04T14:09:39.037000Z</time>
      </trkpt>
      <trkpt lat="35.93617253" lon="120.20817104">
        <time>2019-07-04T14:09:47.030000Z</time>
      </trkpt>
      <trkpt lat="35.93617253" lon="120.20817104">
        <time>2019-07-04T14:09:48.025000Z</time>
      </trkpt>
      <trkpt lat="35.93608598" lon="120.20809277">
        <time>2019-07-04T14:09:52.024000Z</time>
      </trkpt>
      <trkpt lat="35.93600271" lon="120.20799171">
        <time>2019-07-04T14:09:56.019000Z</time>
      </trkpt>
      <trkpt lat="35.93594161" lon="120.20790522">
        <time>2019-07-04T14:09:59.021000Z</time>
      </trkpt>
      <trkpt lat="35.93586515" lon="120.20780559">
        <time>2019-07-04T14:10:03.018000Z</time>
      </trkpt>
      <trkpt lat="35.93578813" lon="120.20770779">
        <time>2019-07-04T14:10:08.023000Z</time>
      </trkpt>
      <trkpt lat="35.93572866" lon="120.20760883">
        <time>2019-07-04T14:10:12.024000Z</time>
      </trkpt>
      <trkpt lat="35.93566115" lon="120.20749327">
        <time>2019-07-04T14:10:16.014000Z</time>
      </trkpt>
      <trkpt lat="35.93559838" lon="120.20738552">
        <time>2019-07-04T14:10:20.033000Z</time>
      </trkpt>
      <trkpt lat="35.93553325" lon="120.20728533">
        <time>2019-07-04T14:10:24.026000Z</time>
      </trkpt>
      <trkpt lat="35.93545368" lon="120.20722022">
        <time>2019-07-04T14:10:30.015000Z</time>
      </trkpt>
      <trkpt lat="35.93545368" lon="120.20722022">
        <time>2019-07-04T14:11:19.009000Z</time>
      </trkpt>
      <trkpt lat="35.93545368" lon="120.20722022">
        <time>2019-07-04T14:11:19.026000Z</time>
      </trkpt>
      <trkpt lat="35.93541857" lon="120.20711774">
        <time>2019-07-04T14:11:21.999000Z</time>
      </trkpt>
      <trkpt lat="35.93536305" lon="120.20702177">
        <time>2019-07-04T14:11:32.026000Z</time>
      </trkpt>
      <trkpt lat="35.93531824" lon="120.20692442">
        <time>2019-07-04T14:11:40.027000Z</time>
      </trkpt>
      <trkpt lat="35.93531824" lon="120.20692442">
        <time>2019-07-04T14:16:46.018000Z</time>
      </trkpt>
      <trkpt lat="35.93540419" lon="120.20707129">
        <time>2019-07-04T14:16:46.028000Z</time>
      </trkpt>
      <trkpt lat="35.93545934" lon="120.20716734">
        <time>2019-07-04T14:16:50.024000Z</time>
      </trkpt>
      <trkpt lat="35.93552501" lon="120.20728031">
        <time>2019-07-04T14:16:55.028000Z</time>
      </trkpt>
      <trkpt lat="35.93558303" lon="120.2073735">
        <time>2019-07-04T14:16:59.021000Z</time>
      </trkpt>
      <trkpt lat="35.9356429" lon="120.20746731">
        <time>2019-07-04T14:17:03.021000Z</time>
      </trkpt>
      <trkpt lat="35.9356429" lon="120.20746731">
        <time>2019-07-04T14:17:36.010000Z</time>
      </trkpt>
      <trkpt lat="35.93575895" lon="120.2076251">
        <time>2019-07-04T14:17:36.021000Z</time>
      </trkpt>
      <trkpt lat="35.93581807" lon="120.20771723">
        <time>2019-07-04T14:17:41.024000Z</time>
      </trkpt>
      <trkpt lat="35.93588104" lon="120.20780825">
        <time>2019-07-04T14:17:45.023000Z</time>
      </trkpt>
      <trkpt lat="35.93588104" lon="120.20780825">
        <time>2019-07-04T14:17:45.562000Z</time>
      </trkpt>
      <trkpt lat="35.93595204" lon="120.20791287">
        <time>2019-07-04T14:17:50.020000Z</time>
      </trkpt>
      <trkpt lat="35.93602568" lon="120.208007">
        <time>2019-07-04T14:17:55.010000Z</time>
      </trkpt>
      <trkpt lat="35.93609915" lon="120.20810713">
        <time>2019-07-04T14:17:59.020000Z</time>
      </trkpt>
      <trkpt lat="35.93617237" lon="120.2081983">
        <time>2019-07-04T14:18:03.025000Z</time>
      </trkpt>
      <trkpt lat="35.93624136" lon="120.20830711">
        <time>2019-07-04T14:18:08.025000Z</time>
      </trkpt>
      <trkpt lat="35.93631875" lon="120.20840396">
        <time>2019-07-04T14:18:12.016000Z</time>
      </trkpt>
      <trkpt lat="35.93640563" lon="120.20848862">
        <time>2019-07-04T14:18:16.016000Z</time>
      </trkpt>
      <trkpt lat="35.93647722" lon="120.20855906">
        <time>2019-07-04T14:18:19.005000Z</time>
      </trkpt>
      <trkpt lat="35.93654874" lon="120.20863485">
        <time>2019-07-04T14:18:23.020000Z</time>
      </trkpt>
      <trkpt lat="35.93662784" lon="120.20871775">
        <time>2019-07-04T14:18:29.023000Z</time>
      </trkpt>
      <trkpt lat="35.9367214" lon="120.2088004">
        <time>2019-07-04T14:18:34.019000Z</time>
      </trkpt>
      <trkpt lat="35.9368053" lon="120.20887172">
        <time>2019-07-04T14:18:37.013000Z</time>
      </trkpt>
      <trkpt lat="35.93689901" lon="120.20896061">
        <time>2019-07-04T14:18:40.012000Z</time>
      </trkpt>
      <trkpt lat="35.93698631" lon="120.20903677">
        <time>2019-07-04T14:18:44.015000Z</time>
      </trkpt>
      <trkpt lat="35.93698631" lon="120.20903677">
        <time>2019-07-04T14:18:44.663000Z</time>
      </trkpt>
      <trkpt lat="35.93706367" lon="120.20912012">
        <time>2019-07-04T14:18:50.014000Z</time>
      </trkpt>
      <trkpt lat="35.93706367" lon="120.20912012">
        <time>2019-07-04T14:18:54.024000Z</time>
      </trkpt>
      <trkpt lat="35.93714501" lon="120.20918966">
        <time>2019-07-04T14:18:54.044000Z</time>
      </trkpt>
      <trkpt lat="35.93722118" lon="120.20925645">
        <time>2019-07-04T14:18:58.023000Z</time>
      </trkpt>
      <trkpt lat="35.93731246" lon="120.20932522">
        <time>2019-07-04T14:19:03.022000Z</time>
      </trkpt>
      <trkpt lat="35.93738805" lon="120.20938647">
        <time>2019-07-04T14:19:07.021000Z</time>
      </trkpt>
      <trkpt lat="35.93746715" lon="120.20945245">
        <time>2019-07-04T14:19:11.037000Z</time>
      </trkpt>
      <trkpt lat="35.93755117" lon="120.20950584">
        <time>2019-07-04T14:19:15.021000Z</time>
      </trkpt>
      <trkpt lat="35.93764428" lon="120.20955156">
        <time>2019-07-04T14:19:19.026000Z</time>
      </trkpt>
      <trkpt lat="35.93773862" lon="120.20961459">
        <time>2019-07-04T14:19:23.023000Z</time>
      </trkpt>
      <trkpt lat="35.93781967" lon="120.20968403">
        <time>2019-07-04T14:19:27.025000Z</time>
      </trkpt>
      <trkpt lat="35.9379046" lon="120.20973611">
        <time>2019-07-04T14:19:31.010000Z</time>
      </trkpt>
      <trkpt lat="35.93798338" lon="120.20979622">
        <time>2019-07-04T14:19:35.030000Z</time>
      </trkpt>
      <trkpt lat="35.93805958" lon="120.20985734">
        <time>2019-07-04T14:19:39.027000Z</time>
      </trkpt>
      <trkpt lat="35.93815824" lon="120.20992019">
        <time>2019-07-04T14:19:44.041000Z</time>
      </trkpt>
      <trkpt lat="35.93824743" lon="120.20995535">
        <time>2019-07-04T14:19:48.019000Z</time>
      </trkpt>
      <trkpt lat="35.93834271" lon="120.20997852">
        <time>2019-07-04T14:19:52.025000Z</time>
      </trkpt>
      <trkpt lat="35.9384403" lon="120.21000381">
        <time>2019-07-04T14:19:56.015000Z</time>
      </trkpt>
      <trkpt lat="35.93853721" lon="120.21001813">
        <time>2019-07-04T14:20:00.019000Z</time>
      </trkpt>
      <trkpt lat="35.93865066" lon="120.2100258">
        <time>2019-07-04T14:20:05.020000Z</time>
      </trkpt>
      <trkpt lat="35.93874796" lon="120.21002492">
        <time>2019-07-04T14:20:09.028000Z</time>
      </trkpt>
      <trkpt lat="35.93885615" lon="120.21001154">
        <time>2019-07-04T14:20:14.043000Z</time>
      </trkpt>
      <trkpt lat="35.93894306" lon="120.20997573">
        <time>2019-07-04T14:20:18.029000Z</time>
      </trkpt>
      <trkpt lat="35.93904353" lon="120.20996121">
        <time>2019-07-04T14:20:23.010000Z</time>
      </trkpt>
      <trkpt lat="35.93904353" lon="120.20996121">
        <time>2019-07-04T14:20:26.649000Z</time>
      </trkpt>
      <trkpt lat="35.93913471" lon="120.20994397">
        <time>2019-07-04T14:20:29.022000Z</time>
      </trkpt>
      <trkpt lat="35.93923056" lon="120.20991977">
        <time>2019-07-04T14:20:36.021000Z</time>
      </trkpt>
      <trkpt lat="35.93932544" lon="120.20989205">
        <time>2019-07-04T14:20:46.006000Z</time>
      </trkpt>
      <trkpt lat="35.93941649" lon="120.20984944">
        <time>2019-07-04T14:20:52.031000Z</time>
      </trkpt>
      <trkpt lat="35.93941649" lon="120.20984944">
        <time>2019-07-04T14:20:52.659000Z</time>
      </trkpt>
      <trkpt lat="35.93950545" lon="120.20981193">
        <time>2019-07-04T14:20:55.022000Z</time>
      </trkpt>
      <trkpt lat="35.9395946" lon="120.209773">
        <time>2019-07-04T14:20:58.020000Z</time>
      </trkpt>
      <trkpt lat="35.93970503" lon="120.20973">
        <time>2019-07-04T14:21:02.031000Z</time>
      </trkpt>
      <trkpt lat="35.93981598" lon="120.20969547">
        <time>2019-07-04T14:21:06.013000Z</time>
      </trkpt>
      <trkpt lat="35.93992883" lon="120.2096609">
        <time>2019-07-04T14:21:10.022000Z</time>
      </trkpt>
      <trkpt lat="35.94002425" lon="120.20963675">
        <time>2019-07-04T14:21:13.020000Z</time>
      </trkpt>
      <trkpt lat="35.94013858" lon="120.20960505">
        <time>2019-07-04T14:21:17.072000Z</time>
      </trkpt>
      <trkpt lat="35.94024498" lon="120.20956155">
        <time>2019-07-04T14:21:21.041000Z</time>
      </trkpt>
      <trkpt lat="35.9403422" lon="120.20952576">
        <time>2019-07-04T14:21:25.023000Z</time>
      </trkpt>
      <trkpt lat="35.9403422" lon="120.20952576">
        <time>2019-07-04T14:21:32.901000Z</time>
      </trkpt>
      <trkpt lat="35.94040397" lon="120.20943162">
        <time>2019-07-04T14:21:33.024000Z</time>
      </trkpt>
      <trkpt lat="35.9404045" lon="120.20931647">
        <time>2019-07-04T14:21:40.026000Z</time>
      </trkpt>
      <trkpt lat="35.94044066" lon="120.20920511">
        <time>2019-07-04T14:21:49.034000Z</time>
      </trkpt>
      <trkpt lat="35.94049233" lon="120.20910013">
        <time>2019-07-04T14:21:56.119000Z</time>
      </trkpt>
      <trkpt lat="35.94049233" lon="120.20910013">
        <time>2019-07-04T14:22:00.948000Z</time>
      </trkpt>
      <trkpt lat="35.94055915" lon="120.20899421">
        <time>2019-07-04T14:22:01.017000Z</time>
      </trkpt>
      <trkpt lat="35.94062629" lon="120.20890925">
        <time>2019-07-04T14:22:04.022000Z</time>
      </trkpt>
      <trkpt lat="35.94072578" lon="120.20884059">
        <time>2019-07-04T14:22:08.021000Z</time>
      </trkpt>
      <trkpt lat="35.94082816" lon="120.20880857">
        <time>2019-07-04T14:22:13.016000Z</time>
      </trkpt>
      <trkpt lat="35.94092228" lon="120.20880239">
        <time>2019-07-04T14:22:17.069000Z</time>
      </trkpt>
      <trkpt lat="35.9410213" lon="120.20880126">
        <time>2019-07-04T14:22:21.024000Z</time>
      </trkpt>
      <trkpt lat="35.9410213" lon="120.20880126">
        <time>2019-07-04T14:22:26.006000Z</time>
      </trkpt>
      <trkpt lat="35.94110301" lon="120.20885502">
        <time>2019-07-04T14:22:27.011000Z</time>
      </trkpt>
      <trkpt lat="35.9411823" lon="120.20890898">
        <time>2019-07-04T14:22:34.021000Z</time>
      </trkpt>
      <trkpt lat="35.9411823" lon="120.20890898">
        <time>2019-07-04T14:22:41.050000Z</time>
      </trkpt>
      <trkpt lat="35.94125934" lon="120.2089867">
        <time>2019-07-04T14:22:42.035000Z</time>
      </trkpt>
      <trkpt lat="35.94132023" lon="120.20909558">
        <time>2019-07-04T14:22:46.022000Z</time>
      </trkpt>
      <trkpt lat="35.94136488" lon="120.20921384">
        <time>2019-07-04T14:22:50.013000Z</time>
      </trkpt>
      <trkpt lat="35.94142195" lon="120.20930478">
        <time>2019-07-04T14:22:54.044000Z</time>
      </trkpt>
      <trkpt lat="35.94151723" lon="120.20929802">
        <time>2019-07-04T14:22:58.022000Z</time>
      </trkpt>
      <trkpt lat="35.94161891" lon="120.20928609">
        <time>2019-07-04T14:23:02.021000Z</time>
      </trkpt>
      <trkpt lat="35.94172468" lon="120.20927163">
        <time>2019-07-04T14:23:06.015000Z</time>
      </trkpt>
      <trkpt lat="35.94182977" lon="120.20927065">
        <time>2019-07-04T14:23:10.028000Z</time>
      </trkpt>
      <trkpt lat="35.94192896" lon="120.20926516">
        <time>2019-07-04T14:23:14.024000Z</time>
      </trkpt>
      <trkpt lat="35.9420281" lon="120.20924419">
        <time>2019-07-04T14:23:18.020000Z</time>
      </trkpt>
      <trkpt lat="35.94214068" lon="120.20922295">
        <time>2019-07-04T14:23:22.024000Z</time>
      </trkpt>
      <trkpt lat="35.94224658" lon="120.20918308">
        <time>2019-07-04T14:23:26.026000Z</time>
      </trkpt>
      <trkpt lat="35.94235218" lon="120.20913082">
        <time>2019-07-04T14:23:30.033000Z</time>
      </trkpt>
      <trkpt lat="35.9424473" lon="120.20907759">
        <time>2019-07-04T14:23:34.014000Z</time>
      </trkpt>
      <trkpt lat="35.94254307" lon="120.20902841">
        <time>2019-07-04T14:23:38.021000Z</time>
      </trkpt>
      <trkpt lat="35.94263237" lon="120.20896578">
        <time>2019-07-04T14:23:42.012000Z</time>
      </trkpt>
      <trkpt lat="35.94273585" lon="120.20892666">
        <time>2019-07-04T14:23:46.023000Z</time>
      </trkpt>
      <trkpt lat="35.94282882" lon="120.2089116">
        <time>2019-07-04T14:23:50.017000Z</time>
      </trkpt>
      <trkpt lat="35.94292409" lon="120.20889921">
        <time>2019-07-04T14:23:54.019000Z</time>
      </trkpt>
      <trkpt lat="35.94302108" lon="120.20890801">
        <time>2019-07-04T14:23:58.027000Z</time>
      </trkpt>
      <trkpt lat="35.9431213" lon="120.20890164">
        <time>2019-07-04T14:24:02.026000Z</time>
      </trkpt>
      <trkpt lat="35.94321313" lon="120.20888264">
        <time>2019-07-04T14:24:07.026000Z</time>
      </trkpt>
      <trkpt lat="35.94321313" lon="120.20888264">
        <time>2019-07-04T14:24:08.781000Z</time>
      </trkpt>
      <trkpt lat="35.94330682" lon="120.20886804">
        <time>2019-07-04T14:24:15.021000Z</time>
      </trkpt>
      <trkpt lat="35.94330682" lon="120.20886804">
        <time>2019-07-04T14:24:27.137000Z</time>
      </trkpt>
      <trkpt lat="35.94341234" lon="120.20882793">
        <time>2019-07-04T14:24:27.187000Z</time>
      </trkpt>
      <trkpt lat="35.94349871" lon="120.20878313">
        <time>2019-07-04T14:24:31.030000Z</time>
      </trkpt>
      <trkpt lat="35.9435887" lon="120.20873493">
        <time>2019-07-04T14:24:35.023000Z</time>
      </trkpt>
      <trkpt lat="35.94368323" lon="120.20870607">
        <time>2019-07-04T14:24:39.019000Z</time>
      </trkpt>
      <trkpt lat="35.94377442" lon="120.20870345">
        <time>2019-07-04T14:24:43.030000Z</time>
      </trkpt>
      <trkpt lat="35.9438673" lon="120.20872211">
        <time>2019-07-04T14:24:47.028000Z</time>
      </trkpt>
      <trkpt lat="35.94395396" lon="120.20875697">
        <time>2019-07-04T14:24:51.012000Z</time>
      </trkpt>
      <trkpt lat="35.94404045" lon="120.20881041">
        <time>2019-07-04T14:24:55.017000Z</time>
      </trkpt>
      <trkpt lat="35.94413628" lon="120.20886043">
        <time>2019-07-04T14:24:59.008000Z</time>
      </trkpt>
      <trkpt lat="35.9442278" lon="120.20888517">
        <time>2019-07-04T14:25:03.040000Z</time>
      </trkpt>
      <trkpt lat="35.9443223" lon="120.20890267">
        <time>2019-07-04T14:25:07.013000Z</time>
      </trkpt>
      <trkpt lat="35.94442728" lon="120.20890004">
        <time>2019-07-04T14:25:11.030000Z</time>
      </trkpt>
      <trkpt lat="35.94453883" lon="120.20887313">
        <time>2019-07-04T14:25:15.017000Z</time>
      </trkpt>
      <trkpt lat="35.94465621" lon="120.20886692">
        <time>2019-07-04T14:25:19.012000Z</time>
      </trkpt>
      <trkpt lat="35.94477285" lon="120.20884269">
        <time>2019-07-04T14:25:23.019000Z</time>
      </trkpt>
      <trkpt lat="35.9448789" lon="120.20879796">
        <time>2019-07-04T14:25:27.037000Z</time>
      </trkpt>
      <trkpt lat="35.94498886" lon="120.20877954">
        <time>2019-07-04T14:25:31.022000Z</time>
      </trkpt>
      <trkpt lat="35.94509917" lon="120.20876963">
        <time>2019-07-04T14:25:35.031000Z</time>
      </trkpt>
      <trkpt lat="35.94519782" lon="120.20875887">
        <time>2019-07-04T14:25:39.020000Z</time>
      </trkpt>
      <trkpt lat="35.94529402" lon="120.20874923">
        <time>2019-07-04T14:25:43.018000Z</time>
      </trkpt>
      <trkpt lat="35.94538649" lon="120.20874301">
        <time>2019-07-04T14:25:48.028000Z</time>
      </trkpt>
      <trkpt lat="35.94538649" lon="120.20874301">
        <time>2019-07-04T14:25:51.825000Z</time>
      </trkpt>
      <trkpt lat="35.94548576" lon="120.20874574">
        <time>2019-07-04T14:25:54.009000Z</time>
      </trkpt>
      <trkpt lat="35.94557492" lon="120.20872933">
        <time>2019-07-04T14:25:59.019000Z</time>
      </trkpt>
      <trkpt lat="35.94557492" lon="120.20872933">
        <time>2019-07-04T14:26:01.843000Z</time>
      </trkpt>
      <trkpt lat="35.9456815" lon="120.20872044">
        <time>2019-07-04T14:26:03.029000Z</time>
      </trkpt>
      <trkpt lat="35.94579085" lon="120.20871074">
        <time>2019-07-04T14:26:07.025000Z</time>
      </trkpt>
      <trkpt lat="35.94589648" lon="120.20869545">
        <time>2019-07-04T14:26:11.027000Z</time>
      </trkpt>
      <trkpt lat="35.94599935" lon="120.20868552">
        <time>2019-07-04T14:26:15.017000Z</time>
      </trkpt>
      <trkpt lat="35.94609819" lon="120.20866082">
        <time>2019-07-04T14:26:19.017000Z</time>
      </trkpt>
      <trkpt lat="35.9462071" lon="120.20864156">
        <time>2019-07-04T14:26:23.037000Z</time>
      </trkpt>
      <trkpt lat="35.94631004" lon="120.20862657">
        <time>2019-07-04T14:26:27.031000Z</time>
      </trkpt>
      <trkpt lat="35.94641312" lon="120.20862153">
        <time>2019-07-04T14:26:31.029000Z</time>
      </trkpt>
      <trkpt lat="35.94652813" lon="120.20861375">
        <time>2019-07-04T14:26:35.031000Z</time>
      </trkpt>
      <trkpt lat="35.94661748" lon="120.20860115">
        <time>2019-07-04T14:26:38.035000Z</time>
      </trkpt>
      <trkpt lat="35.94671006" lon="120.20860082">
        <time>2019-07-04T14:26:42.033000Z</time>
      </trkpt>
      <trkpt lat="35.94671006" lon="120.20860082">
        <time>2019-07-04T14:26:45.865000Z</time>
      </trkpt>
      <trkpt lat="35.94680891" lon="120.20859455">
        <time>2019-07-04T14:26:49.030000Z</time>
      </trkpt>
      <trkpt lat="35.94691029" lon="120.20860953">
        <time>2019-07-04T14:26:57.031000Z</time>
      </trkpt>
      <trkpt lat="35.94701041" lon="120.20859411">
        <time>2019-07-04T14:27:04.031000Z</time>
      </trkpt>
      <trkpt lat="35.947055" lon="120.20848558">
        <time>2019-07-04T14:27:10.008000Z</time>
      </trkpt>
      <trkpt lat="35.9470384" lon="120.20834153">
        <time>2019-07-04T14:27:16.020000Z</time>
      </trkpt>
      <trkpt lat="35.9470384" lon="120.20834153">
        <time>2019-07-04T14:27:16.889000Z</time>
      </trkpt>
      <trkpt lat="35.94703137" lon="120.20820406">
        <time>2019-07-04T14:27:20.021000Z</time>
      </trkpt>
      <trkpt lat="35.94703348" lon="120.20806442">
        <time>2019-07-04T14:27:24.010000Z</time>
      </trkpt>
      <trkpt lat="35.9470218" lon="120.20793069">
        <time>2019-07-04T14:27:28.023000Z</time>
      </trkpt>
      <trkpt lat="35.94700568" lon="120.20780467">
        <time>2019-07-04T14:27:32.037000Z</time>
      </trkpt>
      <trkpt lat="35.94699548" lon="120.20769222">
        <time>2019-07-04T14:27:36.010000Z</time>
      </trkpt>
      <trkpt lat="35.94697574" lon="120.20757589">
        <time>2019-07-04T14:27:40.034000Z</time>
      </trkpt>
      <trkpt lat="35.9469705" lon="120.20745593">
        <time>2019-07-04T14:27:44.013000Z</time>
      </trkpt>
      <trkpt lat="35.94696172" lon="120.20732462">
        <time>2019-07-04T14:27:48.021000Z</time>
      </trkpt>
      <trkpt lat="35.94696775" lon="120.20719144">
        <time>2019-07-04T14:27:52.025000Z</time>
      </trkpt>
      <trkpt lat="35.94701648" lon="120.20706977">
        <time>2019-07-04T14:27:56.025000Z</time>
      </trkpt>
      <trkpt lat="35.94706967" lon="120.20694646">
        <time>2019-07-04T14:28:00.023000Z</time>
      </trkpt>
      <trkpt lat="35.94713072" lon="120.2068197">
        <time>2019-07-04T14:28:04.043000Z</time>
      </trkpt>
      <trkpt lat="35.9471691" lon="120.20671673">
        <time>2019-07-04T14:28:07.024000Z</time>
      </trkpt>
      <trkpt lat="35.94721699" lon="120.20661982">
        <time>2019-07-04T14:28:10.015000Z</time>
      </trkpt>
      <trkpt lat="35.94727717" lon="120.20650712">
        <time>2019-07-04T14:28:14.025000Z</time>
      </trkpt>
      <trkpt lat="35.94727717" lon="120.20650712">
        <time>2019-07-04T14:28:18.396000Z</time>
      </trkpt>
      <trkpt lat="35.94730513" lon="120.20638561">
        <time>2019-07-04T14:28:20.031000Z</time>
      </trkpt>
      <trkpt lat="35.94735067" lon="120.20627307">
        <time>2019-07-04T14:28:27.023000Z</time>
      </trkpt>
      <trkpt lat="35.94735067" lon="120.20627307">
        <time>2019-07-04T14:28:28.492000Z</time>
      </trkpt>
      <trkpt lat="35.9473922" lon="120.20616311">
        <time>2019-07-04T14:28:34.014000Z</time>
      </trkpt>
      <trkpt lat="35.9473922" lon="120.20616311">
        <time>2019-07-04T14:28:38.580000Z</time>
      </trkpt>
      <trkpt lat="35.94743397" lon="120.20605252">
        <time>2019-07-04T14:28:41.019000Z</time>
      </trkpt>
      <trkpt lat="35.94749116" lon="120.20595147">
        <time>2019-07-04T14:28:47.073000Z</time>
      </trkpt>
      <trkpt lat="35.94752937" lon="120.20584817">
        <time>2019-07-04T14:28:53.021000Z</time>
      </trkpt>
      <trkpt lat="35.94756856" lon="120.2057294">
        <time>2019-07-04T14:29:00.024000Z</time>
      </trkpt>
      <trkpt lat="35.94756856" lon="120.2057294">
        <time>2019-07-04T14:29:03.681000Z</time>
      </trkpt>
      <trkpt lat="35.9476174" lon="120.20562712">
        <time>2019-07-04T14:29:06.009000Z</time>
      </trkpt>
      <trkpt lat="35.94767068" lon="120.20552288">
        <time>2019-07-04T14:29:11.009000Z</time>
      </trkpt>
      <trkpt lat="35.94772193" lon="120.20540083">
        <time>2019-07-04T14:29:15.027000Z</time>
      </trkpt>
      <trkpt lat="35.94778" lon="120.20527694">
        <time>2019-07-04T14:29:19.013000Z</time>
      </trkpt>
      <trkpt lat="35.94782073" lon="120.20514967">
        <time>2019-07-04T14:29:23.025000Z</time>
      </trkpt>
      <trkpt lat="35.94786909" lon="120.20501796">
        <time>2019-07-04T14:29:27.026000Z</time>
      </trkpt>
      <trkpt lat="35.94789049" lon="120.20490951">
        <time>2019-07-04T14:29:30.037000Z</time>
      </trkpt>
      <trkpt lat="35.94790555" lon="120.2047712">
        <time>2019-07-04T14:29:34.020000Z</time>
      </trkpt>
      <trkpt lat="35.94790392" lon="120.20465413">
        <time>2019-07-04T14:29:37.028000Z</time>
      </trkpt>
      <trkpt lat="35.94790466" lon="120.20454106">
        <time>2019-07-04T14:29:40.019000Z</time>
      </trkpt>
      <trkpt lat="35.94789733" lon="120.2043956">
        <time>2019-07-04T14:29:44.045000Z</time>
      </trkpt>
      <trkpt lat="35.94787838" lon="120.20425701">
        <time>2019-07-04T14:29:48.018000Z</time>
      </trkpt>
      <trkpt lat="35.94796788" lon="120.2042007">
        <time>2019-07-04T14:29:52.016000Z</time>
      </trkpt>
      <trkpt lat="35.94803884" lon="120.20427284">
        <time>2019-07-04T14:29:55.012000Z</time>
      </trkpt>
      <trkpt lat="35.94812745" lon="120.20435028">
        <time>2019-07-04T14:29:59.026000Z</time>
      </trkpt>
      <trkpt lat="35.94822144" lon="120.20440217">
        <time>2019-07-04T14:30:03.012000Z</time>
      </trkpt>
      <trkpt lat="35.94822144" lon="120.20440217">
        <time>2019-07-04T14:30:07.776000Z</time>
      </trkpt>
      <trkpt lat="35.94830194" lon="120.2044641">
        <time>2019-07-04T14:30:08.007000Z</time>
      </trkpt>
      <trkpt lat="35.94839318" lon="120.20453514">
        <time>2019-07-04T14:30:12.014000Z</time>
      </trkpt>
      <trkpt lat="35.9484722" lon="120.20462514">
        <time>2019-07-04T14:30:16.013000Z</time>
      </trkpt>
      <trkpt lat="35.9484722" lon="120.20462514">
        <time>2019-07-04T14:30:17.817000Z</time>
      </trkpt>
      <trkpt lat="35.94854013" lon="120.20471817">
        <time>2019-07-04T14:30:20.005000Z</time>
      </trkpt>
      <trkpt lat="35.94861629" lon="120.20481168">
        <time>2019-07-04T14:30:24.012000Z</time>
      </trkpt>
      <trkpt lat="35.94870018" lon="120.20489878">
        <time>2019-07-04T14:30:28.007000Z</time>
      </trkpt>
      <trkpt lat="35.94878304" lon="120.2049958">
        <time>2019-07-04T14:30:32.010000Z</time>
      </trkpt>
      <trkpt lat="35.94885105" lon="120.2050694">
        <time>2019-07-04T14:30:35.008000Z</time>
      </trkpt>
      <trkpt lat="35.94891669" lon="120.20514697">
        <time>2019-07-04T14:30:38.010000Z</time>
      </trkpt>
      <trkpt lat="35.94899821" lon="120.20523335">
        <time>2019-07-04T14:30:42.009000Z</time>
      </trkpt>
      <trkpt lat="35.94908247" lon="120.20532432">
        <time>2019-07-04T14:30:46.010000Z</time>
      </trkpt>
      <trkpt lat="35.9491731" lon="120.20541215">
        <time>2019-07-04T14:30:50.008000Z</time>
      </trkpt>
      <trkpt lat="35.94926006" lon="120.20549009">
        <time>2019-07-04T14:30:54.009000Z</time>
      </trkpt>
      <trkpt lat="35.94933294" lon="120.20559027">
        <time>2019-07-04T14:30:58.008000Z</time>
      </trkpt>
      <trkpt lat="35.9494112" lon="120.20567781">
        <time>2019-07-04T14:31:02.018000Z</time>
      </trkpt>
      <trkpt lat="35.94948947" lon="120.20576911">
        <time>2019-07-04T14:31:06.007000Z</time>
      </trkpt>
      <trkpt lat="35.94957061" lon="120.20586024">
        <time>2019-07-04T14:31:10.012000Z</time>
      </trkpt>
      <trkpt lat="35.94965517" lon="120.20594375">
        <time>2019-07-04T14:31:14.017000Z</time>
      </trkpt>
      <trkpt lat="35.94973989" lon="120.20600753">
        <time>2019-07-04T14:31:18.008000Z</time>
      </trkpt>
      <trkpt lat="35.94983051" lon="120.20601124">
        <time>2019-07-04T14:31:23.010000Z</time>
      </trkpt>
      <trkpt lat="35.94992353" lon="120.20597789">
        <time>2019-07-04T14:31:28.014000Z</time>
      </trkpt>
      <trkpt lat="35.95002341" lon="120.20592536">
        <time>2019-07-04T14:31:32.009000Z</time>
      </trkpt>
      <trkpt lat="35.95012371" lon="120.20586532">
        <time>2019-07-04T14:31:36.054000Z</time>
      </trkpt>
      <trkpt lat="35.95020798" lon="120.20579319">
        <time>2019-07-04T14:31:40.006000Z</time>
      </trkpt>
      <trkpt lat="35.9502874" lon="120.20572563">
        <time>2019-07-04T14:31:44.017000Z</time>
      </trkpt>
      <trkpt lat="35.95037629" lon="120.20569253">
        <time>2019-07-04T14:31:48.006000Z</time>
      </trkpt>
      <trkpt lat="35.9504669" lon="120.20565388">
        <time>2019-07-04T14:31:52.016000Z</time>
      </trkpt>
      <trkpt lat="35.95055735" lon="120.20558607">
        <time>2019-07-04T14:31:57.015000Z</time>
      </trkpt>
      <trkpt lat="35.9506458" lon="120.2055508">
        <time>2019-07-04T14:32:01.020000Z</time>
      </trkpt>
      <trkpt lat="35.95067033" lon="120.20543331">
        <time>2019-07-04T14:32:05.008000Z</time>
      </trkpt>
      <trkpt lat="35.95067033" lon="120.20543331">
        <time>2019-07-04T14:32:09.881000Z</time>
      </trkpt>
      <trkpt lat="35.95065495" lon="120.20532331">
        <time>2019-07-04T14:32:10.007000Z</time>
      </trkpt>
      <trkpt lat="35.95062271" lon="120.20520743">
        <time>2019-07-04T14:32:16.011000Z</time>
      </trkpt>
      <trkpt lat="35.95058845" lon="120.20508417">
        <time>2019-07-04T14:32:20.010000Z</time>
      </trkpt>
      <trkpt lat="35.95058845" lon="120.20508417">
        <time>2019-07-04T14:32:21.894000Z</time>
      </trkpt>
      <trkpt lat="35.95055371" lon="120.20496559">
        <time>2019-07-04T14:32:24.010000Z</time>
      </trkpt>
      <trkpt lat="35.95056631" lon="120.20484852">
        <time>2019-07-04T14:32:34.014000Z</time>
      </trkpt>
      <trkpt lat="35.95056631" lon="120.20484852">
        <time>2019-07-04T14:32:47.011000Z</time>
      </trkpt>
      <trkpt lat="35.95056631" lon="120.20484852">
        <time>2019-07-04T14:32:47.036000Z</time>
      </trkpt>
      <trkpt lat="35.95067265" lon="120.20478528">
        <time>2019-07-04T14:32:51.010000Z</time>
      </trkpt>
      <trkpt lat="35.9507758" lon="120.20474507">
        <time>2019-07-04T14:32:55.011000Z</time>
      </trkpt>
      <trkpt lat="35.95085361" lon="120.20463994">
        <time>2019-07-04T14:32:59.010000Z</time>
      </trkpt>
      <trkpt lat="35.95090964" lon="120.20459842">
        <time>2019-07-04T14:33:01.453000Z</time>
      </trkpt>
    </trkseg>
  </trk>
</gpx>