<?xml version="1.0" encoding="UTF-8"?>
<gpx xmlns="http://www.topografix.com/GPX/1/1" xmlns:gpxtpx="http://www.garmin.com/xmlschemas/TrackPointExtension/v1" xmlns:xsi="http://www.w3.org/2001/XMLSchema-instance" xsi:schemaLocation="http://www.topografix.com/GPX/1/1 http://www.topografix.com/GPX/1/1/gpx.xsd" version="1.1" creator="gpx.py -- https://github.com/tkrajina/gpxpy">
  <trk>
    <name>星期日 早晨跑步</name>
    <trkseg>
      <trkpt lat="35.95692138" lon="120.20991363">
        <time>2019-07-06T22:55:46.027000Z</time>
      </trkpt>
      <trkpt lat="35.95693095" lon="120.20990965">
        <time>2019-07-06T22:55:46.949000Z</time>
      </trkpt>
      <trkpt lat="35.95693095" lon="120.20990965">
        <time>2019-07-06T22:55:47.963000Z</time>
      </trkpt>
      <trkpt lat="35.95693095" lon="120.20990965">
        <time>2019-07-06T22:55:52.969000Z</time>
      </trkpt>
      <trkpt lat="35.95693095" lon="120.20990965">
        <time>2019-07-06T22:55:52.985000Z</time>
      </trkpt>
      <trkpt lat="35.95703952" lon="120.20989285">
        <time>2019-07-06T22:55:54.975000Z</time>
      </trkpt>
      <trkpt lat="35.95703952" lon="120.20989285">
        <time>2019-07-06T22:56:01.971000Z</time>
      </trkpt>
      <trkpt lat="35.9571383" lon="120.20985246">
        <time>2019-07-06T22:56:03.979000Z</time>
      </trkpt>
      <trkpt lat="35.95722815" lon="120.20984015">
        <time>2019-07-06T22:56:07.965000Z</time>
      </trkpt>
      <trkpt lat="35.95732141" lon="120.20980745">
        <time>2019-07-06T22:56:11.969000Z</time>
      </trkpt>
      <trkpt lat="35.95741077" lon="120.20979275">
        <time>2019-07-06T22:56:14.984000Z</time>
      </trkpt>
      <trkpt lat="35.95750559" lon="120.20977539">
        <time>2019-07-06T22:56:17.974000Z</time>
      </trkpt>
      <trkpt lat="35.95759864" lon="120.20975908">
        <time>2019-07-06T22:56:22.961000Z</time>
      </trkpt>
      <trkpt lat="35.95769896" lon="120.20977865">
        <time>2019-07-06T22:56:26.973000Z</time>
      </trkpt>
      <trkpt lat="35.95775676" lon="120.20988575">
        <time>2019-07-06T22:56:30.975000Z</time>
      </trkpt>
      <trkpt lat="35.9578127" lon="120.21000821">
        <time>2019-07-06T22:56:35.966000Z</time>
      </trkpt>
      <trkpt lat="35.95785155" lon="120.21011328">
        <time>2019-07-06T22:56:39.959000Z</time>
      </trkpt>
      <trkpt lat="35.95785966" lon="120.21023681">
        <time>2019-07-06T22:56:43.976000Z</time>
      </trkpt>
      <trkpt lat="35.9579058" lon="120.21034106">
        <time>2019-07-06T22:56:47.968000Z</time>
      </trkpt>
      <trkpt lat="35.95790317" lon="120.21046197">
        <time>2019-07-06T22:56:51.972000Z</time>
      </trkpt>
      <trkpt lat="35.95790082" lon="120.21058541">
        <time>2019-07-06T22:56:55.970000Z</time>
      </trkpt>
      <trkpt lat="35.95787211" lon="120.2106957">
        <time>2019-07-06T22:56:59.976000Z</time>
      </trkpt>
      <trkpt lat="35.9578012" lon="120.21077703">
        <time>2019-07-06T22:57:03.970000Z</time>
      </trkpt>
      <trkpt lat="35.95769966" lon="120.21079303">
        <time>2019-07-06T22:57:07.975000Z</time>
      </trkpt>
      <trkpt lat="35.9575901" lon="120.21078776">
        <time>2019-07-06T22:57:12.976000Z</time>
      </trkpt>
      <trkpt lat="35.95749359" lon="120.21081223">
        <time>2019-07-06T22:57:16.986000Z</time>
      </trkpt>
      <trkpt lat="35.95739751" lon="120.21081512">
        <time>2019-07-06T22:57:21.972000Z</time>
      </trkpt>
      <trkpt lat="35.95729257" lon="120.21083364">
        <time>2019-07-06T22:57:25.969000Z</time>
      </trkpt>
      <trkpt lat="35.95719659" lon="120.21087105">
        <time>2019-07-06T22:57:29.974000Z</time>
      </trkpt>
      <trkpt lat="35.95710076" lon="120.21086727">
        <time>2019-07-06T22:57:33.960000Z</time>
      </trkpt>
      <trkpt lat="35.95701253" lon="120.21084421">
        <time>2019-07-06T22:57:37.954000Z</time>
      </trkpt>
      <trkpt lat="35.95690881" lon="120.21087988">
        <time>2019-07-06T22:57:42.977000Z</time>
      </trkpt>
      <trkpt lat="35.95682" lon="120.21090232">
        <time>2019-07-06T22:57:46.978000Z</time>
      </trkpt>
      <trkpt lat="35.95672323" lon="120.2109263">
        <time>2019-07-06T22:57:51.982000Z</time>
      </trkpt>
      <trkpt lat="35.95662986" lon="120.21095685">
        <time>2019-07-06T22:57:56.981000Z</time>
      </trkpt>
      <trkpt lat="35.956534" lon="120.21094658">
        <time>2019-07-06T22:58:00.972000Z</time>
      </trkpt>
      <trkpt lat="35.95642626" lon="120.21095227">
        <time>2019-07-06T22:58:04.984000Z</time>
      </trkpt>
      <trkpt lat="35.95632242" lon="120.2109647">
        <time>2019-07-06T22:58:09.006000Z</time>
      </trkpt>
      <trkpt lat="35.9562319" lon="120.21097815">
        <time>2019-07-06T22:58:12.976000Z</time>
      </trkpt>
      <trkpt lat="35.95613026" lon="120.2110082">
        <time>2019-07-06T22:58:16.973000Z</time>
      </trkpt>
      <trkpt lat="35.95603715" lon="120.21103179">
        <time>2019-07-06T22:58:21.001000Z</time>
      </trkpt>
      <trkpt lat="35.95593865" lon="120.21105759">
        <time>2019-07-06T22:58:24.976000Z</time>
      </trkpt>
      <trkpt lat="35.95584055" lon="120.2111245">
        <time>2019-07-06T22:58:29.988000Z</time>
      </trkpt>
      <trkpt lat="35.95577486" lon="120.21120243">
        <time>2019-07-06T22:58:33.979000Z</time>
      </trkpt>
      <trkpt lat="35.95570419" lon="120.21127651">
        <time>2019-07-06T22:58:37.970000Z</time>
      </trkpt>
      <trkpt lat="35.95565665" lon="120.21137771">
        <time>2019-07-06T22:58:41.971000Z</time>
      </trkpt>
      <trkpt lat="35.95557098" lon="120.21146918">
        <time>2019-07-06T22:58:46.977000Z</time>
      </trkpt>
      <trkpt lat="35.95553638" lon="120.21153895">
        <time>2019-07-06T22:58:56.327000Z</time>
      </trkpt>
    </trkseg>
  </trk>
</gpx>