<?xml version="1.0" encoding="UTF-8"?>
<gpx xmlns="http://www.topografix.com/GPX/1/1" xmlns:gpxtpx="http://www.garmin.com/xmlschemas/TrackPointExtension/v1" xmlns:xsi="http://www.w3.org/2001/XMLSchema-instance" xsi:schemaLocation="http://www.topografix.com/GPX/1/1 http://www.topografix.com/GPX/1/1/gpx.xsd" version="1.1" creator="gpx.py -- https://github.com/tkrajina/gpxpy">
  <trk>
    <name>星期六 夜跑</name>
    <trkseg>
      <trkpt lat="35.97072203" lon="120.18662762">
        <time>2019-07-13T14:17:29.910000Z</time>
      </trkpt>
      <trkpt lat="35.97072203" lon="120.18662762">
        <time>2019-07-13T14:17:32.926000Z</time>
      </trkpt>
      <trkpt lat="35.97072203" lon="120.18662762">
        <time>2019-07-13T14:17:36.937000Z</time>
      </trkpt>
      <trkpt lat="35.97067301" lon="120.18677404">
        <time>2019-07-13T14:17:36.954000Z</time>
      </trkpt>
      <trkpt lat="35.97061736" lon="120.1868904">
        <time>2019-07-13T14:17:39.916000Z</time>
      </trkpt>
      <trkpt lat="35.9705808" lon="120.18700775">
        <time>2019-07-13T14:17:42.941000Z</time>
      </trkpt>
      <trkpt lat="35.97052348" lon="120.18712715">
        <time>2019-07-13T14:17:45.928000Z</time>
      </trkpt>
      <trkpt lat="35.97052348" lon="120.18712715">
        <time>2019-07-13T14:17:46.541000Z</time>
      </trkpt>
      <trkpt lat="35.97046305" lon="120.1872361">
        <time>2019-07-13T14:17:48.949000Z</time>
      </trkpt>
      <trkpt lat="35.97040386" lon="120.18732549">
        <time>2019-07-13T14:17:51.938000Z</time>
      </trkpt>
      <trkpt lat="35.97034176" lon="120.18741806">
        <time>2019-07-13T14:17:54.926000Z</time>
      </trkpt>
      <trkpt lat="35.97022886" lon="120.1874646">
        <time>2019-07-13T14:17:58.933000Z</time>
      </trkpt>
      <trkpt lat="35.97022886" lon="120.1874646">
        <time>2019-07-13T14:18:09.932000Z</time>
      </trkpt>
      <trkpt lat="35.97013892" lon="120.18741268">
        <time>2019-07-13T14:18:09.951000Z</time>
      </trkpt>
      <trkpt lat="35.97005425" lon="120.18748319">
        <time>2019-07-13T14:18:13.924000Z</time>
      </trkpt>
      <trkpt lat="35.97004114" lon="120.18762523">
        <time>2019-07-13T14:18:18.932000Z</time>
      </trkpt>
      <trkpt lat="35.97004114" lon="120.18762523">
        <time>2019-07-13T14:18:19.595000Z</time>
      </trkpt>
      <trkpt lat="35.97007577" lon="120.18775515">
        <time>2019-07-13T14:18:21.934000Z</time>
      </trkpt>
      <trkpt lat="35.97001758" lon="120.1878815">
        <time>2019-07-13T14:18:25.936000Z</time>
      </trkpt>
      <trkpt lat="35.96994468" lon="120.18797926">
        <time>2019-07-13T14:18:29.909000Z</time>
      </trkpt>
      <trkpt lat="35.96987923" lon="120.18809461">
        <time>2019-07-13T14:18:33.923000Z</time>
      </trkpt>
      <trkpt lat="35.96983954" lon="120.18819878">
        <time>2019-07-13T14:18:36.946000Z</time>
      </trkpt>
      <trkpt lat="35.96979806" lon="120.18830859">
        <time>2019-07-13T14:18:39.941000Z</time>
      </trkpt>
      <trkpt lat="35.96977432" lon="120.18842153">
        <time>2019-07-13T14:18:42.935000Z</time>
      </trkpt>
      <trkpt lat="35.96973441" lon="120.18855941">
        <time>2019-07-13T14:18:46.931000Z</time>
      </trkpt>
      <trkpt lat="35.9697166" lon="120.18867678">
        <time>2019-07-13T14:18:49.928000Z</time>
      </trkpt>
      <trkpt lat="35.96967304" lon="120.18878787">
        <time>2019-07-13T14:18:52.929000Z</time>
      </trkpt>
      <trkpt lat="35.96964078" lon="120.18892329">
        <time>2019-07-13T14:18:56.931000Z</time>
      </trkpt>
      <trkpt lat="35.96959651" lon="120.18903706">
        <time>2019-07-13T14:19:00.942000Z</time>
      </trkpt>
      <trkpt lat="35.96954026" lon="120.18914773">
        <time>2019-07-13T14:19:04.922000Z</time>
      </trkpt>
      <trkpt lat="35.96953739" lon="120.18928519">
        <time>2019-07-13T14:19:08.934000Z</time>
      </trkpt>
      <trkpt lat="35.96946937" lon="120.18939639">
        <time>2019-07-13T14:19:12.940000Z</time>
      </trkpt>
      <trkpt lat="35.96937454" lon="120.18945541">
        <time>2019-07-13T14:19:16.922000Z</time>
      </trkpt>
      <trkpt lat="35.96937454" lon="120.18945541">
        <time>2019-07-13T14:19:20.937000Z</time>
      </trkpt>
      <trkpt lat="35.96799774" lon="120.19614087">
        <time>2019-07-13T14:22:55.938000Z</time>
      </trkpt>
      <trkpt lat="35.96800586" lon="120.19625708">
        <time>2019-07-13T14:22:58.924000Z</time>
      </trkpt>
      <trkpt lat="35.96799496" lon="120.19637377">
        <time>2019-07-13T14:23:02.921000Z</time>
      </trkpt>
      <trkpt lat="35.96800223" lon="120.1964942">
        <time>2019-07-13T14:23:06.927000Z</time>
      </trkpt>
      <trkpt lat="35.96799655" lon="120.19661451">
        <time>2019-07-13T14:23:10.934000Z</time>
      </trkpt>
      <trkpt lat="35.96797658" lon="120.19672389">
        <time>2019-07-13T14:23:13.967000Z</time>
      </trkpt>
      <trkpt lat="35.96796943" lon="120.19683742">
        <time>2019-07-13T14:23:16.918000Z</time>
      </trkpt>
      <trkpt lat="35.96795764" lon="120.19698416">
        <time>2019-07-13T14:23:20.945000Z</time>
      </trkpt>
      <trkpt lat="35.96793378" lon="120.19712355">
        <time>2019-07-13T14:23:24.928000Z</time>
      </trkpt>
      <trkpt lat="35.96793999" lon="120.197255">
        <time>2019-07-13T14:23:28.964000Z</time>
      </trkpt>
      <trkpt lat="35.96794264" lon="120.19737935">
        <time>2019-07-13T14:23:32.931000Z</time>
      </trkpt>
      <trkpt lat="35.96793319" lon="120.19749961">
        <time>2019-07-13T14:23:36.922000Z</time>
      </trkpt>
      <trkpt lat="35.96793064" lon="120.19762427">
        <time>2019-07-13T14:23:40.926000Z</time>
      </trkpt>
      <trkpt lat="35.96789442" lon="120.19775324">
        <time>2019-07-13T14:23:44.936000Z</time>
      </trkpt>
      <trkpt lat="35.96788904" lon="120.19787715">
        <time>2019-07-13T14:23:48.940000Z</time>
      </trkpt>
      <trkpt lat="35.96786325" lon="120.19800758">
        <time>2019-07-13T14:23:52.957000Z</time>
      </trkpt>
      <trkpt lat="35.96783754" lon="120.1981378">
        <time>2019-07-13T14:23:56.930000Z</time>
      </trkpt>
      <trkpt lat="35.96781979" lon="120.19827727">
        <time>2019-07-13T14:24:00.943000Z</time>
      </trkpt>
      <trkpt lat="35.96781728" lon="120.19840979">
        <time>2019-07-13T14:24:04.929000Z</time>
      </trkpt>
      <trkpt lat="35.96781649" lon="120.19853069">
        <time>2019-07-13T14:24:08.924000Z</time>
      </trkpt>
      <trkpt lat="35.96778444" lon="120.19865225">
        <time>2019-07-13T14:24:12.922000Z</time>
      </trkpt>
      <trkpt lat="35.9677579" lon="120.198791">
        <time>2019-07-13T14:24:16.917000Z</time>
      </trkpt>
      <trkpt lat="35.9677631" lon="120.19890801">
        <time>2019-07-13T14:24:20.918000Z</time>
      </trkpt>
      <trkpt lat="35.96774932" lon="120.1990268">
        <time>2019-07-13T14:24:24.930000Z</time>
      </trkpt>
      <trkpt lat="35.96773862" lon="120.19914674">
        <time>2019-07-13T14:24:28.930000Z</time>
      </trkpt>
      <trkpt lat="35.96772745" lon="120.1992606">
        <time>2019-07-13T14:24:32.934000Z</time>
      </trkpt>
      <trkpt lat="35.96770947" lon="120.19937929">
        <time>2019-07-13T14:24:39.927000Z</time>
      </trkpt>
      <trkpt lat="35.96770947" lon="120.19937929">
        <time>2019-07-13T14:25:02.916000Z</time>
      </trkpt>
      <trkpt lat="35.96770947" lon="120.19937929">
        <time>2019-07-13T14:25:02.928000Z</time>
      </trkpt>
      <trkpt lat="35.96770016" lon="120.19950218">
        <time>2019-07-13T14:25:05.923000Z</time>
      </trkpt>
      <trkpt lat="35.96770016" lon="120.19950218">
        <time>2019-07-13T14:25:30.911000Z</time>
      </trkpt>
      <trkpt lat="35.96768281" lon="120.19962405">
        <time>2019-07-13T14:25:30.938000Z</time>
      </trkpt>
      <trkpt lat="35.96767731" lon="120.19974413">
        <time>2019-07-13T14:25:37.923000Z</time>
      </trkpt>
      <trkpt lat="35.96767731" lon="120.19974413">
        <time>2019-07-13T14:25:40.936000Z</time>
      </trkpt>
      <trkpt lat="35.96766787" lon="120.19986948">
        <time>2019-07-13T14:25:41.934000Z</time>
      </trkpt>
      <trkpt lat="35.96764425" lon="120.19999857">
        <time>2019-07-13T14:25:45.936000Z</time>
      </trkpt>
      <trkpt lat="35.96762119" lon="120.20012567">
        <time>2019-07-13T14:25:49.939000Z</time>
      </trkpt>
      <trkpt lat="35.96760612" lon="120.20025373">
        <time>2019-07-13T14:25:53.923000Z</time>
      </trkpt>
      <trkpt lat="35.9675956" lon="120.2003845">
        <time>2019-07-13T14:25:57.935000Z</time>
      </trkpt>
      <trkpt lat="35.96758337" lon="120.20049733">
        <time>2019-07-13T14:26:00.927000Z</time>
      </trkpt>
      <trkpt lat="35.96756337" lon="120.20061809">
        <time>2019-07-13T14:26:03.923000Z</time>
      </trkpt>
      <trkpt lat="35.96753827" lon="120.20073035">
        <time>2019-07-13T14:26:06.926000Z</time>
      </trkpt>
      <trkpt lat="35.96752521" lon="120.20086818">
        <time>2019-07-13T14:26:10.920000Z</time>
      </trkpt>
      <trkpt lat="35.9675159" lon="120.20100862">
        <time>2019-07-13T14:26:15.942000Z</time>
      </trkpt>
      <trkpt lat="35.96750212" lon="120.20112789">
        <time>2019-07-13T14:26:18.929000Z</time>
      </trkpt>
      <trkpt lat="35.96748005" lon="120.20126003">
        <time>2019-07-13T14:26:22.926000Z</time>
      </trkpt>
      <trkpt lat="35.9674645" lon="120.20139577">
        <time>2019-07-13T14:26:26.951000Z</time>
      </trkpt>
      <trkpt lat="35.96744442" lon="120.20152907">
        <time>2019-07-13T14:26:30.941000Z</time>
      </trkpt>
      <trkpt lat="35.96744007" lon="120.2016741">
        <time>2019-07-13T14:26:35.917000Z</time>
      </trkpt>
      <trkpt lat="35.96741931" lon="120.20181433">
        <time>2019-07-13T14:26:39.936000Z</time>
      </trkpt>
      <trkpt lat="35.96740503" lon="120.2019516">
        <time>2019-07-13T14:26:43.928000Z</time>
      </trkpt>
      <trkpt lat="35.96737879" lon="120.20209123">
        <time>2019-07-13T14:26:47.921000Z</time>
      </trkpt>
      <trkpt lat="35.96739902" lon="120.20220908">
        <time>2019-07-13T14:26:51.940000Z</time>
      </trkpt>
      <trkpt lat="35.96737657" lon="120.20231725">
        <time>2019-07-13T14:26:55.951000Z</time>
      </trkpt>
      <trkpt lat="35.96735505" lon="120.20242888">
        <time>2019-07-13T14:26:58.946000Z</time>
      </trkpt>
      <trkpt lat="35.96734482" lon="120.20255593">
        <time>2019-07-13T14:27:02.943000Z</time>
      </trkpt>
      <trkpt lat="35.96732967" lon="120.20268937">
        <time>2019-07-13T14:27:06.920000Z</time>
      </trkpt>
      <trkpt lat="35.96732996" lon="120.20282323">
        <time>2019-07-13T14:27:10.940000Z</time>
      </trkpt>
      <trkpt lat="35.96733401" lon="120.20295656">
        <time>2019-07-13T14:27:14.921000Z</time>
      </trkpt>
      <trkpt lat="35.96733197" lon="120.20307114">
        <time>2019-07-13T14:27:19.921000Z</time>
      </trkpt>
      <trkpt lat="35.96729236" lon="120.20320984">
        <time>2019-07-13T14:27:24.914000Z</time>
      </trkpt>
      <trkpt lat="35.96729451" lon="120.20334136">
        <time>2019-07-13T14:27:28.924000Z</time>
      </trkpt>
      <trkpt lat="35.96726771" lon="120.20347596">
        <time>2019-07-13T14:27:33.921000Z</time>
      </trkpt>
      <trkpt lat="35.96726266" lon="120.20361542">
        <time>2019-07-13T14:27:37.922000Z</time>
      </trkpt>
      <trkpt lat="35.96726469" lon="120.20374805">
        <time>2019-07-13T14:27:41.932000Z</time>
      </trkpt>
      <trkpt lat="35.96726657" lon="120.20389309">
        <time>2019-07-13T14:27:45.935000Z</time>
      </trkpt>
      <trkpt lat="35.96726516" lon="120.20403228">
        <time>2019-07-13T14:27:49.951000Z</time>
      </trkpt>
      <trkpt lat="35.96727944" lon="120.20415583">
        <time>2019-07-13T14:27:53.934000Z</time>
      </trkpt>
      <trkpt lat="35.96725903" lon="120.20428731">
        <time>2019-07-13T14:27:57.942000Z</time>
      </trkpt>
      <trkpt lat="35.96724886" lon="120.20442121">
        <time>2019-07-13T14:28:01.931000Z</time>
      </trkpt>
      <trkpt lat="35.96725586" lon="120.20454616">
        <time>2019-07-13T14:28:05.932000Z</time>
      </trkpt>
      <trkpt lat="35.96726688" lon="120.20467912">
        <time>2019-07-13T14:28:09.924000Z</time>
      </trkpt>
      <trkpt lat="35.96725893" lon="120.20482174">
        <time>2019-07-13T14:28:13.943000Z</time>
      </trkpt>
      <trkpt lat="35.96724442" lon="120.20495759">
        <time>2019-07-13T14:28:17.934000Z</time>
      </trkpt>
      <trkpt lat="35.96725048" lon="120.20509119">
        <time>2019-07-13T14:28:23.927000Z</time>
      </trkpt>
      <trkpt lat="35.96715789" lon="120.20516726">
        <time>2019-07-13T14:28:29.940000Z</time>
      </trkpt>
      <trkpt lat="35.96705452" lon="120.20515785">
        <time>2019-07-13T14:28:33.932000Z</time>
      </trkpt>
      <trkpt lat="35.96695525" lon="120.20518457">
        <time>2019-07-13T14:28:37.922000Z</time>
      </trkpt>
      <trkpt lat="35.96685512" lon="120.20519577">
        <time>2019-07-13T14:28:41.937000Z</time>
      </trkpt>
      <trkpt lat="35.96674261" lon="120.20520816">
        <time>2019-07-13T14:28:45.960000Z</time>
      </trkpt>
      <trkpt lat="35.96663587" lon="120.20522569">
        <time>2019-07-13T14:28:49.915000Z</time>
      </trkpt>
      <trkpt lat="35.96653118" lon="120.20527174">
        <time>2019-07-13T14:28:53.911000Z</time>
      </trkpt>
      <trkpt lat="35.96642678" lon="120.20529342">
        <time>2019-07-13T14:28:57.914000Z</time>
      </trkpt>
      <trkpt lat="35.96634017" lon="120.20532417">
        <time>2019-07-13T14:29:00.927000Z</time>
      </trkpt>
      <trkpt lat="35.96623032" lon="120.20533509">
        <time>2019-07-13T14:29:04.919000Z</time>
      </trkpt>
      <trkpt lat="35.96612726" lon="120.20535545">
        <time>2019-07-13T14:29:08.912000Z</time>
      </trkpt>
      <trkpt lat="35.96602872" lon="120.20538854">
        <time>2019-07-13T14:29:12.933000Z</time>
      </trkpt>
      <trkpt lat="35.96592134" lon="120.20539334">
        <time>2019-07-13T14:29:16.923000Z</time>
      </trkpt>
      <trkpt lat="35.96581776" lon="120.20542515">
        <time>2019-07-13T14:29:20.936000Z</time>
      </trkpt>
      <trkpt lat="35.96571103" lon="120.20543682">
        <time>2019-07-13T14:29:24.919000Z</time>
      </trkpt>
      <trkpt lat="35.96560926" lon="120.20545163">
        <time>2019-07-13T14:29:28.925000Z</time>
      </trkpt>
      <trkpt lat="35.96550078" lon="120.20547899">
        <time>2019-07-13T14:29:32.925000Z</time>
      </trkpt>
      <trkpt lat="35.96539375" lon="120.20551419">
        <time>2019-07-13T14:29:36.924000Z</time>
      </trkpt>
      <trkpt lat="35.96528385" lon="120.20552992">
        <time>2019-07-13T14:29:40.928000Z</time>
      </trkpt>
      <trkpt lat="35.9651725" lon="120.20555746">
        <time>2019-07-13T14:29:45.932000Z</time>
      </trkpt>
      <trkpt lat="35.9650675" lon="120.20557289">
        <time>2019-07-13T14:29:49.937000Z</time>
      </trkpt>
      <trkpt lat="35.9649747" lon="120.20561476">
        <time>2019-07-13T14:29:53.920000Z</time>
      </trkpt>
      <trkpt lat="35.96487134" lon="120.20563445">
        <time>2019-07-13T14:29:57.922000Z</time>
      </trkpt>
      <trkpt lat="35.96475849" lon="120.2056575">
        <time>2019-07-13T14:30:02.923000Z</time>
      </trkpt>
      <trkpt lat="35.96465539" lon="120.20569132">
        <time>2019-07-13T14:30:06.926000Z</time>
      </trkpt>
      <trkpt lat="35.96454847" lon="120.20572426">
        <time>2019-07-13T14:30:10.944000Z</time>
      </trkpt>
      <trkpt lat="35.96444993" lon="120.20573236">
        <time>2019-07-13T14:30:14.911000Z</time>
      </trkpt>
      <trkpt lat="35.96435655" lon="120.20574356">
        <time>2019-07-13T14:30:18.926000Z</time>
      </trkpt>
      <trkpt lat="35.96425527" lon="120.20577638">
        <time>2019-07-13T14:30:22.975000Z</time>
      </trkpt>
      <trkpt lat="35.96414058" lon="120.20580027">
        <time>2019-07-13T14:30:26.927000Z</time>
      </trkpt>
      <trkpt lat="35.96403343" lon="120.20583848">
        <time>2019-07-13T14:30:30.917000Z</time>
      </trkpt>
      <trkpt lat="35.96392344" lon="120.20582078">
        <time>2019-07-13T14:30:35.937000Z</time>
      </trkpt>
      <trkpt lat="35.96381881" lon="120.20580749">
        <time>2019-07-13T14:30:39.925000Z</time>
      </trkpt>
      <trkpt lat="35.96371476" lon="120.20583202">
        <time>2019-07-13T14:30:43.914000Z</time>
      </trkpt>
      <trkpt lat="35.96361837" lon="120.20585742">
        <time>2019-07-13T14:30:47.948000Z</time>
      </trkpt>
      <trkpt lat="35.96351284" lon="120.20587953">
        <time>2019-07-13T14:30:51.923000Z</time>
      </trkpt>
      <trkpt lat="35.96340599" lon="120.20590308">
        <time>2019-07-13T14:30:55.918000Z</time>
      </trkpt>
      <trkpt lat="35.96330084" lon="120.20592486">
        <time>2019-07-13T14:31:00.943000Z</time>
      </trkpt>
      <trkpt lat="35.96319704" lon="120.20593487">
        <time>2019-07-13T14:31:04.923000Z</time>
      </trkpt>
      <trkpt lat="35.96309849" lon="120.20593587">
        <time>2019-07-13T14:31:08.937000Z</time>
      </trkpt>
      <trkpt lat="35.96299439" lon="120.20596687">
        <time>2019-07-13T14:31:12.922000Z</time>
      </trkpt>
      <trkpt lat="35.96288847" lon="120.20599683">
        <time>2019-07-13T14:31:16.929000Z</time>
      </trkpt>
      <trkpt lat="35.96278052" lon="120.20602085">
        <time>2019-07-13T14:31:20.944000Z</time>
      </trkpt>
      <trkpt lat="35.9626856" lon="120.20603355">
        <time>2019-07-13T14:31:24.930000Z</time>
      </trkpt>
      <trkpt lat="35.96258825" lon="120.2060617">
        <time>2019-07-13T14:31:28.915000Z</time>
      </trkpt>
      <trkpt lat="35.96249479" lon="120.20610378">
        <time>2019-07-13T14:31:32.969000Z</time>
      </trkpt>
      <trkpt lat="35.96240557" lon="120.20614473">
        <time>2019-07-13T14:31:37.941000Z</time>
      </trkpt>
      <trkpt lat="35.96230488" lon="120.20619742">
        <time>2019-07-13T14:31:42.916000Z</time>
      </trkpt>
      <trkpt lat="35.96220071" lon="120.20619755">
        <time>2019-07-13T14:31:46.924000Z</time>
      </trkpt>
      <trkpt lat="35.96209023" lon="120.20619958">
        <time>2019-07-13T14:31:50.918000Z</time>
      </trkpt>
      <trkpt lat="35.96199255" lon="120.20616492">
        <time>2019-07-13T14:31:56.930000Z</time>
      </trkpt>
      <trkpt lat="35.96199255" lon="120.20616492">
        <time>2019-07-13T14:31:57.244000Z</time>
      </trkpt>
      <trkpt lat="35.96193104" lon="120.20626122">
        <time>2019-07-13T14:32:05.743000Z</time>
      </trkpt>
      <trkpt lat="35.9619309" lon="120.20638075">
        <time>2019-07-13T14:32:10.918000Z</time>
      </trkpt>
      <trkpt lat="35.9619309" lon="120.20638075">
        <time>2019-07-13T14:32:11.914000Z</time>
      </trkpt>
      <trkpt lat="35.96193182" lon="120.20651207">
        <time>2019-07-13T14:32:14.929000Z</time>
      </trkpt>
      <trkpt lat="35.96194804" lon="120.20663695">
        <time>2019-07-13T14:32:18.933000Z</time>
      </trkpt>
      <trkpt lat="35.96196396" lon="120.20676074">
        <time>2019-07-13T14:32:22.929000Z</time>
      </trkpt>
      <trkpt lat="35.96199908" lon="120.2068781">
        <time>2019-07-13T14:32:26.932000Z</time>
      </trkpt>
      <trkpt lat="35.96204218" lon="120.20698761">
        <time>2019-07-13T14:32:30.947000Z</time>
      </trkpt>
      <trkpt lat="35.96200608" lon="120.20711464">
        <time>2019-07-13T14:32:34.941000Z</time>
      </trkpt>
      <trkpt lat="35.96202128" lon="120.20725163">
        <time>2019-07-13T14:32:38.939000Z</time>
      </trkpt>
      <trkpt lat="35.96207553" lon="120.20738184">
        <time>2019-07-13T14:32:42.939000Z</time>
      </trkpt>
      <trkpt lat="35.96212069" lon="120.20748018">
        <time>2019-07-13T14:32:45.940000Z</time>
      </trkpt>
      <trkpt lat="35.96218342" lon="120.20757573">
        <time>2019-07-13T14:32:49.932000Z</time>
      </trkpt>
      <trkpt lat="35.96217856" lon="120.20771556">
        <time>2019-07-13T14:32:54.940000Z</time>
      </trkpt>
      <trkpt lat="35.96221549" lon="120.2078322">
        <time>2019-07-13T14:33:00.929000Z</time>
      </trkpt>
      <trkpt lat="35.96222041" lon="120.20797871">
        <time>2019-07-13T14:33:04.921000Z</time>
      </trkpt>
      <trkpt lat="35.96221406" lon="120.20809973">
        <time>2019-07-13T14:33:07.945000Z</time>
      </trkpt>
      <trkpt lat="35.96222767" lon="120.20821372">
        <time>2019-07-13T14:33:10.924000Z</time>
      </trkpt>
      <trkpt lat="35.96229263" lon="120.20829435">
        <time>2019-07-13T14:33:14.931000Z</time>
      </trkpt>
      <trkpt lat="35.96234523" lon="120.20841355">
        <time>2019-07-13T14:33:18.927000Z</time>
      </trkpt>
      <trkpt lat="35.96238378" lon="120.20854737">
        <time>2019-07-13T14:33:22.923000Z</time>
      </trkpt>
      <trkpt lat="35.96237598" lon="120.20868352">
        <time>2019-07-13T14:33:26.959000Z</time>
      </trkpt>
      <trkpt lat="35.96238716" lon="120.20882072">
        <time>2019-07-13T14:33:30.944000Z</time>
      </trkpt>
      <trkpt lat="35.96240575" lon="120.20895938">
        <time>2019-07-13T14:33:35.960000Z</time>
      </trkpt>
      <trkpt lat="35.96241895" lon="120.20908874">
        <time>2019-07-13T14:33:39.964000Z</time>
      </trkpt>
      <trkpt lat="35.96244804" lon="120.20921251">
        <time>2019-07-13T14:33:43.928000Z</time>
      </trkpt>
      <trkpt lat="35.96249848" lon="120.20931828">
        <time>2019-07-13T14:33:47.932000Z</time>
      </trkpt>
      <trkpt lat="35.96247028" lon="120.2094482">
        <time>2019-07-13T14:33:51.932000Z</time>
      </trkpt>
      <trkpt lat="35.96241074" lon="120.20953224">
        <time>2019-07-13T14:33:54.921000Z</time>
      </trkpt>
      <trkpt lat="35.96230363" lon="120.20957929">
        <time>2019-07-13T14:33:58.947000Z</time>
      </trkpt>
      <trkpt lat="35.96218334" lon="120.20958946">
        <time>2019-07-13T14:34:02.983000Z</time>
      </trkpt>
      <trkpt lat="35.96208606" lon="120.20959784">
        <time>2019-07-13T14:34:05.925000Z</time>
      </trkpt>
      <trkpt lat="35.96199544" lon="120.20961828">
        <time>2019-07-13T14:34:08.957000Z</time>
      </trkpt>
      <trkpt lat="35.9618862" lon="120.2096444">
        <time>2019-07-13T14:34:12.943000Z</time>
      </trkpt>
      <trkpt lat="35.96178559" lon="120.20967138">
        <time>2019-07-13T14:34:16.946000Z</time>
      </trkpt>
      <trkpt lat="35.96167422" lon="120.20967826">
        <time>2019-07-13T14:34:20.943000Z</time>
      </trkpt>
      <trkpt lat="35.96156381" lon="120.20970052">
        <time>2019-07-13T14:34:24.919000Z</time>
      </trkpt>
      <trkpt lat="35.96145606" lon="120.20974114">
        <time>2019-07-13T14:34:28.937000Z</time>
      </trkpt>
      <trkpt lat="35.96134987" lon="120.20980553">
        <time>2019-07-13T14:34:32.931000Z</time>
      </trkpt>
      <trkpt lat="35.96126939" lon="120.20985575">
        <time>2019-07-13T14:34:35.925000Z</time>
      </trkpt>
      <trkpt lat="35.9611563" lon="120.20988807">
        <time>2019-07-13T14:34:39.929000Z</time>
      </trkpt>
      <trkpt lat="35.96104287" lon="120.20989444">
        <time>2019-07-13T14:34:43.926000Z</time>
      </trkpt>
      <trkpt lat="35.96092956" lon="120.20993574">
        <time>2019-07-13T14:34:47.926000Z</time>
      </trkpt>
      <trkpt lat="35.96081371" lon="120.20994655">
        <time>2019-07-13T14:34:51.975000Z</time>
      </trkpt>
      <trkpt lat="35.96072195" lon="120.20996015">
        <time>2019-07-13T14:34:56.922000Z</time>
      </trkpt>
      <trkpt lat="35.96072195" lon="120.20996015">
        <time>2019-07-13T14:35:02.565000Z</time>
      </trkpt>
      <trkpt lat="35.96067358" lon="120.20986661">
        <time>2019-07-13T14:35:12.932000Z</time>
      </trkpt>
      <trkpt lat="35.96067358" lon="120.20986661">
        <time>2019-07-13T14:35:52.935000Z</time>
      </trkpt>
      <trkpt lat="35.96067358" lon="120.20986661">
        <time>2019-07-13T14:35:52.957000Z</time>
      </trkpt>
      <trkpt lat="35.96067358" lon="120.20986661">
        <time>2019-07-13T14:35:53.920000Z</time>
      </trkpt>
      <trkpt lat="35.96056651" lon="120.20991749">
        <time>2019-07-13T14:35:55.944000Z</time>
      </trkpt>
      <trkpt lat="35.96047326" lon="120.20997046">
        <time>2019-07-13T14:35:59.933000Z</time>
      </trkpt>
      <trkpt lat="35.960408" lon="120.21005423">
        <time>2019-07-13T14:36:03.914000Z</time>
      </trkpt>
      <trkpt lat="35.960332" lon="120.21012801">
        <time>2019-07-13T14:36:07.957000Z</time>
      </trkpt>
      <trkpt lat="35.96022013" lon="120.21016031">
        <time>2019-07-13T14:36:11.936000Z</time>
      </trkpt>
      <trkpt lat="35.96013154" lon="120.21019934">
        <time>2019-07-13T14:36:14.927000Z</time>
      </trkpt>
      <trkpt lat="35.96001892" lon="120.21021824">
        <time>2019-07-13T14:36:18.912000Z</time>
      </trkpt>
      <trkpt lat="35.95990675" lon="120.210228">
        <time>2019-07-13T14:36:22.946000Z</time>
      </trkpt>
      <trkpt lat="35.95981907" lon="120.21026382">
        <time>2019-07-13T14:36:25.927000Z</time>
      </trkpt>
      <trkpt lat="35.95971043" lon="120.21031703">
        <time>2019-07-13T14:36:29.937000Z</time>
      </trkpt>
      <trkpt lat="35.95960158" lon="120.21034084">
        <time>2019-07-13T14:36:33.925000Z</time>
      </trkpt>
      <trkpt lat="35.95949715" lon="120.21037729">
        <time>2019-07-13T14:36:37.917000Z</time>
      </trkpt>
      <trkpt lat="35.95940426" lon="120.21042704">
        <time>2019-07-13T14:36:41.924000Z</time>
      </trkpt>
      <trkpt lat="35.95929695" lon="120.21044528">
        <time>2019-07-13T14:36:45.914000Z</time>
      </trkpt>
      <trkpt lat="35.95920393" lon="120.21048988">
        <time>2019-07-13T14:36:49.940000Z</time>
      </trkpt>
      <trkpt lat="35.9591048" lon="120.21052718">
        <time>2019-07-13T14:36:53.965000Z</time>
      </trkpt>
      <trkpt lat="35.95900703" lon="120.21056559">
        <time>2019-07-13T14:36:57.927000Z</time>
      </trkpt>
      <trkpt lat="35.95890591" lon="120.21059446">
        <time>2019-07-13T14:37:01.937000Z</time>
      </trkpt>
      <trkpt lat="35.95881613" lon="120.21061064">
        <time>2019-07-13T14:37:04.923000Z</time>
      </trkpt>
      <trkpt lat="35.95872561" lon="120.21062178">
        <time>2019-07-13T14:37:07.946000Z</time>
      </trkpt>
      <trkpt lat="35.95862337" lon="120.21065896">
        <time>2019-07-13T14:37:11.934000Z</time>
      </trkpt>
      <trkpt lat="35.95851371" lon="120.21068526">
        <time>2019-07-13T14:37:15.920000Z</time>
      </trkpt>
      <trkpt lat="35.95839622" lon="120.21071576">
        <time>2019-07-13T14:37:19.927000Z</time>
      </trkpt>
      <trkpt lat="35.9582864" lon="120.21072198">
        <time>2019-07-13T14:37:23.922000Z</time>
      </trkpt>
      <trkpt lat="35.95817114" lon="120.21074773">
        <time>2019-07-13T14:37:27.919000Z</time>
      </trkpt>
      <trkpt lat="35.95805516" lon="120.21077259">
        <time>2019-07-13T14:37:31.947000Z</time>
      </trkpt>
      <trkpt lat="35.95796379" lon="120.21076007">
        <time>2019-07-13T14:37:34.928000Z</time>
      </trkpt>
      <trkpt lat="35.95784759" lon="120.21076723">
        <time>2019-07-13T14:37:38.921000Z</time>
      </trkpt>
      <trkpt lat="35.95773638" lon="120.21079952">
        <time>2019-07-13T14:37:42.935000Z</time>
      </trkpt>
      <trkpt lat="35.95764015" lon="120.21082579">
        <time>2019-07-13T14:37:45.963000Z</time>
      </trkpt>
      <trkpt lat="35.95753848" lon="120.21085849">
        <time>2019-07-13T14:37:48.917000Z</time>
      </trkpt>
      <trkpt lat="35.95743958" lon="120.21088336">
        <time>2019-07-13T14:37:51.922000Z</time>
      </trkpt>
      <trkpt lat="35.95732752" lon="120.21086611">
        <time>2019-07-13T14:37:55.946000Z</time>
      </trkpt>
      <trkpt lat="35.9572152" lon="120.21088219">
        <time>2019-07-13T14:37:59.934000Z</time>
      </trkpt>
      <trkpt lat="35.95710593" lon="120.21091344">
        <time>2019-07-13T14:38:03.924000Z</time>
      </trkpt>
      <trkpt lat="35.957006" lon="120.21093182">
        <time>2019-07-13T14:38:07.913000Z</time>
      </trkpt>
      <trkpt lat="35.9568979" lon="120.21094612">
        <time>2019-07-13T14:38:11.922000Z</time>
      </trkpt>
      <trkpt lat="35.95678566" lon="120.21096484">
        <time>2019-07-13T14:38:15.920000Z</time>
      </trkpt>
      <trkpt lat="35.95667574" lon="120.2109969">
        <time>2019-07-13T14:38:19.924000Z</time>
      </trkpt>
      <trkpt lat="35.95657366" lon="120.21103877">
        <time>2019-07-13T14:38:23.929000Z</time>
      </trkpt>
      <trkpt lat="35.95646775" lon="120.2110602">
        <time>2019-07-13T14:38:27.959000Z</time>
      </trkpt>
      <trkpt lat="35.95637309" lon="120.21108541">
        <time>2019-07-13T14:38:31.934000Z</time>
      </trkpt>
      <trkpt lat="35.95626946" lon="120.21108693">
        <time>2019-07-13T14:38:35.915000Z</time>
      </trkpt>
      <trkpt lat="35.9561648" lon="120.21110173">
        <time>2019-07-13T14:38:39.940000Z</time>
      </trkpt>
      <trkpt lat="35.95605957" lon="120.21109505">
        <time>2019-07-13T14:38:43.922000Z</time>
      </trkpt>
      <trkpt lat="35.95595502" lon="120.21109306">
        <time>2019-07-13T14:38:47.930000Z</time>
      </trkpt>
      <trkpt lat="35.95585672" lon="120.21106149">
        <time>2019-07-13T14:38:51.933000Z</time>
      </trkpt>
      <trkpt lat="35.95575558" lon="120.21106889">
        <time>2019-07-13T14:38:55.919000Z</time>
      </trkpt>
      <trkpt lat="35.95566287" lon="120.21103612">
        <time>2019-07-13T14:38:59.941000Z</time>
      </trkpt>
      <trkpt lat="35.9556337" lon="120.21091709">
        <time>2019-07-13T14:39:03.954000Z</time>
      </trkpt>
      <trkpt lat="35.95564484" lon="120.21077849">
        <time>2019-07-13T14:39:07.923000Z</time>
      </trkpt>
      <trkpt lat="35.95566017" lon="120.21064598">
        <time>2019-07-13T14:39:11.916000Z</time>
      </trkpt>
      <trkpt lat="35.95566017" lon="120.21064598">
        <time>2019-07-13T14:39:15.926000Z</time>
      </trkpt>
      <trkpt lat="35.95567103" lon="120.21051883">
        <time>2019-07-13T14:39:17.923000Z</time>
      </trkpt>
      <trkpt lat="35.95567088" lon="120.2103924">
        <time>2019-07-13T14:39:21.931000Z</time>
      </trkpt>
      <trkpt lat="35.95567175" lon="120.21026936">
        <time>2019-07-13T14:39:25.936000Z</time>
      </trkpt>
      <trkpt lat="35.95567175" lon="120.21026936">
        <time>2019-07-13T14:39:26.192000Z</time>
      </trkpt>
      <trkpt lat="35.95567265" lon="120.21015752">
        <time>2019-07-13T14:39:29.942000Z</time>
      </trkpt>
      <trkpt lat="35.95567567" lon="120.21003479">
        <time>2019-07-13T14:39:33.926000Z</time>
      </trkpt>
      <trkpt lat="35.9556804" lon="120.20991664">
        <time>2019-07-13T14:39:37.940000Z</time>
      </trkpt>
      <trkpt lat="35.95568339" lon="120.20978077">
        <time>2019-07-13T14:39:41.929000Z</time>
      </trkpt>
      <trkpt lat="35.9556907" lon="120.20964861">
        <time>2019-07-13T14:39:45.944000Z</time>
      </trkpt>
      <trkpt lat="35.95569697" lon="120.20952653">
        <time>2019-07-13T14:39:49.930000Z</time>
      </trkpt>
      <trkpt lat="35.9556935" lon="120.20940897">
        <time>2019-07-13T14:39:53.940000Z</time>
      </trkpt>
      <trkpt lat="35.9556907" lon="120.2092881">
        <time>2019-07-13T14:39:57.929000Z</time>
      </trkpt>
      <trkpt lat="35.95569891" lon="120.20916464">
        <time>2019-07-13T14:40:01.937000Z</time>
      </trkpt>
      <trkpt lat="35.95570143" lon="120.20904133">
        <time>2019-07-13T14:40:05.919000Z</time>
      </trkpt>
      <trkpt lat="35.95569839" lon="120.20891797">
        <time>2019-07-13T14:40:09.929000Z</time>
      </trkpt>
      <trkpt lat="35.95569202" lon="120.20878923">
        <time>2019-07-13T14:40:13.926000Z</time>
      </trkpt>
      <trkpt lat="35.95569435" lon="120.20865953">
        <time>2019-07-13T14:40:17.923000Z</time>
      </trkpt>
      <trkpt lat="35.95569188" lon="120.20852777">
        <time>2019-07-13T14:40:21.936000Z</time>
      </trkpt>
      <trkpt lat="35.95568662" lon="120.20839953">
        <time>2019-07-13T14:40:25.930000Z</time>
      </trkpt>
      <trkpt lat="35.95568765" lon="120.20826377">
        <time>2019-07-13T14:40:29.929000Z</time>
      </trkpt>
      <trkpt lat="35.9556864" lon="120.20813586">
        <time>2019-07-13T14:40:33.941000Z</time>
      </trkpt>
      <trkpt lat="35.95568501" lon="120.20801066">
        <time>2019-07-13T14:40:37.945000Z</time>
      </trkpt>
      <trkpt lat="35.9556893" lon="120.20788625">
        <time>2019-07-13T14:40:41.933000Z</time>
      </trkpt>
      <trkpt lat="35.95568983" lon="120.20777043">
        <time>2019-07-13T14:40:47.919000Z</time>
      </trkpt>
      <trkpt lat="35.95576214" lon="120.20769707">
        <time>2019-07-13T14:40:54.936000Z</time>
      </trkpt>
      <trkpt lat="35.95587638" lon="120.20766561">
        <time>2019-07-13T14:40:58.935000Z</time>
      </trkpt>
      <trkpt lat="35.95597115" lon="120.20766196">
        <time>2019-07-13T14:41:01.917000Z</time>
      </trkpt>
      <trkpt lat="35.95606226" lon="120.20765211">
        <time>2019-07-13T14:41:04.923000Z</time>
      </trkpt>
      <trkpt lat="35.95615433" lon="120.20763758">
        <time>2019-07-13T14:41:07.931000Z</time>
      </trkpt>
      <trkpt lat="35.95624301" lon="120.20761548">
        <time>2019-07-13T14:41:10.932000Z</time>
      </trkpt>
      <trkpt lat="35.95633135" lon="120.20759213">
        <time>2019-07-13T14:41:13.914000Z</time>
      </trkpt>
      <trkpt lat="35.95643817" lon="120.20755064">
        <time>2019-07-13T14:41:17.924000Z</time>
      </trkpt>
      <trkpt lat="35.9565315" lon="120.20761065">
        <time>2019-07-13T14:41:22.916000Z</time>
      </trkpt>
      <trkpt lat="35.95655717" lon="120.20771745">
        <time>2019-07-13T14:41:25.929000Z</time>
      </trkpt>
      <trkpt lat="35.95655056" lon="120.20785774">
        <time>2019-07-13T14:41:29.912000Z</time>
      </trkpt>
      <trkpt lat="35.95655904" lon="120.20800244">
        <time>2019-07-13T14:41:33.939000Z</time>
      </trkpt>
      <trkpt lat="35.95654638" lon="120.20811335">
        <time>2019-07-13T14:41:36.910000Z</time>
      </trkpt>
      <trkpt lat="35.95656722" lon="120.20822573">
        <time>2019-07-13T14:41:39.924000Z</time>
      </trkpt>
      <trkpt lat="35.956601" lon="120.20833922">
        <time>2019-07-13T14:41:42.913000Z</time>
      </trkpt>
      <trkpt lat="35.95664197" lon="120.20845147">
        <time>2019-07-13T14:41:45.924000Z</time>
      </trkpt>
      <trkpt lat="35.95665413" lon="120.20856578">
        <time>2019-07-13T14:41:48.923000Z</time>
      </trkpt>
      <trkpt lat="35.956664" lon="120.2087008">
        <time>2019-07-13T14:41:52.942000Z</time>
      </trkpt>
      <trkpt lat="35.95667888" lon="120.20884525">
        <time>2019-07-13T14:41:56.927000Z</time>
      </trkpt>
      <trkpt lat="35.95669128" lon="120.20898548">
        <time>2019-07-13T14:42:00.919000Z</time>
      </trkpt>
      <trkpt lat="35.9566959" lon="120.20910297">
        <time>2019-07-13T14:42:03.922000Z</time>
      </trkpt>
      <trkpt lat="35.95671439" lon="120.20924606">
        <time>2019-07-13T14:42:07.924000Z</time>
      </trkpt>
      <trkpt lat="35.95675127" lon="120.20938413">
        <time>2019-07-13T14:42:11.919000Z</time>
      </trkpt>
      <trkpt lat="35.95678124" lon="120.20952601">
        <time>2019-07-13T14:42:15.921000Z</time>
      </trkpt>
      <trkpt lat="35.95679126" lon="120.20964779">
        <time>2019-07-13T14:42:19.924000Z</time>
      </trkpt>
      <trkpt lat="35.95678287" lon="120.20969773">
        <time>2019-07-13T14:42:23.422000Z</time>
      </trkpt>
    </trkseg>
  </trk>
</gpx>