<?xml version="1.0" encoding="UTF-8"?>
<gpx xmlns="http://www.topografix.com/GPX/1/1" xmlns:gpxtpx="http://www.garmin.com/xmlschemas/TrackPointExtension/v1" xmlns:xsi="http://www.w3.org/2001/XMLSchema-instance" xsi:schemaLocation="http://www.topografix.com/GPX/1/1 http://www.topografix.com/GPX/1/1/gpx.xsd" version="1.1" creator="gpx.py -- https://github.com/tkrajina/gpxpy">
  <trk>
    <name>星期二 早晨跑步</name>
    <trkseg>
      <trkpt lat="35.95690225" lon="120.20982934">
        <time>2019-07-22T22:04:03.665000Z</time>
      </trkpt>
      <trkpt lat="35.95689687" lon="120.20984764">
        <time>2019-07-22T22:04:03.834000Z</time>
      </trkpt>
      <trkpt lat="35.95689687" lon="120.20984764">
        <time>2019-07-22T22:04:05.827000Z</time>
      </trkpt>
      <trkpt lat="35.95689687" lon="120.20984764">
        <time>2019-07-22T22:04:14.841000Z</time>
      </trkpt>
      <trkpt lat="35.95689687" lon="120.20984764">
        <time>2019-07-22T22:04:14.850000Z</time>
      </trkpt>
      <trkpt lat="35.9570201" lon="120.2098513">
        <time>2019-07-22T22:04:17.862000Z</time>
      </trkpt>
      <trkpt lat="35.9571287" lon="120.209847">
        <time>2019-07-22T22:04:23.831000Z</time>
      </trkpt>
      <trkpt lat="35.9572312" lon="120.20984347">
        <time>2019-07-22T22:04:27.854000Z</time>
      </trkpt>
      <trkpt lat="35.95732284" lon="120.20982195">
        <time>2019-07-22T22:04:31.847000Z</time>
      </trkpt>
      <trkpt lat="35.95741433" lon="120.20980084">
        <time>2019-07-22T22:04:35.842000Z</time>
      </trkpt>
      <trkpt lat="35.95752372" lon="120.2097972">
        <time>2019-07-22T22:04:39.834000Z</time>
      </trkpt>
      <trkpt lat="35.95761892" lon="120.20977841">
        <time>2019-07-22T22:04:42.838000Z</time>
      </trkpt>
      <trkpt lat="35.95771367" lon="120.20981881">
        <time>2019-07-22T22:04:45.837000Z</time>
      </trkpt>
      <trkpt lat="35.95778862" lon="120.20992454">
        <time>2019-07-22T22:04:49.833000Z</time>
      </trkpt>
      <trkpt lat="35.95784208" lon="120.21004947">
        <time>2019-07-22T22:04:53.845000Z</time>
      </trkpt>
      <trkpt lat="35.95788843" lon="120.21018704">
        <time>2019-07-22T22:04:57.830000Z</time>
      </trkpt>
      <trkpt lat="35.95793344" lon="120.21031518">
        <time>2019-07-22T22:05:00.842000Z</time>
      </trkpt>
      <trkpt lat="35.95793074" lon="120.21042963">
        <time>2019-07-22T22:05:03.836000Z</time>
      </trkpt>
      <trkpt lat="35.95792519" lon="120.21055443">
        <time>2019-07-22T22:05:06.843000Z</time>
      </trkpt>
      <trkpt lat="35.95799161" lon="120.21067044">
        <time>2019-07-22T22:05:09.841000Z</time>
      </trkpt>
      <trkpt lat="35.95793568" lon="120.21078575">
        <time>2019-07-22T22:05:14.835000Z</time>
      </trkpt>
      <trkpt lat="35.95781556" lon="120.21079701">
        <time>2019-07-22T22:05:17.849000Z</time>
      </trkpt>
      <trkpt lat="35.95770197" lon="120.21080363">
        <time>2019-07-22T22:05:20.835000Z</time>
      </trkpt>
      <trkpt lat="35.95760856" lon="120.21079381">
        <time>2019-07-22T22:05:23.844000Z</time>
      </trkpt>
      <trkpt lat="35.95751469" lon="120.21078925">
        <time>2019-07-22T22:05:26.854000Z</time>
      </trkpt>
      <trkpt lat="35.95741082" lon="120.21082683">
        <time>2019-07-22T22:05:30.838000Z</time>
      </trkpt>
      <trkpt lat="35.9573132" lon="120.21080555">
        <time>2019-07-22T22:05:34.856000Z</time>
      </trkpt>
      <trkpt lat="35.95720369" lon="120.21078831">
        <time>2019-07-22T22:05:38.834000Z</time>
      </trkpt>
      <trkpt lat="35.95711628" lon="120.21082097">
        <time>2019-07-22T22:05:41.835000Z</time>
      </trkpt>
      <trkpt lat="35.95700857" lon="120.21086614">
        <time>2019-07-22T22:05:45.846000Z</time>
      </trkpt>
      <trkpt lat="35.9569022" lon="120.2109088">
        <time>2019-07-22T22:05:49.844000Z</time>
      </trkpt>
      <trkpt lat="35.95679017" lon="120.21093425">
        <time>2019-07-22T22:05:53.832000Z</time>
      </trkpt>
      <trkpt lat="35.95667657" lon="120.21094614">
        <time>2019-07-22T22:05:57.851000Z</time>
      </trkpt>
      <trkpt lat="35.95656569" lon="120.2109567">
        <time>2019-07-22T22:06:01.855000Z</time>
      </trkpt>
      <trkpt lat="35.95645673" lon="120.21096242">
        <time>2019-07-22T22:06:05.830000Z</time>
      </trkpt>
      <trkpt lat="35.9563475" lon="120.21098582">
        <time>2019-07-22T22:06:09.844000Z</time>
      </trkpt>
      <trkpt lat="35.95623645" lon="120.21100989">
        <time>2019-07-22T22:06:13.840000Z</time>
      </trkpt>
      <trkpt lat="35.95613252" lon="120.21099708">
        <time>2019-07-22T22:06:17.850000Z</time>
      </trkpt>
      <trkpt lat="35.95601919" lon="120.21102566">
        <time>2019-07-22T22:06:21.865000Z</time>
      </trkpt>
      <trkpt lat="35.95591091" lon="120.21106976">
        <time>2019-07-22T22:06:25.846000Z</time>
      </trkpt>
      <trkpt lat="35.95580609" lon="120.21110867">
        <time>2019-07-22T22:06:29.842000Z</time>
      </trkpt>
      <trkpt lat="35.95572374" lon="120.21115877">
        <time>2019-07-22T22:06:34.854000Z</time>
      </trkpt>
      <trkpt lat="35.95565119" lon="120.21124263">
        <time>2019-07-22T22:06:38.857000Z</time>
      </trkpt>
      <trkpt lat="35.95555286" lon="120.21128461">
        <time>2019-07-22T22:06:42.834000Z</time>
      </trkpt>
      <trkpt lat="35.95548041" lon="120.21135091">
        <time>2019-07-22T22:06:47.846000Z</time>
      </trkpt>
      <trkpt lat="35.95552873" lon="120.21146275">
        <time>2019-07-22T22:06:51.854000Z</time>
      </trkpt>
      <trkpt lat="35.95555056" lon="120.21159206">
        <time>2019-07-22T22:06:55.835000Z</time>
      </trkpt>
      <trkpt lat="35.95556419" lon="120.21172449">
        <time>2019-07-22T22:06:59.840000Z</time>
      </trkpt>
      <trkpt lat="35.95558283" lon="120.21185778">
        <time>2019-07-22T22:07:03.852000Z</time>
      </trkpt>
      <trkpt lat="35.95564733" lon="120.21197565">
        <time>2019-07-22T22:07:07.844000Z</time>
      </trkpt>
      <trkpt lat="35.95571649" lon="120.2120607">
        <time>2019-07-22T22:07:11.880000Z</time>
      </trkpt>
      <trkpt lat="35.95573372" lon="120.21218929">
        <time>2019-07-22T22:07:16.279000Z</time>
      </trkpt>
      <trkpt lat="35.95574456" lon="120.21232107">
        <time>2019-07-22T22:07:19.842000Z</time>
      </trkpt>
      <trkpt lat="35.95578031" lon="120.21244496">
        <time>2019-07-22T22:07:23.838000Z</time>
      </trkpt>
      <trkpt lat="35.95579478" lon="120.21257325">
        <time>2019-07-22T22:07:27.837000Z</time>
      </trkpt>
      <trkpt lat="35.9558282" lon="120.21270402">
        <time>2019-07-22T22:07:31.835000Z</time>
      </trkpt>
      <trkpt lat="35.95585606" lon="120.21283006">
        <time>2019-07-22T22:07:35.845000Z</time>
      </trkpt>
      <trkpt lat="35.95588715" lon="120.21294318">
        <time>2019-07-22T22:07:39.857000Z</time>
      </trkpt>
      <trkpt lat="35.95591431" lon="120.21305487">
        <time>2019-07-22T22:07:43.848000Z</time>
      </trkpt>
      <trkpt lat="35.95595733" lon="120.21317713">
        <time>2019-07-22T22:07:47.859000Z</time>
      </trkpt>
      <trkpt lat="35.95592094" lon="120.21330871">
        <time>2019-07-22T22:07:51.854000Z</time>
      </trkpt>
      <trkpt lat="35.95585589" lon="120.21342402">
        <time>2019-07-22T22:07:55.853000Z</time>
      </trkpt>
      <trkpt lat="35.95577564" lon="120.21347876">
        <time>2019-07-22T22:07:58.936000Z</time>
      </trkpt>
      <trkpt lat="35.95567119" lon="120.21348893">
        <time>2019-07-22T22:08:03.837000Z</time>
      </trkpt>
      <trkpt lat="35.95555952" lon="120.21350912">
        <time>2019-07-22T22:08:08.852000Z</time>
      </trkpt>
      <trkpt lat="35.9554609" lon="120.21352859">
        <time>2019-07-22T22:08:11.854000Z</time>
      </trkpt>
      <trkpt lat="35.95536941" lon="120.21355527">
        <time>2019-07-22T22:08:14.838000Z</time>
      </trkpt>
      <trkpt lat="35.95525701" lon="120.21358158">
        <time>2019-07-22T22:08:18.845000Z</time>
      </trkpt>
      <trkpt lat="35.95516123" lon="120.21361616">
        <time>2019-07-22T22:08:22.846000Z</time>
      </trkpt>
      <trkpt lat="35.95505936" lon="120.2136432">
        <time>2019-07-22T22:08:26.850000Z</time>
      </trkpt>
      <trkpt lat="35.95495661" lon="120.21369331">
        <time>2019-07-22T22:08:30.846000Z</time>
      </trkpt>
      <trkpt lat="35.95485261" lon="120.21371938">
        <time>2019-07-22T22:08:34.842000Z</time>
      </trkpt>
      <trkpt lat="35.95475599" lon="120.21374332">
        <time>2019-07-22T22:08:38.843000Z</time>
      </trkpt>
      <trkpt lat="35.95465851" lon="120.21377133">
        <time>2019-07-22T22:08:42.846000Z</time>
      </trkpt>
      <trkpt lat="35.95454576" lon="120.21376339">
        <time>2019-07-22T22:08:46.907000Z</time>
      </trkpt>
      <trkpt lat="35.95445775" lon="120.21378614">
        <time>2019-07-22T22:08:49.843000Z</time>
      </trkpt>
      <trkpt lat="35.95436509" lon="120.21381849">
        <time>2019-07-22T22:08:52.841000Z</time>
      </trkpt>
      <trkpt lat="35.95425424" lon="120.21387353">
        <time>2019-07-22T22:08:56.834000Z</time>
      </trkpt>
      <trkpt lat="35.95415967" lon="120.21389514">
        <time>2019-07-22T22:08:59.861000Z</time>
      </trkpt>
      <trkpt lat="35.95405129" lon="120.21392359">
        <time>2019-07-22T22:09:03.852000Z</time>
      </trkpt>
      <trkpt lat="35.95394174" lon="120.21392876">
        <time>2019-07-22T22:09:07.851000Z</time>
      </trkpt>
      <trkpt lat="35.95385163" lon="120.2139066">
        <time>2019-07-22T22:09:10.858000Z</time>
      </trkpt>
      <trkpt lat="35.95373678" lon="120.21393316">
        <time>2019-07-22T22:09:14.842000Z</time>
      </trkpt>
      <trkpt lat="35.95362733" lon="120.21396213">
        <time>2019-07-22T22:09:18.857000Z</time>
      </trkpt>
      <trkpt lat="35.95352635" lon="120.21397608">
        <time>2019-07-22T22:09:22.836000Z</time>
      </trkpt>
      <trkpt lat="35.95343653" lon="120.21400578">
        <time>2019-07-22T22:09:26.860000Z</time>
      </trkpt>
      <trkpt lat="35.95334544" lon="120.21404217">
        <time>2019-07-22T22:09:30.845000Z</time>
      </trkpt>
      <trkpt lat="35.95325366" lon="120.21404898">
        <time>2019-07-22T22:09:34.839000Z</time>
      </trkpt>
      <trkpt lat="35.95315204" lon="120.21401266">
        <time>2019-07-22T22:09:38.840000Z</time>
      </trkpt>
      <trkpt lat="35.9530474" lon="120.21395394">
        <time>2019-07-22T22:09:42.853000Z</time>
      </trkpt>
      <trkpt lat="35.95295014" lon="120.21388442">
        <time>2019-07-22T22:09:46.846000Z</time>
      </trkpt>
      <trkpt lat="35.95284976" lon="120.21382839">
        <time>2019-07-22T22:09:50.845000Z</time>
      </trkpt>
      <trkpt lat="35.95278463" lon="120.21371651">
        <time>2019-07-22T22:09:54.846000Z</time>
      </trkpt>
      <trkpt lat="35.95276685" lon="120.2135831">
        <time>2019-07-22T22:09:58.850000Z</time>
      </trkpt>
      <trkpt lat="35.95274634" lon="120.21345146">
        <time>2019-07-22T22:10:02.840000Z</time>
      </trkpt>
      <trkpt lat="35.95272121" lon="120.21331799">
        <time>2019-07-22T22:10:06.841000Z</time>
      </trkpt>
      <trkpt lat="35.95269581" lon="120.21319398">
        <time>2019-07-22T22:10:10.843000Z</time>
      </trkpt>
      <trkpt lat="35.95266861" lon="120.21306779">
        <time>2019-07-22T22:10:14.835000Z</time>
      </trkpt>
      <trkpt lat="35.95263347" lon="120.21294358">
        <time>2019-07-22T22:10:18.846000Z</time>
      </trkpt>
      <trkpt lat="35.95261701" lon="120.2128075">
        <time>2019-07-22T22:10:22.843000Z</time>
      </trkpt>
      <trkpt lat="35.95258847" lon="120.21266759">
        <time>2019-07-22T22:10:26.852000Z</time>
      </trkpt>
      <trkpt lat="35.95255596" lon="120.21253787">
        <time>2019-07-22T22:10:30.841000Z</time>
      </trkpt>
      <trkpt lat="35.95253018" lon="120.21240226">
        <time>2019-07-22T22:10:34.851000Z</time>
      </trkpt>
      <trkpt lat="35.9524987" lon="120.21226686">
        <time>2019-07-22T22:10:38.843000Z</time>
      </trkpt>
      <trkpt lat="35.95248576" lon="120.21213467">
        <time>2019-07-22T22:10:42.856000Z</time>
      </trkpt>
      <trkpt lat="35.95243546" lon="120.21200444">
        <time>2019-07-22T22:10:46.847000Z</time>
      </trkpt>
      <trkpt lat="35.95239126" lon="120.21187472">
        <time>2019-07-22T22:10:50.846000Z</time>
      </trkpt>
      <trkpt lat="35.95236428" lon="120.2117423">
        <time>2019-07-22T22:10:54.850000Z</time>
      </trkpt>
      <trkpt lat="35.95234565" lon="120.2116151">
        <time>2019-07-22T22:10:58.853000Z</time>
      </trkpt>
      <trkpt lat="35.95232389" lon="120.21150143">
        <time>2019-07-22T22:11:02.850000Z</time>
      </trkpt>
      <trkpt lat="35.95230488" lon="120.21137713">
        <time>2019-07-22T22:11:06.853000Z</time>
      </trkpt>
      <trkpt lat="35.95226293" lon="120.21124082">
        <time>2019-07-22T22:11:10.848000Z</time>
      </trkpt>
      <trkpt lat="35.95222697" lon="120.21110646">
        <time>2019-07-22T22:11:14.846000Z</time>
      </trkpt>
      <trkpt lat="35.95220334" lon="120.21099908">
        <time>2019-07-22T22:11:17.852000Z</time>
      </trkpt>
      <trkpt lat="35.95218511" lon="120.21088734">
        <time>2019-07-22T22:11:20.847000Z</time>
      </trkpt>
      <trkpt lat="35.95215541" lon="120.21076915">
        <time>2019-07-22T22:11:24.870000Z</time>
      </trkpt>
      <trkpt lat="35.95212274" lon="120.21065276">
        <time>2019-07-22T22:11:28.839000Z</time>
      </trkpt>
      <trkpt lat="35.9521062" lon="120.2105177">
        <time>2019-07-22T22:11:32.843000Z</time>
      </trkpt>
      <trkpt lat="35.95209363" lon="120.21040713">
        <time>2019-07-22T22:11:36.841000Z</time>
      </trkpt>
      <trkpt lat="35.95209363" lon="120.21040713">
        <time>2019-07-22T22:11:40.447000Z</time>
      </trkpt>
      <trkpt lat="35.95199236" lon="120.21039511">
        <time>2019-07-22T22:11:47.849000Z</time>
      </trkpt>
      <trkpt lat="35.95199236" lon="120.21039511">
        <time>2019-07-22T22:11:50.449000Z</time>
      </trkpt>
      <trkpt lat="35.9518943" lon="120.21044294">
        <time>2019-07-22T22:11:51.839000Z</time>
      </trkpt>
      <trkpt lat="35.95179232" lon="120.21048409">
        <time>2019-07-22T22:11:55.839000Z</time>
      </trkpt>
      <trkpt lat="35.9516877" lon="120.21053416">
        <time>2019-07-22T22:11:59.838000Z</time>
      </trkpt>
      <trkpt lat="35.9515811" lon="120.21058659">
        <time>2019-07-22T22:12:03.838000Z</time>
      </trkpt>
      <trkpt lat="35.95147375" lon="120.21060298">
        <time>2019-07-22T22:12:07.832000Z</time>
      </trkpt>
      <trkpt lat="35.95136703" lon="120.21061038">
        <time>2019-07-22T22:12:11.850000Z</time>
      </trkpt>
      <trkpt lat="35.95127648" lon="120.21065337">
        <time>2019-07-22T22:12:15.845000Z</time>
      </trkpt>
      <trkpt lat="35.95127648" lon="120.21065337">
        <time>2019-07-22T22:12:20.474000Z</time>
      </trkpt>
      <trkpt lat="35.9511764" lon="120.21065257">
        <time>2019-07-22T22:12:23.908000Z</time>
      </trkpt>
      <trkpt lat="35.9510813" lon="120.21067716">
        <time>2019-07-22T22:12:31.832000Z</time>
      </trkpt>
      <trkpt lat="35.95099925" lon="120.21072274">
        <time>2019-07-22T22:12:37.848000Z</time>
      </trkpt>
      <trkpt lat="35.95099925" lon="120.21072274">
        <time>2019-07-22T22:12:40.850000Z</time>
      </trkpt>
      <trkpt lat="35.95090569" lon="120.21076896">
        <time>2019-07-22T22:12:41.842000Z</time>
      </trkpt>
      <trkpt lat="35.95080653" lon="120.21080117">
        <time>2019-07-22T22:12:45.845000Z</time>
      </trkpt>
      <trkpt lat="35.95070201" lon="120.2108174">
        <time>2019-07-22T22:12:49.848000Z</time>
      </trkpt>
      <trkpt lat="35.95059744" lon="120.21081617">
        <time>2019-07-22T22:12:53.849000Z</time>
      </trkpt>
      <trkpt lat="35.95049397" lon="120.21083612">
        <time>2019-07-22T22:12:57.851000Z</time>
      </trkpt>
      <trkpt lat="35.95039519" lon="120.21086081">
        <time>2019-07-22T22:13:01.841000Z</time>
      </trkpt>
      <trkpt lat="35.95029927" lon="120.21088409">
        <time>2019-07-22T22:13:05.847000Z</time>
      </trkpt>
      <trkpt lat="35.95019339" lon="120.21089829">
        <time>2019-07-22T22:13:10.843000Z</time>
      </trkpt>
      <trkpt lat="35.9500913" lon="120.21090851">
        <time>2019-07-22T22:13:15.835000Z</time>
      </trkpt>
      <trkpt lat="35.9500913" lon="120.21090851">
        <time>2019-07-22T22:13:19.848000Z</time>
      </trkpt>
      <trkpt lat="35.95000667" lon="120.21095781">
        <time>2019-07-22T22:13:20.846000Z</time>
      </trkpt>
      <trkpt lat="35.94991995" lon="120.21101909">
        <time>2019-07-22T22:13:25.845000Z</time>
      </trkpt>
      <trkpt lat="35.94991995" lon="120.21101909">
        <time>2019-07-22T22:13:29.844000Z</time>
      </trkpt>
      <trkpt lat="35.94982409" lon="120.21105445">
        <time>2019-07-22T22:13:30.838000Z</time>
      </trkpt>
      <trkpt lat="35.94972832" lon="120.21107859">
        <time>2019-07-22T22:13:34.853000Z</time>
      </trkpt>
      <trkpt lat="35.94962443" lon="120.2111072">
        <time>2019-07-22T22:13:38.842000Z</time>
      </trkpt>
      <trkpt lat="35.94950942" lon="120.21113102">
        <time>2019-07-22T22:13:42.848000Z</time>
      </trkpt>
      <trkpt lat="35.94939914" lon="120.21113791">
        <time>2019-07-22T22:13:46.848000Z</time>
      </trkpt>
      <trkpt lat="35.94928782" lon="120.21116849">
        <time>2019-07-22T22:13:50.842000Z</time>
      </trkpt>
      <trkpt lat="35.9491868" lon="120.21120028">
        <time>2019-07-22T22:13:53.862000Z</time>
      </trkpt>
      <trkpt lat="35.94908529" lon="120.21120548">
        <time>2019-07-22T22:13:57.834000Z</time>
      </trkpt>
      <trkpt lat="35.94908529" lon="120.21120548">
        <time>2019-07-22T22:14:01.581000Z</time>
      </trkpt>
      <trkpt lat="35.94899745" lon="120.21117945">
        <time>2019-07-22T22:14:02.848000Z</time>
      </trkpt>
      <trkpt lat="35.94890169" lon="120.21119029">
        <time>2019-07-22T22:14:06.843000Z</time>
      </trkpt>
      <trkpt lat="35.94879756" lon="120.21123053">
        <time>2019-07-22T22:14:10.862000Z</time>
      </trkpt>
      <trkpt lat="35.94879756" lon="120.21123053">
        <time>2019-07-22T22:14:11.550000Z</time>
      </trkpt>
      <trkpt lat="35.94869878" lon="120.21126195">
        <time>2019-07-22T22:14:14.924000Z</time>
      </trkpt>
      <trkpt lat="35.94859459" lon="120.211266">
        <time>2019-07-22T22:14:18.847000Z</time>
      </trkpt>
      <trkpt lat="35.94848606" lon="120.21127018">
        <time>2019-07-22T22:14:22.849000Z</time>
      </trkpt>
      <trkpt lat="35.94838642" lon="120.21131045">
        <time>2019-07-22T22:14:26.853000Z</time>
      </trkpt>
      <trkpt lat="35.94828948" lon="120.21134382">
        <time>2019-07-22T22:14:30.845000Z</time>
      </trkpt>
      <trkpt lat="35.94819021" lon="120.21137836">
        <time>2019-07-22T22:14:34.848000Z</time>
      </trkpt>
      <trkpt lat="35.94809048" lon="120.2114195">
        <time>2019-07-22T22:14:38.847000Z</time>
      </trkpt>
      <trkpt lat="35.94799386" lon="120.21147464">
        <time>2019-07-22T22:14:42.906000Z</time>
      </trkpt>
      <trkpt lat="35.94788954" lon="120.21150776">
        <time>2019-07-22T22:14:46.844000Z</time>
      </trkpt>
      <trkpt lat="35.94779827" lon="120.21152623">
        <time>2019-07-22T22:14:49.844000Z</time>
      </trkpt>
      <trkpt lat="35.94770303" lon="120.21154494">
        <time>2019-07-22T22:14:52.868000Z</time>
      </trkpt>
      <trkpt lat="35.94759125" lon="120.21155664">
        <time>2019-07-22T22:14:56.847000Z</time>
      </trkpt>
      <trkpt lat="35.94749038" lon="120.21156329">
        <time>2019-07-22T22:15:02.847000Z</time>
      </trkpt>
      <trkpt lat="35.94749038" lon="120.21156329">
        <time>2019-07-22T22:15:07.659000Z</time>
      </trkpt>
      <trkpt lat="35.94739486" lon="120.21158679">
        <time>2019-07-22T22:15:08.844000Z</time>
      </trkpt>
      <trkpt lat="35.94730087" lon="120.21160827">
        <time>2019-07-22T22:15:12.843000Z</time>
      </trkpt>
      <trkpt lat="35.94719924" lon="120.21161022">
        <time>2019-07-22T22:15:17.857000Z</time>
      </trkpt>
      <trkpt lat="35.94710613" lon="120.21162686">
        <time>2019-07-22T22:15:23.844000Z</time>
      </trkpt>
      <trkpt lat="35.94710613" lon="120.21162686">
        <time>2019-07-22T22:15:27.603000Z</time>
      </trkpt>
      <trkpt lat="35.94700656" lon="120.21165595">
        <time>2019-07-22T22:15:27.842000Z</time>
      </trkpt>
      <trkpt lat="35.94690578" lon="120.21168837">
        <time>2019-07-22T22:15:31.841000Z</time>
      </trkpt>
      <trkpt lat="35.94680832" lon="120.21171164">
        <time>2019-07-22T22:15:37.126000Z</time>
      </trkpt>
      <trkpt lat="35.9467118" lon="120.21175844">
        <time>2019-07-22T22:15:39.856000Z</time>
      </trkpt>
      <trkpt lat="35.94660612" lon="120.21178393">
        <time>2019-07-22T22:15:43.847000Z</time>
      </trkpt>
      <trkpt lat="35.94650316" lon="120.21181928">
        <time>2019-07-22T22:15:47.864000Z</time>
      </trkpt>
      <trkpt lat="35.9463987" lon="120.21186308">
        <time>2019-07-22T22:15:51.846000Z</time>
      </trkpt>
      <trkpt lat="35.94629479" lon="120.21191286">
        <time>2019-07-22T22:15:55.848000Z</time>
      </trkpt>
      <trkpt lat="35.94620609" lon="120.21193855">
        <time>2019-07-22T22:15:58.846000Z</time>
      </trkpt>
      <trkpt lat="35.94611472" lon="120.21196403">
        <time>2019-07-22T22:16:01.844000Z</time>
      </trkpt>
      <trkpt lat="35.94600526" lon="120.21199668">
        <time>2019-07-22T22:16:05.858000Z</time>
      </trkpt>
      <trkpt lat="35.94589652" lon="120.21203816">
        <time>2019-07-22T22:16:09.851000Z</time>
      </trkpt>
      <trkpt lat="35.94578476" lon="120.21206417">
        <time>2019-07-22T22:16:13.848000Z</time>
      </trkpt>
      <trkpt lat="35.94568223" lon="120.21210264">
        <time>2019-07-22T22:16:17.852000Z</time>
      </trkpt>
      <trkpt lat="35.94559708" lon="120.2121405">
        <time>2019-07-22T22:16:20.851000Z</time>
      </trkpt>
      <trkpt lat="35.94551199" lon="120.21217847">
        <time>2019-07-22T22:16:23.853000Z</time>
      </trkpt>
      <trkpt lat="35.94540639" lon="120.2122433">
        <time>2019-07-22T22:16:27.856000Z</time>
      </trkpt>
      <trkpt lat="35.94532024" lon="120.2122825">
        <time>2019-07-22T22:16:30.842000Z</time>
      </trkpt>
      <trkpt lat="35.94521332" lon="120.21233738">
        <time>2019-07-22T22:16:34.846000Z</time>
      </trkpt>
      <trkpt lat="35.94510934" lon="120.21239467">
        <time>2019-07-22T22:16:38.847000Z</time>
      </trkpt>
      <trkpt lat="35.94502499" lon="120.21243628">
        <time>2019-07-22T22:16:41.850000Z</time>
      </trkpt>
      <trkpt lat="35.94493038" lon="120.21247163">
        <time>2019-07-22T22:16:46.833000Z</time>
      </trkpt>
      <trkpt lat="35.94493038" lon="120.21247163">
        <time>2019-07-22T22:16:47.659000Z</time>
      </trkpt>
      <trkpt lat="35.94483908" lon="120.21249343">
        <time>2019-07-22T22:16:53.838000Z</time>
      </trkpt>
      <trkpt lat="35.94483908" lon="120.21249343">
        <time>2019-07-22T22:16:57.705000Z</time>
      </trkpt>
      <trkpt lat="35.94473588" lon="120.21255861">
        <time>2019-07-22T22:16:58.844000Z</time>
      </trkpt>
      <trkpt lat="35.94464605" lon="120.21261627">
        <time>2019-07-22T22:17:01.843000Z</time>
      </trkpt>
      <trkpt lat="35.94454848" lon="120.21266852">
        <time>2019-07-22T22:17:04.836000Z</time>
      </trkpt>
      <trkpt lat="35.94446393" lon="120.21271959">
        <time>2019-07-22T22:17:07.846000Z</time>
      </trkpt>
      <trkpt lat="35.94438391" lon="120.21277282">
        <time>2019-07-22T22:17:10.833000Z</time>
      </trkpt>
      <trkpt lat="35.94426968" lon="120.212815">
        <time>2019-07-22T22:17:14.845000Z</time>
      </trkpt>
      <trkpt lat="35.94419189" lon="120.21287412">
        <time>2019-07-22T22:17:17.833000Z</time>
      </trkpt>
      <trkpt lat="35.94411284" lon="120.2129294">
        <time>2019-07-22T22:17:20.843000Z</time>
      </trkpt>
      <trkpt lat="35.9440258" lon="120.21297566">
        <time>2019-07-22T22:17:23.848000Z</time>
      </trkpt>
      <trkpt lat="35.94392295" lon="120.21304008">
        <time>2019-07-22T22:17:27.852000Z</time>
      </trkpt>
      <trkpt lat="35.94384114" lon="120.21309859">
        <time>2019-07-22T22:17:31.839000Z</time>
      </trkpt>
      <trkpt lat="35.94375931" lon="120.21303672">
        <time>2019-07-22T22:17:36.840000Z</time>
      </trkpt>
      <trkpt lat="35.94367287" lon="120.21294237">
        <time>2019-07-22T22:17:40.849000Z</time>
      </trkpt>
      <trkpt lat="35.94361472" lon="120.21285281">
        <time>2019-07-22T22:17:43.846000Z</time>
      </trkpt>
      <trkpt lat="35.94358322" lon="120.21274135">
        <time>2019-07-22T22:17:46.842000Z</time>
      </trkpt>
      <trkpt lat="35.94352206" lon="120.21265388">
        <time>2019-07-22T22:17:49.841000Z</time>
      </trkpt>
      <trkpt lat="35.94343539" lon="120.21255857">
        <time>2019-07-22T22:17:53.851000Z</time>
      </trkpt>
      <trkpt lat="35.94335049" lon="120.21247427">
        <time>2019-07-22T22:17:57.846000Z</time>
      </trkpt>
      <trkpt lat="35.94326653" lon="120.21240929">
        <time>2019-07-22T22:18:01.848000Z</time>
      </trkpt>
      <trkpt lat="35.94326653" lon="120.21240929">
        <time>2019-07-22T22:18:04.270000Z</time>
      </trkpt>
      <trkpt lat="35.94326122" lon="120.21227678">
        <time>2019-07-22T22:18:08.846000Z</time>
      </trkpt>
      <trkpt lat="35.94325353" lon="120.21216162">
        <time>2019-07-22T22:18:13.844000Z</time>
      </trkpt>
      <trkpt lat="35.94320285" lon="120.21204913">
        <time>2019-07-22T22:18:19.842000Z</time>
      </trkpt>
      <trkpt lat="35.94317024" lon="120.21193292">
        <time>2019-07-22T22:18:26.837000Z</time>
      </trkpt>
      <trkpt lat="35.94317024" lon="120.21193292">
        <time>2019-07-22T22:18:29.315000Z</time>
      </trkpt>
      <trkpt lat="35.9431092" lon="120.21184127">
        <time>2019-07-22T22:18:31.956000Z</time>
      </trkpt>
      <trkpt lat="35.94304305" lon="120.21172867">
        <time>2019-07-22T22:18:35.847000Z</time>
      </trkpt>
      <trkpt lat="35.94297149" lon="120.21163915">
        <time>2019-07-22T22:18:39.850000Z</time>
      </trkpt>
      <trkpt lat="35.94291472" lon="120.21152649">
        <time>2019-07-22T22:18:43.835000Z</time>
      </trkpt>
      <trkpt lat="35.9428533" lon="120.21141825">
        <time>2019-07-22T22:18:47.861000Z</time>
      </trkpt>
      <trkpt lat="35.94278861" lon="120.21131006">
        <time>2019-07-22T22:18:51.841000Z</time>
      </trkpt>
      <trkpt lat="35.94271028" lon="120.21120994">
        <time>2019-07-22T22:18:55.845000Z</time>
      </trkpt>
      <trkpt lat="35.94264566" lon="120.21111801">
        <time>2019-07-22T22:18:59.842000Z</time>
      </trkpt>
      <trkpt lat="35.94257842" lon="120.21103827">
        <time>2019-07-22T22:19:03.831000Z</time>
      </trkpt>
      <trkpt lat="35.94251767" lon="120.21095389">
        <time>2019-07-22T22:19:07.835000Z</time>
      </trkpt>
      <trkpt lat="35.94244603" lon="120.21087045">
        <time>2019-07-22T22:19:11.837000Z</time>
      </trkpt>
      <trkpt lat="35.94237998" lon="120.21075529">
        <time>2019-07-22T22:19:15.844000Z</time>
      </trkpt>
      <trkpt lat="35.94232013" lon="120.21063275">
        <time>2019-07-22T22:19:19.850000Z</time>
      </trkpt>
      <trkpt lat="35.94224693" lon="120.21053535">
        <time>2019-07-22T22:19:23.840000Z</time>
      </trkpt>
      <trkpt lat="35.94218025" lon="120.21043051">
        <time>2019-07-22T22:19:27.842000Z</time>
      </trkpt>
      <trkpt lat="35.94213556" lon="120.21032537">
        <time>2019-07-22T22:19:31.886000Z</time>
      </trkpt>
      <trkpt lat="35.94209496" lon="120.21020903">
        <time>2019-07-22T22:19:37.846000Z</time>
      </trkpt>
      <trkpt lat="35.94209496" lon="120.21020903">
        <time>2019-07-22T22:19:39.431000Z</time>
      </trkpt>
      <trkpt lat="35.94204991" lon="120.21010959">
        <time>2019-07-22T22:19:42.838000Z</time>
      </trkpt>
      <trkpt lat="35.94197494" lon="120.21002899">
        <time>2019-07-22T22:19:50.853000Z</time>
      </trkpt>
      <trkpt lat="35.94191501" lon="120.20993996">
        <time>2019-07-22T22:19:57.858000Z</time>
      </trkpt>
      <trkpt lat="35.94185088" lon="120.20982558">
        <time>2019-07-22T22:20:02.834000Z</time>
      </trkpt>
      <trkpt lat="35.94185088" lon="120.20982558">
        <time>2019-07-22T22:20:03.527000Z</time>
      </trkpt>
      <trkpt lat="35.94181191" lon="120.2097067">
        <time>2019-07-22T22:20:06.851000Z</time>
      </trkpt>
      <trkpt lat="35.94177358" lon="120.20958404">
        <time>2019-07-22T22:20:10.843000Z</time>
      </trkpt>
      <trkpt lat="35.94173963" lon="120.20944836">
        <time>2019-07-22T22:20:14.848000Z</time>
      </trkpt>
      <trkpt lat="35.94178123" lon="120.20931943">
        <time>2019-07-22T22:20:18.911000Z</time>
      </trkpt>
      <trkpt lat="35.94186801" lon="120.20928003">
        <time>2019-07-22T22:20:21.839000Z</time>
      </trkpt>
      <trkpt lat="35.9419567" lon="120.20926198">
        <time>2019-07-22T22:20:24.837000Z</time>
      </trkpt>
      <trkpt lat="35.94205903" lon="120.20924776">
        <time>2019-07-22T22:20:28.918000Z</time>
      </trkpt>
      <trkpt lat="35.94216654" lon="120.20924758">
        <time>2019-07-22T22:20:32.841000Z</time>
      </trkpt>
      <trkpt lat="35.94227651" lon="120.20923737">
        <time>2019-07-22T22:20:36.838000Z</time>
      </trkpt>
      <trkpt lat="35.94238473" lon="120.20919191">
        <time>2019-07-22T22:20:40.841000Z</time>
      </trkpt>
      <trkpt lat="35.94248341" lon="120.20912793">
        <time>2019-07-22T22:20:44.838000Z</time>
      </trkpt>
      <trkpt lat="35.94257582" lon="120.20906761">
        <time>2019-07-22T22:20:48.852000Z</time>
      </trkpt>
      <trkpt lat="35.94268321" lon="120.2090192">
        <time>2019-07-22T22:20:52.871000Z</time>
      </trkpt>
      <trkpt lat="35.94279294" lon="120.20899162">
        <time>2019-07-22T22:20:56.847000Z</time>
      </trkpt>
      <trkpt lat="35.94290281" lon="120.20897653">
        <time>2019-07-22T22:21:00.846000Z</time>
      </trkpt>
      <trkpt lat="35.94300371" lon="120.20896868">
        <time>2019-07-22T22:21:04.854000Z</time>
      </trkpt>
      <trkpt lat="35.94300371" lon="120.20896868">
        <time>2019-07-22T22:21:24.847000Z</time>
      </trkpt>
      <trkpt lat="35.94317763" lon="120.20889628">
        <time>2019-07-22T22:21:24.859000Z</time>
      </trkpt>
      <trkpt lat="35.94327743" lon="120.20890168">
        <time>2019-07-22T22:21:28.839000Z</time>
      </trkpt>
      <trkpt lat="35.94337868" lon="120.20888973">
        <time>2019-07-22T22:21:32.839000Z</time>
      </trkpt>
      <trkpt lat="35.94337868" lon="120.20888973">
        <time>2019-07-22T22:21:34.676000Z</time>
      </trkpt>
      <trkpt lat="35.94347888" lon="120.20885751">
        <time>2019-07-22T22:21:36.847000Z</time>
      </trkpt>
      <trkpt lat="35.94358167" lon="120.20881737">
        <time>2019-07-22T22:21:40.849000Z</time>
      </trkpt>
      <trkpt lat="35.94367934" lon="120.20878873">
        <time>2019-07-22T22:21:44.845000Z</time>
      </trkpt>
      <trkpt lat="35.94377671" lon="120.20877937">
        <time>2019-07-22T22:21:48.835000Z</time>
      </trkpt>
      <trkpt lat="35.9438792" lon="120.20879682">
        <time>2019-07-22T22:21:53.854000Z</time>
      </trkpt>
      <trkpt lat="35.94398374" lon="120.20883202">
        <time>2019-07-22T22:21:57.848000Z</time>
      </trkpt>
      <trkpt lat="35.94407899" lon="120.20886672">
        <time>2019-07-22T22:22:01.847000Z</time>
      </trkpt>
      <trkpt lat="35.94417737" lon="120.20889961">
        <time>2019-07-22T22:22:05.838000Z</time>
      </trkpt>
      <trkpt lat="35.94427508" lon="120.2089284">
        <time>2019-07-22T22:22:09.859000Z</time>
      </trkpt>
      <trkpt lat="35.94437444" lon="120.20894005">
        <time>2019-07-22T22:22:13.851000Z</time>
      </trkpt>
      <trkpt lat="35.9444817" lon="120.20893789">
        <time>2019-07-22T22:22:17.841000Z</time>
      </trkpt>
      <trkpt lat="35.94459561" lon="120.20891204">
        <time>2019-07-22T22:22:21.837000Z</time>
      </trkpt>
      <trkpt lat="35.94470497" lon="120.20889169">
        <time>2019-07-22T22:22:25.869000Z</time>
      </trkpt>
      <trkpt lat="35.94481482" lon="120.20887059">
        <time>2019-07-22T22:22:29.849000Z</time>
      </trkpt>
      <trkpt lat="35.94492233" lon="120.20885831">
        <time>2019-07-22T22:22:33.842000Z</time>
      </trkpt>
      <trkpt lat="35.94502409" lon="120.2088435">
        <time>2019-07-22T22:22:39.842000Z</time>
      </trkpt>
      <trkpt lat="35.94502409" lon="120.2088435">
        <time>2019-07-22T22:22:42.736000Z</time>
      </trkpt>
      <trkpt lat="35.94511417" lon="120.20881848">
        <time>2019-07-22T22:22:47.851000Z</time>
      </trkpt>
      <trkpt lat="35.94521636" lon="120.20879588">
        <time>2019-07-22T22:22:51.838000Z</time>
      </trkpt>
      <trkpt lat="35.9453196" lon="120.20878641">
        <time>2019-07-22T22:22:55.850000Z</time>
      </trkpt>
      <trkpt lat="35.94542382" lon="120.20877595">
        <time>2019-07-22T22:22:59.846000Z</time>
      </trkpt>
      <trkpt lat="35.9455178" lon="120.20875852">
        <time>2019-07-22T22:23:03.843000Z</time>
      </trkpt>
      <trkpt lat="35.9456163" lon="120.20874965">
        <time>2019-07-22T22:23:07.846000Z</time>
      </trkpt>
      <trkpt lat="35.94571073" lon="120.20873434">
        <time>2019-07-22T22:23:11.845000Z</time>
      </trkpt>
      <trkpt lat="35.94580752" lon="120.20872205">
        <time>2019-07-22T22:23:15.850000Z</time>
      </trkpt>
      <trkpt lat="35.94591619" lon="120.20871398">
        <time>2019-07-22T22:23:19.834000Z</time>
      </trkpt>
      <trkpt lat="35.94602379" lon="120.20870088">
        <time>2019-07-22T22:23:23.835000Z</time>
      </trkpt>
      <trkpt lat="35.94612772" lon="120.20868494">
        <time>2019-07-22T22:23:27.847000Z</time>
      </trkpt>
      <trkpt lat="35.94612772" lon="120.20868494">
        <time>2019-07-22T22:23:30.835000Z</time>
      </trkpt>
      <trkpt lat="35.94623434" lon="120.20867738">
        <time>2019-07-22T22:23:31.847000Z</time>
      </trkpt>
      <trkpt lat="35.94634776" lon="120.20866341">
        <time>2019-07-22T22:23:35.847000Z</time>
      </trkpt>
      <trkpt lat="35.94645573" lon="120.20864601">
        <time>2019-07-22T22:23:39.842000Z</time>
      </trkpt>
      <trkpt lat="35.94654955" lon="120.20865117">
        <time>2019-07-22T22:23:44.843000Z</time>
      </trkpt>
      <trkpt lat="35.94654955" lon="120.20865117">
        <time>2019-07-22T22:23:46.877000Z</time>
      </trkpt>
      <trkpt lat="35.94664733" lon="120.20864457">
        <time>2019-07-22T22:23:49.868000Z</time>
      </trkpt>
      <trkpt lat="35.94674926" lon="120.20863063">
        <time>2019-07-22T22:23:57.854000Z</time>
      </trkpt>
      <trkpt lat="35.9468528" lon="120.20862418">
        <time>2019-07-22T22:24:04.842000Z</time>
      </trkpt>
      <trkpt lat="35.94695246" lon="120.20861605">
        <time>2019-07-22T22:24:11.840000Z</time>
      </trkpt>
      <trkpt lat="35.94704295" lon="120.20861214">
        <time>2019-07-22T22:24:17.859000Z</time>
      </trkpt>
      <trkpt lat="35.94705576" lon="120.20849846">
        <time>2019-07-22T22:24:23.877000Z</time>
      </trkpt>
      <trkpt lat="35.9470451" lon="120.20838088">
        <time>2019-07-22T22:24:28.861000Z</time>
      </trkpt>
      <trkpt lat="35.94703117" lon="120.20826722">
        <time>2019-07-22T22:24:39.840000Z</time>
      </trkpt>
      <trkpt lat="35.94703117" lon="120.20826722">
        <time>2019-07-22T22:24:49.841000Z</time>
      </trkpt>
      <trkpt lat="35.94701994" lon="120.20809911">
        <time>2019-07-22T22:24:49.857000Z</time>
      </trkpt>
      <trkpt lat="35.94701163" lon="120.20798588">
        <time>2019-07-22T22:24:54.845000Z</time>
      </trkpt>
      <trkpt lat="35.94700057" lon="120.20786281">
        <time>2019-07-22T22:24:58.848000Z</time>
      </trkpt>
      <trkpt lat="35.94700057" lon="120.20786281">
        <time>2019-07-22T22:24:59.847000Z</time>
      </trkpt>
      <trkpt lat="35.94698417" lon="120.20772999">
        <time>2019-07-22T22:25:02.853000Z</time>
      </trkpt>
      <trkpt lat="35.94697518" lon="120.20759557">
        <time>2019-07-22T22:25:06.848000Z</time>
      </trkpt>
      <trkpt lat="35.94696394" lon="120.20746399">
        <time>2019-07-22T22:25:10.851000Z</time>
      </trkpt>
      <trkpt lat="35.94695601" lon="120.20735223">
        <time>2019-07-22T22:25:13.846000Z</time>
      </trkpt>
      <trkpt lat="35.9469529" lon="120.20720894">
        <time>2019-07-22T22:25:17.845000Z</time>
      </trkpt>
      <trkpt lat="35.94700537" lon="120.20707795">
        <time>2019-07-22T22:25:21.853000Z</time>
      </trkpt>
      <trkpt lat="35.94706451" lon="120.20695002">
        <time>2019-07-22T22:25:25.848000Z</time>
      </trkpt>
      <trkpt lat="35.94711106" lon="120.2068503">
        <time>2019-07-22T22:25:28.846000Z</time>
      </trkpt>
      <trkpt lat="35.9471526" lon="120.2067518">
        <time>2019-07-22T22:25:31.847000Z</time>
      </trkpt>
      <trkpt lat="35.94720798" lon="120.20662935">
        <time>2019-07-22T22:25:35.847000Z</time>
      </trkpt>
      <trkpt lat="35.94725494" lon="120.20649804">
        <time>2019-07-22T22:25:39.848000Z</time>
      </trkpt>
      <trkpt lat="35.94730795" lon="120.20637018">
        <time>2019-07-22T22:25:43.851000Z</time>
      </trkpt>
      <trkpt lat="35.94735698" lon="120.20624325">
        <time>2019-07-22T22:25:47.847000Z</time>
      </trkpt>
      <trkpt lat="35.94740629" lon="120.20612546">
        <time>2019-07-22T22:25:51.850000Z</time>
      </trkpt>
      <trkpt lat="35.94745911" lon="120.2060041">
        <time>2019-07-22T22:25:55.864000Z</time>
      </trkpt>
      <trkpt lat="35.94750587" lon="120.20587349">
        <time>2019-07-22T22:25:59.850000Z</time>
      </trkpt>
      <trkpt lat="35.94755151" lon="120.20574278">
        <time>2019-07-22T22:26:03.846000Z</time>
      </trkpt>
      <trkpt lat="35.94760712" lon="120.20564418">
        <time>2019-07-22T22:26:07.845000Z</time>
      </trkpt>
      <trkpt lat="35.94765827" lon="120.20554013">
        <time>2019-07-22T22:26:11.849000Z</time>
      </trkpt>
      <trkpt lat="35.94769855" lon="120.20540827">
        <time>2019-07-22T22:26:15.851000Z</time>
      </trkpt>
      <trkpt lat="35.94773646" lon="120.20527633">
        <time>2019-07-22T22:26:19.841000Z</time>
      </trkpt>
      <trkpt lat="35.94779002" lon="120.20516034">
        <time>2019-07-22T22:26:23.845000Z</time>
      </trkpt>
      <trkpt lat="35.94783702" lon="120.20505509">
        <time>2019-07-22T22:26:27.848000Z</time>
      </trkpt>
      <trkpt lat="35.94783702" lon="120.20505509">
        <time>2019-07-22T22:26:33.047000Z</time>
      </trkpt>
      <trkpt lat="35.9478832" lon="120.2049567">
        <time>2019-07-22T22:26:33.843000Z</time>
      </trkpt>
      <trkpt lat="35.9479085" lon="120.2048384">
        <time>2019-07-22T22:26:40.855000Z</time>
      </trkpt>
      <trkpt lat="35.9479164" lon="120.20472459">
        <time>2019-07-22T22:26:46.849000Z</time>
      </trkpt>
      <trkpt lat="35.94791762" lon="120.20460133">
        <time>2019-07-22T22:26:52.845000Z</time>
      </trkpt>
      <trkpt lat="35.94790728" lon="120.20446268">
        <time>2019-07-22T22:26:57.848000Z</time>
      </trkpt>
      <trkpt lat="35.94789299" lon="120.20433317">
        <time>2019-07-22T22:27:01.845000Z</time>
      </trkpt>
      <trkpt lat="35.94787147" lon="120.2042175">
        <time>2019-07-22T22:27:05.953000Z</time>
      </trkpt>
      <trkpt lat="35.94796977" lon="120.2041887">
        <time>2019-07-22T22:27:11.859000Z</time>
      </trkpt>
      <trkpt lat="35.94805674" lon="120.20425983">
        <time>2019-07-22T22:27:15.847000Z</time>
      </trkpt>
      <trkpt lat="35.94805674" lon="120.20425983">
        <time>2019-07-22T22:27:19.072000Z</time>
      </trkpt>
      <trkpt lat="35.94813987" lon="120.20432186">
        <time>2019-07-22T22:27:19.845000Z</time>
      </trkpt>
      <trkpt lat="35.94821522" lon="120.20439776">
        <time>2019-07-22T22:27:23.852000Z</time>
      </trkpt>
      <trkpt lat="35.94830391" lon="120.20448274">
        <time>2019-07-22T22:27:27.849000Z</time>
      </trkpt>
      <trkpt lat="35.94840132" lon="120.20456439">
        <time>2019-07-22T22:27:31.846000Z</time>
      </trkpt>
      <trkpt lat="35.94846624" lon="120.20464159">
        <time>2019-07-22T22:27:34.840000Z</time>
      </trkpt>
      <trkpt lat="35.94854974" lon="120.20474406">
        <time>2019-07-22T22:27:38.848000Z</time>
      </trkpt>
      <trkpt lat="35.94864176" lon="120.20483658">
        <time>2019-07-22T22:27:42.841000Z</time>
      </trkpt>
      <trkpt lat="35.94871598" lon="120.20490034">
        <time>2019-07-22T22:27:45.867000Z</time>
      </trkpt>
      <trkpt lat="35.94880494" lon="120.20499229">
        <time>2019-07-22T22:27:49.847000Z</time>
      </trkpt>
      <trkpt lat="35.9488908" lon="120.20508665">
        <time>2019-07-22T22:27:53.846000Z</time>
      </trkpt>
      <trkpt lat="35.94896647" lon="120.20518598">
        <time>2019-07-22T22:27:57.900000Z</time>
      </trkpt>
      <trkpt lat="35.94906059" lon="120.20527682">
        <time>2019-07-22T22:28:01.847000Z</time>
      </trkpt>
      <trkpt lat="35.94914334" lon="120.20538382">
        <time>2019-07-22T22:28:05.850000Z</time>
      </trkpt>
      <trkpt lat="35.94923143" lon="120.20548333">
        <time>2019-07-22T22:28:09.841000Z</time>
      </trkpt>
      <trkpt lat="35.94932105" lon="120.20558047">
        <time>2019-07-22T22:28:13.840000Z</time>
      </trkpt>
      <trkpt lat="35.94941108" lon="120.20567668">
        <time>2019-07-22T22:28:17.847000Z</time>
      </trkpt>
      <trkpt lat="35.94947629" lon="120.20575728">
        <time>2019-07-22T22:28:20.840000Z</time>
      </trkpt>
      <trkpt lat="35.94956704" lon="120.20584532">
        <time>2019-07-22T22:28:24.841000Z</time>
      </trkpt>
      <trkpt lat="35.94965462" lon="120.20592403">
        <time>2019-07-22T22:28:28.845000Z</time>
      </trkpt>
      <trkpt lat="35.94975217" lon="120.20600288">
        <time>2019-07-22T22:28:32.838000Z</time>
      </trkpt>
      <trkpt lat="35.94985406" lon="120.20596577">
        <time>2019-07-22T22:28:36.843000Z</time>
      </trkpt>
      <trkpt lat="35.94995181" lon="120.20589155">
        <time>2019-07-22T22:28:40.847000Z</time>
      </trkpt>
      <trkpt lat="35.95004872" lon="120.20583576">
        <time>2019-07-22T22:28:44.835000Z</time>
      </trkpt>
      <trkpt lat="35.95014287" lon="120.20579252">
        <time>2019-07-22T22:28:48.846000Z</time>
      </trkpt>
      <trkpt lat="35.95024161" lon="120.20575135">
        <time>2019-07-22T22:28:52.838000Z</time>
      </trkpt>
      <trkpt lat="35.95034931" lon="120.20571318">
        <time>2019-07-22T22:28:56.834000Z</time>
      </trkpt>
      <trkpt lat="35.95044245" lon="120.20568815">
        <time>2019-07-22T22:28:59.844000Z</time>
      </trkpt>
      <trkpt lat="35.95052896" lon="120.20565515">
        <time>2019-07-22T22:29:02.833000Z</time>
      </trkpt>
      <trkpt lat="35.95062461" lon="120.20557798">
        <time>2019-07-22T22:29:06.857000Z</time>
      </trkpt>
      <trkpt lat="35.95065437" lon="120.20543602">
        <time>2019-07-22T22:29:10.850000Z</time>
      </trkpt>
      <trkpt lat="35.95063371" lon="120.20529553">
        <time>2019-07-22T22:29:14.841000Z</time>
      </trkpt>
      <trkpt lat="35.95061882" lon="120.2051599">
        <time>2019-07-22T22:29:18.837000Z</time>
      </trkpt>
      <trkpt lat="35.95059648" lon="120.20501967">
        <time>2019-07-22T22:29:22.841000Z</time>
      </trkpt>
      <trkpt lat="35.95055999" lon="120.20489817">
        <time>2019-07-22T22:29:26.848000Z</time>
      </trkpt>
      <trkpt lat="35.95055999" lon="120.20489817">
        <time>2019-07-22T22:29:29.155000Z</time>
      </trkpt>
      <trkpt lat="35.95058432" lon="120.20478687">
        <time>2019-07-22T22:29:32.849000Z</time>
      </trkpt>
      <trkpt lat="35.95054322" lon="120.20488754">
        <time>2019-07-22T22:29:49.850000Z</time>
      </trkpt>
      <trkpt lat="35.95054322" lon="120.20488754">
        <time>2019-07-22T22:30:09.841000Z</time>
      </trkpt>
      <trkpt lat="35.95062768" lon="120.20484355">
        <time>2019-07-22T22:30:09.927000Z</time>
      </trkpt>
      <trkpt lat="35.95071423" lon="120.20479911">
        <time>2019-07-22T22:30:13.843000Z</time>
      </trkpt>
      <trkpt lat="35.95078836" lon="120.20473069">
        <time>2019-07-22T22:30:16.846000Z</time>
      </trkpt>
      <trkpt lat="35.95086017" lon="120.2046554">
        <time>2019-07-22T22:30:19.846000Z</time>
      </trkpt>
      <trkpt lat="35.95094103" lon="120.20459737">
        <time>2019-07-22T22:30:22.839000Z</time>
      </trkpt>
      <trkpt lat="35.95102173" lon="120.20454832">
        <time>2019-07-22T22:30:25.845000Z</time>
      </trkpt>
      <trkpt lat="35.95111847" lon="120.20448641">
        <time>2019-07-22T22:30:29.844000Z</time>
      </trkpt>
      <trkpt lat="35.95122471" lon="120.20446688">
        <time>2019-07-22T22:30:33.847000Z</time>
      </trkpt>
      <trkpt lat="35.95132789" lon="120.20445225">
        <time>2019-07-22T22:30:37.838000Z</time>
      </trkpt>
      <trkpt lat="35.95142826" lon="120.20443722">
        <time>2019-07-22T22:30:41.851000Z</time>
      </trkpt>
      <trkpt lat="35.95152728" lon="120.20441922">
        <time>2019-07-22T22:30:47.836000Z</time>
      </trkpt>
      <trkpt lat="35.95152728" lon="120.20441922">
        <time>2019-07-22T22:30:50.850000Z</time>
      </trkpt>
      <trkpt lat="35.95162396" lon="120.2044092">
        <time>2019-07-22T22:30:52.843000Z</time>
      </trkpt>
      <trkpt lat="35.95171175" lon="120.20438234">
        <time>2019-07-22T22:30:57.847000Z</time>
      </trkpt>
      <trkpt lat="35.95179753" lon="120.20431103">
        <time>2019-07-22T22:31:01.860000Z</time>
      </trkpt>
      <trkpt lat="35.95179753" lon="120.20431103">
        <time>2019-07-22T22:31:02.248000Z</time>
      </trkpt>
      <trkpt lat="35.95188952" lon="120.20424584">
        <time>2019-07-22T22:31:05.846000Z</time>
      </trkpt>
      <trkpt lat="35.95199042" lon="120.20421814">
        <time>2019-07-22T22:31:09.840000Z</time>
      </trkpt>
      <trkpt lat="35.95210615" lon="120.20420167">
        <time>2019-07-22T22:31:13.856000Z</time>
      </trkpt>
      <trkpt lat="35.95219747" lon="120.20418499">
        <time>2019-07-22T22:31:16.851000Z</time>
      </trkpt>
      <trkpt lat="35.9523146" lon="120.20419327">
        <time>2019-07-22T22:31:20.843000Z</time>
      </trkpt>
      <trkpt lat="35.95242501" lon="120.20421561">
        <time>2019-07-22T22:31:24.840000Z</time>
      </trkpt>
      <trkpt lat="35.95253098" lon="120.20423831">
        <time>2019-07-22T22:31:29.697000Z</time>
      </trkpt>
      <trkpt lat="35.95264543" lon="120.2042276">
        <time>2019-07-22T22:31:32.850000Z</time>
      </trkpt>
      <trkpt lat="35.95273652" lon="120.20421595">
        <time>2019-07-22T22:31:35.851000Z</time>
      </trkpt>
      <trkpt lat="35.95282742" lon="120.20420281">
        <time>2019-07-22T22:31:38.854000Z</time>
      </trkpt>
      <trkpt lat="35.95294439" lon="120.20420353">
        <time>2019-07-22T22:31:42.842000Z</time>
      </trkpt>
      <trkpt lat="35.9530547" lon="120.20416744">
        <time>2019-07-22T22:31:46.858000Z</time>
      </trkpt>
      <trkpt lat="35.95316192" lon="120.20411475">
        <time>2019-07-22T22:31:50.851000Z</time>
      </trkpt>
      <trkpt lat="35.95327439" lon="120.20413292">
        <time>2019-07-22T22:31:54.847000Z</time>
      </trkpt>
      <trkpt lat="35.95337879" lon="120.20412539">
        <time>2019-07-22T22:31:58.857000Z</time>
      </trkpt>
      <trkpt lat="35.95347248" lon="120.20410576">
        <time>2019-07-22T22:32:02.849000Z</time>
      </trkpt>
      <trkpt lat="35.95357719" lon="120.20409283">
        <time>2019-07-22T22:32:06.832000Z</time>
      </trkpt>
      <trkpt lat="35.95368518" lon="120.20408472">
        <time>2019-07-22T22:32:10.845000Z</time>
      </trkpt>
      <trkpt lat="35.95377636" lon="120.20407696">
        <time>2019-07-22T22:32:14.849000Z</time>
      </trkpt>
      <trkpt lat="35.95387705" lon="120.20406475">
        <time>2019-07-22T22:32:19.847000Z</time>
      </trkpt>
      <trkpt lat="35.95387705" lon="120.20406475">
        <time>2019-07-22T22:32:22.748000Z</time>
      </trkpt>
      <trkpt lat="35.95396639" lon="120.20404056">
        <time>2019-07-22T22:32:24.845000Z</time>
      </trkpt>
      <trkpt lat="35.95405895" lon="120.20403963">
        <time>2019-07-22T22:32:31.845000Z</time>
      </trkpt>
      <trkpt lat="35.95415321" lon="120.2040199">
        <time>2019-07-22T22:32:38.852000Z</time>
      </trkpt>
      <trkpt lat="35.95424923" lon="120.20399538">
        <time>2019-07-22T22:32:45.845000Z</time>
      </trkpt>
      <trkpt lat="35.95434364" lon="120.20396784">
        <time>2019-07-22T22:32:50.846000Z</time>
      </trkpt>
      <trkpt lat="35.95443289" lon="120.20395086">
        <time>2019-07-22T22:32:53.853000Z</time>
      </trkpt>
      <trkpt lat="35.95454336" lon="120.20393416">
        <time>2019-07-22T22:32:57.849000Z</time>
      </trkpt>
      <trkpt lat="35.95465313" lon="120.20391715">
        <time>2019-07-22T22:33:01.854000Z</time>
      </trkpt>
      <trkpt lat="35.95476646" lon="120.20390845">
        <time>2019-07-22T22:33:05.845000Z</time>
      </trkpt>
      <trkpt lat="35.95487664" lon="120.20389891">
        <time>2019-07-22T22:33:09.864000Z</time>
      </trkpt>
      <trkpt lat="35.95496697" lon="120.20394624">
        <time>2019-07-22T22:33:14.841000Z</time>
      </trkpt>
      <trkpt lat="35.95500919" lon="120.20405954">
        <time>2019-07-22T22:33:21.842000Z</time>
      </trkpt>
      <trkpt lat="35.95500919" lon="120.20405954">
        <time>2019-07-22T22:33:25.832000Z</time>
      </trkpt>
      <trkpt lat="35.95506704" lon="120.20416413">
        <time>2019-07-22T22:33:25.857000Z</time>
      </trkpt>
      <trkpt lat="35.95509543" lon="120.20428396">
        <time>2019-07-22T22:33:29.845000Z</time>
      </trkpt>
      <trkpt lat="35.95510913" lon="120.20440347">
        <time>2019-07-22T22:33:33.837000Z</time>
      </trkpt>
      <trkpt lat="35.95512028" lon="120.20454003">
        <time>2019-07-22T22:33:37.845000Z</time>
      </trkpt>
      <trkpt lat="35.95515062" lon="120.20466321">
        <time>2019-07-22T22:33:41.836000Z</time>
      </trkpt>
      <trkpt lat="35.95517952" lon="120.20478997">
        <time>2019-07-22T22:33:45.845000Z</time>
      </trkpt>
      <trkpt lat="35.95521194" lon="120.20492443">
        <time>2019-07-22T22:33:49.844000Z</time>
      </trkpt>
      <trkpt lat="35.95521769" lon="120.20504741">
        <time>2019-07-22T22:33:54.849000Z</time>
      </trkpt>
      <trkpt lat="35.95521769" lon="120.20504741">
        <time>2019-07-22T22:33:57.997000Z</time>
      </trkpt>
      <trkpt lat="35.95524246" lon="120.20516005">
        <time>2019-07-22T22:34:01.844000Z</time>
      </trkpt>
      <trkpt lat="35.95526979" lon="120.20527434">
        <time>2019-07-22T22:34:08.842000Z</time>
      </trkpt>
      <trkpt lat="35.95529755" lon="120.20539237">
        <time>2019-07-22T22:34:16.839000Z</time>
      </trkpt>
      <trkpt lat="35.95532426" lon="120.20550399">
        <time>2019-07-22T22:34:21.840000Z</time>
      </trkpt>
      <trkpt lat="35.95532426" lon="120.20550399">
        <time>2019-07-22T22:34:23.849000Z</time>
      </trkpt>
      <trkpt lat="35.95532304" lon="120.20564457">
        <time>2019-07-22T22:34:25.845000Z</time>
      </trkpt>
      <trkpt lat="35.95533207" lon="120.20578331">
        <time>2019-07-22T22:34:29.849000Z</time>
      </trkpt>
      <trkpt lat="35.95537103" lon="120.20591388">
        <time>2019-07-22T22:34:33.845000Z</time>
      </trkpt>
      <trkpt lat="35.95542564" lon="120.20601082">
        <time>2019-07-22T22:34:41.853000Z</time>
      </trkpt>
      <trkpt lat="35.95542564" lon="120.20601082">
        <time>2019-07-22T22:34:45.454000Z</time>
      </trkpt>
      <trkpt lat="35.95552072" lon="120.20599426">
        <time>2019-07-22T22:34:49.844000Z</time>
      </trkpt>
      <trkpt lat="35.95562239" lon="120.20598333">
        <time>2019-07-22T22:34:57.837000Z</time>
      </trkpt>
      <trkpt lat="35.95566512" lon="120.20609792">
        <time>2019-07-22T22:35:05.860000Z</time>
      </trkpt>
      <trkpt lat="35.95571439" lon="120.20620444">
        <time>2019-07-22T22:35:12.839000Z</time>
      </trkpt>
      <trkpt lat="35.95571439" lon="120.20620444">
        <time>2019-07-22T22:35:17.456000Z</time>
      </trkpt>
      <trkpt lat="35.95571909" lon="120.20633767">
        <time>2019-07-22T22:35:17.836000Z</time>
      </trkpt>
      <trkpt lat="35.95573642" lon="120.20648147">
        <time>2019-07-22T22:35:21.845000Z</time>
      </trkpt>
      <trkpt lat="35.95574794" lon="120.20659516">
        <time>2019-07-22T22:35:24.849000Z</time>
      </trkpt>
      <trkpt lat="35.95575604" lon="120.20671321">
        <time>2019-07-22T22:35:27.846000Z</time>
      </trkpt>
      <trkpt lat="35.95573845" lon="120.2068258">
        <time>2019-07-22T22:35:30.841000Z</time>
      </trkpt>
      <trkpt lat="35.95572869" lon="120.20696331">
        <time>2019-07-22T22:35:35.848000Z</time>
      </trkpt>
      <trkpt lat="35.95574934" lon="120.20709945">
        <time>2019-07-22T22:35:39.847000Z</time>
      </trkpt>
      <trkpt lat="35.95574787" lon="120.20723849">
        <time>2019-07-22T22:35:43.873000Z</time>
      </trkpt>
      <trkpt lat="35.95573984" lon="120.2073857">
        <time>2019-07-22T22:35:47.834000Z</time>
      </trkpt>
      <trkpt lat="35.95574056" lon="120.20752712">
        <time>2019-07-22T22:35:51.840000Z</time>
      </trkpt>
      <trkpt lat="35.95574796" lon="120.20764726">
        <time>2019-07-22T22:35:57.846000Z</time>
      </trkpt>
      <trkpt lat="35.95574796" lon="120.20764726">
        <time>2019-07-22T22:36:02.544000Z</time>
      </trkpt>
      <trkpt lat="35.95580207" lon="120.20774363">
        <time>2019-07-22T22:36:02.845000Z</time>
      </trkpt>
      <trkpt lat="35.95590194" lon="120.20772342">
        <time>2019-07-22T22:36:08.838000Z</time>
      </trkpt>
      <trkpt lat="35.95590194" lon="120.20772342">
        <time>2019-07-22T22:36:13.839000Z</time>
      </trkpt>
      <trkpt lat="35.95600481" lon="120.20766306">
        <time>2019-07-22T22:36:14.839000Z</time>
      </trkpt>
      <trkpt lat="35.95609864" lon="120.20763059">
        <time>2019-07-22T22:36:18.851000Z</time>
      </trkpt>
      <trkpt lat="35.95618986" lon="120.2076049">
        <time>2019-07-22T22:36:22.841000Z</time>
      </trkpt>
      <trkpt lat="35.95623557" lon="120.20759575">
        <time>2019-07-22T22:36:24.871000Z</time>
      </trkpt>
    </trkseg>
  </trk>
</gpx>