<?xml version="1.0" encoding="UTF-8"?>
<gpx xmlns="http://www.topografix.com/GPX/1/1" xmlns:gpxtpx="http://www.garmin.com/xmlschemas/TrackPointExtension/v1" xmlns:xsi="http://www.w3.org/2001/XMLSchema-instance" xsi:schemaLocation="http://www.topografix.com/GPX/1/1 http://www.topografix.com/GPX/1/1/gpx.xsd" version="1.1" creator="gpx.py -- https://github.com/tkrajina/gpxpy">
  <trk>
    <name>星期五 早晨跑步</name>
    <trkseg>
      <trkpt lat="35.95682238" lon="120.20998944">
        <time>2019-07-18T22:08:26.238000Z</time>
      </trkpt>
      <trkpt lat="35.95683098" lon="120.20998378">
        <time>2019-07-18T22:08:27.055000Z</time>
      </trkpt>
      <trkpt lat="35.95683098" lon="120.20998378">
        <time>2019-07-18T22:08:32.064000Z</time>
      </trkpt>
      <trkpt lat="35.95683098" lon="120.20998378">
        <time>2019-07-18T22:08:35.069000Z</time>
      </trkpt>
      <trkpt lat="35.95693665" lon="120.2099438">
        <time>2019-07-18T22:08:35.079000Z</time>
      </trkpt>
      <trkpt lat="35.95702925" lon="120.20991196">
        <time>2019-07-18T22:08:39.077000Z</time>
      </trkpt>
      <trkpt lat="35.95712999" lon="120.20988576">
        <time>2019-07-18T22:08:44.073000Z</time>
      </trkpt>
      <trkpt lat="35.95723444" lon="120.20986721">
        <time>2019-07-18T22:08:48.071000Z</time>
      </trkpt>
      <trkpt lat="35.957336" lon="120.20983691">
        <time>2019-07-18T22:08:52.075000Z</time>
      </trkpt>
      <trkpt lat="35.95742515" lon="120.2098058">
        <time>2019-07-18T22:08:56.063000Z</time>
      </trkpt>
      <trkpt lat="35.95751707" lon="120.20978777">
        <time>2019-07-18T22:09:00.065000Z</time>
      </trkpt>
      <trkpt lat="35.95761927" lon="120.20976422">
        <time>2019-07-18T22:09:04.062000Z</time>
      </trkpt>
      <trkpt lat="35.9577167" lon="120.20974755">
        <time>2019-07-18T22:09:08.057000Z</time>
      </trkpt>
      <trkpt lat="35.95780843" lon="120.20982403">
        <time>2019-07-18T22:09:13.067000Z</time>
      </trkpt>
      <trkpt lat="35.95788373" lon="120.2099114">
        <time>2019-07-18T22:09:18.069000Z</time>
      </trkpt>
      <trkpt lat="35.95795702" lon="120.21001906">
        <time>2019-07-18T22:09:22.053000Z</time>
      </trkpt>
      <trkpt lat="35.95800957" lon="120.21013923">
        <time>2019-07-18T22:09:27.050000Z</time>
      </trkpt>
      <trkpt lat="35.95801001" lon="120.21026115">
        <time>2019-07-18T22:09:30.068000Z</time>
      </trkpt>
      <trkpt lat="35.95796314" lon="120.21039028">
        <time>2019-07-18T22:09:33.071000Z</time>
      </trkpt>
      <trkpt lat="35.95794401" lon="120.21050543">
        <time>2019-07-18T22:09:36.073000Z</time>
      </trkpt>
      <trkpt lat="35.95793765" lon="120.21064715">
        <time>2019-07-18T22:09:41.072000Z</time>
      </trkpt>
      <trkpt lat="35.95784438" lon="120.21072323">
        <time>2019-07-18T22:09:46.072000Z</time>
      </trkpt>
      <trkpt lat="35.95775121" lon="120.21073091">
        <time>2019-07-18T22:09:49.076000Z</time>
      </trkpt>
      <trkpt lat="35.9576459" lon="120.21075737">
        <time>2019-07-18T22:09:53.076000Z</time>
      </trkpt>
      <trkpt lat="35.95755664" lon="120.2107882">
        <time>2019-07-18T22:09:59.082000Z</time>
      </trkpt>
      <trkpt lat="35.95745419" lon="120.21081548">
        <time>2019-07-18T22:10:03.073000Z</time>
      </trkpt>
      <trkpt lat="35.95734936" lon="120.21081788">
        <time>2019-07-18T22:10:08.067000Z</time>
      </trkpt>
      <trkpt lat="35.95724349" lon="120.21081651">
        <time>2019-07-18T22:10:12.085000Z</time>
      </trkpt>
      <trkpt lat="35.95713243" lon="120.21081974">
        <time>2019-07-18T22:10:16.060000Z</time>
      </trkpt>
      <trkpt lat="35.95702865" lon="120.21083155">
        <time>2019-07-18T22:10:22.071000Z</time>
      </trkpt>
      <trkpt lat="35.95693211" lon="120.21085649">
        <time>2019-07-18T22:10:26.071000Z</time>
      </trkpt>
      <trkpt lat="35.95684414" lon="120.2108853">
        <time>2019-07-18T22:10:31.062000Z</time>
      </trkpt>
      <trkpt lat="35.95674052" lon="120.21092551">
        <time>2019-07-18T22:10:36.064000Z</time>
      </trkpt>
      <trkpt lat="35.95663607" lon="120.21094076">
        <time>2019-07-18T22:10:41.068000Z</time>
      </trkpt>
      <trkpt lat="35.95653095" lon="120.21096672">
        <time>2019-07-18T22:10:46.068000Z</time>
      </trkpt>
      <trkpt lat="35.95642734" lon="120.21098529">
        <time>2019-07-18T22:10:51.077000Z</time>
      </trkpt>
      <trkpt lat="35.95633799" lon="120.2110066">
        <time>2019-07-18T22:10:55.071000Z</time>
      </trkpt>
      <trkpt lat="35.9562399" lon="120.21100689">
        <time>2019-07-18T22:10:59.078000Z</time>
      </trkpt>
      <trkpt lat="35.95613264" lon="120.21101964">
        <time>2019-07-18T22:11:04.095000Z</time>
      </trkpt>
      <trkpt lat="35.95603636" lon="120.2110559">
        <time>2019-07-18T22:11:09.075000Z</time>
      </trkpt>
      <trkpt lat="35.95596056" lon="120.21112647">
        <time>2019-07-18T22:11:13.071000Z</time>
      </trkpt>
      <trkpt lat="35.95587538" lon="120.2111986">
        <time>2019-07-18T22:11:18.091000Z</time>
      </trkpt>
      <trkpt lat="35.95580587" lon="120.2112986">
        <time>2019-07-18T22:11:23.069000Z</time>
      </trkpt>
      <trkpt lat="35.95574625" lon="120.211404">
        <time>2019-07-18T22:11:28.057000Z</time>
      </trkpt>
      <trkpt lat="35.95574625" lon="120.211404">
        <time>2019-07-18T22:11:35.061000Z</time>
      </trkpt>
      <trkpt lat="35.95567129" lon="120.21146573">
        <time>2019-07-18T22:11:36.062000Z</time>
      </trkpt>
      <trkpt lat="35.95557682" lon="120.21148432">
        <time>2019-07-18T22:11:41.073000Z</time>
      </trkpt>
      <trkpt lat="35.95557682" lon="120.21148432">
        <time>2019-07-18T22:11:45.075000Z</time>
      </trkpt>
      <trkpt lat="35.95556675" lon="120.21161657">
        <time>2019-07-18T22:11:46.068000Z</time>
      </trkpt>
      <trkpt lat="35.95558544" lon="120.21175815">
        <time>2019-07-18T22:11:51.052000Z</time>
      </trkpt>
      <trkpt lat="35.95563138" lon="120.21186331">
        <time>2019-07-18T22:11:55.142000Z</time>
      </trkpt>
      <trkpt lat="35.95566842" lon="120.21198435">
        <time>2019-07-18T22:12:00.065000Z</time>
      </trkpt>
      <trkpt lat="35.95566757" lon="120.2120988">
        <time>2019-07-18T22:12:04.069000Z</time>
      </trkpt>
      <trkpt lat="35.95567713" lon="120.21222051">
        <time>2019-07-18T22:12:09.066000Z</time>
      </trkpt>
      <trkpt lat="35.95567713" lon="120.21222051">
        <time>2019-07-18T22:12:12.146000Z</time>
      </trkpt>
      <trkpt lat="35.95575" lon="120.21231216">
        <time>2019-07-18T22:12:17.070000Z</time>
      </trkpt>
      <trkpt lat="35.95577408" lon="120.21243238">
        <time>2019-07-18T22:12:23.059000Z</time>
      </trkpt>
      <trkpt lat="35.95579406" lon="120.21255353">
        <time>2019-07-18T22:12:29.064000Z</time>
      </trkpt>
      <trkpt lat="35.95581464" lon="120.21267757">
        <time>2019-07-18T22:12:35.072000Z</time>
      </trkpt>
      <trkpt lat="35.95581464" lon="120.21267757">
        <time>2019-07-18T22:12:36.209000Z</time>
      </trkpt>
      <trkpt lat="35.95585237" lon="120.21280383">
        <time>2019-07-18T22:12:40.070000Z</time>
      </trkpt>
      <trkpt lat="35.95590455" lon="120.21292449">
        <time>2019-07-18T22:12:45.059000Z</time>
      </trkpt>
      <trkpt lat="35.95591501" lon="120.21304629">
        <time>2019-07-18T22:12:49.061000Z</time>
      </trkpt>
      <trkpt lat="35.95593039" lon="120.21317829">
        <time>2019-07-18T22:12:53.079000Z</time>
      </trkpt>
      <trkpt lat="35.95591094" lon="120.21329939">
        <time>2019-07-18T22:12:57.069000Z</time>
      </trkpt>
      <trkpt lat="35.95586344" lon="120.21339681">
        <time>2019-07-18T22:13:01.067000Z</time>
      </trkpt>
      <trkpt lat="35.9557926" lon="120.21347628">
        <time>2019-07-18T22:13:05.065000Z</time>
      </trkpt>
      <trkpt lat="35.95567867" lon="120.21350104">
        <time>2019-07-18T22:13:10.067000Z</time>
      </trkpt>
      <trkpt lat="35.95556933" lon="120.21352298">
        <time>2019-07-18T22:13:14.058000Z</time>
      </trkpt>
      <trkpt lat="35.9554559" lon="120.21353728">
        <time>2019-07-18T22:13:18.060000Z</time>
      </trkpt>
      <trkpt lat="35.9553579" lon="120.2135628">
        <time>2019-07-18T22:13:22.062000Z</time>
      </trkpt>
      <trkpt lat="35.95526271" lon="120.21358561">
        <time>2019-07-18T22:13:26.077000Z</time>
      </trkpt>
      <trkpt lat="35.95516466" lon="120.21360523">
        <time>2019-07-18T22:13:30.070000Z</time>
      </trkpt>
      <trkpt lat="35.95506942" lon="120.21365374">
        <time>2019-07-18T22:13:34.106000Z</time>
      </trkpt>
      <trkpt lat="35.95496769" lon="120.21367603">
        <time>2019-07-18T22:13:39.060000Z</time>
      </trkpt>
      <trkpt lat="35.95487724" lon="120.21367814">
        <time>2019-07-18T22:13:43.067000Z</time>
      </trkpt>
      <trkpt lat="35.95477668" lon="120.21370194">
        <time>2019-07-18T22:13:47.065000Z</time>
      </trkpt>
      <trkpt lat="35.95468438" lon="120.21373311">
        <time>2019-07-18T22:13:51.103000Z</time>
      </trkpt>
      <trkpt lat="35.95457149" lon="120.21375852">
        <time>2019-07-18T22:13:56.070000Z</time>
      </trkpt>
      <trkpt lat="35.95446025" lon="120.21377632">
        <time>2019-07-18T22:14:00.075000Z</time>
      </trkpt>
      <trkpt lat="35.95435037" lon="120.21377487">
        <time>2019-07-18T22:14:04.070000Z</time>
      </trkpt>
      <trkpt lat="35.95423639" lon="120.21378047">
        <time>2019-07-18T22:14:08.070000Z</time>
      </trkpt>
      <trkpt lat="35.95412351" lon="120.21378727">
        <time>2019-07-18T22:14:12.062000Z</time>
      </trkpt>
      <trkpt lat="35.95402386" lon="120.21381301">
        <time>2019-07-18T22:14:16.070000Z</time>
      </trkpt>
      <trkpt lat="35.95393639" lon="120.21385643">
        <time>2019-07-18T22:14:20.070000Z</time>
      </trkpt>
      <trkpt lat="35.95382492" lon="120.21388263">
        <time>2019-07-18T22:14:25.063000Z</time>
      </trkpt>
      <trkpt lat="35.95372815" lon="120.21392466">
        <time>2019-07-18T22:14:29.069000Z</time>
      </trkpt>
      <trkpt lat="35.95362421" lon="120.21396638">
        <time>2019-07-18T22:14:33.062000Z</time>
      </trkpt>
      <trkpt lat="35.95351652" lon="120.2140015">
        <time>2019-07-18T22:14:37.131000Z</time>
      </trkpt>
      <trkpt lat="35.9534102" lon="120.21402883">
        <time>2019-07-18T22:14:41.071000Z</time>
      </trkpt>
      <trkpt lat="35.95330967" lon="120.21404099">
        <time>2019-07-18T22:14:45.054000Z</time>
      </trkpt>
      <trkpt lat="35.9532123" lon="120.21402982">
        <time>2019-07-18T22:14:49.146000Z</time>
      </trkpt>
      <trkpt lat="35.95312873" lon="120.21397027">
        <time>2019-07-18T22:14:53.066000Z</time>
      </trkpt>
      <trkpt lat="35.95302988" lon="120.21392733">
        <time>2019-07-18T22:14:57.070000Z</time>
      </trkpt>
      <trkpt lat="35.95293996" lon="120.21387012">
        <time>2019-07-18T22:15:01.122000Z</time>
      </trkpt>
      <trkpt lat="35.95285236" lon="120.21380168">
        <time>2019-07-18T22:15:05.071000Z</time>
      </trkpt>
      <trkpt lat="35.95281619" lon="120.21368284">
        <time>2019-07-18T22:15:09.070000Z</time>
      </trkpt>
      <trkpt lat="35.95278546" lon="120.21355305">
        <time>2019-07-18T22:15:13.069000Z</time>
      </trkpt>
      <trkpt lat="35.95275914" lon="120.21341655">
        <time>2019-07-18T22:15:17.067000Z</time>
      </trkpt>
      <trkpt lat="35.95273727" lon="120.2132871">
        <time>2019-07-18T22:15:21.065000Z</time>
      </trkpt>
      <trkpt lat="35.95270615" lon="120.21317093">
        <time>2019-07-18T22:15:25.071000Z</time>
      </trkpt>
      <trkpt lat="35.95267817" lon="120.21304974">
        <time>2019-07-18T22:15:29.069000Z</time>
      </trkpt>
      <trkpt lat="35.95265833" lon="120.21292329">
        <time>2019-07-18T22:15:33.059000Z</time>
      </trkpt>
      <trkpt lat="35.95261774" lon="120.21280742">
        <time>2019-07-18T22:15:38.500000Z</time>
      </trkpt>
      <trkpt lat="35.95258819" lon="120.21268075">
        <time>2019-07-18T22:15:41.067000Z</time>
      </trkpt>
      <trkpt lat="35.95256812" lon="120.21254945">
        <time>2019-07-18T22:15:45.077000Z</time>
      </trkpt>
      <trkpt lat="35.9525356" lon="120.21242443">
        <time>2019-07-18T22:15:49.072000Z</time>
      </trkpt>
      <trkpt lat="35.95250368" lon="120.21231226">
        <time>2019-07-18T22:15:53.065000Z</time>
      </trkpt>
      <trkpt lat="35.9524857" lon="120.21217317">
        <time>2019-07-18T22:15:57.072000Z</time>
      </trkpt>
      <trkpt lat="35.95248397" lon="120.21203686">
        <time>2019-07-18T22:16:01.067000Z</time>
      </trkpt>
      <trkpt lat="35.95244472" lon="120.21190116">
        <time>2019-07-18T22:16:05.067000Z</time>
      </trkpt>
      <trkpt lat="35.95241273" lon="120.21176412">
        <time>2019-07-18T22:16:09.072000Z</time>
      </trkpt>
      <trkpt lat="35.95239748" lon="120.21165382">
        <time>2019-07-18T22:16:12.049000Z</time>
      </trkpt>
      <trkpt lat="35.952376" lon="120.21154577">
        <time>2019-07-18T22:16:15.061000Z</time>
      </trkpt>
      <trkpt lat="35.95234975" lon="120.2114115">
        <time>2019-07-18T22:16:19.061000Z</time>
      </trkpt>
      <trkpt lat="35.95232489" lon="120.21129582">
        <time>2019-07-18T22:16:23.070000Z</time>
      </trkpt>
      <trkpt lat="35.95229036" lon="120.21116838">
        <time>2019-07-18T22:16:27.067000Z</time>
      </trkpt>
      <trkpt lat="35.95226104" lon="120.21103127">
        <time>2019-07-18T22:16:31.108000Z</time>
      </trkpt>
      <trkpt lat="35.95222913" lon="120.21090669">
        <time>2019-07-18T22:16:35.069000Z</time>
      </trkpt>
      <trkpt lat="35.95219751" lon="120.21078397">
        <time>2019-07-18T22:16:39.069000Z</time>
      </trkpt>
      <trkpt lat="35.95216577" lon="120.2106476">
        <time>2019-07-18T22:16:43.068000Z</time>
      </trkpt>
      <trkpt lat="35.95213041" lon="120.21051513">
        <time>2019-07-18T22:16:47.073000Z</time>
      </trkpt>
      <trkpt lat="35.95211022" lon="120.21039958">
        <time>2019-07-18T22:16:51.073000Z</time>
      </trkpt>
      <trkpt lat="35.95211022" lon="120.21039958">
        <time>2019-07-18T22:17:25.069000Z</time>
      </trkpt>
      <trkpt lat="35.95195978" lon="120.21040962">
        <time>2019-07-18T22:17:25.091000Z</time>
      </trkpt>
      <trkpt lat="35.95185193" lon="120.21045608">
        <time>2019-07-18T22:17:29.079000Z</time>
      </trkpt>
      <trkpt lat="35.95176476" lon="120.21049269">
        <time>2019-07-18T22:17:33.069000Z</time>
      </trkpt>
      <trkpt lat="35.9516552" lon="120.21054768">
        <time>2019-07-18T22:17:39.071000Z</time>
      </trkpt>
      <trkpt lat="35.95154294" lon="120.21056626">
        <time>2019-07-18T22:17:43.071000Z</time>
      </trkpt>
      <trkpt lat="35.95143377" lon="120.21059244">
        <time>2019-07-18T22:17:47.071000Z</time>
      </trkpt>
      <trkpt lat="35.95133465" lon="120.21061177">
        <time>2019-07-18T22:17:51.071000Z</time>
      </trkpt>
      <trkpt lat="35.95121079" lon="120.21062571">
        <time>2019-07-18T22:17:55.065000Z</time>
      </trkpt>
      <trkpt lat="35.95111052" lon="120.21064951">
        <time>2019-07-18T22:17:58.056000Z</time>
      </trkpt>
      <trkpt lat="35.95100873" lon="120.21066945">
        <time>2019-07-18T22:18:02.066000Z</time>
      </trkpt>
      <trkpt lat="35.95091817" lon="120.21068611">
        <time>2019-07-18T22:18:07.066000Z</time>
      </trkpt>
      <trkpt lat="35.95082034" lon="120.21073356">
        <time>2019-07-18T22:18:11.056000Z</time>
      </trkpt>
      <trkpt lat="35.9507199" lon="120.21075699">
        <time>2019-07-18T22:18:15.060000Z</time>
      </trkpt>
      <trkpt lat="35.95061955" lon="120.21077689">
        <time>2019-07-18T22:18:18.065000Z</time>
      </trkpt>
      <trkpt lat="35.95052948" lon="120.21082462">
        <time>2019-07-18T22:18:21.075000Z</time>
      </trkpt>
      <trkpt lat="35.95043825" lon="120.21089202">
        <time>2019-07-18T22:18:24.056000Z</time>
      </trkpt>
      <trkpt lat="35.95032976" lon="120.2109418">
        <time>2019-07-18T22:18:28.065000Z</time>
      </trkpt>
      <trkpt lat="35.9502354" lon="120.21093533">
        <time>2019-07-18T22:18:31.060000Z</time>
      </trkpt>
      <trkpt lat="35.95011692" lon="120.21094933">
        <time>2019-07-18T22:18:35.069000Z</time>
      </trkpt>
      <trkpt lat="35.95002607" lon="120.21097998">
        <time>2019-07-18T22:18:38.051000Z</time>
      </trkpt>
      <trkpt lat="35.94993207" lon="120.21098776">
        <time>2019-07-18T22:18:41.112000Z</time>
      </trkpt>
      <trkpt lat="35.94984623" lon="120.21103968">
        <time>2019-07-18T22:18:48.066000Z</time>
      </trkpt>
      <trkpt lat="35.94975605" lon="120.21107012">
        <time>2019-07-18T22:18:52.074000Z</time>
      </trkpt>
      <trkpt lat="35.94966095" lon="120.21108703">
        <time>2019-07-18T22:18:55.057000Z</time>
      </trkpt>
      <trkpt lat="35.9495699" lon="120.21111165">
        <time>2019-07-18T22:18:59.073000Z</time>
      </trkpt>
      <trkpt lat="35.9495699" lon="120.21111165">
        <time>2019-07-18T22:19:05.065000Z</time>
      </trkpt>
      <trkpt lat="35.94947163" lon="120.21110324">
        <time>2019-07-18T22:19:08.067000Z</time>
      </trkpt>
      <trkpt lat="35.94938269" lon="120.21112069">
        <time>2019-07-18T22:19:13.065000Z</time>
      </trkpt>
      <trkpt lat="35.94929093" lon="120.21117394">
        <time>2019-07-18T22:19:19.064000Z</time>
      </trkpt>
      <trkpt lat="35.94929093" lon="120.21117394">
        <time>2019-07-18T22:19:22.074000Z</time>
      </trkpt>
      <trkpt lat="35.94919113" lon="120.21117685">
        <time>2019-07-18T22:19:23.075000Z</time>
      </trkpt>
      <trkpt lat="35.9490841" lon="120.21118632">
        <time>2019-07-18T22:19:26.104000Z</time>
      </trkpt>
      <trkpt lat="35.94896103" lon="120.21120811">
        <time>2019-07-18T22:19:29.057000Z</time>
      </trkpt>
      <trkpt lat="35.94886355" lon="120.21123368">
        <time>2019-07-18T22:19:32.075000Z</time>
      </trkpt>
      <trkpt lat="35.94876835" lon="120.21126646">
        <time>2019-07-18T22:19:35.064000Z</time>
      </trkpt>
      <trkpt lat="35.948677" lon="120.21128993">
        <time>2019-07-18T22:19:38.103000Z</time>
      </trkpt>
      <trkpt lat="35.94856484" lon="120.21130026">
        <time>2019-07-18T22:19:42.079000Z</time>
      </trkpt>
      <trkpt lat="35.94845335" lon="120.21131768">
        <time>2019-07-18T22:19:47.063000Z</time>
      </trkpt>
      <trkpt lat="35.948352" lon="120.21134899">
        <time>2019-07-18T22:19:53.066000Z</time>
      </trkpt>
      <trkpt lat="35.9482635" lon="120.21138105">
        <time>2019-07-18T22:19:58.120000Z</time>
      </trkpt>
      <trkpt lat="35.94815213" lon="120.21137692">
        <time>2019-07-18T22:20:03.063000Z</time>
      </trkpt>
      <trkpt lat="35.94805414" lon="120.21141676">
        <time>2019-07-18T22:20:08.066000Z</time>
      </trkpt>
      <trkpt lat="35.94795487" lon="120.21147144">
        <time>2019-07-18T22:20:13.076000Z</time>
      </trkpt>
      <trkpt lat="35.94786592" lon="120.21149764">
        <time>2019-07-18T22:20:17.062000Z</time>
      </trkpt>
      <trkpt lat="35.94777351" lon="120.21150673">
        <time>2019-07-18T22:20:21.066000Z</time>
      </trkpt>
      <trkpt lat="35.94777351" lon="120.21150673">
        <time>2019-07-18T22:20:27.074000Z</time>
      </trkpt>
      <trkpt lat="35.94767968" lon="120.21150495">
        <time>2019-07-18T22:20:27.154000Z</time>
      </trkpt>
      <trkpt lat="35.94758892" lon="120.2115565">
        <time>2019-07-18T22:20:35.077000Z</time>
      </trkpt>
      <trkpt lat="35.94749517" lon="120.21157144">
        <time>2019-07-18T22:20:42.073000Z</time>
      </trkpt>
      <trkpt lat="35.94738439" lon="120.21157689">
        <time>2019-07-18T22:20:49.216000Z</time>
      </trkpt>
      <trkpt lat="35.94738439" lon="120.21157689">
        <time>2019-07-18T22:20:50.070000Z</time>
      </trkpt>
      <trkpt lat="35.94728463" lon="120.21160143">
        <time>2019-07-18T22:20:52.070000Z</time>
      </trkpt>
      <trkpt lat="35.94719698" lon="120.21162614">
        <time>2019-07-18T22:20:55.083000Z</time>
      </trkpt>
      <trkpt lat="35.94710363" lon="120.21164133">
        <time>2019-07-18T22:20:58.066000Z</time>
      </trkpt>
      <trkpt lat="35.9469958" lon="120.21167483">
        <time>2019-07-18T22:21:02.076000Z</time>
      </trkpt>
      <trkpt lat="35.94688165" lon="120.21170583">
        <time>2019-07-18T22:21:06.057000Z</time>
      </trkpt>
      <trkpt lat="35.94677672" lon="120.21173683">
        <time>2019-07-18T22:21:10.076000Z</time>
      </trkpt>
      <trkpt lat="35.94667979" lon="120.21177581">
        <time>2019-07-18T22:21:14.056000Z</time>
      </trkpt>
      <trkpt lat="35.94657581" lon="120.21180619">
        <time>2019-07-18T22:21:18.085000Z</time>
      </trkpt>
      <trkpt lat="35.94646274" lon="120.21183917">
        <time>2019-07-18T22:21:22.067000Z</time>
      </trkpt>
      <trkpt lat="35.94637382" lon="120.21187387">
        <time>2019-07-18T22:21:25.081000Z</time>
      </trkpt>
      <trkpt lat="35.94626262" lon="120.21190582">
        <time>2019-07-18T22:21:29.063000Z</time>
      </trkpt>
      <trkpt lat="35.94616477" lon="120.21194639">
        <time>2019-07-18T22:21:33.056000Z</time>
      </trkpt>
      <trkpt lat="35.94605265" lon="120.21198908">
        <time>2019-07-18T22:21:37.064000Z</time>
      </trkpt>
      <trkpt lat="35.94594943" lon="120.2120446">
        <time>2019-07-18T22:21:41.076000Z</time>
      </trkpt>
      <trkpt lat="35.94584911" lon="120.21206565">
        <time>2019-07-18T22:21:47.066000Z</time>
      </trkpt>
      <trkpt lat="35.94584911" lon="120.21206565">
        <time>2019-07-18T22:21:53.274000Z</time>
      </trkpt>
      <trkpt lat="35.94576036" lon="120.2121041">
        <time>2019-07-18T22:21:54.097000Z</time>
      </trkpt>
      <trkpt lat="35.94566515" lon="120.21212222">
        <time>2019-07-18T22:22:02.065000Z</time>
      </trkpt>
      <trkpt lat="35.94557266" lon="120.21215087">
        <time>2019-07-18T22:22:10.117000Z</time>
      </trkpt>
      <trkpt lat="35.94547877" lon="120.21220054">
        <time>2019-07-18T22:22:17.067000Z</time>
      </trkpt>
      <trkpt lat="35.94538546" lon="120.21224006">
        <time>2019-07-18T22:22:24.066000Z</time>
      </trkpt>
      <trkpt lat="35.94527042" lon="120.21229406">
        <time>2019-07-18T22:22:29.064000Z</time>
      </trkpt>
      <trkpt lat="35.94527042" lon="120.21229406">
        <time>2019-07-18T22:22:31.073000Z</time>
      </trkpt>
      <trkpt lat="35.94517937" lon="120.21234699">
        <time>2019-07-18T22:22:32.053000Z</time>
      </trkpt>
      <trkpt lat="35.94509289" lon="120.212399">
        <time>2019-07-18T22:22:35.074000Z</time>
      </trkpt>
      <trkpt lat="35.94498356" lon="120.21245116">
        <time>2019-07-18T22:22:39.066000Z</time>
      </trkpt>
      <trkpt lat="35.94486893" lon="120.21249297">
        <time>2019-07-18T22:22:43.060000Z</time>
      </trkpt>
      <trkpt lat="35.94476384" lon="120.21253311">
        <time>2019-07-18T22:22:47.074000Z</time>
      </trkpt>
      <trkpt lat="35.94467309" lon="120.21258389">
        <time>2019-07-18T22:22:51.057000Z</time>
      </trkpt>
      <trkpt lat="35.94458136" lon="120.21262439">
        <time>2019-07-18T22:22:55.078000Z</time>
      </trkpt>
      <trkpt lat="35.94448821" lon="120.21267807">
        <time>2019-07-18T22:22:59.075000Z</time>
      </trkpt>
      <trkpt lat="35.94439385" lon="120.21272839">
        <time>2019-07-18T22:23:03.069000Z</time>
      </trkpt>
      <trkpt lat="35.94429863" lon="120.21279199">
        <time>2019-07-18T22:23:07.065000Z</time>
      </trkpt>
      <trkpt lat="35.94422268" lon="120.21285223">
        <time>2019-07-18T22:23:11.061000Z</time>
      </trkpt>
      <trkpt lat="35.94413039" lon="120.21290831">
        <time>2019-07-18T22:23:15.066000Z</time>
      </trkpt>
      <trkpt lat="35.94403763" lon="120.21295954">
        <time>2019-07-18T22:23:19.077000Z</time>
      </trkpt>
      <trkpt lat="35.94394006" lon="120.21300873">
        <time>2019-07-18T22:23:23.074000Z</time>
      </trkpt>
      <trkpt lat="35.94385096" lon="120.21304138">
        <time>2019-07-18T22:23:30.058000Z</time>
      </trkpt>
      <trkpt lat="35.94385096" lon="120.21304138">
        <time>2019-07-18T22:23:34.396000Z</time>
      </trkpt>
      <trkpt lat="35.9437775" lon="120.21295373">
        <time>2019-07-18T22:23:38.075000Z</time>
      </trkpt>
      <trkpt lat="35.94371412" lon="120.21284096">
        <time>2019-07-18T22:23:44.073000Z</time>
      </trkpt>
      <trkpt lat="35.94364719" lon="120.21275085">
        <time>2019-07-18T22:23:47.063000Z</time>
      </trkpt>
      <trkpt lat="35.94358702" lon="120.2126629">
        <time>2019-07-18T22:23:50.063000Z</time>
      </trkpt>
      <trkpt lat="35.94357148" lon="120.21253803">
        <time>2019-07-18T22:23:54.064000Z</time>
      </trkpt>
      <trkpt lat="35.94349179" lon="120.21243877">
        <time>2019-07-18T22:23:58.052000Z</time>
      </trkpt>
      <trkpt lat="35.94342864" lon="120.21233543">
        <time>2019-07-18T22:24:02.060000Z</time>
      </trkpt>
      <trkpt lat="35.94342864" lon="120.21233543">
        <time>2019-07-18T22:24:05.085000Z</time>
      </trkpt>
      <trkpt lat="35.94336884" lon="120.21223943">
        <time>2019-07-18T22:24:06.080000Z</time>
      </trkpt>
      <trkpt lat="35.94331364" lon="120.2121309">
        <time>2019-07-18T22:24:10.061000Z</time>
      </trkpt>
      <trkpt lat="35.9432455" lon="120.21203368">
        <time>2019-07-18T22:24:14.077000Z</time>
      </trkpt>
      <trkpt lat="35.9431768" lon="120.21192726">
        <time>2019-07-18T22:24:19.069000Z</time>
      </trkpt>
      <trkpt lat="35.94311952" lon="120.21183219">
        <time>2019-07-18T22:24:24.066000Z</time>
      </trkpt>
      <trkpt lat="35.94308866" lon="120.21172717">
        <time>2019-07-18T22:24:28.070000Z</time>
      </trkpt>
      <trkpt lat="35.94304239" lon="120.21160222">
        <time>2019-07-18T22:24:33.070000Z</time>
      </trkpt>
      <trkpt lat="35.94297121" lon="120.2115028">
        <time>2019-07-18T22:24:37.054000Z</time>
      </trkpt>
      <trkpt lat="35.94291003" lon="120.21142004">
        <time>2019-07-18T22:24:40.080000Z</time>
      </trkpt>
      <trkpt lat="35.94284764" lon="120.21133963">
        <time>2019-07-18T22:24:43.070000Z</time>
      </trkpt>
      <trkpt lat="35.9427786" lon="120.21122766">
        <time>2019-07-18T22:24:47.053000Z</time>
      </trkpt>
      <trkpt lat="35.94270278" lon="120.21112763">
        <time>2019-07-18T22:24:51.080000Z</time>
      </trkpt>
      <trkpt lat="35.94264715" lon="120.2110334">
        <time>2019-07-18T22:24:55.081000Z</time>
      </trkpt>
      <trkpt lat="35.94259099" lon="120.21093505">
        <time>2019-07-18T22:24:59.063000Z</time>
      </trkpt>
      <trkpt lat="35.94252873" lon="120.21085014">
        <time>2019-07-18T22:25:03.073000Z</time>
      </trkpt>
      <trkpt lat="35.94244781" lon="120.21075132">
        <time>2019-07-18T22:25:08.056000Z</time>
      </trkpt>
      <trkpt lat="35.9423923" lon="120.21063989">
        <time>2019-07-18T22:25:12.096000Z</time>
      </trkpt>
      <trkpt lat="35.9423358" lon="120.21052403">
        <time>2019-07-18T22:25:16.078000Z</time>
      </trkpt>
      <trkpt lat="35.94227126" lon="120.21042409">
        <time>2019-07-18T22:25:20.073000Z</time>
      </trkpt>
      <trkpt lat="35.94220202" lon="120.21031828">
        <time>2019-07-18T22:25:24.077000Z</time>
      </trkpt>
      <trkpt lat="35.94213635" lon="120.21021525">
        <time>2019-07-18T22:25:29.056000Z</time>
      </trkpt>
      <trkpt lat="35.94209592" lon="120.21010288">
        <time>2019-07-18T22:25:33.075000Z</time>
      </trkpt>
      <trkpt lat="35.94204186" lon="120.20999607">
        <time>2019-07-18T22:25:37.063000Z</time>
      </trkpt>
      <trkpt lat="35.9419942" lon="120.20988328">
        <time>2019-07-18T22:25:41.074000Z</time>
      </trkpt>
      <trkpt lat="35.94193524" lon="120.20977487">
        <time>2019-07-18T22:25:45.078000Z</time>
      </trkpt>
      <trkpt lat="35.94186481" lon="120.20968407">
        <time>2019-07-18T22:25:49.056000Z</time>
      </trkpt>
      <trkpt lat="35.94178686" lon="120.20959463">
        <time>2019-07-18T22:25:53.055000Z</time>
      </trkpt>
      <trkpt lat="35.9417382" lon="120.20950107">
        <time>2019-07-18T22:25:57.076000Z</time>
      </trkpt>
      <trkpt lat="35.9417382" lon="120.20950107">
        <time>2019-07-18T22:26:00.713000Z</time>
      </trkpt>
      <trkpt lat="35.94171283" lon="120.20938453">
        <time>2019-07-18T22:26:04.066000Z</time>
      </trkpt>
      <trkpt lat="35.94177631" lon="120.20930179">
        <time>2019-07-18T22:26:12.056000Z</time>
      </trkpt>
      <trkpt lat="35.94177631" lon="120.20930179">
        <time>2019-07-18T22:28:33.051000Z</time>
      </trkpt>
      <trkpt lat="35.94190708" lon="120.20925928">
        <time>2019-07-18T22:28:33.062000Z</time>
      </trkpt>
      <trkpt lat="35.94200314" lon="120.20924378">
        <time>2019-07-18T22:28:37.060000Z</time>
      </trkpt>
      <trkpt lat="35.94210765" lon="120.20921763">
        <time>2019-07-18T22:28:41.061000Z</time>
      </trkpt>
      <trkpt lat="35.94210765" lon="120.20921763">
        <time>2019-07-18T22:28:42.873000Z</time>
      </trkpt>
      <trkpt lat="35.94220319" lon="120.20918101">
        <time>2019-07-18T22:28:45.078000Z</time>
      </trkpt>
      <trkpt lat="35.94229689" lon="120.20914699">
        <time>2019-07-18T22:28:49.078000Z</time>
      </trkpt>
      <trkpt lat="35.9423823" lon="120.20910421">
        <time>2019-07-18T22:28:53.074000Z</time>
      </trkpt>
      <trkpt lat="35.94247488" lon="120.20904255">
        <time>2019-07-18T22:28:58.071000Z</time>
      </trkpt>
      <trkpt lat="35.94256873" lon="120.20898975">
        <time>2019-07-18T22:29:03.069000Z</time>
      </trkpt>
      <trkpt lat="35.9426683" lon="120.20894707">
        <time>2019-07-18T22:29:09.063000Z</time>
      </trkpt>
      <trkpt lat="35.94275927" lon="120.20892158">
        <time>2019-07-18T22:29:13.069000Z</time>
      </trkpt>
      <trkpt lat="35.94285004" lon="120.20891144">
        <time>2019-07-18T22:29:18.064000Z</time>
      </trkpt>
      <trkpt lat="35.94294589" lon="120.20891825">
        <time>2019-07-18T22:29:22.073000Z</time>
      </trkpt>
      <trkpt lat="35.94306137" lon="120.20890694">
        <time>2019-07-18T22:29:27.069000Z</time>
      </trkpt>
      <trkpt lat="35.94317486" lon="120.20888819">
        <time>2019-07-18T22:29:31.068000Z</time>
      </trkpt>
      <trkpt lat="35.94327501" lon="120.20885645">
        <time>2019-07-18T22:29:35.082000Z</time>
      </trkpt>
      <trkpt lat="35.94337514" lon="120.20882">
        <time>2019-07-18T22:29:39.068000Z</time>
      </trkpt>
      <trkpt lat="35.94347243" lon="120.2087843">
        <time>2019-07-18T22:29:43.063000Z</time>
      </trkpt>
      <trkpt lat="35.94358097" lon="120.20879476">
        <time>2019-07-18T22:29:47.063000Z</time>
      </trkpt>
      <trkpt lat="35.94368606" lon="120.20877518">
        <time>2019-07-18T22:29:51.061000Z</time>
      </trkpt>
      <trkpt lat="35.94378959" lon="120.20877508">
        <time>2019-07-18T22:29:55.064000Z</time>
      </trkpt>
      <trkpt lat="35.94389248" lon="120.2087966">
        <time>2019-07-18T22:29:59.072000Z</time>
      </trkpt>
      <trkpt lat="35.94399029" lon="120.20882518">
        <time>2019-07-18T22:30:03.059000Z</time>
      </trkpt>
      <trkpt lat="35.94409762" lon="120.20886227">
        <time>2019-07-18T22:30:07.066000Z</time>
      </trkpt>
      <trkpt lat="35.94418397" lon="120.20889402">
        <time>2019-07-18T22:30:10.067000Z</time>
      </trkpt>
      <trkpt lat="35.94427328" lon="120.20891273">
        <time>2019-07-18T22:30:13.071000Z</time>
      </trkpt>
      <trkpt lat="35.9443668" lon="120.20892464">
        <time>2019-07-18T22:30:16.068000Z</time>
      </trkpt>
      <trkpt lat="35.94447162" lon="120.20892168">
        <time>2019-07-18T22:30:20.069000Z</time>
      </trkpt>
      <trkpt lat="35.94457133" lon="120.20891586">
        <time>2019-07-18T22:30:24.075000Z</time>
      </trkpt>
      <trkpt lat="35.94467302" lon="120.20890267">
        <time>2019-07-18T22:30:28.097000Z</time>
      </trkpt>
      <trkpt lat="35.94476741" lon="120.20887718">
        <time>2019-07-18T22:30:32.071000Z</time>
      </trkpt>
      <trkpt lat="35.94486968" lon="120.20883934">
        <time>2019-07-18T22:30:36.070000Z</time>
      </trkpt>
      <trkpt lat="35.94497563" lon="120.20882359">
        <time>2019-07-18T22:30:40.060000Z</time>
      </trkpt>
      <trkpt lat="35.94506864" lon="120.20881091">
        <time>2019-07-18T22:30:44.068000Z</time>
      </trkpt>
      <trkpt lat="35.9451652" lon="120.2087953">
        <time>2019-07-18T22:30:48.056000Z</time>
      </trkpt>
      <trkpt lat="35.94526069" lon="120.20879059">
        <time>2019-07-18T22:30:52.069000Z</time>
      </trkpt>
      <trkpt lat="35.94535749" lon="120.20878509">
        <time>2019-07-18T22:30:56.077000Z</time>
      </trkpt>
      <trkpt lat="35.94546675" lon="120.20876931">
        <time>2019-07-18T22:31:00.120000Z</time>
      </trkpt>
      <trkpt lat="35.9455797" lon="120.20874696">
        <time>2019-07-18T22:31:04.072000Z</time>
      </trkpt>
      <trkpt lat="35.94568" lon="120.20876411">
        <time>2019-07-18T22:31:11.067000Z</time>
      </trkpt>
      <trkpt lat="35.94568" lon="120.20876411">
        <time>2019-07-18T22:31:13.080000Z</time>
      </trkpt>
      <trkpt lat="35.94578742" lon="120.20874241">
        <time>2019-07-18T22:31:16.069000Z</time>
      </trkpt>
      <trkpt lat="35.94589438" lon="120.20872587">
        <time>2019-07-18T22:31:20.074000Z</time>
      </trkpt>
      <trkpt lat="35.94589438" lon="120.20872587">
        <time>2019-07-18T22:31:23.069000Z</time>
      </trkpt>
      <trkpt lat="35.94599698" lon="120.20870137">
        <time>2019-07-18T22:31:24.077000Z</time>
      </trkpt>
      <trkpt lat="35.9460982" lon="120.2086854">
        <time>2019-07-18T22:31:28.068000Z</time>
      </trkpt>
      <trkpt lat="35.94620377" lon="120.2086725">
        <time>2019-07-18T22:31:32.069000Z</time>
      </trkpt>
      <trkpt lat="35.94631492" lon="120.20866078">
        <time>2019-07-18T22:31:36.075000Z</time>
      </trkpt>
      <trkpt lat="35.94641612" lon="120.20865247">
        <time>2019-07-18T22:31:40.067000Z</time>
      </trkpt>
      <trkpt lat="35.94651087" lon="120.20865535">
        <time>2019-07-18T22:31:46.067000Z</time>
      </trkpt>
      <trkpt lat="35.94662092" lon="120.20863367">
        <time>2019-07-18T22:31:51.082000Z</time>
      </trkpt>
      <trkpt lat="35.94672566" lon="120.20861452">
        <time>2019-07-18T22:31:55.060000Z</time>
      </trkpt>
      <trkpt lat="35.94683392" lon="120.20860389">
        <time>2019-07-18T22:31:59.058000Z</time>
      </trkpt>
      <trkpt lat="35.94693472" lon="120.20858883">
        <time>2019-07-18T22:32:03.075000Z</time>
      </trkpt>
      <trkpt lat="35.94703306" lon="120.20857048">
        <time>2019-07-18T22:32:07.056000Z</time>
      </trkpt>
      <trkpt lat="35.94708301" lon="120.208453">
        <time>2019-07-18T22:32:11.096000Z</time>
      </trkpt>
      <trkpt lat="35.94706588" lon="120.20831742">
        <time>2019-07-18T22:32:15.058000Z</time>
      </trkpt>
      <trkpt lat="35.94705258" lon="120.20818917">
        <time>2019-07-18T22:32:19.074000Z</time>
      </trkpt>
      <trkpt lat="35.94704766" lon="120.20806287">
        <time>2019-07-18T22:32:23.067000Z</time>
      </trkpt>
      <trkpt lat="35.9470326" lon="120.20793917">
        <time>2019-07-18T22:32:27.071000Z</time>
      </trkpt>
      <trkpt lat="35.94700872" lon="120.20781395">
        <time>2019-07-18T22:32:31.129000Z</time>
      </trkpt>
      <trkpt lat="35.94699218" lon="120.2076927">
        <time>2019-07-18T22:32:35.084000Z</time>
      </trkpt>
      <trkpt lat="35.94697372" lon="120.20756779">
        <time>2019-07-18T22:32:39.072000Z</time>
      </trkpt>
      <trkpt lat="35.94696586" lon="120.20743652">
        <time>2019-07-18T22:32:43.076000Z</time>
      </trkpt>
      <trkpt lat="35.94695389" lon="120.20729964">
        <time>2019-07-18T22:32:47.068000Z</time>
      </trkpt>
      <trkpt lat="35.94695226" lon="120.20716141">
        <time>2019-07-18T22:32:51.068000Z</time>
      </trkpt>
      <trkpt lat="35.94698792" lon="120.20705862">
        <time>2019-07-18T22:32:54.075000Z</time>
      </trkpt>
      <trkpt lat="35.94704915" lon="120.20694012">
        <time>2019-07-18T22:32:58.074000Z</time>
      </trkpt>
      <trkpt lat="35.94710097" lon="120.2068155">
        <time>2019-07-18T22:33:02.074000Z</time>
      </trkpt>
      <trkpt lat="35.94714363" lon="120.20669293">
        <time>2019-07-18T22:33:06.067000Z</time>
      </trkpt>
      <trkpt lat="35.94718693" lon="120.20658423">
        <time>2019-07-18T22:33:10.114000Z</time>
      </trkpt>
      <trkpt lat="35.94725339" lon="120.20649755">
        <time>2019-07-18T22:33:14.058000Z</time>
      </trkpt>
      <trkpt lat="35.94731512" lon="120.20639047">
        <time>2019-07-18T22:33:18.069000Z</time>
      </trkpt>
      <trkpt lat="35.94737806" lon="120.20627837">
        <time>2019-07-18T22:33:22.067000Z</time>
      </trkpt>
      <trkpt lat="35.94741659" lon="120.20614188">
        <time>2019-07-18T22:33:26.072000Z</time>
      </trkpt>
      <trkpt lat="35.94745553" lon="120.20600911">
        <time>2019-07-18T22:33:30.073000Z</time>
      </trkpt>
      <trkpt lat="35.94750096" lon="120.20588013">
        <time>2019-07-18T22:33:34.075000Z</time>
      </trkpt>
      <trkpt lat="35.94755497" lon="120.20577128">
        <time>2019-07-18T22:33:38.066000Z</time>
      </trkpt>
      <trkpt lat="35.94760857" lon="120.20566392">
        <time>2019-07-18T22:33:42.069000Z</time>
      </trkpt>
      <trkpt lat="35.94765859" lon="120.20554557">
        <time>2019-07-18T22:33:46.067000Z</time>
      </trkpt>
      <trkpt lat="35.94770727" lon="120.20542358">
        <time>2019-07-18T22:33:50.070000Z</time>
      </trkpt>
      <trkpt lat="35.94774839" lon="120.20529712">
        <time>2019-07-18T22:33:54.064000Z</time>
      </trkpt>
      <trkpt lat="35.94779051" lon="120.20516672">
        <time>2019-07-18T22:33:58.111000Z</time>
      </trkpt>
      <trkpt lat="35.94783503" lon="120.20504236">
        <time>2019-07-18T22:34:02.073000Z</time>
      </trkpt>
      <trkpt lat="35.94789649" lon="120.20493202">
        <time>2019-07-18T22:34:06.068000Z</time>
      </trkpt>
      <trkpt lat="35.94790379" lon="120.20479626">
        <time>2019-07-18T22:34:10.065000Z</time>
      </trkpt>
      <trkpt lat="35.94791233" lon="120.2046808">
        <time>2019-07-18T22:34:14.052000Z</time>
      </trkpt>
      <trkpt lat="35.94791368" lon="120.2045575">
        <time>2019-07-18T22:34:18.134000Z</time>
      </trkpt>
      <trkpt lat="35.94789175" lon="120.20444509">
        <time>2019-07-18T22:34:22.051000Z</time>
      </trkpt>
      <trkpt lat="35.94789175" lon="120.20444509">
        <time>2019-07-18T22:34:49.053000Z</time>
      </trkpt>
      <trkpt lat="35.94787888" lon="120.204279">
        <time>2019-07-18T22:34:49.062000Z</time>
      </trkpt>
      <trkpt lat="35.94792927" lon="120.20417797">
        <time>2019-07-18T22:34:58.081000Z</time>
      </trkpt>
      <trkpt lat="35.94792927" lon="120.20417797">
        <time>2019-07-18T22:35:01.072000Z</time>
      </trkpt>
      <trkpt lat="35.94802045" lon="120.20424003">
        <time>2019-07-18T22:35:03.070000Z</time>
      </trkpt>
      <trkpt lat="35.94810144" lon="120.20431265">
        <time>2019-07-18T22:35:07.089000Z</time>
      </trkpt>
      <trkpt lat="35.94818427" lon="120.20438306">
        <time>2019-07-18T22:35:11.069000Z</time>
      </trkpt>
      <trkpt lat="35.9482686" lon="120.20445363">
        <time>2019-07-18T22:35:15.074000Z</time>
      </trkpt>
      <trkpt lat="35.94835083" lon="120.20452968">
        <time>2019-07-18T22:35:19.076000Z</time>
      </trkpt>
      <trkpt lat="35.94842767" lon="120.20461387">
        <time>2019-07-18T22:35:23.068000Z</time>
      </trkpt>
      <trkpt lat="35.94849798" lon="120.20471267">
        <time>2019-07-18T22:35:27.071000Z</time>
      </trkpt>
      <trkpt lat="35.94857005" lon="120.20477896">
        <time>2019-07-18T22:35:30.073000Z</time>
      </trkpt>
      <trkpt lat="35.94865709" lon="120.20486877">
        <time>2019-07-18T22:35:34.089000Z</time>
      </trkpt>
      <trkpt lat="35.94874964" lon="120.20494579">
        <time>2019-07-18T22:35:38.074000Z</time>
      </trkpt>
      <trkpt lat="35.94883494" lon="120.2050445">
        <time>2019-07-18T22:35:42.075000Z</time>
      </trkpt>
      <trkpt lat="35.94891421" lon="120.20513884">
        <time>2019-07-18T22:35:46.079000Z</time>
      </trkpt>
      <trkpt lat="35.94898815" lon="120.20523378">
        <time>2019-07-18T22:35:50.063000Z</time>
      </trkpt>
      <trkpt lat="35.94906627" lon="120.2053266">
        <time>2019-07-18T22:35:54.081000Z</time>
      </trkpt>
      <trkpt lat="35.94914812" lon="120.20542121">
        <time>2019-07-18T22:35:58.119000Z</time>
      </trkpt>
      <trkpt lat="35.94924501" lon="120.20550981">
        <time>2019-07-18T22:36:02.056000Z</time>
      </trkpt>
      <trkpt lat="35.94931745" lon="120.20558195">
        <time>2019-07-18T22:36:05.074000Z</time>
      </trkpt>
      <trkpt lat="35.9493883" lon="120.20565084">
        <time>2019-07-18T22:36:08.052000Z</time>
      </trkpt>
      <trkpt lat="35.94945679" lon="120.20572595">
        <time>2019-07-18T22:36:11.117000Z</time>
      </trkpt>
      <trkpt lat="35.949553" lon="120.20581188">
        <time>2019-07-18T22:36:15.053000Z</time>
      </trkpt>
      <trkpt lat="35.94964611" lon="120.20589331">
        <time>2019-07-18T22:36:19.066000Z</time>
      </trkpt>
      <trkpt lat="35.94971156" lon="120.20598232">
        <time>2019-07-18T22:36:26.100000Z</time>
      </trkpt>
      <trkpt lat="35.94971156" lon="120.20598232">
        <time>2019-07-18T22:36:26.768000Z</time>
      </trkpt>
      <trkpt lat="35.94980499" lon="120.20601563">
        <time>2019-07-18T22:36:33.070000Z</time>
      </trkpt>
      <trkpt lat="35.94990055" lon="120.20594133">
        <time>2019-07-18T22:36:38.067000Z</time>
      </trkpt>
      <trkpt lat="35.94990055" lon="120.20594133">
        <time>2019-07-18T22:36:38.376000Z</time>
      </trkpt>
      <trkpt lat="35.9499895" lon="120.20586879">
        <time>2019-07-18T22:36:42.066000Z</time>
      </trkpt>
      <trkpt lat="35.95007989" lon="120.20581249">
        <time>2019-07-18T22:36:46.072000Z</time>
      </trkpt>
      <trkpt lat="35.95018231" lon="120.20577199">
        <time>2019-07-18T22:36:50.073000Z</time>
      </trkpt>
      <trkpt lat="35.95027984" lon="120.2057351">
        <time>2019-07-18T22:36:54.054000Z</time>
      </trkpt>
      <trkpt lat="35.95038079" lon="120.20570036">
        <time>2019-07-18T22:36:58.062000Z</time>
      </trkpt>
      <trkpt lat="35.95048554" lon="120.20566483">
        <time>2019-07-18T22:37:02.076000Z</time>
      </trkpt>
      <trkpt lat="35.95058142" lon="120.20558528">
        <time>2019-07-18T22:37:06.054000Z</time>
      </trkpt>
      <trkpt lat="35.95065788" lon="120.20549352">
        <time>2019-07-18T22:37:10.063000Z</time>
      </trkpt>
      <trkpt lat="35.95065669" lon="120.20536001">
        <time>2019-07-18T22:37:14.080000Z</time>
      </trkpt>
      <trkpt lat="35.95064066" lon="120.20522785">
        <time>2019-07-18T22:37:18.099000Z</time>
      </trkpt>
      <trkpt lat="35.95061303" lon="120.20509475">
        <time>2019-07-18T22:37:22.060000Z</time>
      </trkpt>
      <trkpt lat="35.95059296" lon="120.20497767">
        <time>2019-07-18T22:37:26.069000Z</time>
      </trkpt>
      <trkpt lat="35.95056863" lon="120.20486796">
        <time>2019-07-18T22:37:31.061000Z</time>
      </trkpt>
      <trkpt lat="35.95064227" lon="120.20479895">
        <time>2019-07-18T22:37:36.076000Z</time>
      </trkpt>
      <trkpt lat="35.9507432" lon="120.20477403">
        <time>2019-07-18T22:37:40.077000Z</time>
      </trkpt>
      <trkpt lat="35.95083083" lon="120.20471328">
        <time>2019-07-18T22:37:44.067000Z</time>
      </trkpt>
      <trkpt lat="35.95090554" lon="120.20462635">
        <time>2019-07-18T22:37:48.141000Z</time>
      </trkpt>
      <trkpt lat="35.95098687" lon="120.20456039">
        <time>2019-07-18T22:37:52.095000Z</time>
      </trkpt>
      <trkpt lat="35.95107612" lon="120.20450402">
        <time>2019-07-18T22:37:56.079000Z</time>
      </trkpt>
      <trkpt lat="35.9511798" lon="120.20446711">
        <time>2019-07-18T22:38:00.075000Z</time>
      </trkpt>
      <trkpt lat="35.95128251" lon="120.20445334">
        <time>2019-07-18T22:38:04.056000Z</time>
      </trkpt>
      <trkpt lat="35.95138807" lon="120.20444829">
        <time>2019-07-18T22:38:08.058000Z</time>
      </trkpt>
      <trkpt lat="35.95149674" lon="120.20443043">
        <time>2019-07-18T22:38:12.068000Z</time>
      </trkpt>
      <trkpt lat="35.95161135" lon="120.20441509">
        <time>2019-07-18T22:38:16.065000Z</time>
      </trkpt>
      <trkpt lat="35.95171616" lon="120.20440202">
        <time>2019-07-18T22:38:20.069000Z</time>
      </trkpt>
      <trkpt lat="35.95182005" lon="120.20439177">
        <time>2019-07-18T22:38:24.086000Z</time>
      </trkpt>
      <trkpt lat="35.9519173" lon="120.20438121">
        <time>2019-07-18T22:38:28.287000Z</time>
      </trkpt>
      <trkpt lat="35.95201238" lon="120.20433085">
        <time>2019-07-18T22:38:32.061000Z</time>
      </trkpt>
      <trkpt lat="35.95210879" lon="120.20431016">
        <time>2019-07-18T22:38:36.061000Z</time>
      </trkpt>
      <trkpt lat="35.9522067" lon="120.2043016">
        <time>2019-07-18T22:38:40.068000Z</time>
      </trkpt>
      <trkpt lat="35.952319" lon="120.2042943">
        <time>2019-07-18T22:38:44.074000Z</time>
      </trkpt>
      <trkpt lat="35.95242829" lon="120.20427181">
        <time>2019-07-18T22:38:48.076000Z</time>
      </trkpt>
      <trkpt lat="35.95253535" lon="120.2042482">
        <time>2019-07-18T22:38:52.098000Z</time>
      </trkpt>
      <trkpt lat="35.95264398" lon="120.20423068">
        <time>2019-07-18T22:38:56.065000Z</time>
      </trkpt>
      <trkpt lat="35.95275155" lon="120.20423299">
        <time>2019-07-18T22:39:00.067000Z</time>
      </trkpt>
      <trkpt lat="35.95285703" lon="120.20422718">
        <time>2019-07-18T22:39:04.073000Z</time>
      </trkpt>
      <trkpt lat="35.95294831" lon="120.2042059">
        <time>2019-07-18T22:39:10.066000Z</time>
      </trkpt>
      <trkpt lat="35.95294831" lon="120.2042059">
        <time>2019-07-18T22:39:11.527000Z</time>
      </trkpt>
      <trkpt lat="35.95304006" lon="120.20421089">
        <time>2019-07-18T22:39:16.074000Z</time>
      </trkpt>
      <trkpt lat="35.95312603" lon="120.20417677">
        <time>2019-07-18T22:39:21.068000Z</time>
      </trkpt>
      <trkpt lat="35.95312603" lon="120.20417677">
        <time>2019-07-18T22:39:22.135000Z</time>
      </trkpt>
      <trkpt lat="35.95322405" lon="120.2041567">
        <time>2019-07-18T22:39:25.059000Z</time>
      </trkpt>
      <trkpt lat="35.953327" lon="120.20413646">
        <time>2019-07-18T22:39:29.054000Z</time>
      </trkpt>
      <trkpt lat="35.9534255" lon="120.20411635">
        <time>2019-07-18T22:39:33.060000Z</time>
      </trkpt>
      <trkpt lat="35.95352604" lon="120.20411174">
        <time>2019-07-18T22:39:37.062000Z</time>
      </trkpt>
      <trkpt lat="35.95363016" lon="120.20408536">
        <time>2019-07-18T22:39:41.070000Z</time>
      </trkpt>
      <trkpt lat="35.95373187" lon="120.20406189">
        <time>2019-07-18T22:39:45.070000Z</time>
      </trkpt>
      <trkpt lat="35.95382706" lon="120.20404125">
        <time>2019-07-18T22:39:49.062000Z</time>
      </trkpt>
      <trkpt lat="35.95391366" lon="120.20398344">
        <time>2019-07-18T22:39:53.066000Z</time>
      </trkpt>
      <trkpt lat="35.95400515" lon="120.20397362">
        <time>2019-07-18T22:39:57.078000Z</time>
      </trkpt>
      <trkpt lat="35.95410107" lon="120.203986">
        <time>2019-07-18T22:40:02.063000Z</time>
      </trkpt>
      <trkpt lat="35.95410107" lon="120.203986">
        <time>2019-07-18T22:40:05.638000Z</time>
      </trkpt>
      <trkpt lat="35.95420343" lon="120.2039929">
        <time>2019-07-18T22:40:09.071000Z</time>
      </trkpt>
      <trkpt lat="35.95429436" lon="120.20397201">
        <time>2019-07-18T22:40:15.064000Z</time>
      </trkpt>
      <trkpt lat="35.95439747" lon="120.20395055">
        <time>2019-07-18T22:40:22.065000Z</time>
      </trkpt>
      <trkpt lat="35.95449551" lon="120.2039436">
        <time>2019-07-18T22:40:28.065000Z</time>
      </trkpt>
      <trkpt lat="35.95449551" lon="120.2039436">
        <time>2019-07-18T22:40:29.069000Z</time>
      </trkpt>
      <trkpt lat="35.9546033" lon="120.20392299">
        <time>2019-07-18T22:40:32.062000Z</time>
      </trkpt>
      <trkpt lat="35.95471801" lon="120.20390028">
        <time>2019-07-18T22:40:36.100000Z</time>
      </trkpt>
      <trkpt lat="35.9548311" lon="120.20388109">
        <time>2019-07-18T22:40:40.075000Z</time>
      </trkpt>
      <trkpt lat="35.95493979" lon="120.20388759">
        <time>2019-07-18T22:40:44.062000Z</time>
      </trkpt>
      <trkpt lat="35.95502573" lon="120.20396827">
        <time>2019-07-18T22:40:48.050000Z</time>
      </trkpt>
      <trkpt lat="35.95512375" lon="120.20400902">
        <time>2019-07-18T22:40:52.068000Z</time>
      </trkpt>
      <trkpt lat="35.95522738" lon="120.20399254">
        <time>2019-07-18T22:40:56.063000Z</time>
      </trkpt>
      <trkpt lat="35.9553274" lon="120.20395739">
        <time>2019-07-18T22:41:00.080000Z</time>
      </trkpt>
      <trkpt lat="35.95543037" lon="120.20391058">
        <time>2019-07-18T22:41:04.075000Z</time>
      </trkpt>
      <trkpt lat="35.95553917" lon="120.20387835">
        <time>2019-07-18T22:41:09.064000Z</time>
      </trkpt>
      <trkpt lat="35.95564332" lon="120.2038617">
        <time>2019-07-18T22:41:13.087000Z</time>
      </trkpt>
      <trkpt lat="35.95573456" lon="120.20384957">
        <time>2019-07-18T22:41:17.076000Z</time>
      </trkpt>
      <trkpt lat="35.95584847" lon="120.20383307">
        <time>2019-07-18T22:41:21.062000Z</time>
      </trkpt>
      <trkpt lat="35.95594991" lon="120.20383945">
        <time>2019-07-18T22:41:25.067000Z</time>
      </trkpt>
      <trkpt lat="35.95604266" lon="120.20383189">
        <time>2019-07-18T22:41:31.062000Z</time>
      </trkpt>
      <trkpt lat="35.95604266" lon="120.20383189">
        <time>2019-07-18T22:42:10.067000Z</time>
      </trkpt>
      <trkpt lat="35.95624892" lon="120.20378565">
        <time>2019-07-18T22:42:10.074000Z</time>
      </trkpt>
      <trkpt lat="35.95634272" lon="120.20377055">
        <time>2019-07-18T22:42:14.061000Z</time>
      </trkpt>
      <trkpt lat="35.95643803" lon="120.20376013">
        <time>2019-07-18T22:42:18.062000Z</time>
      </trkpt>
      <trkpt lat="35.95653542" lon="120.20373656">
        <time>2019-07-18T22:42:22.076000Z</time>
      </trkpt>
      <trkpt lat="35.95663611" lon="120.2037052">
        <time>2019-07-18T22:42:26.056000Z</time>
      </trkpt>
      <trkpt lat="35.95673701" lon="120.20370749">
        <time>2019-07-18T22:42:30.068000Z</time>
      </trkpt>
      <trkpt lat="35.95683232" lon="120.20370518">
        <time>2019-07-18T22:42:34.058000Z</time>
      </trkpt>
      <trkpt lat="35.95693575" lon="120.20366644">
        <time>2019-07-18T22:42:39.064000Z</time>
      </trkpt>
      <trkpt lat="35.95704217" lon="120.20364743">
        <time>2019-07-18T22:42:43.056000Z</time>
      </trkpt>
      <trkpt lat="35.9571455" lon="120.20363314">
        <time>2019-07-18T22:42:47.048000Z</time>
      </trkpt>
      <trkpt lat="35.95724398" lon="120.20359737">
        <time>2019-07-18T22:42:51.058000Z</time>
      </trkpt>
      <trkpt lat="35.95735061" lon="120.20362197">
        <time>2019-07-18T22:42:55.063000Z</time>
      </trkpt>
      <trkpt lat="35.95735061" lon="120.20362197">
        <time>2019-07-18T22:42:59.065000Z</time>
      </trkpt>
      <trkpt lat="35.95744369" lon="120.2035757">
        <time>2019-07-18T22:43:02.066000Z</time>
      </trkpt>
      <trkpt lat="35.95753352" lon="120.20357385">
        <time>2019-07-18T22:43:07.065000Z</time>
      </trkpt>
      <trkpt lat="35.95763449" lon="120.20355909">
        <time>2019-07-18T22:43:13.066000Z</time>
      </trkpt>
      <trkpt lat="35.95773676" lon="120.20352728">
        <time>2019-07-18T22:43:19.067000Z</time>
      </trkpt>
      <trkpt lat="35.95783423" lon="120.2035264">
        <time>2019-07-18T22:43:25.065000Z</time>
      </trkpt>
      <trkpt lat="35.95783423" lon="120.2035264">
        <time>2019-07-18T22:43:29.011000Z</time>
      </trkpt>
      <trkpt lat="35.95794315" lon="120.20349579">
        <time>2019-07-18T22:43:31.054000Z</time>
      </trkpt>
      <trkpt lat="35.95804059" lon="120.20347612">
        <time>2019-07-18T22:43:34.061000Z</time>
      </trkpt>
      <trkpt lat="35.95813606" lon="120.20345877">
        <time>2019-07-18T22:43:37.066000Z</time>
      </trkpt>
      <trkpt lat="35.95822906" lon="120.20342908">
        <time>2019-07-18T22:43:40.054000Z</time>
      </trkpt>
      <trkpt lat="35.95834675" lon="120.20341064">
        <time>2019-07-18T22:43:44.078000Z</time>
      </trkpt>
      <trkpt lat="35.95845846" lon="120.20339616">
        <time>2019-07-18T22:43:48.102000Z</time>
      </trkpt>
      <trkpt lat="35.95855192" lon="120.20338658">
        <time>2019-07-18T22:43:51.060000Z</time>
      </trkpt>
      <trkpt lat="35.9586465" lon="120.20337074">
        <time>2019-07-18T22:43:54.074000Z</time>
      </trkpt>
      <trkpt lat="35.95874081" lon="120.20336253">
        <time>2019-07-18T22:43:57.066000Z</time>
      </trkpt>
      <trkpt lat="35.95883302" lon="120.20334876">
        <time>2019-07-18T22:44:00.062000Z</time>
      </trkpt>
      <trkpt lat="35.95892624" lon="120.20332566">
        <time>2019-07-18T22:44:06.063000Z</time>
      </trkpt>
      <trkpt lat="35.95892624" lon="120.20332566">
        <time>2019-07-18T22:44:07.026000Z</time>
      </trkpt>
      <trkpt lat="35.9590268" lon="120.20332416">
        <time>2019-07-18T22:44:13.086000Z</time>
      </trkpt>
      <trkpt lat="35.95912352" lon="120.20330069">
        <time>2019-07-18T22:44:21.070000Z</time>
      </trkpt>
      <trkpt lat="35.9591795" lon="120.20341273">
        <time>2019-07-18T22:44:30.067000Z</time>
      </trkpt>
      <trkpt lat="35.9591795" lon="120.20341273">
        <time>2019-07-18T22:44:32.035000Z</time>
      </trkpt>
      <trkpt lat="35.95919384" lon="120.20353048">
        <time>2019-07-18T22:44:33.060000Z</time>
      </trkpt>
      <trkpt lat="35.95920095" lon="120.20364406">
        <time>2019-07-18T22:44:37.072000Z</time>
      </trkpt>
      <trkpt lat="35.95921407" lon="120.20376024">
        <time>2019-07-18T22:44:41.061000Z</time>
      </trkpt>
      <trkpt lat="35.95924845" lon="120.20386301">
        <time>2019-07-18T22:44:44.073000Z</time>
      </trkpt>
      <trkpt lat="35.9592608" lon="120.20400871">
        <time>2019-07-18T22:44:48.075000Z</time>
      </trkpt>
      <trkpt lat="35.95928029" lon="120.20413372">
        <time>2019-07-18T22:44:52.068000Z</time>
      </trkpt>
      <trkpt lat="35.9592913" lon="120.20427323">
        <time>2019-07-18T22:44:56.065000Z</time>
      </trkpt>
      <trkpt lat="35.95927582" lon="120.20438568">
        <time>2019-07-18T22:45:00.062000Z</time>
      </trkpt>
      <trkpt lat="35.95925831" lon="120.20452746">
        <time>2019-07-18T22:45:06.066000Z</time>
      </trkpt>
      <trkpt lat="35.95927294" lon="120.20464172">
        <time>2019-07-18T22:45:09.064000Z</time>
      </trkpt>
      <trkpt lat="35.95931234" lon="120.20476244">
        <time>2019-07-18T22:45:12.057000Z</time>
      </trkpt>
      <trkpt lat="35.95934149" lon="120.20487661">
        <time>2019-07-18T22:45:15.072000Z</time>
      </trkpt>
      <trkpt lat="35.95934683" lon="120.20500592">
        <time>2019-07-18T22:45:20.061000Z</time>
      </trkpt>
      <trkpt lat="35.95937281" lon="120.20511753">
        <time>2019-07-18T22:45:26.071000Z</time>
      </trkpt>
      <trkpt lat="35.95940378" lon="120.20522598">
        <time>2019-07-18T22:45:33.070000Z</time>
      </trkpt>
      <trkpt lat="35.95940378" lon="120.20522598">
        <time>2019-07-18T22:45:35.060000Z</time>
      </trkpt>
      <trkpt lat="35.95942884" lon="120.20534151">
        <time>2019-07-18T22:45:42.077000Z</time>
      </trkpt>
      <trkpt lat="35.95944125" lon="120.20548">
        <time>2019-07-18T22:45:46.062000Z</time>
      </trkpt>
      <trkpt lat="35.95944125" lon="120.20548">
        <time>2019-07-18T22:45:48.060000Z</time>
      </trkpt>
      <trkpt lat="35.95945802" lon="120.20562299">
        <time>2019-07-18T22:45:50.359000Z</time>
      </trkpt>
      <trkpt lat="35.95948131" lon="120.20577043">
        <time>2019-07-18T22:45:54.064000Z</time>
      </trkpt>
      <trkpt lat="35.95948928" lon="120.20591054">
        <time>2019-07-18T22:45:58.052000Z</time>
      </trkpt>
      <trkpt lat="35.95951057" lon="120.20604262">
        <time>2019-07-18T22:46:03.067000Z</time>
      </trkpt>
      <trkpt lat="35.95953258" lon="120.2061566">
        <time>2019-07-18T22:46:06.067000Z</time>
      </trkpt>
      <trkpt lat="35.95955165" lon="120.20626552">
        <time>2019-07-18T22:46:09.074000Z</time>
      </trkpt>
      <trkpt lat="35.95958594" lon="120.2063904">
        <time>2019-07-18T22:46:13.071000Z</time>
      </trkpt>
      <trkpt lat="35.95959552" lon="120.20651432">
        <time>2019-07-18T22:46:18.072000Z</time>
      </trkpt>
      <trkpt lat="35.95964067" lon="120.20662307">
        <time>2019-07-18T22:46:24.056000Z</time>
      </trkpt>
      <trkpt lat="35.95964067" lon="120.20662307">
        <time>2019-07-18T22:46:37.074000Z</time>
      </trkpt>
      <trkpt lat="35.95968847" lon="120.20684232">
        <time>2019-07-18T22:46:37.114000Z</time>
      </trkpt>
      <trkpt lat="35.95971" lon="120.20697599">
        <time>2019-07-18T22:46:42.071000Z</time>
      </trkpt>
      <trkpt lat="35.95974484" lon="120.20711098">
        <time>2019-07-18T22:46:46.065000Z</time>
      </trkpt>
      <trkpt lat="35.95974484" lon="120.20711098">
        <time>2019-07-18T22:46:47.035000Z</time>
      </trkpt>
      <trkpt lat="35.95976782" lon="120.20724876">
        <time>2019-07-18T22:46:50.066000Z</time>
      </trkpt>
      <trkpt lat="35.95979261" lon="120.20738645">
        <time>2019-07-18T22:46:54.065000Z</time>
      </trkpt>
      <trkpt lat="35.95982795" lon="120.20750164">
        <time>2019-07-18T22:46:57.072000Z</time>
      </trkpt>
      <trkpt lat="35.95986533" lon="120.20761177">
        <time>2019-07-18T22:47:00.065000Z</time>
      </trkpt>
      <trkpt lat="35.95989133" lon="120.20774237">
        <time>2019-07-18T22:47:04.075000Z</time>
      </trkpt>
      <trkpt lat="35.95990473" lon="120.2078551">
        <time>2019-07-18T22:47:07.077000Z</time>
      </trkpt>
      <trkpt lat="35.95991855" lon="120.20798711">
        <time>2019-07-18T22:47:11.061000Z</time>
      </trkpt>
      <trkpt lat="35.95994638" lon="120.20810981">
        <time>2019-07-18T22:47:15.065000Z</time>
      </trkpt>
      <trkpt lat="35.95999569" lon="120.20822495">
        <time>2019-07-18T22:47:19.055000Z</time>
      </trkpt>
      <trkpt lat="35.96005071" lon="120.20833669">
        <time>2019-07-18T22:47:23.076000Z</time>
      </trkpt>
      <trkpt lat="35.96008552" lon="120.20845004">
        <time>2019-07-18T22:47:27.081000Z</time>
      </trkpt>
      <trkpt lat="35.96011063" lon="120.208579">
        <time>2019-07-18T22:47:31.235000Z</time>
      </trkpt>
      <trkpt lat="35.96013398" lon="120.2087086">
        <time>2019-07-18T22:47:35.073000Z</time>
      </trkpt>
      <trkpt lat="35.960175" lon="120.20883994">
        <time>2019-07-18T22:47:39.083000Z</time>
      </trkpt>
      <trkpt lat="35.96019314" lon="120.2089631">
        <time>2019-07-18T22:47:44.051000Z</time>
      </trkpt>
      <trkpt lat="35.96022756" lon="120.20909637">
        <time>2019-07-18T22:47:49.053000Z</time>
      </trkpt>
      <trkpt lat="35.96024532" lon="120.20921624">
        <time>2019-07-18T22:47:53.052000Z</time>
      </trkpt>
      <trkpt lat="35.96023102" lon="120.20933718">
        <time>2019-07-18T22:48:00.052000Z</time>
      </trkpt>
    </trkseg>
  </trk>
</gpx>