<?xml version="1.0" encoding="UTF-8"?>
<gpx xmlns="http://www.topografix.com/GPX/1/1" xmlns:gpxtpx="http://www.garmin.com/xmlschemas/TrackPointExtension/v1" xmlns:xsi="http://www.w3.org/2001/XMLSchema-instance" xsi:schemaLocation="http://www.topografix.com/GPX/1/1 http://www.topografix.com/GPX/1/1/gpx.xsd" version="1.1" creator="gpx.py -- https://github.com/tkrajina/gpxpy">
  <trk>
    <name>星期日 早晨跑步</name>
    <trkseg>
      <trkpt lat="35.98181179" lon="120.09433393">
        <time>2019-07-20T21:23:22.388000Z</time>
      </trkpt>
      <trkpt lat="35.9818116" lon="120.09432018">
        <time>2019-07-20T21:23:22.958000Z</time>
      </trkpt>
      <trkpt lat="35.98182402" lon="120.09420852">
        <time>2019-07-20T21:23:29.959000Z</time>
      </trkpt>
      <trkpt lat="35.98184519" lon="120.09409272">
        <time>2019-07-20T21:23:38.955000Z</time>
      </trkpt>
      <trkpt lat="35.98183508" lon="120.09397284">
        <time>2019-07-20T21:23:48.960000Z</time>
      </trkpt>
      <trkpt lat="35.98183322" lon="120.09385968">
        <time>2019-07-20T21:23:59.959000Z</time>
      </trkpt>
      <trkpt lat="35.98183322" lon="120.09385968">
        <time>2019-07-20T21:24:00.054000Z</time>
      </trkpt>
      <trkpt lat="35.98178818" lon="120.0937606">
        <time>2019-07-20T21:24:02.959000Z</time>
      </trkpt>
      <trkpt lat="35.98178818" lon="120.0937606">
        <time>2019-07-20T21:24:14.963000Z</time>
      </trkpt>
      <trkpt lat="35.98167776" lon="120.09358223">
        <time>2019-07-20T21:24:14.986000Z</time>
      </trkpt>
      <trkpt lat="35.98161324" lon="120.09347542">
        <time>2019-07-20T21:24:19.977000Z</time>
      </trkpt>
      <trkpt lat="35.98157476" lon="120.09336872">
        <time>2019-07-20T21:24:23.964000Z</time>
      </trkpt>
      <trkpt lat="35.98153986" lon="120.09325152">
        <time>2019-07-20T21:24:27.970000Z</time>
      </trkpt>
      <trkpt lat="35.9815082" lon="120.0931355">
        <time>2019-07-20T21:24:31.952000Z</time>
      </trkpt>
      <trkpt lat="35.98149841" lon="120.09299668">
        <time>2019-07-20T21:24:35.953000Z</time>
      </trkpt>
      <trkpt lat="35.98146901" lon="120.0928902">
        <time>2019-07-20T21:24:38.958000Z</time>
      </trkpt>
      <trkpt lat="35.98141265" lon="120.09279368">
        <time>2019-07-20T21:24:42.158000Z</time>
      </trkpt>
      <trkpt lat="35.98134451" lon="120.09271201">
        <time>2019-07-20T21:24:44.958000Z</time>
      </trkpt>
      <trkpt lat="35.98128483" lon="120.09259863">
        <time>2019-07-20T21:24:48.958000Z</time>
      </trkpt>
      <trkpt lat="35.98123959" lon="120.09249753">
        <time>2019-07-20T21:24:52.960000Z</time>
      </trkpt>
      <trkpt lat="35.98123959" lon="120.09249753">
        <time>2019-07-20T21:24:56.958000Z</time>
      </trkpt>
      <trkpt lat="35.9808423" lon="120.09222098">
        <time>2019-07-20T21:25:16.959000Z</time>
      </trkpt>
      <trkpt lat="35.98076441" lon="120.09215995">
        <time>2019-07-20T21:25:22.950000Z</time>
      </trkpt>
      <trkpt lat="35.98070321" lon="120.0920769">
        <time>2019-07-20T21:25:28.952000Z</time>
      </trkpt>
      <trkpt lat="35.9806354" lon="120.09198395">
        <time>2019-07-20T21:25:35.952000Z</time>
      </trkpt>
      <trkpt lat="35.98056988" lon="120.09189128">
        <time>2019-07-20T21:25:42.955000Z</time>
      </trkpt>
      <trkpt lat="35.98056988" lon="120.09189128">
        <time>2019-07-20T21:25:49.951000Z</time>
      </trkpt>
      <trkpt lat="35.98016573" lon="120.09156515">
        <time>2019-07-20T21:26:23.958000Z</time>
      </trkpt>
      <trkpt lat="35.98016573" lon="120.09156515">
        <time>2019-07-20T21:26:27.502000Z</time>
      </trkpt>
      <trkpt lat="35.98010006" lon="120.09147649">
        <time>2019-07-20T21:26:27.971000Z</time>
      </trkpt>
      <trkpt lat="35.98009288" lon="120.09134613">
        <time>2019-07-20T21:26:33.954000Z</time>
      </trkpt>
      <trkpt lat="35.98009288" lon="120.09134613">
        <time>2019-07-20T21:26:37.949000Z</time>
      </trkpt>
      <trkpt lat="35.98007284" lon="120.09122889">
        <time>2019-07-20T21:26:39.960000Z</time>
      </trkpt>
      <trkpt lat="35.9800437" lon="120.0911231">
        <time>2019-07-20T21:26:44.956000Z</time>
      </trkpt>
      <trkpt lat="35.97999719" lon="120.09102765">
        <time>2019-07-20T21:26:50.955000Z</time>
      </trkpt>
      <trkpt lat="35.97993489" lon="120.09093743">
        <time>2019-07-20T21:26:56.956000Z</time>
      </trkpt>
      <trkpt lat="35.97990047" lon="120.09082751">
        <time>2019-07-20T21:27:03.960000Z</time>
      </trkpt>
      <trkpt lat="35.9798719" lon="120.090706">
        <time>2019-07-20T21:27:10.952000Z</time>
      </trkpt>
      <trkpt lat="35.97984984" lon="120.09059487">
        <time>2019-07-20T21:27:15.960000Z</time>
      </trkpt>
      <trkpt lat="35.97984984" lon="120.09059487">
        <time>2019-07-20T21:27:16.971000Z</time>
      </trkpt>
      <trkpt lat="35.97984108" lon="120.0904691">
        <time>2019-07-20T21:27:20.947000Z</time>
      </trkpt>
      <trkpt lat="35.97983165" lon="120.090356">
        <time>2019-07-20T21:27:25.952000Z</time>
      </trkpt>
      <trkpt lat="35.97983165" lon="120.090356">
        <time>2019-07-20T21:27:26.955000Z</time>
      </trkpt>
      <trkpt lat="35.97982951" lon="120.09024285">
        <time>2019-07-20T21:27:30.957000Z</time>
      </trkpt>
      <trkpt lat="35.97982068" lon="120.09011581">
        <time>2019-07-20T21:27:37.957000Z</time>
      </trkpt>
      <trkpt lat="35.97979452" lon="120.09000085">
        <time>2019-07-20T21:27:44.957000Z</time>
      </trkpt>
      <trkpt lat="35.97971671" lon="120.08991357">
        <time>2019-07-20T21:27:50.957000Z</time>
      </trkpt>
      <trkpt lat="35.97964068" lon="120.08983462">
        <time>2019-07-20T21:27:56.961000Z</time>
      </trkpt>
      <trkpt lat="35.97958597" lon="120.08974389">
        <time>2019-07-20T21:28:02.956000Z</time>
      </trkpt>
      <trkpt lat="35.97954691" lon="120.08964199">
        <time>2019-07-20T21:28:08.958000Z</time>
      </trkpt>
      <trkpt lat="35.97948274" lon="120.0895444">
        <time>2019-07-20T21:28:15.954000Z</time>
      </trkpt>
      <trkpt lat="35.97946752" lon="120.08940678">
        <time>2019-07-20T21:28:22.958000Z</time>
      </trkpt>
      <trkpt lat="35.97948343" lon="120.08928553">
        <time>2019-07-20T21:28:28.945000Z</time>
      </trkpt>
      <trkpt lat="35.97949844" lon="120.08916154">
        <time>2019-07-20T21:28:35.959000Z</time>
      </trkpt>
      <trkpt lat="35.97950529" lon="120.0890381">
        <time>2019-07-20T21:28:42.974000Z</time>
      </trkpt>
      <trkpt lat="35.97950737" lon="120.088923">
        <time>2019-07-20T21:28:49.954000Z</time>
      </trkpt>
      <trkpt lat="35.97947785" lon="120.08881048">
        <time>2019-07-20T21:28:56.958000Z</time>
      </trkpt>
      <trkpt lat="35.97943958" lon="120.08869578">
        <time>2019-07-20T21:29:03.959000Z</time>
      </trkpt>
      <trkpt lat="35.97939797" lon="120.08859159">
        <time>2019-07-20T21:29:10.958000Z</time>
      </trkpt>
      <trkpt lat="35.97938857" lon="120.08846816">
        <time>2019-07-20T21:29:18.953000Z</time>
      </trkpt>
      <trkpt lat="35.97935848" lon="120.08835115">
        <time>2019-07-20T21:29:27.155000Z</time>
      </trkpt>
      <trkpt lat="35.97930884" lon="120.08823912">
        <time>2019-07-20T21:29:34.949000Z</time>
      </trkpt>
      <trkpt lat="35.97925624" lon="120.088146">
        <time>2019-07-20T21:29:41.959000Z</time>
      </trkpt>
      <trkpt lat="35.97919532" lon="120.0880594">
        <time>2019-07-20T21:29:48.974000Z</time>
      </trkpt>
      <trkpt lat="35.97919532" lon="120.0880594">
        <time>2019-07-20T21:29:54.960000Z</time>
      </trkpt>
      <trkpt lat="35.97911805" lon="120.08798359">
        <time>2019-07-20T21:29:55.003000Z</time>
      </trkpt>
      <trkpt lat="35.97911805" lon="120.08798359">
        <time>2019-07-20T21:30:00.981000Z</time>
      </trkpt>
      <trkpt lat="35.97831582" lon="120.08737761">
        <time>2019-07-20T21:30:52.947000Z</time>
      </trkpt>
      <trkpt lat="35.97827753" lon="120.08726407">
        <time>2019-07-20T21:31:00.959000Z</time>
      </trkpt>
      <trkpt lat="35.97827753" lon="120.08726407">
        <time>2019-07-20T21:31:08.951000Z</time>
      </trkpt>
      <trkpt lat="35.97788375" lon="120.08689637">
        <time>2019-07-20T21:31:39.959000Z</time>
      </trkpt>
      <trkpt lat="35.97779692" lon="120.08685592">
        <time>2019-07-20T21:31:45.951000Z</time>
      </trkpt>
      <trkpt lat="35.977722" lon="120.08679013">
        <time>2019-07-20T21:31:52.952000Z</time>
      </trkpt>
      <trkpt lat="35.97764472" lon="120.08671888">
        <time>2019-07-20T21:32:00.965000Z</time>
      </trkpt>
      <trkpt lat="35.97759268" lon="120.08662675">
        <time>2019-07-20T21:32:09.957000Z</time>
      </trkpt>
      <trkpt lat="35.97753238" lon="120.08654139">
        <time>2019-07-20T21:32:18.955000Z</time>
      </trkpt>
      <trkpt lat="35.9774859" lon="120.08643726">
        <time>2019-07-20T21:32:29.944000Z</time>
      </trkpt>
      <trkpt lat="35.97745023" lon="120.08632549">
        <time>2019-07-20T21:32:40.948000Z</time>
      </trkpt>
      <trkpt lat="35.97740122" lon="120.08621777">
        <time>2019-07-20T21:32:50.957000Z</time>
      </trkpt>
      <trkpt lat="35.97734666" lon="120.08611726">
        <time>2019-07-20T21:32:59.995000Z</time>
      </trkpt>
      <trkpt lat="35.97725828" lon="120.08606741">
        <time>2019-07-20T21:33:07.954000Z</time>
      </trkpt>
      <trkpt lat="35.97716243" lon="120.08603338">
        <time>2019-07-20T21:33:14.956000Z</time>
      </trkpt>
      <trkpt lat="35.97706749" lon="120.08599411">
        <time>2019-07-20T21:33:21.973000Z</time>
      </trkpt>
      <trkpt lat="35.97708031" lon="120.08588046">
        <time>2019-07-20T21:33:30.955000Z</time>
      </trkpt>
      <trkpt lat="35.97716807" lon="120.08585569">
        <time>2019-07-20T21:33:38.962000Z</time>
      </trkpt>
      <trkpt lat="35.97726327" lon="120.0858478">
        <time>2019-07-20T21:33:45.954000Z</time>
      </trkpt>
      <trkpt lat="35.97735724" lon="120.08581977">
        <time>2019-07-20T21:33:53.951000Z</time>
      </trkpt>
      <trkpt lat="35.9773784" lon="120.08570517">
        <time>2019-07-20T21:34:02.955000Z</time>
      </trkpt>
      <trkpt lat="35.9773711" lon="120.08558308">
        <time>2019-07-20T21:34:11.955000Z</time>
      </trkpt>
      <trkpt lat="35.97730475" lon="120.08549081">
        <time>2019-07-20T21:34:19.961000Z</time>
      </trkpt>
      <trkpt lat="35.97730475" lon="120.08549081">
        <time>2019-07-20T21:34:52.956000Z</time>
      </trkpt>
      <trkpt lat="35.97730475" lon="120.08549081">
        <time>2019-07-20T21:34:52.983000Z</time>
      </trkpt>
      <trkpt lat="35.97721458" lon="120.08546009">
        <time>2019-07-20T21:34:58.962000Z</time>
      </trkpt>
      <trkpt lat="35.97721458" lon="120.08546009">
        <time>2019-07-20T21:36:08.964000Z</time>
      </trkpt>
      <trkpt lat="35.97717815" lon="120.08529167">
        <time>2019-07-20T21:36:08.987000Z</time>
      </trkpt>
      <trkpt lat="35.97719904" lon="120.08517305">
        <time>2019-07-20T21:36:17.956000Z</time>
      </trkpt>
      <trkpt lat="35.97721786" lon="120.08505557">
        <time>2019-07-20T21:36:27.956000Z</time>
      </trkpt>
      <trkpt lat="35.97723619" lon="120.08494659">
        <time>2019-07-20T21:36:35.954000Z</time>
      </trkpt>
      <trkpt lat="35.97722012" lon="120.08483392">
        <time>2019-07-20T21:36:53.955000Z</time>
      </trkpt>
      <trkpt lat="35.97722012" lon="120.08483392">
        <time>2019-07-20T21:37:03.952000Z</time>
      </trkpt>
      <trkpt lat="35.97675312" lon="120.08368838">
        <time>2019-07-20T21:39:07.969000Z</time>
      </trkpt>
      <trkpt lat="35.97677416" lon="120.08357189">
        <time>2019-07-20T21:39:17.968000Z</time>
      </trkpt>
      <trkpt lat="35.97675132" lon="120.08345696">
        <time>2019-07-20T21:39:27.948000Z</time>
      </trkpt>
      <trkpt lat="35.97675409" lon="120.08334289">
        <time>2019-07-20T21:39:39.954000Z</time>
      </trkpt>
      <trkpt lat="35.97666431" lon="120.08333199">
        <time>2019-07-20T21:39:53.956000Z</time>
      </trkpt>
      <trkpt lat="35.97657481" lon="120.08328403">
        <time>2019-07-20T21:40:05.971000Z</time>
      </trkpt>
      <trkpt lat="35.97648503" lon="120.08322703">
        <time>2019-07-20T21:40:15.006000Z</time>
      </trkpt>
      <trkpt lat="35.97648503" lon="120.08322703">
        <time>2019-07-20T21:40:21.945000Z</time>
      </trkpt>
      <trkpt lat="35.97608386" lon="120.08350005">
        <time>2019-07-20T21:40:52.955000Z</time>
      </trkpt>
      <trkpt lat="35.97599171" lon="120.0834562">
        <time>2019-07-20T21:41:01.949000Z</time>
      </trkpt>
      <trkpt lat="35.97590648" lon="120.0835083">
        <time>2019-07-20T21:41:12.947000Z</time>
      </trkpt>
      <trkpt lat="35.97581022" lon="120.08349271">
        <time>2019-07-20T21:41:19.953000Z</time>
      </trkpt>
      <trkpt lat="35.97576539" lon="120.08360165">
        <time>2019-07-20T21:41:30.954000Z</time>
      </trkpt>
      <trkpt lat="35.97570534" lon="120.08368867">
        <time>2019-07-20T21:41:40.953000Z</time>
      </trkpt>
      <trkpt lat="35.97562652" lon="120.08374213">
        <time>2019-07-20T21:41:49.941000Z</time>
      </trkpt>
      <trkpt lat="35.97553769" lon="120.08379504">
        <time>2019-07-20T21:41:59.955000Z</time>
      </trkpt>
      <trkpt lat="35.97544294" lon="120.08382442">
        <time>2019-07-20T21:42:08.957000Z</time>
      </trkpt>
      <trkpt lat="35.9753491" lon="120.08381749">
        <time>2019-07-20T21:42:17.954000Z</time>
      </trkpt>
      <trkpt lat="35.97525358" lon="120.08383154">
        <time>2019-07-20T21:42:26.951000Z</time>
      </trkpt>
      <trkpt lat="35.97516525" lon="120.08385805">
        <time>2019-07-20T21:42:36.953000Z</time>
      </trkpt>
      <trkpt lat="35.97507163" lon="120.08387207">
        <time>2019-07-20T21:42:46.960000Z</time>
      </trkpt>
      <trkpt lat="35.97498506" lon="120.08382604">
        <time>2019-07-20T21:42:54.956000Z</time>
      </trkpt>
      <trkpt lat="35.97490676" lon="120.08375985">
        <time>2019-07-20T21:43:02.956000Z</time>
      </trkpt>
      <trkpt lat="35.97481274" lon="120.08376935">
        <time>2019-07-20T21:43:10.957000Z</time>
      </trkpt>
      <trkpt lat="35.97480149" lon="120.08388581">
        <time>2019-07-20T21:43:22.955000Z</time>
      </trkpt>
      <trkpt lat="35.97483884" lon="120.08399344">
        <time>2019-07-20T21:43:31.958000Z</time>
      </trkpt>
      <trkpt lat="35.97488856" lon="120.08410433">
        <time>2019-07-20T21:43:39.954000Z</time>
      </trkpt>
      <trkpt lat="35.97496763" lon="120.08417651">
        <time>2019-07-20T21:43:52.955000Z</time>
      </trkpt>
      <trkpt lat="35.97507313" lon="120.08416526">
        <time>2019-07-20T21:44:00.979000Z</time>
      </trkpt>
      <trkpt lat="35.97516741" lon="120.0841394">
        <time>2019-07-20T21:44:06.953000Z</time>
      </trkpt>
      <trkpt lat="35.97525604" lon="120.08419296">
        <time>2019-07-20T21:44:14.972000Z</time>
      </trkpt>
      <trkpt lat="35.97534506" lon="120.08424124">
        <time>2019-07-20T21:44:25.971000Z</time>
      </trkpt>
      <trkpt lat="35.97534506" lon="120.08424124">
        <time>2019-07-20T21:44:45.948000Z</time>
      </trkpt>
      <trkpt lat="35.97534506" lon="120.08424124">
        <time>2019-07-20T21:44:45.990000Z</time>
      </trkpt>
      <trkpt lat="35.97534506" lon="120.08424124">
        <time>2019-07-20T21:44:55.957000Z</time>
      </trkpt>
      <trkpt lat="35.97519015" lon="120.08418669">
        <time>2019-07-20T21:44:55.987000Z</time>
      </trkpt>
      <trkpt lat="35.9750968" lon="120.08417917">
        <time>2019-07-20T21:45:03.954000Z</time>
      </trkpt>
      <trkpt lat="35.9750968" lon="120.08417917">
        <time>2019-07-20T21:45:09.953000Z</time>
      </trkpt>
      <trkpt lat="35.9750968" lon="120.08417917">
        <time>2019-07-20T21:45:10.093000Z</time>
      </trkpt>
      <trkpt lat="35.97500141" lon="120.08421455">
        <time>2019-07-20T21:45:11.956000Z</time>
      </trkpt>
      <trkpt lat="35.9749055" lon="120.08422375">
        <time>2019-07-20T21:45:19.945000Z</time>
      </trkpt>
      <trkpt lat="35.97481108" lon="120.08419106">
        <time>2019-07-20T21:45:28.947000Z</time>
      </trkpt>
      <trkpt lat="35.97472057" lon="120.08417339">
        <time>2019-07-20T21:45:34.951000Z</time>
      </trkpt>
      <trkpt lat="35.97462696" lon="120.08412904">
        <time>2019-07-20T21:45:41.961000Z</time>
      </trkpt>
      <trkpt lat="35.97453508" lon="120.08417613">
        <time>2019-07-20T21:45:48.976000Z</time>
      </trkpt>
      <trkpt lat="35.97449638" lon="120.08427892">
        <time>2019-07-20T21:45:55.947000Z</time>
      </trkpt>
      <trkpt lat="35.97449638" lon="120.08427892">
        <time>2019-07-20T21:46:07.953000Z</time>
      </trkpt>
      <trkpt lat="35.97441809" lon="120.08441933">
        <time>2019-07-20T21:46:07.997000Z</time>
      </trkpt>
      <trkpt lat="35.97435382" lon="120.08450048">
        <time>2019-07-20T21:46:17.945000Z</time>
      </trkpt>
      <trkpt lat="35.97427623" lon="120.08457007">
        <time>2019-07-20T21:46:28.989000Z</time>
      </trkpt>
      <trkpt lat="35.97419106" lon="120.08462876">
        <time>2019-07-20T21:46:38.971000Z</time>
      </trkpt>
      <trkpt lat="35.97413636" lon="120.08472065">
        <time>2019-07-20T21:46:48.019000Z</time>
      </trkpt>
      <trkpt lat="35.97406566" lon="120.08480435">
        <time>2019-07-20T21:46:56.947000Z</time>
      </trkpt>
      <trkpt lat="35.9739708" lon="120.08484122">
        <time>2019-07-20T21:47:06.005000Z</time>
      </trkpt>
      <trkpt lat="35.97391564" lon="120.08493806">
        <time>2019-07-20T21:47:12.953000Z</time>
      </trkpt>
      <trkpt lat="35.97382975" lon="120.08498368">
        <time>2019-07-20T21:47:19.957000Z</time>
      </trkpt>
      <trkpt lat="35.97382975" lon="120.08498368">
        <time>2019-07-20T21:47:50.945000Z</time>
      </trkpt>
      <trkpt lat="35.97372234" lon="120.08502962">
        <time>2019-07-20T21:47:50.959000Z</time>
      </trkpt>
      <trkpt lat="35.97362593" lon="120.08499722">
        <time>2019-07-20T21:47:56.951000Z</time>
      </trkpt>
      <trkpt lat="35.9735312" lon="120.08502523">
        <time>2019-07-20T21:48:05.957000Z</time>
      </trkpt>
      <trkpt lat="35.97346276" lon="120.08511197">
        <time>2019-07-20T21:48:12.951000Z</time>
      </trkpt>
      <trkpt lat="35.97338127" lon="120.08516201">
        <time>2019-07-20T21:48:18.961000Z</time>
      </trkpt>
      <trkpt lat="35.97329095" lon="120.08520639">
        <time>2019-07-20T21:48:24.968000Z</time>
      </trkpt>
      <trkpt lat="35.97319786" lon="120.08526357">
        <time>2019-07-20T21:48:30.956000Z</time>
      </trkpt>
      <trkpt lat="35.9731107" lon="120.08529856">
        <time>2019-07-20T21:48:36.953000Z</time>
      </trkpt>
      <trkpt lat="35.97302652" lon="120.08537186">
        <time>2019-07-20T21:48:43.976000Z</time>
      </trkpt>
      <trkpt lat="35.97293996" lon="120.08542568">
        <time>2019-07-20T21:48:50.961000Z</time>
      </trkpt>
      <trkpt lat="35.97284171" lon="120.08542351">
        <time>2019-07-20T21:48:57.956000Z</time>
      </trkpt>
      <trkpt lat="35.9727499" lon="120.08540443">
        <time>2019-07-20T21:49:04.957000Z</time>
      </trkpt>
      <trkpt lat="35.97267202" lon="120.08547263">
        <time>2019-07-20T21:49:10.976000Z</time>
      </trkpt>
      <trkpt lat="35.97257241" lon="120.08548557">
        <time>2019-07-20T21:49:17.957000Z</time>
      </trkpt>
      <trkpt lat="35.97250999" lon="120.08538494">
        <time>2019-07-20T21:49:25.956000Z</time>
      </trkpt>
      <trkpt lat="35.97241981" lon="120.08542274">
        <time>2019-07-20T21:49:36.984000Z</time>
      </trkpt>
      <trkpt lat="35.97231946" lon="120.08543421">
        <time>2019-07-20T21:49:41.955000Z</time>
      </trkpt>
      <trkpt lat="35.97231946" lon="120.08543421">
        <time>2019-07-20T21:49:50.957000Z</time>
      </trkpt>
      <trkpt lat="35.97219125" lon="120.08540472">
        <time>2019-07-20T21:49:50.986000Z</time>
      </trkpt>
      <trkpt lat="35.97209181" lon="120.08541514">
        <time>2019-07-20T21:49:54.958000Z</time>
      </trkpt>
      <trkpt lat="35.97200112" lon="120.08543646">
        <time>2019-07-20T21:49:57.951000Z</time>
      </trkpt>
      <trkpt lat="35.97191194" lon="120.08550502">
        <time>2019-07-20T21:50:01.947000Z</time>
      </trkpt>
      <trkpt lat="35.97191194" lon="120.08550502">
        <time>2019-07-20T21:50:08.945000Z</time>
      </trkpt>
      <trkpt lat="35.97186439" lon="120.08562972">
        <time>2019-07-20T21:50:08.963000Z</time>
      </trkpt>
      <trkpt lat="35.97186664" lon="120.0857468">
        <time>2019-07-20T21:50:16.952000Z</time>
      </trkpt>
      <trkpt lat="35.97192126" lon="120.08584172">
        <time>2019-07-20T21:50:21.962000Z</time>
      </trkpt>
      <trkpt lat="35.97192742" lon="120.08595281">
        <time>2019-07-20T21:50:30.084000Z</time>
      </trkpt>
      <trkpt lat="35.9718512" lon="120.08601298">
        <time>2019-07-20T21:50:35.204000Z</time>
      </trkpt>
      <trkpt lat="35.97176178" lon="120.08604959">
        <time>2019-07-20T21:50:39.955000Z</time>
      </trkpt>
      <trkpt lat="35.97167109" lon="120.08606105">
        <time>2019-07-20T21:50:45.949000Z</time>
      </trkpt>
      <trkpt lat="35.97157195" lon="120.08606322">
        <time>2019-07-20T21:50:52.958000Z</time>
      </trkpt>
      <trkpt lat="35.97148118" lon="120.08607297">
        <time>2019-07-20T21:50:59.952000Z</time>
      </trkpt>
      <trkpt lat="35.97139229" lon="120.08609621">
        <time>2019-07-20T21:51:06.945000Z</time>
      </trkpt>
      <trkpt lat="35.97129242" lon="120.08607912">
        <time>2019-07-20T21:51:14.952000Z</time>
      </trkpt>
      <trkpt lat="35.97119891" lon="120.0860677">
        <time>2019-07-20T21:51:23.090000Z</time>
      </trkpt>
      <trkpt lat="35.97110941" lon="120.08607976">
        <time>2019-07-20T21:51:29.954000Z</time>
      </trkpt>
      <trkpt lat="35.97110941" lon="120.08607976">
        <time>2019-07-20T21:51:37.946000Z</time>
      </trkpt>
      <trkpt lat="35.97084022" lon="120.08673776">
        <time>2019-07-20T21:52:10.976000Z</time>
      </trkpt>
      <trkpt lat="35.97075139" lon="120.08677374">
        <time>2019-07-20T21:52:15.973000Z</time>
      </trkpt>
      <trkpt lat="35.97069547" lon="120.08687832">
        <time>2019-07-20T21:52:22.955000Z</time>
      </trkpt>
      <trkpt lat="35.97066286" lon="120.08698272">
        <time>2019-07-20T21:52:26.966000Z</time>
      </trkpt>
      <trkpt lat="35.97064378" lon="120.08709844">
        <time>2019-07-20T21:52:32.951000Z</time>
      </trkpt>
      <trkpt lat="35.97057131" lon="120.08718408">
        <time>2019-07-20T21:52:40.949000Z</time>
      </trkpt>
      <trkpt lat="35.97048558" lon="120.08713507">
        <time>2019-07-20T21:52:45.956000Z</time>
      </trkpt>
      <trkpt lat="35.97039435" lon="120.08716774">
        <time>2019-07-20T21:53:11.950000Z</time>
      </trkpt>
      <trkpt lat="35.97039435" lon="120.08716774">
        <time>2019-07-20T21:53:28.952000Z</time>
      </trkpt>
      <trkpt lat="35.97039435" lon="120.08716774">
        <time>2019-07-20T21:53:28.973000Z</time>
      </trkpt>
      <trkpt lat="35.97046803" lon="120.08723618">
        <time>2019-07-20T21:53:32.954000Z</time>
      </trkpt>
      <trkpt lat="35.97037539" lon="120.08729048">
        <time>2019-07-20T21:53:42.952000Z</time>
      </trkpt>
      <trkpt lat="35.97033303" lon="120.08739417">
        <time>2019-07-20T21:54:03.949000Z</time>
      </trkpt>
      <trkpt lat="35.97026175" lon="120.08746673">
        <time>2019-07-20T21:54:11.948000Z</time>
      </trkpt>
      <trkpt lat="35.9701784" lon="120.08751414">
        <time>2019-07-20T21:54:22.960000Z</time>
      </trkpt>
      <trkpt lat="35.97009047" lon="120.08755425">
        <time>2019-07-20T21:54:36.956000Z</time>
      </trkpt>
      <trkpt lat="35.97006536" lon="120.08766697">
        <time>2019-07-20T21:54:42.945000Z</time>
      </trkpt>
      <trkpt lat="35.97006536" lon="120.08766697">
        <time>2019-07-20T21:55:20.960000Z</time>
      </trkpt>
      <trkpt lat="35.96992009" lon="120.08774808">
        <time>2019-07-20T21:55:20.973000Z</time>
      </trkpt>
      <trkpt lat="35.97001182" lon="120.08777784">
        <time>2019-07-20T21:55:27.952000Z</time>
      </trkpt>
      <trkpt lat="35.97009881" lon="120.08774193">
        <time>2019-07-20T21:55:36.946000Z</time>
      </trkpt>
      <trkpt lat="35.97017737" lon="120.08768006">
        <time>2019-07-20T21:55:53.944000Z</time>
      </trkpt>
      <trkpt lat="35.96992679" lon="120.08781093">
        <time>2019-07-20T21:56:10.953000Z</time>
      </trkpt>
      <trkpt lat="35.96984529" lon="120.08787685">
        <time>2019-07-20T21:56:17.956000Z</time>
      </trkpt>
      <trkpt lat="35.96975548" lon="120.08790977">
        <time>2019-07-20T21:56:27.957000Z</time>
      </trkpt>
      <trkpt lat="35.96967976" lon="120.08802613">
        <time>2019-07-20T21:56:47.957000Z</time>
      </trkpt>
      <trkpt lat="35.96962494" lon="120.08813497">
        <time>2019-07-20T21:56:51.954000Z</time>
      </trkpt>
      <trkpt lat="35.96955851" lon="120.08822426">
        <time>2019-07-20T21:57:01.960000Z</time>
      </trkpt>
      <trkpt lat="35.96955851" lon="120.08822426">
        <time>2019-07-20T21:57:15.944000Z</time>
      </trkpt>
      <trkpt lat="35.96955851" lon="120.08822426">
        <time>2019-07-20T21:57:15.956000Z</time>
      </trkpt>
      <trkpt lat="35.96955851" lon="120.08822426">
        <time>2019-07-20T21:57:42.950000Z</time>
      </trkpt>
      <trkpt lat="35.96934296" lon="120.0886528">
        <time>2019-07-20T22:00:41.959000Z</time>
      </trkpt>
      <trkpt lat="35.96923205" lon="120.08859988">
        <time>2019-07-20T22:00:42.008000Z</time>
      </trkpt>
      <trkpt lat="35.969199" lon="120.08870379">
        <time>2019-07-20T22:00:52.945000Z</time>
      </trkpt>
      <trkpt lat="35.969199" lon="120.08870379">
        <time>2019-07-20T22:00:57.953000Z</time>
      </trkpt>
      <trkpt lat="35.96881423" lon="120.08841537">
        <time>2019-07-20T22:01:53.953000Z</time>
      </trkpt>
      <trkpt lat="35.96874198" lon="120.08849352">
        <time>2019-07-20T22:02:22.961000Z</time>
      </trkpt>
      <trkpt lat="35.96867822" lon="120.0885727">
        <time>2019-07-20T22:02:44.956000Z</time>
      </trkpt>
      <trkpt lat="35.96867822" lon="120.0885727">
        <time>2019-07-20T22:02:57.957000Z</time>
      </trkpt>
      <trkpt lat="35.96878663" lon="120.0885397">
        <time>2019-07-20T22:02:57.978000Z</time>
      </trkpt>
      <trkpt lat="35.968879" lon="120.08854498">
        <time>2019-07-20T22:03:08.969000Z</time>
      </trkpt>
      <trkpt lat="35.96897072" lon="120.08856794">
        <time>2019-07-20T22:03:22.946000Z</time>
      </trkpt>
      <trkpt lat="35.96897072" lon="120.08856794">
        <time>2019-07-20T22:03:47.944000Z</time>
      </trkpt>
      <trkpt lat="35.96880924" lon="120.08868338">
        <time>2019-07-20T22:03:47.971000Z</time>
      </trkpt>
      <trkpt lat="35.96872207" lon="120.08871436">
        <time>2019-07-20T22:03:57.949000Z</time>
      </trkpt>
      <trkpt lat="35.96854152" lon="120.08891352">
        <time>2019-07-20T22:04:24.954000Z</time>
      </trkpt>
      <trkpt lat="35.96837995" lon="120.08885141">
        <time>2019-07-20T22:04:24.971000Z</time>
      </trkpt>
      <trkpt lat="35.96846034" lon="120.08891422">
        <time>2019-07-20T22:04:35.955000Z</time>
      </trkpt>
      <trkpt lat="35.96832591" lon="120.08888331">
        <time>2019-07-20T22:06:27.952000Z</time>
      </trkpt>
      <trkpt lat="35.96822328" lon="120.08882075">
        <time>2019-07-20T22:06:27.976000Z</time>
      </trkpt>
      <trkpt lat="35.96830449" lon="120.08876481">
        <time>2019-07-20T22:06:45.956000Z</time>
      </trkpt>
      <trkpt lat="35.9681827" lon="120.08868752">
        <time>2019-07-20T22:06:59.947000Z</time>
      </trkpt>
      <trkpt lat="35.96809247" lon="120.08871106">
        <time>2019-07-20T22:07:02.950000Z</time>
      </trkpt>
      <trkpt lat="35.96800091" lon="120.08875828">
        <time>2019-07-20T22:07:06.945000Z</time>
      </trkpt>
      <trkpt lat="35.96790959" lon="120.08883702">
        <time>2019-07-20T22:07:12.950000Z</time>
      </trkpt>
      <trkpt lat="35.96783254" lon="120.08891493">
        <time>2019-07-20T22:07:21.949000Z</time>
      </trkpt>
      <trkpt lat="35.96783254" lon="120.08891493">
        <time>2019-07-20T22:09:27.945000Z</time>
      </trkpt>
      <trkpt lat="35.96769443" lon="120.088933">
        <time>2019-07-20T22:09:27.959000Z</time>
      </trkpt>
      <trkpt lat="35.96761746" lon="120.0890027">
        <time>2019-07-20T22:09:43.950000Z</time>
      </trkpt>
      <trkpt lat="35.96761746" lon="120.0890027">
        <time>2019-07-20T22:10:20.955000Z</time>
      </trkpt>
      <trkpt lat="35.96747897" lon="120.08894683">
        <time>2019-07-20T22:10:20.965000Z</time>
      </trkpt>
      <trkpt lat="35.96747897" lon="120.08894683">
        <time>2019-07-20T22:10:44.141000Z</time>
      </trkpt>
      <trkpt lat="35.96747897" lon="120.08894683">
        <time>2019-07-20T22:10:44.152000Z</time>
      </trkpt>
      <trkpt lat="35.96739051" lon="120.08902891">
        <time>2019-07-20T22:10:46.951000Z</time>
      </trkpt>
      <trkpt lat="35.96731954" lon="120.08910314">
        <time>2019-07-20T22:11:14.952000Z</time>
      </trkpt>
      <trkpt lat="35.96725559" lon="120.08900477">
        <time>2019-07-20T22:11:34.966000Z</time>
      </trkpt>
      <trkpt lat="35.96723805" lon="120.0888928">
        <time>2019-07-20T22:11:44.951000Z</time>
      </trkpt>
      <trkpt lat="35.96723805" lon="120.0888928">
        <time>2019-07-20T22:12:17.948000Z</time>
      </trkpt>
      <trkpt lat="35.96723805" lon="120.0888928">
        <time>2019-07-20T22:12:17.977000Z</time>
      </trkpt>
      <trkpt lat="35.96719544" lon="120.08899299">
        <time>2019-07-20T22:12:28.950000Z</time>
      </trkpt>
      <trkpt lat="35.96712494" lon="120.08906481">
        <time>2019-07-20T22:12:38.951000Z</time>
      </trkpt>
      <trkpt lat="35.96703361" lon="120.08908882">
        <time>2019-07-20T22:12:46.953000Z</time>
      </trkpt>
      <trkpt lat="35.96694884" lon="120.08914449">
        <time>2019-07-20T22:13:04.953000Z</time>
      </trkpt>
      <trkpt lat="35.96686678" lon="120.08919723">
        <time>2019-07-20T22:13:15.951000Z</time>
      </trkpt>
      <trkpt lat="35.96677563" lon="120.08920688">
        <time>2019-07-20T22:13:30.946000Z</time>
      </trkpt>
      <trkpt lat="35.96668549" lon="120.08924676">
        <time>2019-07-20T22:13:42.954000Z</time>
      </trkpt>
      <trkpt lat="35.96659536" lon="120.08928274">
        <time>2019-07-20T22:13:56.964000Z</time>
      </trkpt>
      <trkpt lat="35.96650926" lon="120.08932603">
        <time>2019-07-20T22:14:03.955000Z</time>
      </trkpt>
      <trkpt lat="35.96643095" lon="120.08938537">
        <time>2019-07-20T22:14:14.947000Z</time>
      </trkpt>
      <trkpt lat="35.96634243" lon="120.08942334">
        <time>2019-07-20T22:14:31.966000Z</time>
      </trkpt>
      <trkpt lat="35.96624637" lon="120.089411">
        <time>2019-07-20T22:14:47.953000Z</time>
      </trkpt>
      <trkpt lat="35.96616715" lon="120.08948172">
        <time>2019-07-20T22:14:59.957000Z</time>
      </trkpt>
      <trkpt lat="35.96611319" lon="120.0895706">
        <time>2019-07-20T22:15:14.959000Z</time>
      </trkpt>
      <trkpt lat="35.96603643" lon="120.08963234">
        <time>2019-07-20T22:15:24.945000Z</time>
      </trkpt>
      <trkpt lat="35.96595031" lon="120.08968113">
        <time>2019-07-20T22:15:37.955000Z</time>
      </trkpt>
      <trkpt lat="35.96587017" lon="120.08975206">
        <time>2019-07-20T22:15:52.952000Z</time>
      </trkpt>
      <trkpt lat="35.96577864" lon="120.08980533">
        <time>2019-07-20T22:16:00.951000Z</time>
      </trkpt>
      <trkpt lat="35.96568754" lon="120.08983751">
        <time>2019-07-20T22:16:09.955000Z</time>
      </trkpt>
      <trkpt lat="35.96568754" lon="120.08983751">
        <time>2019-07-20T22:16:47.962000Z</time>
      </trkpt>
      <trkpt lat="35.96568754" lon="120.08983751">
        <time>2019-07-20T22:16:47.980000Z</time>
      </trkpt>
      <trkpt lat="35.9656025" lon="120.08978883">
        <time>2019-07-20T22:16:52.960000Z</time>
      </trkpt>
      <trkpt lat="35.9656025" lon="120.08978883">
        <time>2019-07-20T22:17:03.947000Z</time>
      </trkpt>
      <trkpt lat="35.9656025" lon="120.08978883">
        <time>2019-07-20T22:17:03.967000Z</time>
      </trkpt>
      <trkpt lat="35.96552184" lon="120.08983841">
        <time>2019-07-20T22:17:08.953000Z</time>
      </trkpt>
      <trkpt lat="35.96543343" lon="120.08986169">
        <time>2019-07-20T22:17:24.970000Z</time>
      </trkpt>
      <trkpt lat="35.96534202" lon="120.08983534">
        <time>2019-07-20T22:17:35.953000Z</time>
      </trkpt>
      <trkpt lat="35.96524752" lon="120.08981235">
        <time>2019-07-20T22:17:49.956000Z</time>
      </trkpt>
      <trkpt lat="35.96515322" lon="120.08980116">
        <time>2019-07-20T22:18:01.954000Z</time>
      </trkpt>
      <trkpt lat="35.96506618" lon="120.08984371">
        <time>2019-07-20T22:18:19.953000Z</time>
      </trkpt>
      <trkpt lat="35.96506618" lon="120.08984371">
        <time>2019-07-20T22:19:10.954000Z</time>
      </trkpt>
      <trkpt lat="35.96506618" lon="120.08984371">
        <time>2019-07-20T22:19:10.975000Z</time>
      </trkpt>
      <trkpt lat="35.9650226" lon="120.08974383">
        <time>2019-07-20T22:19:15.960000Z</time>
      </trkpt>
      <trkpt lat="35.96493637" lon="120.08978612">
        <time>2019-07-20T22:19:32.957000Z</time>
      </trkpt>
      <trkpt lat="35.96486743" lon="120.08971343">
        <time>2019-07-20T22:19:48.962000Z</time>
      </trkpt>
      <trkpt lat="35.96480206" lon="120.0896358">
        <time>2019-07-20T22:19:59.962000Z</time>
      </trkpt>
      <trkpt lat="35.9647074" lon="120.089646">
        <time>2019-07-20T22:20:13.958000Z</time>
      </trkpt>
      <trkpt lat="35.96463957" lon="120.08955008">
        <time>2019-07-20T22:20:27.987000Z</time>
      </trkpt>
      <trkpt lat="35.96463957" lon="120.08955008">
        <time>2019-07-20T22:24:02.955000Z</time>
      </trkpt>
      <trkpt lat="35.96447929" lon="120.08970142">
        <time>2019-07-20T22:24:02.990000Z</time>
      </trkpt>
      <trkpt lat="35.96438578" lon="120.08969946">
        <time>2019-07-20T22:24:45.962000Z</time>
      </trkpt>
      <trkpt lat="35.9642933" lon="120.0896721">
        <time>2019-07-20T22:25:04.953000Z</time>
      </trkpt>
      <trkpt lat="35.9642933" lon="120.0896721">
        <time>2019-07-20T22:25:16.955000Z</time>
      </trkpt>
      <trkpt lat="35.9642933" lon="120.0896721">
        <time>2019-07-20T22:25:16.985000Z</time>
      </trkpt>
      <trkpt lat="35.96419045" lon="120.08973066">
        <time>2019-07-20T22:25:19.953000Z</time>
      </trkpt>
      <trkpt lat="35.96411263" lon="120.08978637">
        <time>2019-07-20T22:25:30.942000Z</time>
      </trkpt>
      <trkpt lat="35.96402516" lon="120.08982626">
        <time>2019-07-20T22:25:50.947000Z</time>
      </trkpt>
      <trkpt lat="35.96399875" lon="120.08993243">
        <time>2019-07-20T22:26:11.993000Z</time>
      </trkpt>
      <trkpt lat="35.96391115" lon="120.08997016">
        <time>2019-07-20T22:26:33.958000Z</time>
      </trkpt>
      <trkpt lat="35.96383793" lon="120.08990296">
        <time>2019-07-20T22:26:59.958000Z</time>
      </trkpt>
      <trkpt lat="35.9637528" lon="120.08986596">
        <time>2019-07-20T22:27:11.948000Z</time>
      </trkpt>
      <trkpt lat="35.96366882" lon="120.08991063">
        <time>2019-07-20T22:27:23.957000Z</time>
      </trkpt>
      <trkpt lat="35.96366882" lon="120.08991063">
        <time>2019-07-20T22:27:55.954000Z</time>
      </trkpt>
      <trkpt lat="35.96353675" lon="120.0899205">
        <time>2019-07-20T22:27:55.973000Z</time>
      </trkpt>
      <trkpt lat="35.96345325" lon="120.08996634">
        <time>2019-07-20T22:28:18.950000Z</time>
      </trkpt>
      <trkpt lat="35.96337882" lon="120.09003807">
        <time>2019-07-20T22:28:49.953000Z</time>
      </trkpt>
      <trkpt lat="35.96328804" lon="120.09007522">
        <time>2019-07-20T22:29:21.986000Z</time>
      </trkpt>
      <trkpt lat="35.96322575" lon="120.09015917">
        <time>2019-07-20T22:29:37.951000Z</time>
      </trkpt>
      <trkpt lat="35.96322575" lon="120.09015917">
        <time>2019-07-20T22:29:38.952000Z</time>
      </trkpt>
      <trkpt lat="35.96322575" lon="120.09015917">
        <time>2019-07-20T22:29:51.174000Z</time>
      </trkpt>
      <trkpt lat="35.96313777" lon="120.09018872">
        <time>2019-07-20T22:30:01.951000Z</time>
      </trkpt>
      <trkpt lat="35.96313777" lon="120.09018872">
        <time>2019-07-20T22:30:11.190000Z</time>
      </trkpt>
      <trkpt lat="35.96311916" lon="120.09030088">
        <time>2019-07-20T22:30:20.962000Z</time>
      </trkpt>
      <trkpt lat="35.96311916" lon="120.09030088">
        <time>2019-07-20T22:30:39.195000Z</time>
      </trkpt>
      <trkpt lat="35.96302632" lon="120.09029527">
        <time>2019-07-20T22:30:48.966000Z</time>
      </trkpt>
      <trkpt lat="35.96293368" lon="120.09025177">
        <time>2019-07-20T22:31:09.952000Z</time>
      </trkpt>
      <trkpt lat="35.96283653" lon="120.09021417">
        <time>2019-07-20T22:31:18.954000Z</time>
      </trkpt>
      <trkpt lat="35.96274256" lon="120.09018744">
        <time>2019-07-20T22:31:25.954000Z</time>
      </trkpt>
      <trkpt lat="35.9626699" lon="120.09012053">
        <time>2019-07-20T22:31:36.972000Z</time>
      </trkpt>
      <trkpt lat="35.96257178" lon="120.09012363">
        <time>2019-07-20T22:31:49.951000Z</time>
      </trkpt>
      <trkpt lat="35.96257178" lon="120.09012363">
        <time>2019-07-20T22:32:18.960000Z</time>
      </trkpt>
      <trkpt lat="35.96242892" lon="120.09013341">
        <time>2019-07-20T22:32:18.982000Z</time>
      </trkpt>
      <trkpt lat="35.96234111" lon="120.09010172">
        <time>2019-07-20T22:32:26.994000Z</time>
      </trkpt>
      <trkpt lat="35.96234111" lon="120.09010172">
        <time>2019-07-20T22:34:05.947000Z</time>
      </trkpt>
      <trkpt lat="35.96234111" lon="120.09010172">
        <time>2019-07-20T22:34:06.055000Z</time>
      </trkpt>
      <trkpt lat="35.96225649" lon="120.09015081">
        <time>2019-07-20T22:34:07.945000Z</time>
      </trkpt>
      <trkpt lat="35.96216777" lon="120.09017653">
        <time>2019-07-20T22:34:18.951000Z</time>
      </trkpt>
      <trkpt lat="35.96216777" lon="120.09017653">
        <time>2019-07-20T22:34:57.955000Z</time>
      </trkpt>
      <trkpt lat="35.96216777" lon="120.09017653">
        <time>2019-07-20T22:34:58.046000Z</time>
      </trkpt>
      <trkpt lat="35.96210762" lon="120.09009166">
        <time>2019-07-20T22:35:02.944000Z</time>
      </trkpt>
      <trkpt lat="35.96210762" lon="120.09009166">
        <time>2019-07-20T22:35:37.960000Z</time>
      </trkpt>
      <trkpt lat="35.96203923" lon="120.08996736">
        <time>2019-07-20T22:35:38.013000Z</time>
      </trkpt>
      <trkpt lat="35.96195082" lon="120.08993562">
        <time>2019-07-20T22:36:01.960000Z</time>
      </trkpt>
      <trkpt lat="35.96185528" lon="120.08995017">
        <time>2019-07-20T22:36:12.947000Z</time>
      </trkpt>
      <trkpt lat="35.96161536" lon="120.08988012">
        <time>2019-07-20T22:36:52.053000Z</time>
      </trkpt>
      <trkpt lat="35.96161536" lon="120.08988012">
        <time>2019-07-20T22:36:57.942000Z</time>
      </trkpt>
      <trkpt lat="35.96154562" lon="120.08979991">
        <time>2019-07-20T22:36:57.966000Z</time>
      </trkpt>
      <trkpt lat="35.96154562" lon="120.08979991">
        <time>2019-07-20T22:51:30.943000Z</time>
      </trkpt>
      <trkpt lat="35.96154562" lon="120.08979991">
        <time>2019-07-20T22:51:30.965000Z</time>
      </trkpt>
      <trkpt lat="35.96161152" lon="120.08988724">
        <time>2019-07-20T22:51:34.953000Z</time>
      </trkpt>
      <trkpt lat="35.96161152" lon="120.08988724">
        <time>2019-07-20T22:52:58.942000Z</time>
      </trkpt>
      <trkpt lat="35.96161152" lon="120.08988724">
        <time>2019-07-20T22:52:58.958000Z</time>
      </trkpt>
      <trkpt lat="35.96161152" lon="120.08988724">
        <time>2019-07-20T22:53:17.956000Z</time>
      </trkpt>
      <trkpt lat="35.96161152" lon="120.08988724">
        <time>2019-07-20T22:53:17.980000Z</time>
      </trkpt>
      <trkpt lat="35.96161152" lon="120.08988724">
        <time>2019-07-20T22:57:58.965000Z</time>
      </trkpt>
      <trkpt lat="35.96173829" lon="120.08993644">
        <time>2019-07-20T22:57:58.983000Z</time>
      </trkpt>
      <trkpt lat="35.96182722" lon="120.08995796">
        <time>2019-07-20T22:58:05.961000Z</time>
      </trkpt>
      <trkpt lat="35.96182722" lon="120.08995796">
        <time>2019-07-20T22:58:10.959000Z</time>
      </trkpt>
      <trkpt lat="35.96191849" lon="120.08995533">
        <time>2019-07-20T22:58:12.960000Z</time>
      </trkpt>
      <trkpt lat="35.96191849" lon="120.08995533">
        <time>2019-07-20T22:58:23.783000Z</time>
      </trkpt>
      <trkpt lat="35.96199848" lon="120.0898957">
        <time>2019-07-20T22:58:23.967000Z</time>
      </trkpt>
      <trkpt lat="35.96199848" lon="120.0898957">
        <time>2019-07-20T22:58:34.795000Z</time>
      </trkpt>
      <trkpt lat="35.96201266" lon="120.09001239">
        <time>2019-07-20T22:58:41.943000Z</time>
      </trkpt>
      <trkpt lat="35.96209937" lon="120.09007041">
        <time>2019-07-20T22:58:54.943000Z</time>
      </trkpt>
      <trkpt lat="35.96212581" lon="120.09017879">
        <time>2019-07-20T22:59:05.955000Z</time>
      </trkpt>
      <trkpt lat="35.96212581" lon="120.09017879">
        <time>2019-07-20T22:59:19.945000Z</time>
      </trkpt>
      <trkpt lat="35.96212581" lon="120.09017879">
        <time>2019-07-20T22:59:29.935000Z</time>
      </trkpt>
      <trkpt lat="35.9622237" lon="120.09017588">
        <time>2019-07-20T22:59:32.948000Z</time>
      </trkpt>
      <trkpt lat="35.9622237" lon="120.09017588">
        <time>2019-07-20T23:05:19.966000Z</time>
      </trkpt>
      <trkpt lat="35.9622237" lon="120.09017588">
        <time>2019-07-20T23:05:19.981000Z</time>
      </trkpt>
      <trkpt lat="35.96232122" lon="120.09013846">
        <time>2019-07-20T23:05:22.953000Z</time>
      </trkpt>
      <trkpt lat="35.96241111" lon="120.09018258">
        <time>2019-07-20T23:05:33.960000Z</time>
      </trkpt>
      <trkpt lat="35.96249303" lon="120.09013282">
        <time>2019-07-20T23:05:46.958000Z</time>
      </trkpt>
      <trkpt lat="35.96258829" lon="120.09010038">
        <time>2019-07-20T23:06:00.956000Z</time>
      </trkpt>
      <trkpt lat="35.96268658" lon="120.09010014">
        <time>2019-07-20T23:06:08.961000Z</time>
      </trkpt>
      <trkpt lat="35.9627575" lon="120.0901703">
        <time>2019-07-20T23:06:21.947000Z</time>
      </trkpt>
      <trkpt lat="35.96284187" lon="120.09021443">
        <time>2019-07-20T23:06:30.946000Z</time>
      </trkpt>
      <trkpt lat="35.96292823" lon="120.09027234">
        <time>2019-07-20T23:06:39.955000Z</time>
      </trkpt>
      <trkpt lat="35.96302321" lon="120.0902866">
        <time>2019-07-20T23:06:57.057000Z</time>
      </trkpt>
      <trkpt lat="35.96309033" lon="120.09020328">
        <time>2019-07-20T23:07:21.956000Z</time>
      </trkpt>
      <trkpt lat="35.96315535" lon="120.09012277">
        <time>2019-07-20T23:07:42.945000Z</time>
      </trkpt>
      <trkpt lat="35.96319645" lon="120.0900183">
        <time>2019-07-20T23:08:14.955000Z</time>
      </trkpt>
      <trkpt lat="35.96329009" lon="120.0900238">
        <time>2019-07-20T23:08:28.954000Z</time>
      </trkpt>
      <trkpt lat="35.96329009" lon="120.0900238">
        <time>2019-07-20T23:08:54.942000Z</time>
      </trkpt>
      <trkpt lat="35.96338244" lon="120.08998749">
        <time>2019-07-20T23:08:54.977000Z</time>
      </trkpt>
      <trkpt lat="35.96346772" lon="120.08994493">
        <time>2019-07-20T23:09:10.971000Z</time>
      </trkpt>
      <trkpt lat="35.96346772" lon="120.08994493">
        <time>2019-07-20T23:09:19.942000Z</time>
      </trkpt>
      <trkpt lat="35.96356172" lon="120.08994214">
        <time>2019-07-20T23:09:25.952000Z</time>
      </trkpt>
      <trkpt lat="35.96356172" lon="120.08994214">
        <time>2019-07-20T23:09:29.941000Z</time>
      </trkpt>
      <trkpt lat="35.96366266" lon="120.0899148">
        <time>2019-07-20T23:09:35.935000Z</time>
      </trkpt>
      <trkpt lat="35.96376481" lon="120.089907">
        <time>2019-07-20T23:09:42.950000Z</time>
      </trkpt>
      <trkpt lat="35.96376481" lon="120.089907">
        <time>2019-07-20T23:09:46.936000Z</time>
      </trkpt>
      <trkpt lat="35.96385492" lon="120.08987811">
        <time>2019-07-20T23:09:48.958000Z</time>
      </trkpt>
      <trkpt lat="35.96389664" lon="120.08997869">
        <time>2019-07-20T23:09:59.948000Z</time>
      </trkpt>
      <trkpt lat="35.96389664" lon="120.08997869">
        <time>2019-07-20T23:10:27.946000Z</time>
      </trkpt>
      <trkpt lat="35.9639862" lon="120.08999134">
        <time>2019-07-20T23:10:27.963000Z</time>
      </trkpt>
      <trkpt lat="35.9639862" lon="120.08999134">
        <time>2019-07-20T23:10:45.941000Z</time>
      </trkpt>
      <trkpt lat="35.9639862" lon="120.08999134">
        <time>2019-07-20T23:10:45.960000Z</time>
      </trkpt>
      <trkpt lat="35.96404127" lon="120.08989991">
        <time>2019-07-20T23:10:48.961000Z</time>
      </trkpt>
      <trkpt lat="35.96411165" lon="120.08982177">
        <time>2019-07-20T23:11:19.967000Z</time>
      </trkpt>
      <trkpt lat="35.96418462" lon="120.08975001">
        <time>2019-07-20T23:11:29.959000Z</time>
      </trkpt>
      <trkpt lat="35.96428121" lon="120.0897078">
        <time>2019-07-20T23:11:40.950000Z</time>
      </trkpt>
      <trkpt lat="35.96428121" lon="120.0897078">
        <time>2019-07-20T23:11:56.962000Z</time>
      </trkpt>
      <trkpt lat="35.96428121" lon="120.0897078">
        <time>2019-07-20T23:11:57.001000Z</time>
      </trkpt>
      <trkpt lat="35.96426529" lon="120.08959625">
        <time>2019-07-20T23:12:05.958000Z</time>
      </trkpt>
      <trkpt lat="35.96421846" lon="120.08949879">
        <time>2019-07-20T23:12:24.950000Z</time>
      </trkpt>
      <trkpt lat="35.96422947" lon="120.08938182">
        <time>2019-07-20T23:12:35.953000Z</time>
      </trkpt>
      <trkpt lat="35.96425942" lon="120.08927149">
        <time>2019-07-20T23:12:47.961000Z</time>
      </trkpt>
      <trkpt lat="35.96430539" lon="120.08936809">
        <time>2019-07-20T23:12:58.970000Z</time>
      </trkpt>
      <trkpt lat="35.96436971" lon="120.08944607">
        <time>2019-07-20T23:13:10.951000Z</time>
      </trkpt>
      <trkpt lat="35.96444925" lon="120.08939182">
        <time>2019-07-20T23:13:34.962000Z</time>
      </trkpt>
      <trkpt lat="35.96444925" lon="120.08939182">
        <time>2019-07-20T23:13:49.939000Z</time>
      </trkpt>
      <trkpt lat="35.96444925" lon="120.08939182">
        <time>2019-07-20T23:13:49.974000Z</time>
      </trkpt>
      <trkpt lat="35.96453483" lon="120.08934314">
        <time>2019-07-20T23:13:58.968000Z</time>
      </trkpt>
      <trkpt lat="35.96460881" lon="120.08940813">
        <time>2019-07-20T23:14:13.945000Z</time>
      </trkpt>
      <trkpt lat="35.96466202" lon="120.0895068">
        <time>2019-07-20T23:14:24.960000Z</time>
      </trkpt>
      <trkpt lat="35.96467897" lon="120.08961659">
        <time>2019-07-20T23:14:33.956000Z</time>
      </trkpt>
      <trkpt lat="35.96477836" lon="120.08964258">
        <time>2019-07-20T23:14:42.959000Z</time>
      </trkpt>
      <trkpt lat="35.96487484" lon="120.08964974">
        <time>2019-07-20T23:14:51.950000Z</time>
      </trkpt>
      <trkpt lat="35.96487484" lon="120.08964974">
        <time>2019-07-20T23:14:59.946000Z</time>
      </trkpt>
      <trkpt lat="35.96491886" lon="120.08975563">
        <time>2019-07-20T23:15:01.942000Z</time>
      </trkpt>
      <trkpt lat="35.96491886" lon="120.08975563">
        <time>2019-07-20T23:15:09.955000Z</time>
      </trkpt>
      <trkpt lat="35.96500497" lon="120.08979952">
        <time>2019-07-20T23:15:15.961000Z</time>
      </trkpt>
      <trkpt lat="35.96500497" lon="120.08979952">
        <time>2019-07-20T23:15:39.494000Z</time>
      </trkpt>
      <trkpt lat="35.96509284" lon="120.08984619">
        <time>2019-07-20T23:15:40.942000Z</time>
      </trkpt>
      <trkpt lat="35.96509284" lon="120.08984619">
        <time>2019-07-20T23:15:48.969000Z</time>
      </trkpt>
      <trkpt lat="35.96518172" lon="120.0898718">
        <time>2019-07-20T23:15:54.954000Z</time>
      </trkpt>
      <trkpt lat="35.9652597" lon="120.08980943">
        <time>2019-07-20T23:16:05.948000Z</time>
      </trkpt>
      <trkpt lat="35.96535001" lon="120.08981993">
        <time>2019-07-20T23:16:17.983000Z</time>
      </trkpt>
      <trkpt lat="35.96543498" lon="120.08986751">
        <time>2019-07-20T23:16:33.952000Z</time>
      </trkpt>
      <trkpt lat="35.96543498" lon="120.08986751">
        <time>2019-07-20T23:17:07.950000Z</time>
      </trkpt>
      <trkpt lat="35.96554471" lon="120.08982996">
        <time>2019-07-20T23:17:07.977000Z</time>
      </trkpt>
      <trkpt lat="35.96562308" lon="120.08977097">
        <time>2019-07-20T23:17:22.964000Z</time>
      </trkpt>
      <trkpt lat="35.96568946" lon="120.08985278">
        <time>2019-07-20T23:17:34.956000Z</time>
      </trkpt>
      <trkpt lat="35.96577258" lon="120.08978974">
        <time>2019-07-20T23:17:52.939000Z</time>
      </trkpt>
      <trkpt lat="35.96582953" lon="120.08969988">
        <time>2019-07-20T23:18:04.950000Z</time>
      </trkpt>
      <trkpt lat="35.96590244" lon="120.08963466">
        <time>2019-07-20T23:18:26.972000Z</time>
      </trkpt>
      <trkpt lat="35.96599489" lon="120.08960511">
        <time>2019-07-20T23:18:37.943000Z</time>
      </trkpt>
      <trkpt lat="35.96599489" lon="120.08960511">
        <time>2019-07-20T23:18:44.702000Z</time>
      </trkpt>
      <trkpt lat="35.96608113" lon="120.08956803">
        <time>2019-07-20T23:18:46.952000Z</time>
      </trkpt>
      <trkpt lat="35.96608113" lon="120.08956803">
        <time>2019-07-20T23:18:55.626000Z</time>
      </trkpt>
      <trkpt lat="35.96615427" lon="120.08950077">
        <time>2019-07-20T23:19:01.952000Z</time>
      </trkpt>
      <trkpt lat="35.96623711" lon="120.08943854">
        <time>2019-07-20T23:19:13.955000Z</time>
      </trkpt>
      <trkpt lat="35.96630835" lon="120.08936355">
        <time>2019-07-20T23:19:23.940000Z</time>
      </trkpt>
      <trkpt lat="35.96639442" lon="120.08932704">
        <time>2019-07-20T23:19:33.938000Z</time>
      </trkpt>
      <trkpt lat="35.96648518" lon="120.08931152">
        <time>2019-07-20T23:19:44.958000Z</time>
      </trkpt>
      <trkpt lat="35.96658021" lon="120.08928372">
        <time>2019-07-20T23:19:54.938000Z</time>
      </trkpt>
      <trkpt lat="35.96666381" lon="120.0892323">
        <time>2019-07-20T23:20:04.974000Z</time>
      </trkpt>
      <trkpt lat="35.96675358" lon="120.08922253">
        <time>2019-07-20T23:20:15.961000Z</time>
      </trkpt>
      <trkpt lat="35.96684731" lon="120.08925005">
        <time>2019-07-20T23:20:27.994000Z</time>
      </trkpt>
      <trkpt lat="35.96691027" lon="120.08916469">
        <time>2019-07-20T23:20:36.953000Z</time>
      </trkpt>
      <trkpt lat="35.96699911" lon="120.0891837">
        <time>2019-07-20T23:20:45.959000Z</time>
      </trkpt>
      <trkpt lat="35.96699911" lon="120.0891837">
        <time>2019-07-20T23:20:56.955000Z</time>
      </trkpt>
      <trkpt lat="35.96708576" lon="120.08922424">
        <time>2019-07-20T23:20:57.951000Z</time>
      </trkpt>
      <trkpt lat="35.96716003" lon="120.08914859">
        <time>2019-07-20T23:21:05.963000Z</time>
      </trkpt>
      <trkpt lat="35.96716003" lon="120.08914859">
        <time>2019-07-20T23:21:06.955000Z</time>
      </trkpt>
      <trkpt lat="35.96720074" lon="120.08904557">
        <time>2019-07-20T23:21:12.957000Z</time>
      </trkpt>
      <trkpt lat="35.96729379" lon="120.08905092">
        <time>2019-07-20T23:21:25.939000Z</time>
      </trkpt>
      <trkpt lat="35.96729379" lon="120.08905092">
        <time>2019-07-20T23:21:36.454000Z</time>
      </trkpt>
      <trkpt lat="35.96738481" lon="120.08901736">
        <time>2019-07-20T23:21:37.957000Z</time>
      </trkpt>
      <trkpt lat="35.96746323" lon="120.08894909">
        <time>2019-07-20T23:21:48.953000Z</time>
      </trkpt>
      <trkpt lat="35.96746323" lon="120.08894909">
        <time>2019-07-20T23:21:53.952000Z</time>
      </trkpt>
      <trkpt lat="35.96755498" lon="120.08890705">
        <time>2019-07-20T23:22:01.959000Z</time>
      </trkpt>
      <trkpt lat="35.96763914" lon="120.08884627">
        <time>2019-07-20T23:22:12.949000Z</time>
      </trkpt>
      <trkpt lat="35.96763914" lon="120.08884627">
        <time>2019-07-20T23:22:18.464000Z</time>
      </trkpt>
      <trkpt lat="35.96772317" lon="120.08879561">
        <time>2019-07-20T23:22:21.949000Z</time>
      </trkpt>
      <trkpt lat="35.96772317" lon="120.08879561">
        <time>2019-07-20T23:22:28.951000Z</time>
      </trkpt>
      <trkpt lat="35.96781294" lon="120.08875337">
        <time>2019-07-20T23:22:32.953000Z</time>
      </trkpt>
      <trkpt lat="35.96781294" lon="120.08875337">
        <time>2019-07-20T23:22:40.657000Z</time>
      </trkpt>
      <trkpt lat="35.96788796" lon="120.08868655">
        <time>2019-07-20T23:22:43.944000Z</time>
      </trkpt>
      <trkpt lat="35.96788796" lon="120.08868655">
        <time>2019-07-20T23:23:08.959000Z</time>
      </trkpt>
      <trkpt lat="35.96799891" lon="120.08866397">
        <time>2019-07-20T23:23:08.974000Z</time>
      </trkpt>
      <trkpt lat="35.96799891" lon="120.08866397">
        <time>2019-07-20T23:23:19.520000Z</time>
      </trkpt>
      <trkpt lat="35.96808927" lon="120.08865005">
        <time>2019-07-20T23:23:20.953000Z</time>
      </trkpt>
      <trkpt lat="35.96817768" lon="120.0886732">
        <time>2019-07-20T23:23:31.952000Z</time>
      </trkpt>
      <trkpt lat="35.96827519" lon="120.0886708">
        <time>2019-07-20T23:23:39.949000Z</time>
      </trkpt>
      <trkpt lat="35.96836425" lon="120.0886431">
        <time>2019-07-20T23:23:51.952000Z</time>
      </trkpt>
      <trkpt lat="35.96836425" lon="120.0886431">
        <time>2019-07-20T23:23:52.740000Z</time>
      </trkpt>
      <trkpt lat="35.96845831" lon="120.08862805">
        <time>2019-07-20T23:24:03.954000Z</time>
      </trkpt>
      <trkpt lat="35.96845831" lon="120.08862805">
        <time>2019-07-20T23:24:04.766000Z</time>
      </trkpt>
      <trkpt lat="35.96855349" lon="120.088611">
        <time>2019-07-20T23:24:15.960000Z</time>
      </trkpt>
      <trkpt lat="35.96864072" lon="120.0885648">
        <time>2019-07-20T23:24:28.953000Z</time>
      </trkpt>
      <trkpt lat="35.96864072" lon="120.0885648">
        <time>2019-07-20T23:24:41.813000Z</time>
      </trkpt>
      <trkpt lat="35.9687274" lon="120.08852638">
        <time>2019-07-20T23:24:50.954000Z</time>
      </trkpt>
      <trkpt lat="35.9687274" lon="120.08852638">
        <time>2019-07-20T23:24:52.951000Z</time>
      </trkpt>
      <trkpt lat="35.96879871" lon="120.08844511">
        <time>2019-07-20T23:25:01.967000Z</time>
      </trkpt>
      <trkpt lat="35.96889257" lon="120.08843809">
        <time>2019-07-20T23:25:12.953000Z</time>
      </trkpt>
      <trkpt lat="35.96889257" lon="120.08843809">
        <time>2019-07-20T23:25:17.950000Z</time>
      </trkpt>
      <trkpt lat="35.96890807" lon="120.08855356">
        <time>2019-07-20T23:25:19.949000Z</time>
      </trkpt>
      <trkpt lat="35.96889519" lon="120.08866547">
        <time>2019-07-20T23:25:24.957000Z</time>
      </trkpt>
      <trkpt lat="35.96897129" lon="120.08873932">
        <time>2019-07-20T23:25:32.945000Z</time>
      </trkpt>
      <trkpt lat="35.96906028" lon="120.08866294">
        <time>2019-07-20T23:25:39.955000Z</time>
      </trkpt>
      <trkpt lat="35.96913165" lon="120.08858959">
        <time>2019-07-20T23:25:46.945000Z</time>
      </trkpt>
      <trkpt lat="35.96913165" lon="120.08858959">
        <time>2019-07-20T23:25:56.605000Z</time>
      </trkpt>
      <trkpt lat="35.96922369" lon="120.0885847">
        <time>2019-07-20T23:26:01.957000Z</time>
      </trkpt>
      <trkpt lat="35.96928949" lon="120.08850887">
        <time>2019-07-20T23:26:16.965000Z</time>
      </trkpt>
      <trkpt lat="35.96935023" lon="120.08841364">
        <time>2019-07-20T23:26:30.991000Z</time>
      </trkpt>
      <trkpt lat="35.96935023" lon="120.08841364">
        <time>2019-07-20T23:26:45.027000Z</time>
      </trkpt>
      <trkpt lat="35.96943666" lon="120.08833665">
        <time>2019-07-20T23:26:48.950000Z</time>
      </trkpt>
      <trkpt lat="35.96948833" lon="120.0882347">
        <time>2019-07-20T23:26:53.940000Z</time>
      </trkpt>
      <trkpt lat="35.96948833" lon="120.0882347">
        <time>2019-07-20T23:26:56.947000Z</time>
      </trkpt>
      <trkpt lat="35.96948833" lon="120.0882347">
        <time>2019-07-20T23:27:06.965000Z</time>
      </trkpt>
      <trkpt lat="35.96953126" lon="120.08813703">
        <time>2019-07-20T23:27:10.966000Z</time>
      </trkpt>
      <trkpt lat="35.96953126" lon="120.08813703">
        <time>2019-07-20T23:27:31.246000Z</time>
      </trkpt>
      <trkpt lat="35.96959228" lon="120.08805166">
        <time>2019-07-20T23:27:34.950000Z</time>
      </trkpt>
      <trkpt lat="35.96959228" lon="120.08805166">
        <time>2019-07-20T23:27:40.956000Z</time>
      </trkpt>
      <trkpt lat="35.96968199" lon="120.08803394">
        <time>2019-07-20T23:27:48.049000Z</time>
      </trkpt>
      <trkpt lat="35.96976382" lon="120.087988">
        <time>2019-07-20T23:27:53.951000Z</time>
      </trkpt>
      <trkpt lat="35.96976382" lon="120.087988">
        <time>2019-07-20T23:27:57.471000Z</time>
      </trkpt>
      <trkpt lat="35.96984578" lon="120.08791588">
        <time>2019-07-20T23:28:04.955000Z</time>
      </trkpt>
      <trkpt lat="35.96984578" lon="120.08791588">
        <time>2019-07-20T23:28:07.436000Z</time>
      </trkpt>
      <trkpt lat="35.96991586" lon="120.08784514">
        <time>2019-07-20T23:28:11.943000Z</time>
      </trkpt>
      <trkpt lat="35.96991586" lon="120.08784514">
        <time>2019-07-20T23:28:17.953000Z</time>
      </trkpt>
      <trkpt lat="35.96999275" lon="120.08777755">
        <time>2019-07-20T23:28:26.007000Z</time>
      </trkpt>
      <trkpt lat="35.9700829" lon="120.08771487">
        <time>2019-07-20T23:28:36.982000Z</time>
      </trkpt>
      <trkpt lat="35.97016647" lon="120.08764375">
        <time>2019-07-20T23:28:46.957000Z</time>
      </trkpt>
      <trkpt lat="35.9702536" lon="120.08758845">
        <time>2019-07-20T23:28:52.960000Z</time>
      </trkpt>
      <trkpt lat="35.9702536" lon="120.08758845">
        <time>2019-07-20T23:28:55.369000Z</time>
      </trkpt>
      <trkpt lat="35.97030504" lon="120.0874971">
        <time>2019-07-20T23:28:59.954000Z</time>
      </trkpt>
      <trkpt lat="35.97034827" lon="120.08739201">
        <time>2019-07-20T23:29:08.951000Z</time>
      </trkpt>
      <trkpt lat="35.97034827" lon="120.08739201">
        <time>2019-07-20T23:29:12.402000Z</time>
      </trkpt>
      <trkpt lat="35.97038903" lon="120.0872838">
        <time>2019-07-20T23:29:14.960000Z</time>
      </trkpt>
      <trkpt lat="35.97045872" lon="120.08720394">
        <time>2019-07-20T23:29:22.959000Z</time>
      </trkpt>
      <trkpt lat="35.97045872" lon="120.08720394">
        <time>2019-07-20T23:29:29.431000Z</time>
      </trkpt>
      <trkpt lat="35.97052586" lon="120.08711648">
        <time>2019-07-20T23:29:33.954000Z</time>
      </trkpt>
      <trkpt lat="35.97052586" lon="120.08711648">
        <time>2019-07-20T23:29:38.961000Z</time>
      </trkpt>
      <trkpt lat="35.97059961" lon="120.08705153">
        <time>2019-07-20T23:29:49.964000Z</time>
      </trkpt>
      <trkpt lat="35.97068765" lon="120.08707751">
        <time>2019-07-20T23:29:58.958000Z</time>
      </trkpt>
      <trkpt lat="35.9707169" lon="120.08695001">
        <time>2019-07-20T23:30:03.944000Z</time>
      </trkpt>
      <trkpt lat="35.97077944" lon="120.08683782">
        <time>2019-07-20T23:30:08.949000Z</time>
      </trkpt>
      <trkpt lat="35.97083393" lon="120.08673678">
        <time>2019-07-20T23:30:12.957000Z</time>
      </trkpt>
      <trkpt lat="35.97088907" lon="120.08664085">
        <time>2019-07-20T23:30:17.961000Z</time>
      </trkpt>
      <trkpt lat="35.97094497" lon="120.08654008">
        <time>2019-07-20T23:30:22.961000Z</time>
      </trkpt>
      <trkpt lat="35.97100062" lon="120.08642606">
        <time>2019-07-20T23:30:27.950000Z</time>
      </trkpt>
      <trkpt lat="35.97107716" lon="120.08636241">
        <time>2019-07-20T23:30:31.949000Z</time>
      </trkpt>
      <trkpt lat="35.97115651" lon="120.08628313">
        <time>2019-07-20T23:30:35.954000Z</time>
      </trkpt>
      <trkpt lat="35.97125736" lon="120.08621626">
        <time>2019-07-20T23:30:39.972000Z</time>
      </trkpt>
      <trkpt lat="35.97135935" lon="120.08616396">
        <time>2019-07-20T23:30:43.951000Z</time>
      </trkpt>
      <trkpt lat="35.97145963" lon="120.08611984">
        <time>2019-07-20T23:30:46.958000Z</time>
      </trkpt>
      <trkpt lat="35.97155081" lon="120.08610004">
        <time>2019-07-20T23:30:49.957000Z</time>
      </trkpt>
      <trkpt lat="35.97166313" lon="120.08607443">
        <time>2019-07-20T23:30:53.955000Z</time>
      </trkpt>
      <trkpt lat="35.97175859" lon="120.0860818">
        <time>2019-07-20T23:30:57.953000Z</time>
      </trkpt>
      <trkpt lat="35.97186278" lon="120.08609954">
        <time>2019-07-20T23:31:01.956000Z</time>
      </trkpt>
      <trkpt lat="35.97195415" lon="120.08605966">
        <time>2019-07-20T23:31:05.957000Z</time>
      </trkpt>
      <trkpt lat="35.97200566" lon="120.08596634">
        <time>2019-07-20T23:31:09.953000Z</time>
      </trkpt>
      <trkpt lat="35.97197769" lon="120.08583599">
        <time>2019-07-20T23:31:13.954000Z</time>
      </trkpt>
      <trkpt lat="35.97192219" lon="120.0857282">
        <time>2019-07-20T23:31:18.956000Z</time>
      </trkpt>
      <trkpt lat="35.97194426" lon="120.08560229">
        <time>2019-07-20T23:31:22.959000Z</time>
      </trkpt>
      <trkpt lat="35.97201937" lon="120.08549987">
        <time>2019-07-20T23:31:27.962000Z</time>
      </trkpt>
      <trkpt lat="35.97208978" lon="120.08542711">
        <time>2019-07-20T23:31:31.957000Z</time>
      </trkpt>
      <trkpt lat="35.97218971" lon="120.08542416">
        <time>2019-07-20T23:31:36.949000Z</time>
      </trkpt>
      <trkpt lat="35.97230002" lon="120.08541291">
        <time>2019-07-20T23:31:41.942000Z</time>
      </trkpt>
      <trkpt lat="35.972391" lon="120.08538483">
        <time>2019-07-20T23:31:45.953000Z</time>
      </trkpt>
      <trkpt lat="35.9724922" lon="120.08537332">
        <time>2019-07-20T23:31:49.954000Z</time>
      </trkpt>
      <trkpt lat="35.97258188" lon="120.0854439">
        <time>2019-07-20T23:31:53.953000Z</time>
      </trkpt>
      <trkpt lat="35.97268546" lon="120.08545078">
        <time>2019-07-20T23:31:58.961000Z</time>
      </trkpt>
      <trkpt lat="35.97277466" lon="120.08539206">
        <time>2019-07-20T23:32:02.965000Z</time>
      </trkpt>
      <trkpt lat="35.97286491" lon="120.0853657">
        <time>2019-07-20T23:32:06.955000Z</time>
      </trkpt>
      <trkpt lat="35.97295649" lon="120.08533565">
        <time>2019-07-20T23:32:10.964000Z</time>
      </trkpt>
      <trkpt lat="35.97306204" lon="120.08526888">
        <time>2019-07-20T23:32:14.947000Z</time>
      </trkpt>
      <trkpt lat="35.97315544" lon="120.08520621">
        <time>2019-07-20T23:32:18.959000Z</time>
      </trkpt>
      <trkpt lat="35.97325196" lon="120.08519453">
        <time>2019-07-20T23:32:22.962000Z</time>
      </trkpt>
      <trkpt lat="35.9733539" lon="120.08516702">
        <time>2019-07-20T23:32:26.968000Z</time>
      </trkpt>
      <trkpt lat="35.97345184" lon="120.08509633">
        <time>2019-07-20T23:32:30.960000Z</time>
      </trkpt>
      <trkpt lat="35.97353371" lon="120.08504707">
        <time>2019-07-20T23:32:34.949000Z</time>
      </trkpt>
      <trkpt lat="35.97361869" lon="120.08499218">
        <time>2019-07-20T23:32:39.958000Z</time>
      </trkpt>
      <trkpt lat="35.97371421" lon="120.08500381">
        <time>2019-07-20T23:32:43.954000Z</time>
      </trkpt>
      <trkpt lat="35.97378757" lon="120.08492993">
        <time>2019-07-20T23:32:47.960000Z</time>
      </trkpt>
      <trkpt lat="35.97385781" lon="120.08482225">
        <time>2019-07-20T23:32:53.952000Z</time>
      </trkpt>
      <trkpt lat="35.97393171" lon="120.08474486">
        <time>2019-07-20T23:32:57.943000Z</time>
      </trkpt>
      <trkpt lat="35.97402618" lon="120.08467988">
        <time>2019-07-20T23:33:01.951000Z</time>
      </trkpt>
      <trkpt lat="35.9741035" lon="120.08461177">
        <time>2019-07-20T23:33:05.956000Z</time>
      </trkpt>
      <trkpt lat="35.9741721" lon="120.08451967">
        <time>2019-07-20T23:33:10.949000Z</time>
      </trkpt>
      <trkpt lat="35.97424761" lon="120.08443733">
        <time>2019-07-20T23:33:15.959000Z</time>
      </trkpt>
      <trkpt lat="35.97434586" lon="120.08439279">
        <time>2019-07-20T23:33:21.954000Z</time>
      </trkpt>
      <trkpt lat="35.97441592" lon="120.08430465">
        <time>2019-07-20T23:33:26.954000Z</time>
      </trkpt>
      <trkpt lat="35.97446565" lon="120.08420969">
        <time>2019-07-20T23:33:31.960000Z</time>
      </trkpt>
      <trkpt lat="35.97453366" lon="120.08411765">
        <time>2019-07-20T23:33:36.959000Z</time>
      </trkpt>
      <trkpt lat="35.97464007" lon="120.08411123">
        <time>2019-07-20T23:33:41.955000Z</time>
      </trkpt>
      <trkpt lat="35.97472343" lon="120.08417066">
        <time>2019-07-20T23:33:46.953000Z</time>
      </trkpt>
      <trkpt lat="35.97482124" lon="120.08415852">
        <time>2019-07-20T23:33:51.956000Z</time>
      </trkpt>
      <trkpt lat="35.97491346" lon="120.08416818">
        <time>2019-07-20T23:33:55.942000Z</time>
      </trkpt>
      <trkpt lat="35.97500042" lon="120.08420176">
        <time>2019-07-20T23:33:59.958000Z</time>
      </trkpt>
      <trkpt lat="35.97509289" lon="120.08418065">
        <time>2019-07-20T23:34:03.961000Z</time>
      </trkpt>
      <trkpt lat="35.9751866" lon="120.08419248">
        <time>2019-07-20T23:34:07.951000Z</time>
      </trkpt>
      <trkpt lat="35.97528286" lon="120.0842176">
        <time>2019-07-20T23:34:12.957000Z</time>
      </trkpt>
      <trkpt lat="35.97528286" lon="120.0842176">
        <time>2019-07-20T23:34:16.951000Z</time>
      </trkpt>
      <trkpt lat="35.97537893" lon="120.084211">
        <time>2019-07-20T23:34:18.955000Z</time>
      </trkpt>
      <trkpt lat="35.97547984" lon="120.08418071">
        <time>2019-07-20T23:34:25.954000Z</time>
      </trkpt>
      <trkpt lat="35.97555805" lon="120.08412546">
        <time>2019-07-20T23:34:33.943000Z</time>
      </trkpt>
      <trkpt lat="35.97555805" lon="120.08412546">
        <time>2019-07-20T23:34:34.952000Z</time>
      </trkpt>
      <trkpt lat="35.97558748" lon="120.08401722">
        <time>2019-07-20T23:34:45.946000Z</time>
      </trkpt>
      <trkpt lat="35.97558748" lon="120.08401722">
        <time>2019-07-20T23:34:46.144000Z</time>
      </trkpt>
      <trkpt lat="35.97564338" lon="120.08392082">
        <time>2019-07-20T23:34:55.955000Z</time>
      </trkpt>
      <trkpt lat="35.97564338" lon="120.08392082">
        <time>2019-07-20T23:34:56.955000Z</time>
      </trkpt>
      <trkpt lat="35.97564338" lon="120.08392082">
        <time>2019-07-20T23:35:06.958000Z</time>
      </trkpt>
      <trkpt lat="35.97570879" lon="120.08383866">
        <time>2019-07-20T23:35:08.940000Z</time>
      </trkpt>
      <trkpt lat="35.97570879" lon="120.08383866">
        <time>2019-07-20T23:35:17.165000Z</time>
      </trkpt>
      <trkpt lat="35.97570923" lon="120.083724">
        <time>2019-07-20T23:35:18.957000Z</time>
      </trkpt>
      <trkpt lat="35.97570923" lon="120.083724">
        <time>2019-07-20T23:35:26.954000Z</time>
      </trkpt>
      <trkpt lat="35.97579588" lon="120.08367207">
        <time>2019-07-20T23:35:29.955000Z</time>
      </trkpt>
      <trkpt lat="35.97579588" lon="120.08367207">
        <time>2019-07-20T23:35:36.960000Z</time>
      </trkpt>
      <trkpt lat="35.97588541" lon="120.08362981">
        <time>2019-07-20T23:35:38.947000Z</time>
      </trkpt>
      <trkpt lat="35.97588541" lon="120.08362981">
        <time>2019-07-20T23:35:46.952000Z</time>
      </trkpt>
      <trkpt lat="35.97590597" lon="120.08351909">
        <time>2019-07-20T23:35:46.977000Z</time>
      </trkpt>
      <trkpt lat="35.97594461" lon="120.08341243">
        <time>2019-07-20T23:35:55.954000Z</time>
      </trkpt>
      <trkpt lat="35.97594461" lon="120.08341243">
        <time>2019-07-20T23:35:56.959000Z</time>
      </trkpt>
      <trkpt lat="35.97604108" lon="120.08337085">
        <time>2019-07-20T23:36:01.953000Z</time>
      </trkpt>
      <trkpt lat="35.9761478" lon="120.08332788">
        <time>2019-07-20T23:36:06.978000Z</time>
      </trkpt>
      <trkpt lat="35.97624649" lon="120.08328978">
        <time>2019-07-20T23:36:10.959000Z</time>
      </trkpt>
      <trkpt lat="35.97634415" lon="120.08326374">
        <time>2019-07-20T23:36:14.950000Z</time>
      </trkpt>
      <trkpt lat="35.97644111" lon="120.08326488">
        <time>2019-07-20T23:36:18.959000Z</time>
      </trkpt>
      <trkpt lat="35.97653051" lon="120.08323159">
        <time>2019-07-20T23:36:22.966000Z</time>
      </trkpt>
      <trkpt lat="35.97653051" lon="120.08323159">
        <time>2019-07-20T23:36:25.959000Z</time>
      </trkpt>
      <trkpt lat="35.97653051" lon="120.08323159">
        <time>2019-07-20T23:36:42.953000Z</time>
      </trkpt>
      <trkpt lat="35.97660647" lon="120.0833026">
        <time>2019-07-20T23:36:42.977000Z</time>
      </trkpt>
      <trkpt lat="35.97664129" lon="120.08340697">
        <time>2019-07-20T23:36:49.964000Z</time>
      </trkpt>
      <trkpt lat="35.97664129" lon="120.08340697">
        <time>2019-07-20T23:36:52.951000Z</time>
      </trkpt>
      <trkpt lat="35.97666501" lon="120.08352781">
        <time>2019-07-20T23:36:58.960000Z</time>
      </trkpt>
      <trkpt lat="35.97666501" lon="120.08352781">
        <time>2019-07-20T23:37:03.963000Z</time>
      </trkpt>
      <trkpt lat="35.9767216" lon="120.08363032">
        <time>2019-07-20T23:37:04.977000Z</time>
      </trkpt>
      <trkpt lat="35.97671903" lon="120.08374299">
        <time>2019-07-20T23:37:12.954000Z</time>
      </trkpt>
      <trkpt lat="35.97671903" lon="120.08374299">
        <time>2019-07-20T23:37:13.970000Z</time>
      </trkpt>
      <trkpt lat="35.97665871" lon="120.08384267">
        <time>2019-07-20T23:37:19Z</time>
      </trkpt>
      <trkpt lat="35.97659718" lon="120.08393653">
        <time>2019-07-20T23:37:24.948000Z</time>
      </trkpt>
      <trkpt lat="35.97661388" lon="120.08405096">
        <time>2019-07-20T23:37:34.955000Z</time>
      </trkpt>
      <trkpt lat="35.97660334" lon="120.08416875">
        <time>2019-07-20T23:37:41.952000Z</time>
      </trkpt>
      <trkpt lat="35.97651789" lon="120.08422691">
        <time>2019-07-20T23:37:48.952000Z</time>
      </trkpt>
      <trkpt lat="35.97657946" lon="120.08431061">
        <time>2019-07-20T23:37:54.943000Z</time>
      </trkpt>
      <trkpt lat="35.97666865" lon="120.0842915">
        <time>2019-07-20T23:37:57.959000Z</time>
      </trkpt>
      <trkpt lat="35.97676246" lon="120.08432056">
        <time>2019-07-20T23:38:01.960000Z</time>
      </trkpt>
      <trkpt lat="35.97685685" lon="120.0843119">
        <time>2019-07-20T23:38:07.952000Z</time>
      </trkpt>
      <trkpt lat="35.97685828" lon="120.08445519">
        <time>2019-07-20T23:38:15.948000Z</time>
      </trkpt>
      <trkpt lat="35.97686055" lon="120.08457753">
        <time>2019-07-20T23:38:20.952000Z</time>
      </trkpt>
      <trkpt lat="35.97694351" lon="120.08463185">
        <time>2019-07-20T23:38:26.961000Z</time>
      </trkpt>
      <trkpt lat="35.97701523" lon="120.08470011">
        <time>2019-07-20T23:38:31.959000Z</time>
      </trkpt>
      <trkpt lat="35.97701523" lon="120.08470011">
        <time>2019-07-20T23:38:33.270000Z</time>
      </trkpt>
      <trkpt lat="35.97702841" lon="120.08482611">
        <time>2019-07-20T23:38:42.960000Z</time>
      </trkpt>
      <trkpt lat="35.9770635" lon="120.08493663">
        <time>2019-07-20T23:38:48.956000Z</time>
      </trkpt>
      <trkpt lat="35.97711131" lon="120.08503732">
        <time>2019-07-20T23:38:55.944000Z</time>
      </trkpt>
      <trkpt lat="35.97710036" lon="120.08515155">
        <time>2019-07-20T23:39:03.954000Z</time>
      </trkpt>
      <trkpt lat="35.97710036" lon="120.08515155">
        <time>2019-07-20T23:39:14.941000Z</time>
      </trkpt>
      <trkpt lat="35.97718234" lon="120.08527827">
        <time>2019-07-20T23:39:14.952000Z</time>
      </trkpt>
      <trkpt lat="35.97718902" lon="120.08540058">
        <time>2019-07-20T23:39:23.942000Z</time>
      </trkpt>
      <trkpt lat="35.97718902" lon="120.08540058">
        <time>2019-07-20T23:39:25.246000Z</time>
      </trkpt>
      <trkpt lat="35.97721569" lon="120.08553098">
        <time>2019-07-20T23:39:30.120000Z</time>
      </trkpt>
      <trkpt lat="35.977229" lon="120.08565115">
        <time>2019-07-20T23:39:36.956000Z</time>
      </trkpt>
      <trkpt lat="35.9772819" lon="120.08574921">
        <time>2019-07-20T23:39:41.951000Z</time>
      </trkpt>
      <trkpt lat="35.97730541" lon="120.08587421">
        <time>2019-07-20T23:39:47.954000Z</time>
      </trkpt>
      <trkpt lat="35.97725461" lon="120.08598609">
        <time>2019-07-20T23:39:53.959000Z</time>
      </trkpt>
      <trkpt lat="35.97717723" lon="120.08607895">
        <time>2019-07-20T23:39:58.954000Z</time>
      </trkpt>
      <trkpt lat="35.97708943" lon="120.0861137">
        <time>2019-07-20T23:40:03.952000Z</time>
      </trkpt>
      <trkpt lat="35.97700597" lon="120.08617739">
        <time>2019-07-20T23:40:08.959000Z</time>
      </trkpt>
      <trkpt lat="35.97704329" lon="120.08628673">
        <time>2019-07-20T23:40:13.954000Z</time>
      </trkpt>
      <trkpt lat="35.97715662" lon="120.08630389">
        <time>2019-07-20T23:40:17.958000Z</time>
      </trkpt>
      <trkpt lat="35.97724837" lon="120.08628479">
        <time>2019-07-20T23:40:21.965000Z</time>
      </trkpt>
      <trkpt lat="35.97732137" lon="120.08635331">
        <time>2019-07-20T23:40:26.956000Z</time>
      </trkpt>
      <trkpt lat="35.97739431" lon="120.08643037">
        <time>2019-07-20T23:40:30.953000Z</time>
      </trkpt>
      <trkpt lat="35.97742573" lon="120.08655762">
        <time>2019-07-20T23:40:35.952000Z</time>
      </trkpt>
      <trkpt lat="35.97743783" lon="120.08667069">
        <time>2019-07-20T23:40:40.956000Z</time>
      </trkpt>
      <trkpt lat="35.97746226" lon="120.08679643">
        <time>2019-07-20T23:40:45.952000Z</time>
      </trkpt>
      <trkpt lat="35.97754975" lon="120.08689812">
        <time>2019-07-20T23:40:50.957000Z</time>
      </trkpt>
      <trkpt lat="35.97763078" lon="120.08695563">
        <time>2019-07-20T23:40:54.945000Z</time>
      </trkpt>
      <trkpt lat="35.97769128" lon="120.0870494">
        <time>2019-07-20T23:40:58.957000Z</time>
      </trkpt>
      <trkpt lat="35.977771" lon="120.08711956">
        <time>2019-07-20T23:41:02.962000Z</time>
      </trkpt>
      <trkpt lat="35.97784904" lon="120.08720408">
        <time>2019-07-20T23:41:07.952000Z</time>
      </trkpt>
      <trkpt lat="35.97794321" lon="120.08727053">
        <time>2019-07-20T23:41:12.957000Z</time>
      </trkpt>
      <trkpt lat="35.97804503" lon="120.08728875">
        <time>2019-07-20T23:41:17.962000Z</time>
      </trkpt>
      <trkpt lat="35.97813814" lon="120.08735573">
        <time>2019-07-20T23:41:23.954000Z</time>
      </trkpt>
      <trkpt lat="35.97823386" lon="120.08739148">
        <time>2019-07-20T23:41:26.962000Z</time>
      </trkpt>
      <trkpt lat="35.97831895" lon="120.08744987">
        <time>2019-07-20T23:41:29.972000Z</time>
      </trkpt>
      <trkpt lat="35.97841222" lon="120.08751183">
        <time>2019-07-20T23:41:33.957000Z</time>
      </trkpt>
      <trkpt lat="35.9784892" lon="120.08760761">
        <time>2019-07-20T23:41:38.946000Z</time>
      </trkpt>
      <trkpt lat="35.97854792" lon="120.08769519">
        <time>2019-07-20T23:41:42.970000Z</time>
      </trkpt>
      <trkpt lat="35.97861045" lon="120.08778815">
        <time>2019-07-20T23:41:46.957000Z</time>
      </trkpt>
      <trkpt lat="35.9786958" lon="120.08787756">
        <time>2019-07-20T23:41:50.964000Z</time>
      </trkpt>
      <trkpt lat="35.97878305" lon="120.08791963">
        <time>2019-07-20T23:41:53.958000Z</time>
      </trkpt>
      <trkpt lat="35.97885297" lon="120.08799402">
        <time>2019-07-20T23:41:56.958000Z</time>
      </trkpt>
      <trkpt lat="35.97890825" lon="120.08812043">
        <time>2019-07-20T23:42:00.955000Z</time>
      </trkpt>
      <trkpt lat="35.97899394" lon="120.08821923">
        <time>2019-07-20T23:42:04.959000Z</time>
      </trkpt>
      <trkpt lat="35.97907093" lon="120.08828504">
        <time>2019-07-20T23:42:07.965000Z</time>
      </trkpt>
      <trkpt lat="35.9791475" lon="120.08834811">
        <time>2019-07-20T23:42:10.956000Z</time>
      </trkpt>
      <trkpt lat="35.97913517" lon="120.08847106">
        <time>2019-07-20T23:42:15.946000Z</time>
      </trkpt>
      <trkpt lat="35.97919189" lon="120.08856567">
        <time>2019-07-20T23:42:19.960000Z</time>
      </trkpt>
      <trkpt lat="35.97928546" lon="120.08864285">
        <time>2019-07-20T23:42:23.959000Z</time>
      </trkpt>
      <trkpt lat="35.97934603" lon="120.08875948">
        <time>2019-07-20T23:42:27.968000Z</time>
      </trkpt>
      <trkpt lat="35.97938226" lon="120.08889008">
        <time>2019-07-20T23:42:31.953000Z</time>
      </trkpt>
      <trkpt lat="35.97939925" lon="120.08902738">
        <time>2019-07-20T23:42:35.953000Z</time>
      </trkpt>
      <trkpt lat="35.97939918" lon="120.08916607">
        <time>2019-07-20T23:42:39.960000Z</time>
      </trkpt>
      <trkpt lat="35.97937146" lon="120.08928383">
        <time>2019-07-20T23:42:43.952000Z</time>
      </trkpt>
      <trkpt lat="35.97935982" lon="120.08940479">
        <time>2019-07-20T23:42:47.952000Z</time>
      </trkpt>
      <trkpt lat="35.97940586" lon="120.08954086">
        <time>2019-07-20T23:42:51.953000Z</time>
      </trkpt>
      <trkpt lat="35.97943148" lon="120.08965736">
        <time>2019-07-20T23:42:55.956000Z</time>
      </trkpt>
      <trkpt lat="35.97944331" lon="120.08978663">
        <time>2019-07-20T23:43:01.957000Z</time>
      </trkpt>
      <trkpt lat="35.97952566" lon="120.08988057">
        <time>2019-07-20T23:43:05.955000Z</time>
      </trkpt>
      <trkpt lat="35.97959528" lon="120.08995169">
        <time>2019-07-20T23:43:08.958000Z</time>
      </trkpt>
      <trkpt lat="35.97966913" lon="120.09001603">
        <time>2019-07-20T23:43:11.956000Z</time>
      </trkpt>
      <trkpt lat="35.97972757" lon="120.09011784">
        <time>2019-07-20T23:43:15.960000Z</time>
      </trkpt>
      <trkpt lat="35.97974904" lon="120.09024669">
        <time>2019-07-20T23:43:19.956000Z</time>
      </trkpt>
      <trkpt lat="35.9797662" lon="120.09037448">
        <time>2019-07-20T23:43:23.955000Z</time>
      </trkpt>
      <trkpt lat="35.97977568" lon="120.09050935">
        <time>2019-07-20T23:43:27.957000Z</time>
      </trkpt>
      <trkpt lat="35.97981393" lon="120.09064252">
        <time>2019-07-20T23:43:31.953000Z</time>
      </trkpt>
      <trkpt lat="35.97984686" lon="120.09078687">
        <time>2019-07-20T23:43:35.958000Z</time>
      </trkpt>
      <trkpt lat="35.97989431" lon="120.09089028">
        <time>2019-07-20T23:43:38.953000Z</time>
      </trkpt>
      <trkpt lat="35.97996303" lon="120.09100506">
        <time>2019-07-20T23:43:42.954000Z</time>
      </trkpt>
      <trkpt lat="35.98004603" lon="120.09107922">
        <time>2019-07-20T23:43:45.951000Z</time>
      </trkpt>
      <trkpt lat="35.98012708" lon="120.09115625">
        <time>2019-07-20T23:43:48.958000Z</time>
      </trkpt>
      <trkpt lat="35.9801668" lon="120.09128786">
        <time>2019-07-20T23:43:52.958000Z</time>
      </trkpt>
      <trkpt lat="35.98018984" lon="120.09142407">
        <time>2019-07-20T23:43:56.952000Z</time>
      </trkpt>
      <trkpt lat="35.98021504" lon="120.09155835">
        <time>2019-07-20T23:44:00.952000Z</time>
      </trkpt>
      <trkpt lat="35.9802843" lon="120.09164968">
        <time>2019-07-20T23:44:04.955000Z</time>
      </trkpt>
      <trkpt lat="35.98035203" lon="120.09172973">
        <time>2019-07-20T23:44:07.956000Z</time>
      </trkpt>
      <trkpt lat="35.98039876" lon="120.09184371">
        <time>2019-07-20T23:44:12.959000Z</time>
      </trkpt>
      <trkpt lat="35.98047817" lon="120.09193884">
        <time>2019-07-20T23:44:16.954000Z</time>
      </trkpt>
      <trkpt lat="35.98056734" lon="120.09201075">
        <time>2019-07-20T23:44:19.956000Z</time>
      </trkpt>
      <trkpt lat="35.98065763" lon="120.09206389">
        <time>2019-07-20T23:44:22.965000Z</time>
      </trkpt>
      <trkpt lat="35.98076352" lon="120.09213686">
        <time>2019-07-20T23:44:26.962000Z</time>
      </trkpt>
      <trkpt lat="35.98085195" lon="120.09216677">
        <time>2019-07-20T23:44:29.966000Z</time>
      </trkpt>
      <trkpt lat="35.98096398" lon="120.09219494">
        <time>2019-07-20T23:44:33.944000Z</time>
      </trkpt>
      <trkpt lat="35.98107397" lon="120.09222833">
        <time>2019-07-20T23:44:37.941000Z</time>
      </trkpt>
      <trkpt lat="35.98116918" lon="120.09229422">
        <time>2019-07-20T23:44:41.957000Z</time>
      </trkpt>
      <trkpt lat="35.98124172" lon="120.09236171">
        <time>2019-07-20T23:44:44.962000Z</time>
      </trkpt>
      <trkpt lat="35.98131554" lon="120.09247176">
        <time>2019-07-20T23:44:48.958000Z</time>
      </trkpt>
      <trkpt lat="35.98134806" lon="120.09259307">
        <time>2019-07-20T23:44:52.962000Z</time>
      </trkpt>
      <trkpt lat="35.98139522" lon="120.09271493">
        <time>2019-07-20T23:44:56.960000Z</time>
      </trkpt>
      <trkpt lat="35.98146125" lon="120.09283164">
        <time>2019-07-20T23:45:00.948000Z</time>
      </trkpt>
      <trkpt lat="35.98150486" lon="120.09294263">
        <time>2019-07-20T23:45:04.957000Z</time>
      </trkpt>
      <trkpt lat="35.98152226" lon="120.09307455">
        <time>2019-07-20T23:45:09.967000Z</time>
      </trkpt>
      <trkpt lat="35.98154852" lon="120.09318633">
        <time>2019-07-20T23:45:13.948000Z</time>
      </trkpt>
      <trkpt lat="35.98156902" lon="120.09331077">
        <time>2019-07-20T23:45:17.970000Z</time>
      </trkpt>
      <trkpt lat="35.98158928" lon="120.09343876">
        <time>2019-07-20T23:45:21.950000Z</time>
      </trkpt>
      <trkpt lat="35.98161804" lon="120.09355986">
        <time>2019-07-20T23:45:25.956000Z</time>
      </trkpt>
      <trkpt lat="35.98168719" lon="120.09365139">
        <time>2019-07-20T23:45:29.952000Z</time>
      </trkpt>
      <trkpt lat="35.98168719" lon="120.09365139">
        <time>2019-07-20T23:45:32.977000Z</time>
      </trkpt>
      <trkpt lat="35.98175998" lon="120.09372013">
        <time>2019-07-20T23:45:35.953000Z</time>
      </trkpt>
      <trkpt lat="35.98184085" lon="120.09380012">
        <time>2019-07-20T23:45:42.955000Z</time>
      </trkpt>
      <trkpt lat="35.98186031" lon="120.0939124">
        <time>2019-07-20T23:45:50.942000Z</time>
      </trkpt>
      <trkpt lat="35.9818612" lon="120.09403032">
        <time>2019-07-20T23:45:55.942000Z</time>
      </trkpt>
      <trkpt lat="35.98185974" lon="120.09416178">
        <time>2019-07-20T23:45:59.955000Z</time>
      </trkpt>
      <trkpt lat="35.98185974" lon="120.09416178">
        <time>2019-07-20T23:46:01.099000Z</time>
      </trkpt>
      <trkpt lat="35.98184659" lon="120.0942957">
        <time>2019-07-20T23:46:03.944000Z</time>
      </trkpt>
      <trkpt lat="35.98186408" lon="120.0944262">
        <time>2019-07-20T23:46:07.936000Z</time>
      </trkpt>
      <trkpt lat="35.98192513" lon="120.09453718">
        <time>2019-07-20T23:46:11.944000Z</time>
      </trkpt>
      <trkpt lat="35.98198251" lon="120.09465157">
        <time>2019-07-20T23:46:15.944000Z</time>
      </trkpt>
      <trkpt lat="35.98205402" lon="120.09476058">
        <time>2019-07-20T23:46:20.943000Z</time>
      </trkpt>
      <trkpt lat="35.98209125" lon="120.09486898">
        <time>2019-07-20T23:46:24.945000Z</time>
      </trkpt>
      <trkpt lat="35.98209768" lon="120.09500138">
        <time>2019-07-20T23:46:28.941000Z</time>
      </trkpt>
      <trkpt lat="35.98209041" lon="120.09507785">
        <time>2019-07-20T23:46:32.768000Z</time>
      </trkpt>
    </trkseg>
  </trk>
</gpx>