<?xml version="1.0" encoding="UTF-8"?>
<gpx xmlns="http://www.topografix.com/GPX/1/1" xmlns:gpxtpx="http://www.garmin.com/xmlschemas/TrackPointExtension/v1" xmlns:xsi="http://www.w3.org/2001/XMLSchema-instance" xsi:schemaLocation="http://www.topografix.com/GPX/1/1 http://www.topografix.com/GPX/1/1/gpx.xsd" version="1.1" creator="gpx.py -- https://github.com/tkrajina/gpxpy">
  <trk>
    <name>星期一 早晨跑步</name>
    <trkseg>
      <trkpt lat="35.9568356" lon="120.20996553">
        <time>2019-07-28T21:50:19.781000Z</time>
      </trkpt>
      <trkpt lat="35.9568356" lon="120.20996553">
        <time>2019-07-28T21:50:23.772000Z</time>
      </trkpt>
      <trkpt lat="35.9568356" lon="120.20996553">
        <time>2019-07-28T21:50:23.784000Z</time>
      </trkpt>
      <trkpt lat="35.95695084" lon="120.20990895">
        <time>2019-07-28T21:50:26.772000Z</time>
      </trkpt>
      <trkpt lat="35.95703859" lon="120.20988482">
        <time>2019-07-28T21:50:30.788000Z</time>
      </trkpt>
      <trkpt lat="35.95713949" lon="120.20982141">
        <time>2019-07-28T21:50:34.782000Z</time>
      </trkpt>
      <trkpt lat="35.95723886" lon="120.2098138">
        <time>2019-07-28T21:50:38.776000Z</time>
      </trkpt>
      <trkpt lat="35.95735759" lon="120.2098093">
        <time>2019-07-28T21:50:43.790000Z</time>
      </trkpt>
      <trkpt lat="35.95745537" lon="120.20979336">
        <time>2019-07-28T21:50:46.790000Z</time>
      </trkpt>
      <trkpt lat="35.95756124" lon="120.2097829">
        <time>2019-07-28T21:50:49.780000Z</time>
      </trkpt>
      <trkpt lat="35.95765403" lon="120.20977775">
        <time>2019-07-28T21:50:52.783000Z</time>
      </trkpt>
      <trkpt lat="35.95776602" lon="120.20976982">
        <time>2019-07-28T21:50:56.775000Z</time>
      </trkpt>
      <trkpt lat="35.9578328" lon="120.20987594">
        <time>2019-07-28T21:51:00.786000Z</time>
      </trkpt>
      <trkpt lat="35.95785914" lon="120.21000022">
        <time>2019-07-28T21:51:04.774000Z</time>
      </trkpt>
      <trkpt lat="35.95786838" lon="120.21013819">
        <time>2019-07-28T21:51:08.789000Z</time>
      </trkpt>
      <trkpt lat="35.95786613" lon="120.21025531">
        <time>2019-07-28T21:51:11.780000Z</time>
      </trkpt>
      <trkpt lat="35.95787543" lon="120.21036794">
        <time>2019-07-28T21:51:14.769000Z</time>
      </trkpt>
      <trkpt lat="35.95787253" lon="120.21050516">
        <time>2019-07-28T21:51:19.780000Z</time>
      </trkpt>
      <trkpt lat="35.95788747" lon="120.21064435">
        <time>2019-07-28T21:51:23.790000Z</time>
      </trkpt>
      <trkpt lat="35.95786789" lon="120.21075785">
        <time>2019-07-28T21:51:27.771000Z</time>
      </trkpt>
      <trkpt lat="35.957766" lon="120.21077877">
        <time>2019-07-28T21:51:31.772000Z</time>
      </trkpt>
      <trkpt lat="35.9576735" lon="120.21077542">
        <time>2019-07-28T21:51:34.782000Z</time>
      </trkpt>
      <trkpt lat="35.95757709" lon="120.21078856">
        <time>2019-07-28T21:51:37.777000Z</time>
      </trkpt>
      <trkpt lat="35.95747678" lon="120.21079146">
        <time>2019-07-28T21:51:40.782000Z</time>
      </trkpt>
      <trkpt lat="35.95738119" lon="120.21079825">
        <time>2019-07-28T21:51:43.802000Z</time>
      </trkpt>
      <trkpt lat="35.95729531" lon="120.21083507">
        <time>2019-07-28T21:51:46.778000Z</time>
      </trkpt>
      <trkpt lat="35.95718085" lon="120.21083966">
        <time>2019-07-28T21:51:50.777000Z</time>
      </trkpt>
      <trkpt lat="35.95708197" lon="120.21086065">
        <time>2019-07-28T21:51:54.777000Z</time>
      </trkpt>
      <trkpt lat="35.95697824" lon="120.21086012">
        <time>2019-07-28T21:51:58.780000Z</time>
      </trkpt>
      <trkpt lat="35.9568763" lon="120.21088962">
        <time>2019-07-28T21:52:02.783000Z</time>
      </trkpt>
      <trkpt lat="35.95677995" lon="120.21091038">
        <time>2019-07-28T21:52:06.768000Z</time>
      </trkpt>
      <trkpt lat="35.9566862" lon="120.21091325">
        <time>2019-07-28T21:52:10.786000Z</time>
      </trkpt>
      <trkpt lat="35.95658629" lon="120.21092226">
        <time>2019-07-28T21:52:15.786000Z</time>
      </trkpt>
      <trkpt lat="35.95648753" lon="120.21094839">
        <time>2019-07-28T21:52:20.780000Z</time>
      </trkpt>
      <trkpt lat="35.95639599" lon="120.21099458">
        <time>2019-07-28T21:52:25.785000Z</time>
      </trkpt>
      <trkpt lat="35.95629235" lon="120.21099118">
        <time>2019-07-28T21:52:29.791000Z</time>
      </trkpt>
      <trkpt lat="35.95619439" lon="120.21101501">
        <time>2019-07-28T21:52:33.788000Z</time>
      </trkpt>
      <trkpt lat="35.95609797" lon="120.21103904">
        <time>2019-07-28T21:52:37.781000Z</time>
      </trkpt>
      <trkpt lat="35.95599812" lon="120.21106241">
        <time>2019-07-28T21:52:41.785000Z</time>
      </trkpt>
      <trkpt lat="35.95589682" lon="120.21109187">
        <time>2019-07-28T21:52:46.786000Z</time>
      </trkpt>
      <trkpt lat="35.9557914" lon="120.21109808">
        <time>2019-07-28T21:52:50.780000Z</time>
      </trkpt>
      <trkpt lat="35.95572009" lon="120.21118">
        <time>2019-07-28T21:52:55.769000Z</time>
      </trkpt>
      <trkpt lat="35.95569626" lon="120.2112957">
        <time>2019-07-28T21:53:00.789000Z</time>
      </trkpt>
      <trkpt lat="35.95566426" lon="120.21140318">
        <time>2019-07-28T21:53:06.790000Z</time>
      </trkpt>
      <trkpt lat="35.95566426" lon="120.21140318">
        <time>2019-07-28T21:53:07.094000Z</time>
      </trkpt>
      <trkpt lat="35.95556321" lon="120.21140721">
        <time>2019-07-28T21:53:12.782000Z</time>
      </trkpt>
      <trkpt lat="35.95552776" lon="120.21151076">
        <time>2019-07-28T21:53:18.803000Z</time>
      </trkpt>
      <trkpt lat="35.95552776" lon="120.21151076">
        <time>2019-07-28T21:53:18.884000Z</time>
      </trkpt>
      <trkpt lat="35.95554617" lon="120.21165121">
        <time>2019-07-28T21:53:23.797000Z</time>
      </trkpt>
      <trkpt lat="35.95557103" lon="120.21177926">
        <time>2019-07-28T21:53:27.776000Z</time>
      </trkpt>
      <trkpt lat="35.9555893" lon="120.21190467">
        <time>2019-07-28T21:53:31.790000Z</time>
      </trkpt>
      <trkpt lat="35.95561495" lon="120.21201555">
        <time>2019-07-28T21:53:35.788000Z</time>
      </trkpt>
      <trkpt lat="35.95563288" lon="120.21213095">
        <time>2019-07-28T21:53:39.798000Z</time>
      </trkpt>
      <trkpt lat="35.95567537" lon="120.2122357">
        <time>2019-07-28T21:53:43.769000Z</time>
      </trkpt>
      <trkpt lat="35.95570102" lon="120.21235907">
        <time>2019-07-28T21:53:47.777000Z</time>
      </trkpt>
      <trkpt lat="35.95571052" lon="120.21248686">
        <time>2019-07-28T21:53:51.767000Z</time>
      </trkpt>
      <trkpt lat="35.95575148" lon="120.2126035">
        <time>2019-07-28T21:53:57.781000Z</time>
      </trkpt>
      <trkpt lat="35.95575148" lon="120.2126035">
        <time>2019-07-28T21:53:59.796000Z</time>
      </trkpt>
      <trkpt lat="35.95578351" lon="120.21271604">
        <time>2019-07-28T21:54:03.779000Z</time>
      </trkpt>
      <trkpt lat="35.95580388" lon="120.21282877">
        <time>2019-07-28T21:54:07.773000Z</time>
      </trkpt>
      <trkpt lat="35.95580388" lon="120.21282877">
        <time>2019-07-28T21:54:09.789000Z</time>
      </trkpt>
      <trkpt lat="35.95583937" lon="120.21293781">
        <time>2019-07-28T21:54:11.782000Z</time>
      </trkpt>
      <trkpt lat="35.95588622" lon="120.213048">
        <time>2019-07-28T21:54:15.778000Z</time>
      </trkpt>
      <trkpt lat="35.95590568" lon="120.21318907">
        <time>2019-07-28T21:54:20.770000Z</time>
      </trkpt>
      <trkpt lat="35.95588401" lon="120.21331085">
        <time>2019-07-28T21:54:24.788000Z</time>
      </trkpt>
      <trkpt lat="35.95583083" lon="120.21342556">
        <time>2019-07-28T21:54:28.789000Z</time>
      </trkpt>
      <trkpt lat="35.95573943" lon="120.21348163">
        <time>2019-07-28T21:54:32.769000Z</time>
      </trkpt>
      <trkpt lat="35.9556533" lon="120.21351748">
        <time>2019-07-28T21:54:37.787000Z</time>
      </trkpt>
      <trkpt lat="35.9556533" lon="120.21351748">
        <time>2019-07-28T21:54:38.786000Z</time>
      </trkpt>
      <trkpt lat="35.95556446" lon="120.21353609">
        <time>2019-07-28T21:54:42.797000Z</time>
      </trkpt>
      <trkpt lat="35.95547" lon="120.21357605">
        <time>2019-07-28T21:54:46.797000Z</time>
      </trkpt>
      <trkpt lat="35.95547" lon="120.21357605">
        <time>2019-07-28T21:54:48.788000Z</time>
      </trkpt>
      <trkpt lat="35.95537522" lon="120.21362542">
        <time>2019-07-28T21:54:50.784000Z</time>
      </trkpt>
      <trkpt lat="35.95526858" lon="120.21364841">
        <time>2019-07-28T21:54:54.792000Z</time>
      </trkpt>
      <trkpt lat="35.95516734" lon="120.21368267">
        <time>2019-07-28T21:54:58.785000Z</time>
      </trkpt>
      <trkpt lat="35.9550721" lon="120.21369937">
        <time>2019-07-28T21:55:02.795000Z</time>
      </trkpt>
      <trkpt lat="35.95496357" lon="120.21371681">
        <time>2019-07-28T21:55:06.788000Z</time>
      </trkpt>
      <trkpt lat="35.95485078" lon="120.21375192">
        <time>2019-07-28T21:55:10.774000Z</time>
      </trkpt>
      <trkpt lat="35.95474544" lon="120.21376161">
        <time>2019-07-28T21:55:14.793000Z</time>
      </trkpt>
      <trkpt lat="35.95463847" lon="120.21377732">
        <time>2019-07-28T21:55:18.784000Z</time>
      </trkpt>
      <trkpt lat="35.95452817" lon="120.21379601">
        <time>2019-07-28T21:55:22.796000Z</time>
      </trkpt>
      <trkpt lat="35.9544162" lon="120.21382482">
        <time>2019-07-28T21:55:26.788000Z</time>
      </trkpt>
      <trkpt lat="35.95431085" lon="120.21387015">
        <time>2019-07-28T21:55:30.811000Z</time>
      </trkpt>
      <trkpt lat="35.95420239" lon="120.21389513">
        <time>2019-07-28T21:55:34.786000Z</time>
      </trkpt>
      <trkpt lat="35.9541022" lon="120.21394921">
        <time>2019-07-28T21:55:38.779000Z</time>
      </trkpt>
      <trkpt lat="35.95399059" lon="120.21396227">
        <time>2019-07-28T21:55:42.781000Z</time>
      </trkpt>
      <trkpt lat="35.95387626" lon="120.21395555">
        <time>2019-07-28T21:55:46.776000Z</time>
      </trkpt>
      <trkpt lat="35.95376166" lon="120.21394596">
        <time>2019-07-28T21:55:50.818000Z</time>
      </trkpt>
      <trkpt lat="35.95365392" lon="120.21397445">
        <time>2019-07-28T21:55:54.789000Z</time>
      </trkpt>
      <trkpt lat="35.95354988" lon="120.21401236">
        <time>2019-07-28T21:55:58.790000Z</time>
      </trkpt>
      <trkpt lat="35.95344366" lon="120.21404188">
        <time>2019-07-28T21:56:02.776000Z</time>
      </trkpt>
      <trkpt lat="35.95344366" lon="120.21404188">
        <time>2019-07-28T21:56:06.768000Z</time>
      </trkpt>
      <trkpt lat="35.95335735" lon="120.21407646">
        <time>2019-07-28T21:56:07.790000Z</time>
      </trkpt>
      <trkpt lat="35.95326002" lon="120.21409999">
        <time>2019-07-28T21:56:14.781000Z</time>
      </trkpt>
      <trkpt lat="35.95316954" lon="120.21403129">
        <time>2019-07-28T21:56:22.777000Z</time>
      </trkpt>
      <trkpt lat="35.95308547" lon="120.213983">
        <time>2019-07-28T21:56:28.771000Z</time>
      </trkpt>
      <trkpt lat="35.95299487" lon="120.21393573">
        <time>2019-07-28T21:56:36.775000Z</time>
      </trkpt>
      <trkpt lat="35.95299487" lon="120.21393573">
        <time>2019-07-28T21:56:41.280000Z</time>
      </trkpt>
      <trkpt lat="35.95290484" lon="120.21385259">
        <time>2019-07-28T21:56:41.789000Z</time>
      </trkpt>
      <trkpt lat="35.95283109" lon="120.21377595">
        <time>2019-07-28T21:56:45.805000Z</time>
      </trkpt>
      <trkpt lat="35.95278443" lon="120.21366065">
        <time>2019-07-28T21:56:49.775000Z</time>
      </trkpt>
      <trkpt lat="35.95275992" lon="120.21354108">
        <time>2019-07-28T21:56:53.780000Z</time>
      </trkpt>
      <trkpt lat="35.95273333" lon="120.213419">
        <time>2019-07-28T21:56:57.788000Z</time>
      </trkpt>
      <trkpt lat="35.95270608" lon="120.21330098">
        <time>2019-07-28T21:57:01.775000Z</time>
      </trkpt>
      <trkpt lat="35.9526768" lon="120.21319269">
        <time>2019-07-28T21:57:05.789000Z</time>
      </trkpt>
      <trkpt lat="35.95265482" lon="120.21307395">
        <time>2019-07-28T21:57:09.794000Z</time>
      </trkpt>
      <trkpt lat="35.95263759" lon="120.21294362">
        <time>2019-07-28T21:57:13.800000Z</time>
      </trkpt>
      <trkpt lat="35.95263759" lon="120.21294362">
        <time>2019-07-28T21:57:17.321000Z</time>
      </trkpt>
      <trkpt lat="35.95261585" lon="120.21282164">
        <time>2019-07-28T21:57:17.789000Z</time>
      </trkpt>
      <trkpt lat="35.95259439" lon="120.21270725">
        <time>2019-07-28T21:57:21.790000Z</time>
      </trkpt>
      <trkpt lat="35.95256676" lon="120.2125864">
        <time>2019-07-28T21:57:25.785000Z</time>
      </trkpt>
      <trkpt lat="35.95256676" lon="120.2125864">
        <time>2019-07-28T21:57:27.350000Z</time>
      </trkpt>
      <trkpt lat="35.95253962" lon="120.21245386">
        <time>2019-07-28T21:57:29.788000Z</time>
      </trkpt>
      <trkpt lat="35.9525114" lon="120.2123126">
        <time>2019-07-28T21:57:33.788000Z</time>
      </trkpt>
      <trkpt lat="35.95248726" lon="120.21220488">
        <time>2019-07-28T21:57:36.784000Z</time>
      </trkpt>
      <trkpt lat="35.95245221" lon="120.21207434">
        <time>2019-07-28T21:57:40.788000Z</time>
      </trkpt>
      <trkpt lat="35.95241865" lon="120.21196183">
        <time>2019-07-28T21:57:44.791000Z</time>
      </trkpt>
      <trkpt lat="35.95238377" lon="120.21183249">
        <time>2019-07-28T21:57:48.790000Z</time>
      </trkpt>
      <trkpt lat="35.95236151" lon="120.21172037">
        <time>2019-07-28T21:57:51.787000Z</time>
      </trkpt>
      <trkpt lat="35.95233477" lon="120.21160218">
        <time>2019-07-28T21:57:54.787000Z</time>
      </trkpt>
      <trkpt lat="35.9523049" lon="120.2114789">
        <time>2019-07-28T21:57:57.777000Z</time>
      </trkpt>
      <trkpt lat="35.95227779" lon="120.211357">
        <time>2019-07-28T21:58:00.790000Z</time>
      </trkpt>
      <trkpt lat="35.95225865" lon="120.21123912">
        <time>2019-07-28T21:58:03.791000Z</time>
      </trkpt>
      <trkpt lat="35.95223929" lon="120.21112247">
        <time>2019-07-28T21:58:06.790000Z</time>
      </trkpt>
      <trkpt lat="35.9522155" lon="120.21100895">
        <time>2019-07-28T21:58:09.788000Z</time>
      </trkpt>
      <trkpt lat="35.95218362" lon="120.21088973">
        <time>2019-07-28T21:58:12.784000Z</time>
      </trkpt>
      <trkpt lat="35.95216605" lon="120.21077267">
        <time>2019-07-28T21:58:18.785000Z</time>
      </trkpt>
      <trkpt lat="35.95216605" lon="120.21077267">
        <time>2019-07-28T21:58:22.925000Z</time>
      </trkpt>
      <trkpt lat="35.95217503" lon="120.21065794">
        <time>2019-07-28T21:58:26.786000Z</time>
      </trkpt>
      <trkpt lat="35.95215029" lon="120.21053883">
        <time>2019-07-28T21:58:33.767000Z</time>
      </trkpt>
      <trkpt lat="35.95214479" lon="120.21042071">
        <time>2019-07-28T21:58:42.778000Z</time>
      </trkpt>
      <trkpt lat="35.95214479" lon="120.21042071">
        <time>2019-07-28T21:59:08.797000Z</time>
      </trkpt>
      <trkpt lat="35.95198254" lon="120.21037971">
        <time>2019-07-28T21:59:08.812000Z</time>
      </trkpt>
      <trkpt lat="35.95188008" lon="120.21042581">
        <time>2019-07-28T21:59:12.791000Z</time>
      </trkpt>
      <trkpt lat="35.95178508" lon="120.21047126">
        <time>2019-07-28T21:59:15.773000Z</time>
      </trkpt>
      <trkpt lat="35.95169313" lon="120.21053201">
        <time>2019-07-28T21:59:18.790000Z</time>
      </trkpt>
      <trkpt lat="35.95160154" lon="120.21059386">
        <time>2019-07-28T21:59:21.784000Z</time>
      </trkpt>
      <trkpt lat="35.95150663" lon="120.21060253">
        <time>2019-07-28T21:59:24.791000Z</time>
      </trkpt>
      <trkpt lat="35.95140227" lon="120.21061797">
        <time>2019-07-28T21:59:28.792000Z</time>
      </trkpt>
      <trkpt lat="35.95129314" lon="120.2106517">
        <time>2019-07-28T21:59:32.792000Z</time>
      </trkpt>
      <trkpt lat="35.95118438" lon="120.2106584">
        <time>2019-07-28T21:59:36.778000Z</time>
      </trkpt>
      <trkpt lat="35.95108043" lon="120.21068539">
        <time>2019-07-28T21:59:40.786000Z</time>
      </trkpt>
      <trkpt lat="35.95097907" lon="120.21070396">
        <time>2019-07-28T21:59:44.776000Z</time>
      </trkpt>
      <trkpt lat="35.95086863" lon="120.21072531">
        <time>2019-07-28T21:59:48.775000Z</time>
      </trkpt>
      <trkpt lat="35.95076652" lon="120.21076548">
        <time>2019-07-28T21:59:52.821000Z</time>
      </trkpt>
      <trkpt lat="35.95066527" lon="120.21080812">
        <time>2019-07-28T21:59:56.780000Z</time>
      </trkpt>
      <trkpt lat="35.95056889" lon="120.2108294">
        <time>2019-07-28T22:00:00.790000Z</time>
      </trkpt>
      <trkpt lat="35.95046097" lon="120.21086103">
        <time>2019-07-28T22:00:04.791000Z</time>
      </trkpt>
      <trkpt lat="35.95035435" lon="120.21088894">
        <time>2019-07-28T22:00:08.792000Z</time>
      </trkpt>
      <trkpt lat="35.95024744" lon="120.21092713">
        <time>2019-07-28T22:00:12.783000Z</time>
      </trkpt>
      <trkpt lat="35.9501565" lon="120.21095507">
        <time>2019-07-28T22:00:16.780000Z</time>
      </trkpt>
      <trkpt lat="35.95005898" lon="120.21099023">
        <time>2019-07-28T22:00:20.786000Z</time>
      </trkpt>
      <trkpt lat="35.94996396" lon="120.21101107">
        <time>2019-07-28T22:00:24.788000Z</time>
      </trkpt>
      <trkpt lat="35.94985868" lon="120.2110412">
        <time>2019-07-28T22:00:28.788000Z</time>
      </trkpt>
      <trkpt lat="35.94985868" lon="120.2110412">
        <time>2019-07-28T22:00:33.780000Z</time>
      </trkpt>
      <trkpt lat="35.94976365" lon="120.21106965">
        <time>2019-07-28T22:00:34.791000Z</time>
      </trkpt>
      <trkpt lat="35.94966318" lon="120.21107506">
        <time>2019-07-28T22:00:40.789000Z</time>
      </trkpt>
      <trkpt lat="35.94966318" lon="120.21107506">
        <time>2019-07-28T22:00:43.985000Z</time>
      </trkpt>
      <trkpt lat="35.9495677" lon="120.21111656">
        <time>2019-07-28T22:00:44.784000Z</time>
      </trkpt>
      <trkpt lat="35.94946115" lon="120.21115">
        <time>2019-07-28T22:00:49.784000Z</time>
      </trkpt>
      <trkpt lat="35.94937407" lon="120.2111897">
        <time>2019-07-28T22:00:53.772000Z</time>
      </trkpt>
      <trkpt lat="35.94928356" lon="120.21119304">
        <time>2019-07-28T22:00:57.777000Z</time>
      </trkpt>
      <trkpt lat="35.94918153" lon="120.2112141">
        <time>2019-07-28T22:01:01.789000Z</time>
      </trkpt>
      <trkpt lat="35.94909679" lon="120.21125355">
        <time>2019-07-28T22:01:04.808000Z</time>
      </trkpt>
      <trkpt lat="35.94899061" lon="120.21128705">
        <time>2019-07-28T22:01:08.795000Z</time>
      </trkpt>
      <trkpt lat="35.94888489" lon="120.21129176">
        <time>2019-07-28T22:01:12.768000Z</time>
      </trkpt>
      <trkpt lat="35.94879689" lon="120.21131574">
        <time>2019-07-28T22:01:16.770000Z</time>
      </trkpt>
      <trkpt lat="35.94867336" lon="120.21131865">
        <time>2019-07-28T22:01:20.787000Z</time>
      </trkpt>
      <trkpt lat="35.94857852" lon="120.21129519">
        <time>2019-07-28T22:01:23.959000Z</time>
      </trkpt>
      <trkpt lat="35.94848591" lon="120.21129115">
        <time>2019-07-28T22:01:27.776000Z</time>
      </trkpt>
      <trkpt lat="35.94838357" lon="120.21132603">
        <time>2019-07-28T22:01:31.770000Z</time>
      </trkpt>
      <trkpt lat="35.94830028" lon="120.21137122">
        <time>2019-07-28T22:01:35.800000Z</time>
      </trkpt>
      <trkpt lat="35.94820654" lon="120.21139435">
        <time>2019-07-28T22:01:39.793000Z</time>
      </trkpt>
      <trkpt lat="35.94809656" lon="120.21140654">
        <time>2019-07-28T22:01:43.874000Z</time>
      </trkpt>
      <trkpt lat="35.94798706" lon="120.2114233">
        <time>2019-07-28T22:01:47.772000Z</time>
      </trkpt>
      <trkpt lat="35.94789713" lon="120.21143757">
        <time>2019-07-28T22:01:50.775000Z</time>
      </trkpt>
      <trkpt lat="35.94780873" lon="120.21147728">
        <time>2019-07-28T22:01:53.768000Z</time>
      </trkpt>
      <trkpt lat="35.94771028" lon="120.21151986">
        <time>2019-07-28T22:01:57.775000Z</time>
      </trkpt>
      <trkpt lat="35.94759629" lon="120.21154548">
        <time>2019-07-28T22:02:01.787000Z</time>
      </trkpt>
      <trkpt lat="35.94748878" lon="120.21158248">
        <time>2019-07-28T22:02:05.785000Z</time>
      </trkpt>
      <trkpt lat="35.94738524" lon="120.21160095">
        <time>2019-07-28T22:02:09.787000Z</time>
      </trkpt>
      <trkpt lat="35.94738524" lon="120.21160095">
        <time>2019-07-28T22:02:13.547000Z</time>
      </trkpt>
      <trkpt lat="35.94728169" lon="120.21159046">
        <time>2019-07-28T22:02:16.793000Z</time>
      </trkpt>
      <trkpt lat="35.94717868" lon="120.21162186">
        <time>2019-07-28T22:02:21.778000Z</time>
      </trkpt>
      <trkpt lat="35.94717868" lon="120.21162186">
        <time>2019-07-28T22:02:24.689000Z</time>
      </trkpt>
      <trkpt lat="35.94708217" lon="120.21164992">
        <time>2019-07-28T22:02:25.788000Z</time>
      </trkpt>
      <trkpt lat="35.94697899" lon="120.21167881">
        <time>2019-07-28T22:02:29.772000Z</time>
      </trkpt>
      <trkpt lat="35.94688631" lon="120.21169741">
        <time>2019-07-28T22:02:33.898000Z</time>
      </trkpt>
      <trkpt lat="35.94678611" lon="120.21175321">
        <time>2019-07-28T22:02:37.782000Z</time>
      </trkpt>
      <trkpt lat="35.94668145" lon="120.21178633">
        <time>2019-07-28T22:02:41.770000Z</time>
      </trkpt>
      <trkpt lat="35.94658416" lon="120.21181668">
        <time>2019-07-28T22:02:45.769000Z</time>
      </trkpt>
      <trkpt lat="35.94649823" lon="120.21184921">
        <time>2019-07-28T22:02:50.759000Z</time>
      </trkpt>
      <trkpt lat="35.94649823" lon="120.21184921">
        <time>2019-07-28T22:02:51.790000Z</time>
      </trkpt>
      <trkpt lat="35.94640372" lon="120.2118695">
        <time>2019-07-28T22:02:57.790000Z</time>
      </trkpt>
      <trkpt lat="35.94630616" lon="120.21191288">
        <time>2019-07-28T22:03:02.787000Z</time>
      </trkpt>
      <trkpt lat="35.94630616" lon="120.21191288">
        <time>2019-07-28T22:03:03.797000Z</time>
      </trkpt>
      <trkpt lat="35.94620132" lon="120.21194152">
        <time>2019-07-28T22:03:06.791000Z</time>
      </trkpt>
      <trkpt lat="35.94609363" lon="120.21197673">
        <time>2019-07-28T22:03:10.784000Z</time>
      </trkpt>
      <trkpt lat="35.94599477" lon="120.21202361">
        <time>2019-07-28T22:03:14.778000Z</time>
      </trkpt>
      <trkpt lat="35.94588814" lon="120.21205147">
        <time>2019-07-28T22:03:18.794000Z</time>
      </trkpt>
      <trkpt lat="35.94578732" lon="120.21208363">
        <time>2019-07-28T22:03:22.805000Z</time>
      </trkpt>
      <trkpt lat="35.94569084" lon="120.21212734">
        <time>2019-07-28T22:03:26.797000Z</time>
      </trkpt>
      <trkpt lat="35.94558509" lon="120.21216799">
        <time>2019-07-28T22:03:30.790000Z</time>
      </trkpt>
      <trkpt lat="35.94547241" lon="120.21219993">
        <time>2019-07-28T22:03:34.791000Z</time>
      </trkpt>
      <trkpt lat="35.94538593" lon="120.21225448">
        <time>2019-07-28T22:03:37.773000Z</time>
      </trkpt>
      <trkpt lat="35.94527256" lon="120.21229718">
        <time>2019-07-28T22:03:41.790000Z</time>
      </trkpt>
      <trkpt lat="35.94516235" lon="120.21236002">
        <time>2019-07-28T22:03:45.791000Z</time>
      </trkpt>
      <trkpt lat="35.94507642" lon="120.21242127">
        <time>2019-07-28T22:03:48.779000Z</time>
      </trkpt>
      <trkpt lat="35.94499115" lon="120.21246835">
        <time>2019-07-28T22:03:51.784000Z</time>
      </trkpt>
      <trkpt lat="35.94488111" lon="120.21251976">
        <time>2019-07-28T22:03:55.778000Z</time>
      </trkpt>
      <trkpt lat="35.94477727" lon="120.21255049">
        <time>2019-07-28T22:03:59.786000Z</time>
      </trkpt>
      <trkpt lat="35.94467188" lon="120.21261258">
        <time>2019-07-28T22:04:03.786000Z</time>
      </trkpt>
      <trkpt lat="35.94457828" lon="120.2126815">
        <time>2019-07-28T22:04:07.779000Z</time>
      </trkpt>
      <trkpt lat="35.94449303" lon="120.21272741">
        <time>2019-07-28T22:04:10.801000Z</time>
      </trkpt>
      <trkpt lat="35.94439186" lon="120.21277524">
        <time>2019-07-28T22:04:13.780000Z</time>
      </trkpt>
      <trkpt lat="35.94429699" lon="120.21281963">
        <time>2019-07-28T22:04:16.798000Z</time>
      </trkpt>
      <trkpt lat="35.94421047" lon="120.21286997">
        <time>2019-07-28T22:04:21.774000Z</time>
      </trkpt>
      <trkpt lat="35.94411193" lon="120.21294213">
        <time>2019-07-28T22:04:25.790000Z</time>
      </trkpt>
      <trkpt lat="35.9440186" lon="120.21299688">
        <time>2019-07-28T22:04:28.777000Z</time>
      </trkpt>
      <trkpt lat="35.94393075" lon="120.21304928">
        <time>2019-07-28T22:04:31.786000Z</time>
      </trkpt>
      <trkpt lat="35.94383084" lon="120.21305929">
        <time>2019-07-28T22:04:36.799000Z</time>
      </trkpt>
      <trkpt lat="35.94383084" lon="120.21305929">
        <time>2019-07-28T22:04:37.782000Z</time>
      </trkpt>
      <trkpt lat="35.94373614" lon="120.21303382">
        <time>2019-07-28T22:04:42.804000Z</time>
      </trkpt>
      <trkpt lat="35.94365376" lon="120.21295844">
        <time>2019-07-28T22:04:46.776000Z</time>
      </trkpt>
      <trkpt lat="35.94365376" lon="120.21295844">
        <time>2019-07-28T22:04:47.776000Z</time>
      </trkpt>
      <trkpt lat="35.94358789" lon="120.2128674">
        <time>2019-07-28T22:04:50.805000Z</time>
      </trkpt>
      <trkpt lat="35.94353069" lon="120.2127302">
        <time>2019-07-28T22:04:54.792000Z</time>
      </trkpt>
      <trkpt lat="35.94347059" lon="120.2126396">
        <time>2019-07-28T22:04:57.788000Z</time>
      </trkpt>
      <trkpt lat="35.94340723" lon="120.21256092">
        <time>2019-07-28T22:05:00.780000Z</time>
      </trkpt>
      <trkpt lat="35.94333601" lon="120.21246987">
        <time>2019-07-28T22:05:04.772000Z</time>
      </trkpt>
      <trkpt lat="35.94328346" lon="120.21234466">
        <time>2019-07-28T22:05:08.789000Z</time>
      </trkpt>
      <trkpt lat="35.9432366" lon="120.21224111">
        <time>2019-07-28T22:05:12.790000Z</time>
      </trkpt>
      <trkpt lat="35.94319951" lon="120.21213938">
        <time>2019-07-28T22:05:15.787000Z</time>
      </trkpt>
      <trkpt lat="35.94316681" lon="120.21203259">
        <time>2019-07-28T22:05:18.789000Z</time>
      </trkpt>
      <trkpt lat="35.94312077" lon="120.21193556">
        <time>2019-07-28T22:05:21.784000Z</time>
      </trkpt>
      <trkpt lat="35.94306421" lon="120.21184406">
        <time>2019-07-28T22:05:24.822000Z</time>
      </trkpt>
      <trkpt lat="35.94299427" lon="120.21171551">
        <time>2019-07-28T22:05:28.793000Z</time>
      </trkpt>
      <trkpt lat="35.94293602" lon="120.21160536">
        <time>2019-07-28T22:05:32.787000Z</time>
      </trkpt>
      <trkpt lat="35.94293602" lon="120.21160536">
        <time>2019-07-28T22:05:37.094000Z</time>
      </trkpt>
      <trkpt lat="35.94293024" lon="120.2114801">
        <time>2019-07-28T22:05:39.780000Z</time>
      </trkpt>
      <trkpt lat="35.94286101" lon="120.21139748">
        <time>2019-07-28T22:05:45.781000Z</time>
      </trkpt>
      <trkpt lat="35.94286101" lon="120.21139748">
        <time>2019-07-28T22:05:47.776000Z</time>
      </trkpt>
      <trkpt lat="35.94278062" lon="120.21130954">
        <time>2019-07-28T22:05:52.775000Z</time>
      </trkpt>
      <trkpt lat="35.94271804" lon="120.2112257">
        <time>2019-07-28T22:05:55.785000Z</time>
      </trkpt>
      <trkpt lat="35.94264789" lon="120.21110799">
        <time>2019-07-28T22:05:59.786000Z</time>
      </trkpt>
      <trkpt lat="35.94259295" lon="120.21101937">
        <time>2019-07-28T22:06:02.787000Z</time>
      </trkpt>
      <trkpt lat="35.94253872" lon="120.21091672">
        <time>2019-07-28T22:06:05.792000Z</time>
      </trkpt>
      <trkpt lat="35.94249281" lon="120.21081088">
        <time>2019-07-28T22:06:08.790000Z</time>
      </trkpt>
      <trkpt lat="35.94243602" lon="120.210713">
        <time>2019-07-28T22:06:11.780000Z</time>
      </trkpt>
      <trkpt lat="35.94235764" lon="120.21060454">
        <time>2019-07-28T22:06:15.789000Z</time>
      </trkpt>
      <trkpt lat="35.94229177" lon="120.21048716">
        <time>2019-07-28T22:06:19.773000Z</time>
      </trkpt>
      <trkpt lat="35.94222436" lon="120.2103753">
        <time>2019-07-28T22:06:23.767000Z</time>
      </trkpt>
      <trkpt lat="35.94215793" lon="120.21025784">
        <time>2019-07-28T22:06:27.765000Z</time>
      </trkpt>
      <trkpt lat="35.94209437" lon="120.21014204">
        <time>2019-07-28T22:06:31.794000Z</time>
      </trkpt>
      <trkpt lat="35.94202522" lon="120.21003719">
        <time>2019-07-28T22:06:35.777000Z</time>
      </trkpt>
      <trkpt lat="35.94195417" lon="120.20993486">
        <time>2019-07-28T22:06:39.792000Z</time>
      </trkpt>
      <trkpt lat="35.94188007" lon="120.20984303">
        <time>2019-07-28T22:06:43.773000Z</time>
      </trkpt>
      <trkpt lat="35.94181033" lon="120.20974097">
        <time>2019-07-28T22:06:47.785000Z</time>
      </trkpt>
      <trkpt lat="35.94175788" lon="120.20961942">
        <time>2019-07-28T22:06:51.787000Z</time>
      </trkpt>
      <trkpt lat="35.94173344" lon="120.20950988">
        <time>2019-07-28T22:06:54.796000Z</time>
      </trkpt>
      <trkpt lat="35.94174204" lon="120.20937689">
        <time>2019-07-28T22:06:58.764000Z</time>
      </trkpt>
      <trkpt lat="35.94170602" lon="120.20925748">
        <time>2019-07-28T22:07:04.771000Z</time>
      </trkpt>
      <trkpt lat="35.94170602" lon="120.20925748">
        <time>2019-07-28T22:07:06.771000Z</time>
      </trkpt>
      <trkpt lat="35.94170602" lon="120.20925748">
        <time>2019-07-28T22:09:18.797000Z</time>
      </trkpt>
      <trkpt lat="35.94170602" lon="120.20925748">
        <time>2019-07-28T22:09:18.829000Z</time>
      </trkpt>
      <trkpt lat="35.94184821" lon="120.20927873">
        <time>2019-07-28T22:09:21.789000Z</time>
      </trkpt>
      <trkpt lat="35.94195594" lon="120.20926922">
        <time>2019-07-28T22:09:25.772000Z</time>
      </trkpt>
      <trkpt lat="35.94195594" lon="120.20926922">
        <time>2019-07-28T22:09:28.791000Z</time>
      </trkpt>
      <trkpt lat="35.94205273" lon="120.20925014">
        <time>2019-07-28T22:09:29.795000Z</time>
      </trkpt>
      <trkpt lat="35.94214975" lon="120.20922311">
        <time>2019-07-28T22:09:33.770000Z</time>
      </trkpt>
      <trkpt lat="35.94224075" lon="120.20919349">
        <time>2019-07-28T22:09:37.786000Z</time>
      </trkpt>
      <trkpt lat="35.94233293" lon="120.20915203">
        <time>2019-07-28T22:09:41.789000Z</time>
      </trkpt>
      <trkpt lat="35.94243673" lon="120.2091007">
        <time>2019-07-28T22:09:45.769000Z</time>
      </trkpt>
      <trkpt lat="35.94253234" lon="120.20905905">
        <time>2019-07-28T22:09:49.790000Z</time>
      </trkpt>
      <trkpt lat="35.94264632" lon="120.20902532">
        <time>2019-07-28T22:09:53.762000Z</time>
      </trkpt>
      <trkpt lat="35.94275197" lon="120.20900392">
        <time>2019-07-28T22:09:57.787000Z</time>
      </trkpt>
      <trkpt lat="35.94284504" lon="120.20898926">
        <time>2019-07-28T22:10:00.783000Z</time>
      </trkpt>
      <trkpt lat="35.94298386" lon="120.20897005">
        <time>2019-07-28T22:10:03.765000Z</time>
      </trkpt>
      <trkpt lat="35.94308588" lon="120.2089612">
        <time>2019-07-28T22:10:07.774000Z</time>
      </trkpt>
      <trkpt lat="35.9431895" lon="120.20895675">
        <time>2019-07-28T22:10:11.786000Z</time>
      </trkpt>
      <trkpt lat="35.94329893" lon="120.2089303">
        <time>2019-07-28T22:10:15.780000Z</time>
      </trkpt>
      <trkpt lat="35.94339811" lon="120.20889182">
        <time>2019-07-28T22:10:19.791000Z</time>
      </trkpt>
      <trkpt lat="35.94349837" lon="120.20884706">
        <time>2019-07-28T22:10:22.780000Z</time>
      </trkpt>
      <trkpt lat="35.9436122" lon="120.20880202">
        <time>2019-07-28T22:10:26.813000Z</time>
      </trkpt>
      <trkpt lat="35.94370734" lon="120.20878208">
        <time>2019-07-28T22:10:29.788000Z</time>
      </trkpt>
      <trkpt lat="35.94379852" lon="120.20878487">
        <time>2019-07-28T22:10:32.790000Z</time>
      </trkpt>
      <trkpt lat="35.94388806" lon="120.20880229">
        <time>2019-07-28T22:10:35.797000Z</time>
      </trkpt>
      <trkpt lat="35.94400062" lon="120.20884696">
        <time>2019-07-28T22:10:39.778000Z</time>
      </trkpt>
      <trkpt lat="35.94408957" lon="120.20887922">
        <time>2019-07-28T22:10:43.649000Z</time>
      </trkpt>
      <trkpt lat="35.94419081" lon="120.20890681">
        <time>2019-07-28T22:10:45.778000Z</time>
      </trkpt>
      <trkpt lat="35.94429448" lon="120.20892658">
        <time>2019-07-28T22:10:48.792000Z</time>
      </trkpt>
      <trkpt lat="35.94439005" lon="120.20893435">
        <time>2019-07-28T22:10:51.791000Z</time>
      </trkpt>
      <trkpt lat="35.94448286" lon="120.20893959">
        <time>2019-07-28T22:10:54.784000Z</time>
      </trkpt>
      <trkpt lat="35.94459457" lon="120.2089195">
        <time>2019-07-28T22:10:58.775000Z</time>
      </trkpt>
      <trkpt lat="35.94469953" lon="120.20887964">
        <time>2019-07-28T22:11:02.789000Z</time>
      </trkpt>
      <trkpt lat="35.94481473" lon="120.20886346">
        <time>2019-07-28T22:11:06.789000Z</time>
      </trkpt>
      <trkpt lat="35.94492583" lon="120.20884454">
        <time>2019-07-28T22:11:10.789000Z</time>
      </trkpt>
      <trkpt lat="35.94502117" lon="120.20883766">
        <time>2019-07-28T22:11:14.785000Z</time>
      </trkpt>
      <trkpt lat="35.94502117" lon="120.20883766">
        <time>2019-07-28T22:11:18.283000Z</time>
      </trkpt>
      <trkpt lat="35.9451239" lon="120.20885114">
        <time>2019-07-28T22:11:23.762000Z</time>
      </trkpt>
      <trkpt lat="35.94521161" lon="120.20882687">
        <time>2019-07-28T22:11:29.772000Z</time>
      </trkpt>
      <trkpt lat="35.94531296" lon="120.20881043">
        <time>2019-07-28T22:11:36.781000Z</time>
      </trkpt>
      <trkpt lat="35.94531296" lon="120.20881043">
        <time>2019-07-28T22:11:39.691000Z</time>
      </trkpt>
      <trkpt lat="35.94541737" lon="120.20879599">
        <time>2019-07-28T22:11:40.787000Z</time>
      </trkpt>
      <trkpt lat="35.94552702" lon="120.20879293">
        <time>2019-07-28T22:11:44.787000Z</time>
      </trkpt>
      <trkpt lat="35.94563643" lon="120.2087698">
        <time>2019-07-28T22:11:48.775000Z</time>
      </trkpt>
      <trkpt lat="35.94573929" lon="120.20874619">
        <time>2019-07-28T22:11:52.774000Z</time>
      </trkpt>
      <trkpt lat="35.94583159" lon="120.20873337">
        <time>2019-07-28T22:11:57.773000Z</time>
      </trkpt>
      <trkpt lat="35.94594438" lon="120.20872195">
        <time>2019-07-28T22:12:01.784000Z</time>
      </trkpt>
      <trkpt lat="35.94605399" lon="120.2087133">
        <time>2019-07-28T22:12:05.763000Z</time>
      </trkpt>
      <trkpt lat="35.94614625" lon="120.20869859">
        <time>2019-07-28T22:12:08.765000Z</time>
      </trkpt>
      <trkpt lat="35.9462542" lon="120.20866544">
        <time>2019-07-28T22:12:12.778000Z</time>
      </trkpt>
      <trkpt lat="35.94634425" lon="120.20866029">
        <time>2019-07-28T22:12:15.766000Z</time>
      </trkpt>
      <trkpt lat="35.94643477" lon="120.2086563">
        <time>2019-07-28T22:12:19.791000Z</time>
      </trkpt>
      <trkpt lat="35.94653939" lon="120.20864349">
        <time>2019-07-28T22:12:23.783000Z</time>
      </trkpt>
      <trkpt lat="35.94665697" lon="120.20863913">
        <time>2019-07-28T22:12:27.781000Z</time>
      </trkpt>
      <trkpt lat="35.94665697" lon="120.20863913">
        <time>2019-07-28T22:12:32.762000Z</time>
      </trkpt>
      <trkpt lat="35.94675716" lon="120.20863864">
        <time>2019-07-28T22:12:34.793000Z</time>
      </trkpt>
      <trkpt lat="35.94685075" lon="120.20860986">
        <time>2019-07-28T22:12:41.790000Z</time>
      </trkpt>
      <trkpt lat="35.94695021" lon="120.20859421">
        <time>2019-07-28T22:12:48.776000Z</time>
      </trkpt>
      <trkpt lat="35.94702366" lon="120.20852326">
        <time>2019-07-28T22:12:55.782000Z</time>
      </trkpt>
      <trkpt lat="35.9470225" lon="120.20839803">
        <time>2019-07-28T22:13:03.765000Z</time>
      </trkpt>
      <trkpt lat="35.9470225" lon="120.20839803">
        <time>2019-07-28T22:13:07.287000Z</time>
      </trkpt>
      <trkpt lat="35.94702555" lon="120.2082638">
        <time>2019-07-28T22:13:08.790000Z</time>
      </trkpt>
      <trkpt lat="35.9470128" lon="120.20813513">
        <time>2019-07-28T22:13:12.786000Z</time>
      </trkpt>
      <trkpt lat="35.94699225" lon="120.20800088">
        <time>2019-07-28T22:13:16.793000Z</time>
      </trkpt>
      <trkpt lat="35.94698079" lon="120.20786314">
        <time>2019-07-28T22:13:20.792000Z</time>
      </trkpt>
      <trkpt lat="35.94699036" lon="120.207723">
        <time>2019-07-28T22:13:24.792000Z</time>
      </trkpt>
      <trkpt lat="35.94698143" lon="120.2076101">
        <time>2019-07-28T22:13:27.799000Z</time>
      </trkpt>
      <trkpt lat="35.94695917" lon="120.20748776">
        <time>2019-07-28T22:13:30.776000Z</time>
      </trkpt>
      <trkpt lat="35.94695917" lon="120.20748776">
        <time>2019-07-28T22:13:34.796000Z</time>
      </trkpt>
      <trkpt lat="35.94691947" lon="120.20738253">
        <time>2019-07-28T22:13:34.815000Z</time>
      </trkpt>
      <trkpt lat="35.94691947" lon="120.20738253">
        <time>2019-07-28T22:13:55.789000Z</time>
      </trkpt>
      <trkpt lat="35.94692769" lon="120.20724258">
        <time>2019-07-28T22:13:55.804000Z</time>
      </trkpt>
      <trkpt lat="35.94696183" lon="120.20712888">
        <time>2019-07-28T22:13:59.791000Z</time>
      </trkpt>
      <trkpt lat="35.94701523" lon="120.2070162">
        <time>2019-07-28T22:14:03.786000Z</time>
      </trkpt>
      <trkpt lat="35.94701523" lon="120.2070162">
        <time>2019-07-28T22:14:05.293000Z</time>
      </trkpt>
      <trkpt lat="35.94708046" lon="120.20689657">
        <time>2019-07-28T22:14:07.784000Z</time>
      </trkpt>
      <trkpt lat="35.94711364" lon="120.2067924">
        <time>2019-07-28T22:14:10.804000Z</time>
      </trkpt>
      <trkpt lat="35.94716639" lon="120.20666234">
        <time>2019-07-28T22:14:14.791000Z</time>
      </trkpt>
      <trkpt lat="35.94722249" lon="120.20653913">
        <time>2019-07-28T22:14:18.791000Z</time>
      </trkpt>
      <trkpt lat="35.94726671" lon="120.20643915">
        <time>2019-07-28T22:14:21.797000Z</time>
      </trkpt>
      <trkpt lat="35.94733032" lon="120.20631718">
        <time>2019-07-28T22:14:25.791000Z</time>
      </trkpt>
      <trkpt lat="35.94736876" lon="120.20621422">
        <time>2019-07-28T22:14:28.791000Z</time>
      </trkpt>
      <trkpt lat="35.94740909" lon="120.20611296">
        <time>2019-07-28T22:14:31.788000Z</time>
      </trkpt>
      <trkpt lat="35.94744848" lon="120.20601251">
        <time>2019-07-28T22:14:34.787000Z</time>
      </trkpt>
      <trkpt lat="35.94748681" lon="120.20590477">
        <time>2019-07-28T22:14:37.763000Z</time>
      </trkpt>
      <trkpt lat="35.94753121" lon="120.20579603">
        <time>2019-07-28T22:14:40.784000Z</time>
      </trkpt>
      <trkpt lat="35.94758062" lon="120.20568889">
        <time>2019-07-28T22:14:43.766000Z</time>
      </trkpt>
      <trkpt lat="35.94762899" lon="120.2055766">
        <time>2019-07-28T22:14:46.787000Z</time>
      </trkpt>
      <trkpt lat="35.94767647" lon="120.20546664">
        <time>2019-07-28T22:14:49.790000Z</time>
      </trkpt>
      <trkpt lat="35.94771024" lon="120.20535133">
        <time>2019-07-28T22:14:52.777000Z</time>
      </trkpt>
      <trkpt lat="35.94774961" lon="120.20524472">
        <time>2019-07-28T22:14:55.793000Z</time>
      </trkpt>
      <trkpt lat="35.94781193" lon="120.20512096">
        <time>2019-07-28T22:14:59.786000Z</time>
      </trkpt>
      <trkpt lat="35.94786708" lon="120.20499779">
        <time>2019-07-28T22:15:03.793000Z</time>
      </trkpt>
      <trkpt lat="35.94789613" lon="120.20489171">
        <time>2019-07-28T22:15:06.787000Z</time>
      </trkpt>
      <trkpt lat="35.94791078" lon="120.20474847">
        <time>2019-07-28T22:15:10.782000Z</time>
      </trkpt>
      <trkpt lat="35.94790992" lon="120.20460473">
        <time>2019-07-28T22:15:14.785000Z</time>
      </trkpt>
      <trkpt lat="35.94790036" lon="120.20449224">
        <time>2019-07-28T22:15:17.775000Z</time>
      </trkpt>
      <trkpt lat="35.94788849" lon="120.20438177">
        <time>2019-07-28T22:15:20.788000Z</time>
      </trkpt>
      <trkpt lat="35.94786617" lon="120.20424134">
        <time>2019-07-28T22:15:24.769000Z</time>
      </trkpt>
      <trkpt lat="35.94794138" lon="120.20417401">
        <time>2019-07-28T22:15:28.768000Z</time>
      </trkpt>
      <trkpt lat="35.94803434" lon="120.20423854">
        <time>2019-07-28T22:15:31.785000Z</time>
      </trkpt>
      <trkpt lat="35.94811594" lon="120.20430418">
        <time>2019-07-28T22:15:34.834000Z</time>
      </trkpt>
      <trkpt lat="35.9481975" lon="120.20436872">
        <time>2019-07-28T22:15:37.774000Z</time>
      </trkpt>
      <trkpt lat="35.94827732" lon="120.20442752">
        <time>2019-07-28T22:15:42.765000Z</time>
      </trkpt>
      <trkpt lat="35.94827732" lon="120.20442752">
        <time>2019-07-28T22:15:44.356000Z</time>
      </trkpt>
      <trkpt lat="35.94834463" lon="120.2045059">
        <time>2019-07-28T22:15:49.790000Z</time>
      </trkpt>
      <trkpt lat="35.94841103" lon="120.20460463">
        <time>2019-07-28T22:15:55.783000Z</time>
      </trkpt>
      <trkpt lat="35.94841103" lon="120.20460463">
        <time>2019-07-28T22:15:57.349000Z</time>
      </trkpt>
      <trkpt lat="35.94848922" lon="120.20468551">
        <time>2019-07-28T22:15:59.798000Z</time>
      </trkpt>
      <trkpt lat="35.94858055" lon="120.20475291">
        <time>2019-07-28T22:16:03.773000Z</time>
      </trkpt>
      <trkpt lat="35.94866624" lon="120.20483791">
        <time>2019-07-28T22:16:07.774000Z</time>
      </trkpt>
      <trkpt lat="35.94874791" lon="120.20492472">
        <time>2019-07-28T22:16:11.786000Z</time>
      </trkpt>
      <trkpt lat="35.94882498" lon="120.20502343">
        <time>2019-07-28T22:16:15.785000Z</time>
      </trkpt>
      <trkpt lat="35.94889904" lon="120.2051088">
        <time>2019-07-28T22:16:19.801000Z</time>
      </trkpt>
      <trkpt lat="35.94898011" lon="120.20518934">
        <time>2019-07-28T22:16:23.763000Z</time>
      </trkpt>
      <trkpt lat="35.94906829" lon="120.20528288">
        <time>2019-07-28T22:16:27.786000Z</time>
      </trkpt>
      <trkpt lat="35.94913547" lon="120.20535691">
        <time>2019-07-28T22:16:30.774000Z</time>
      </trkpt>
      <trkpt lat="35.94923063" lon="120.20544187">
        <time>2019-07-28T22:16:34.794000Z</time>
      </trkpt>
      <trkpt lat="35.94930257" lon="120.20552307">
        <time>2019-07-28T22:16:38.779000Z</time>
      </trkpt>
      <trkpt lat="35.9493704" lon="120.2056133">
        <time>2019-07-28T22:16:42.777000Z</time>
      </trkpt>
      <trkpt lat="35.94945068" lon="120.20568639">
        <time>2019-07-28T22:16:46.763000Z</time>
      </trkpt>
      <trkpt lat="35.9495259" lon="120.2057761">
        <time>2019-07-28T22:16:50.770000Z</time>
      </trkpt>
      <trkpt lat="35.94960658" lon="120.20586341">
        <time>2019-07-28T22:16:54.790000Z</time>
      </trkpt>
      <trkpt lat="35.94969513" lon="120.20594738">
        <time>2019-07-28T22:16:58.781000Z</time>
      </trkpt>
      <trkpt lat="35.94979656" lon="120.20599754">
        <time>2019-07-28T22:17:02.791000Z</time>
      </trkpt>
      <trkpt lat="35.94990782" lon="120.20594985">
        <time>2019-07-28T22:17:06.789000Z</time>
      </trkpt>
      <trkpt lat="35.95000478" lon="120.20588475">
        <time>2019-07-28T22:17:10.771000Z</time>
      </trkpt>
      <trkpt lat="35.95010905" lon="120.20582697">
        <time>2019-07-28T22:17:14.785000Z</time>
      </trkpt>
      <trkpt lat="35.95021327" lon="120.20576979">
        <time>2019-07-28T22:17:18.786000Z</time>
      </trkpt>
      <trkpt lat="35.95031183" lon="120.20571884">
        <time>2019-07-28T22:17:22.791000Z</time>
      </trkpt>
      <trkpt lat="35.95040797" lon="120.20567984">
        <time>2019-07-28T22:17:26.789000Z</time>
      </trkpt>
      <trkpt lat="35.95050821" lon="120.20565733">
        <time>2019-07-28T22:17:30.769000Z</time>
      </trkpt>
      <trkpt lat="35.95059551" lon="120.20559604">
        <time>2019-07-28T22:17:34.786000Z</time>
      </trkpt>
      <trkpt lat="35.95067873" lon="120.20554163">
        <time>2019-07-28T22:17:38.798000Z</time>
      </trkpt>
      <trkpt lat="35.95066682" lon="120.20541343">
        <time>2019-07-28T22:17:42.779000Z</time>
      </trkpt>
      <trkpt lat="35.95062899" lon="120.20527479">
        <time>2019-07-28T22:17:46.768000Z</time>
      </trkpt>
      <trkpt lat="35.95060685" lon="120.20513646">
        <time>2019-07-28T22:17:50.779000Z</time>
      </trkpt>
      <trkpt lat="35.95057412" lon="120.205002">
        <time>2019-07-28T22:17:54.774000Z</time>
      </trkpt>
      <trkpt lat="35.95055816" lon="120.20488114">
        <time>2019-07-28T22:17:58.767000Z</time>
      </trkpt>
      <trkpt lat="35.95055816" lon="120.20488114">
        <time>2019-07-28T22:18:02.405000Z</time>
      </trkpt>
      <trkpt lat="35.95060656" lon="120.20478555">
        <time>2019-07-28T22:18:05.784000Z</time>
      </trkpt>
      <trkpt lat="35.95060656" lon="120.20478555">
        <time>2019-07-28T22:18:51.778000Z</time>
      </trkpt>
      <trkpt lat="35.95050396" lon="120.20473451">
        <time>2019-07-28T22:18:51.801000Z</time>
      </trkpt>
      <trkpt lat="35.9504915" lon="120.20461389">
        <time>2019-07-28T22:18:59.778000Z</time>
      </trkpt>
      <trkpt lat="35.9504706" lon="120.20449681">
        <time>2019-07-28T22:19:07.777000Z</time>
      </trkpt>
      <trkpt lat="35.95045136" lon="120.20438341">
        <time>2019-07-28T22:19:15.770000Z</time>
      </trkpt>
      <trkpt lat="35.95049724" lon="120.20425903">
        <time>2019-07-28T22:19:22.795000Z</time>
      </trkpt>
      <trkpt lat="35.95049724" lon="120.20425903">
        <time>2019-07-28T22:19:23.079000Z</time>
      </trkpt>
      <trkpt lat="35.95058908" lon="120.20417928">
        <time>2019-07-28T22:19:26.779000Z</time>
      </trkpt>
      <trkpt lat="35.95070194" lon="120.20414204">
        <time>2019-07-28T22:19:30.789000Z</time>
      </trkpt>
      <trkpt lat="35.95081285" lon="120.20415861">
        <time>2019-07-28T22:19:34.795000Z</time>
      </trkpt>
      <trkpt lat="35.95092231" lon="120.20415707">
        <time>2019-07-28T22:19:38.784000Z</time>
      </trkpt>
      <trkpt lat="35.95102188" lon="120.20415468">
        <time>2019-07-28T22:19:42.790000Z</time>
      </trkpt>
      <trkpt lat="35.95112356" lon="120.20414496">
        <time>2019-07-28T22:19:46.794000Z</time>
      </trkpt>
      <trkpt lat="35.95122779" lon="120.20410957">
        <time>2019-07-28T22:19:50.789000Z</time>
      </trkpt>
      <trkpt lat="35.95133579" lon="120.20409965">
        <time>2019-07-28T22:19:54.777000Z</time>
      </trkpt>
      <trkpt lat="35.95143734" lon="120.20408894">
        <time>2019-07-28T22:19:58.785000Z</time>
      </trkpt>
      <trkpt lat="35.95153353" lon="120.2041001">
        <time>2019-07-28T22:20:02.787000Z</time>
      </trkpt>
      <trkpt lat="35.95162752" lon="120.20407958">
        <time>2019-07-28T22:20:06.790000Z</time>
      </trkpt>
      <trkpt lat="35.95173879" lon="120.20405262">
        <time>2019-07-28T22:20:10.786000Z</time>
      </trkpt>
      <trkpt lat="35.95185193" lon="120.20404844">
        <time>2019-07-28T22:20:14.789000Z</time>
      </trkpt>
      <trkpt lat="35.95194459" lon="120.2040494">
        <time>2019-07-28T22:20:22.792000Z</time>
      </trkpt>
      <trkpt lat="35.95194459" lon="120.2040494">
        <time>2019-07-28T22:20:27.465000Z</time>
      </trkpt>
      <trkpt lat="35.95205667" lon="120.20403282">
        <time>2019-07-28T22:20:29.790000Z</time>
      </trkpt>
      <trkpt lat="35.95216506" lon="120.2040076">
        <time>2019-07-28T22:20:32.783000Z</time>
      </trkpt>
      <trkpt lat="35.95226715" lon="120.20399077">
        <time>2019-07-28T22:20:35.782000Z</time>
      </trkpt>
      <trkpt lat="35.95226715" lon="120.20399077">
        <time>2019-07-28T22:20:38.486000Z</time>
      </trkpt>
      <trkpt lat="35.95235949" lon="120.20397185">
        <time>2019-07-28T22:20:38.793000Z</time>
      </trkpt>
      <trkpt lat="35.95247726" lon="120.20394486">
        <time>2019-07-28T22:20:42.780000Z</time>
      </trkpt>
      <trkpt lat="35.95256926" lon="120.20393099">
        <time>2019-07-28T22:20:45.793000Z</time>
      </trkpt>
      <trkpt lat="35.95265976" lon="120.20391896">
        <time>2019-07-28T22:20:48.782000Z</time>
      </trkpt>
      <trkpt lat="35.95276259" lon="120.20389283">
        <time>2019-07-28T22:20:52.766000Z</time>
      </trkpt>
      <trkpt lat="35.9528584" lon="120.20384717">
        <time>2019-07-28T22:20:56.775000Z</time>
      </trkpt>
      <trkpt lat="35.95295708" lon="120.2038228">
        <time>2019-07-28T22:21:00.781000Z</time>
      </trkpt>
      <trkpt lat="35.95306945" lon="120.2038251">
        <time>2019-07-28T22:21:04.785000Z</time>
      </trkpt>
      <trkpt lat="35.95318264" lon="120.20382772">
        <time>2019-07-28T22:21:08.790000Z</time>
      </trkpt>
      <trkpt lat="35.95328692" lon="120.20384015">
        <time>2019-07-28T22:21:14.792000Z</time>
      </trkpt>
      <trkpt lat="35.95328692" lon="120.20384015">
        <time>2019-07-28T22:21:15.830000Z</time>
      </trkpt>
      <trkpt lat="35.9533805" lon="120.20383255">
        <time>2019-07-28T22:21:22.802000Z</time>
      </trkpt>
      <trkpt lat="35.95346996" lon="120.20380781">
        <time>2019-07-28T22:21:29.763000Z</time>
      </trkpt>
      <trkpt lat="35.95346996" lon="120.20380781">
        <time>2019-07-28T22:21:33.790000Z</time>
      </trkpt>
      <trkpt lat="35.95356417" lon="120.20376974">
        <time>2019-07-28T22:21:35.771000Z</time>
      </trkpt>
      <trkpt lat="35.95366753" lon="120.20374969">
        <time>2019-07-28T22:21:39.787000Z</time>
      </trkpt>
      <trkpt lat="35.95378067" lon="120.20372199">
        <time>2019-07-28T22:21:43.787000Z</time>
      </trkpt>
      <trkpt lat="35.95389801" lon="120.20370819">
        <time>2019-07-28T22:21:47.780000Z</time>
      </trkpt>
      <trkpt lat="35.95400738" lon="120.2036813">
        <time>2019-07-28T22:21:51.788000Z</time>
      </trkpt>
      <trkpt lat="35.95411698" lon="120.20366151">
        <time>2019-07-28T22:21:55.793000Z</time>
      </trkpt>
      <trkpt lat="35.95422617" lon="120.20364902">
        <time>2019-07-28T22:21:59.794000Z</time>
      </trkpt>
      <trkpt lat="35.95432099" lon="120.20363773">
        <time>2019-07-28T22:22:02.786000Z</time>
      </trkpt>
      <trkpt lat="35.95441412" lon="120.20361661">
        <time>2019-07-28T22:22:05.786000Z</time>
      </trkpt>
      <trkpt lat="35.95450418" lon="120.20360599">
        <time>2019-07-28T22:22:08.788000Z</time>
      </trkpt>
      <trkpt lat="35.95462127" lon="120.2035929">
        <time>2019-07-28T22:22:12.787000Z</time>
      </trkpt>
      <trkpt lat="35.95471422" lon="120.20359831">
        <time>2019-07-28T22:22:17.781000Z</time>
      </trkpt>
      <trkpt lat="35.9547931" lon="120.20352807">
        <time>2019-07-28T22:22:25.764000Z</time>
      </trkpt>
      <trkpt lat="35.9547931" lon="120.20352807">
        <time>2019-07-28T22:22:27.520000Z</time>
      </trkpt>
      <trkpt lat="35.95489442" lon="120.2034941">
        <time>2019-07-28T22:22:34.792000Z</time>
      </trkpt>
      <trkpt lat="35.95489442" lon="120.2034941">
        <time>2019-07-28T22:22:37.529000Z</time>
      </trkpt>
      <trkpt lat="35.95498695" lon="120.20348856">
        <time>2019-07-28T22:22:37.789000Z</time>
      </trkpt>
      <trkpt lat="35.95508085" lon="120.2034977">
        <time>2019-07-28T22:22:40.788000Z</time>
      </trkpt>
      <trkpt lat="35.95517609" lon="120.2035186">
        <time>2019-07-28T22:22:43.809000Z</time>
      </trkpt>
      <trkpt lat="35.95525841" lon="120.20362897">
        <time>2019-07-28T22:22:47.786000Z</time>
      </trkpt>
      <trkpt lat="35.95529699" lon="120.20374944">
        <time>2019-07-28T22:22:50.780000Z</time>
      </trkpt>
      <trkpt lat="35.95533866" lon="120.20385738">
        <time>2019-07-28T22:22:53.770000Z</time>
      </trkpt>
      <trkpt lat="35.95534983" lon="120.20400359">
        <time>2019-07-28T22:22:57.790000Z</time>
      </trkpt>
      <trkpt lat="35.95532548" lon="120.20413692">
        <time>2019-07-28T22:23:01.790000Z</time>
      </trkpt>
      <trkpt lat="35.95531383" lon="120.20426054">
        <time>2019-07-28T22:23:05.792000Z</time>
      </trkpt>
      <trkpt lat="35.9553417" lon="120.20438136">
        <time>2019-07-28T22:23:09.778000Z</time>
      </trkpt>
      <trkpt lat="35.95536293" lon="120.20449143">
        <time>2019-07-28T22:23:12.781000Z</time>
      </trkpt>
      <trkpt lat="35.95535798" lon="120.20460359">
        <time>2019-07-28T22:23:15.839000Z</time>
      </trkpt>
      <trkpt lat="35.95539311" lon="120.20474044">
        <time>2019-07-28T22:23:19.787000Z</time>
      </trkpt>
      <trkpt lat="35.95542564" lon="120.20484852">
        <time>2019-07-28T22:23:22.791000Z</time>
      </trkpt>
      <trkpt lat="35.95545801" lon="120.20498578">
        <time>2019-07-28T22:23:26.778000Z</time>
      </trkpt>
      <trkpt lat="35.95550472" lon="120.20508449">
        <time>2019-07-28T22:23:30.776000Z</time>
      </trkpt>
      <trkpt lat="35.95552085" lon="120.20521368">
        <time>2019-07-28T22:23:34.776000Z</time>
      </trkpt>
      <trkpt lat="35.9555336" lon="120.20535253">
        <time>2019-07-28T22:23:38.781000Z</time>
      </trkpt>
      <trkpt lat="35.95554318" lon="120.20548211">
        <time>2019-07-28T22:23:42.773000Z</time>
      </trkpt>
      <trkpt lat="35.95557006" lon="120.20560874">
        <time>2019-07-28T22:23:46.783000Z</time>
      </trkpt>
      <trkpt lat="35.95558271" lon="120.20573234">
        <time>2019-07-28T22:23:50.790000Z</time>
      </trkpt>
      <trkpt lat="35.95559868" lon="120.20585153">
        <time>2019-07-28T22:23:54.790000Z</time>
      </trkpt>
      <trkpt lat="35.95562349" lon="120.2059748">
        <time>2019-07-28T22:24:00.777000Z</time>
      </trkpt>
      <trkpt lat="35.95565249" lon="120.20610342">
        <time>2019-07-28T22:24:04.786000Z</time>
      </trkpt>
      <trkpt lat="35.95567365" lon="120.20623767">
        <time>2019-07-28T22:24:08.783000Z</time>
      </trkpt>
      <trkpt lat="35.95570331" lon="120.20636983">
        <time>2019-07-28T22:24:12.779000Z</time>
      </trkpt>
      <trkpt lat="35.95570026" lon="120.20651578">
        <time>2019-07-28T22:24:16.791000Z</time>
      </trkpt>
      <trkpt lat="35.95572092" lon="120.20662902">
        <time>2019-07-28T22:24:19.790000Z</time>
      </trkpt>
      <trkpt lat="35.95572659" lon="120.20674463">
        <time>2019-07-28T22:24:22.787000Z</time>
      </trkpt>
      <trkpt lat="35.95574324" lon="120.20687649">
        <time>2019-07-28T22:24:26.780000Z</time>
      </trkpt>
      <trkpt lat="35.95579033" lon="120.20700644">
        <time>2019-07-28T22:24:30.794000Z</time>
      </trkpt>
      <trkpt lat="35.95577188" lon="120.20712582">
        <time>2019-07-28T22:24:33.774000Z</time>
      </trkpt>
      <trkpt lat="35.95574643" lon="120.2072483">
        <time>2019-07-28T22:24:36.787000Z</time>
      </trkpt>
      <trkpt lat="35.95576113" lon="120.20739208">
        <time>2019-07-28T22:24:40.824000Z</time>
      </trkpt>
      <trkpt lat="35.95576679" lon="120.20753296">
        <time>2019-07-28T22:24:44.786000Z</time>
      </trkpt>
      <trkpt lat="35.9557495" lon="120.20766049">
        <time>2019-07-28T22:24:49.791000Z</time>
      </trkpt>
      <trkpt lat="35.9557495" lon="120.20766049">
        <time>2019-07-28T22:24:53.301000Z</time>
      </trkpt>
      <trkpt lat="35.95580418" lon="120.20775431">
        <time>2019-07-28T22:24:56.774000Z</time>
      </trkpt>
      <trkpt lat="35.9559032" lon="120.20773096">
        <time>2019-07-28T22:25:03.775000Z</time>
      </trkpt>
      <trkpt lat="35.95600267" lon="120.20770967">
        <time>2019-07-28T22:25:10.788000Z</time>
      </trkpt>
      <trkpt lat="35.95600267" lon="120.20770967">
        <time>2019-07-28T22:25:12.592000Z</time>
      </trkpt>
      <trkpt lat="35.9560985" lon="120.20767469">
        <time>2019-07-28T22:25:14.791000Z</time>
      </trkpt>
      <trkpt lat="35.95621289" lon="120.20765077">
        <time>2019-07-28T22:25:18.788000Z</time>
      </trkpt>
      <trkpt lat="35.95631868" lon="120.20761516">
        <time>2019-07-28T22:25:22.801000Z</time>
      </trkpt>
      <trkpt lat="35.95641673" lon="120.20758238">
        <time>2019-07-28T22:25:26.787000Z</time>
      </trkpt>
      <trkpt lat="35.95651127" lon="120.20756721">
        <time>2019-07-28T22:25:30.798000Z</time>
      </trkpt>
      <trkpt lat="35.95654687" lon="120.2076892">
        <time>2019-07-28T22:25:34.781000Z</time>
      </trkpt>
      <trkpt lat="35.95656999" lon="120.20781475">
        <time>2019-07-28T22:25:38.771000Z</time>
      </trkpt>
      <trkpt lat="35.95657853" lon="120.207943">
        <time>2019-07-28T22:25:42.777000Z</time>
      </trkpt>
      <trkpt lat="35.95660075" lon="120.20806109">
        <time>2019-07-28T22:25:46.785000Z</time>
      </trkpt>
      <trkpt lat="35.95661567" lon="120.20817179">
        <time>2019-07-28T22:25:50.783000Z</time>
      </trkpt>
      <trkpt lat="35.95662653" lon="120.20828326">
        <time>2019-07-28T22:25:54.792000Z</time>
      </trkpt>
      <trkpt lat="35.95662444" lon="120.20840629">
        <time>2019-07-28T22:25:58.778000Z</time>
      </trkpt>
      <trkpt lat="35.95661756" lon="120.20853733">
        <time>2019-07-28T22:26:02.777000Z</time>
      </trkpt>
      <trkpt lat="35.95662008" lon="120.20867312">
        <time>2019-07-28T22:26:07.805000Z</time>
      </trkpt>
      <trkpt lat="35.95668357" lon="120.20876859">
        <time>2019-07-28T22:26:13.776000Z</time>
      </trkpt>
      <trkpt lat="35.95668357" lon="120.20876859">
        <time>2019-07-28T22:26:17.426000Z</time>
      </trkpt>
    </trkseg>
  </trk>
</gpx>