<?xml version="1.0" encoding="UTF-8"?>
<gpx xmlns="http://www.topografix.com/GPX/1/1" xmlns:gpxtpx="http://www.garmin.com/xmlschemas/TrackPointExtension/v1" xmlns:xsi="http://www.w3.org/2001/XMLSchema-instance" xsi:schemaLocation="http://www.topografix.com/GPX/1/1 http://www.topografix.com/GPX/1/1/gpx.xsd" version="1.1" creator="gpx.py -- https://github.com/tkrajina/gpxpy">
  <trk>
    <name>星期四 早晨跑步</name>
    <trkseg>
      <trkpt lat="35.95686385" lon="120.20989167">
        <time>2019-07-31T21:48:58.451000Z</time>
      </trkpt>
      <trkpt lat="35.95687387" lon="120.20988809">
        <time>2019-07-31T21:48:58.622000Z</time>
      </trkpt>
      <trkpt lat="35.95697114" lon="120.209881">
        <time>2019-07-31T21:49:05.642000Z</time>
      </trkpt>
      <trkpt lat="35.95706796" lon="120.20987521">
        <time>2019-07-31T21:49:09.623000Z</time>
      </trkpt>
      <trkpt lat="35.95706796" lon="120.20987521">
        <time>2019-07-31T21:49:13.447000Z</time>
      </trkpt>
      <trkpt lat="35.95716707" lon="120.20985333">
        <time>2019-07-31T21:49:14.624000Z</time>
      </trkpt>
      <trkpt lat="35.95725732" lon="120.20983575">
        <time>2019-07-31T21:49:18.630000Z</time>
      </trkpt>
      <trkpt lat="35.95734785" lon="120.20983072">
        <time>2019-07-31T21:49:22.628000Z</time>
      </trkpt>
      <trkpt lat="35.95744955" lon="120.20980819">
        <time>2019-07-31T21:49:27.625000Z</time>
      </trkpt>
      <trkpt lat="35.95754164" lon="120.20977696">
        <time>2019-07-31T21:49:31.621000Z</time>
      </trkpt>
      <trkpt lat="35.95764652" lon="120.20977125">
        <time>2019-07-31T21:49:35.625000Z</time>
      </trkpt>
      <trkpt lat="35.95774896" lon="120.2097828">
        <time>2019-07-31T21:49:39.625000Z</time>
      </trkpt>
      <trkpt lat="35.95779619" lon="120.20988389">
        <time>2019-07-31T21:49:43.629000Z</time>
      </trkpt>
      <trkpt lat="35.95779392" lon="120.21000479">
        <time>2019-07-31T21:49:47.630000Z</time>
      </trkpt>
      <trkpt lat="35.95783535" lon="120.21012022">
        <time>2019-07-31T21:49:53.633000Z</time>
      </trkpt>
      <trkpt lat="35.95785444" lon="120.21023258">
        <time>2019-07-31T21:49:57.624000Z</time>
      </trkpt>
      <trkpt lat="35.95785444" lon="120.21023258">
        <time>2019-07-31T21:50:02.475000Z</time>
      </trkpt>
      <trkpt lat="35.95787207" lon="120.21035211">
        <time>2019-07-31T21:50:02.623000Z</time>
      </trkpt>
      <trkpt lat="35.95787947" lon="120.21048609">
        <time>2019-07-31T21:50:09.638000Z</time>
      </trkpt>
      <trkpt lat="35.95787947" lon="120.21048609">
        <time>2019-07-31T21:50:12.504000Z</time>
      </trkpt>
      <trkpt lat="35.95789253" lon="120.21061908">
        <time>2019-07-31T21:50:14.631000Z</time>
      </trkpt>
      <trkpt lat="35.95784138" lon="120.21071225">
        <time>2019-07-31T21:50:18.624000Z</time>
      </trkpt>
      <trkpt lat="35.95773719" lon="120.21074424">
        <time>2019-07-31T21:50:22.629000Z</time>
      </trkpt>
      <trkpt lat="35.95762972" lon="120.21074106">
        <time>2019-07-31T21:50:26.627000Z</time>
      </trkpt>
      <trkpt lat="35.95751866" lon="120.21077786">
        <time>2019-07-31T21:50:30.630000Z</time>
      </trkpt>
      <trkpt lat="35.95740966" lon="120.21082144">
        <time>2019-07-31T21:50:34.635000Z</time>
      </trkpt>
      <trkpt lat="35.95729981" lon="120.21084335">
        <time>2019-07-31T21:50:40.624000Z</time>
      </trkpt>
      <trkpt lat="35.95719335" lon="120.21086101">
        <time>2019-07-31T21:50:44.625000Z</time>
      </trkpt>
      <trkpt lat="35.95709924" lon="120.21085606">
        <time>2019-07-31T21:50:47.622000Z</time>
      </trkpt>
      <trkpt lat="35.95700297" lon="120.2108637">
        <time>2019-07-31T21:50:50.639000Z</time>
      </trkpt>
      <trkpt lat="35.95689307" lon="120.21090218">
        <time>2019-07-31T21:50:54.627000Z</time>
      </trkpt>
      <trkpt lat="35.9567805" lon="120.2109424">
        <time>2019-07-31T21:50:58.621000Z</time>
      </trkpt>
      <trkpt lat="35.9566846" lon="120.21094837">
        <time>2019-07-31T21:51:01.621000Z</time>
      </trkpt>
      <trkpt lat="35.95658228" lon="120.21094833">
        <time>2019-07-31T21:51:05.633000Z</time>
      </trkpt>
      <trkpt lat="35.95648829" lon="120.21095089">
        <time>2019-07-31T21:51:09.635000Z</time>
      </trkpt>
      <trkpt lat="35.95639958" lon="120.21098898">
        <time>2019-07-31T21:51:14.634000Z</time>
      </trkpt>
      <trkpt lat="35.95632919" lon="120.21107801">
        <time>2019-07-31T21:51:19.631000Z</time>
      </trkpt>
      <trkpt lat="35.95625298" lon="120.21115185">
        <time>2019-07-31T21:51:23.626000Z</time>
      </trkpt>
      <trkpt lat="35.95615404" lon="120.21115715">
        <time>2019-07-31T21:51:28.625000Z</time>
      </trkpt>
      <trkpt lat="35.95605304" lon="120.21118639">
        <time>2019-07-31T21:51:33.637000Z</time>
      </trkpt>
      <trkpt lat="35.95595807" lon="120.21120035">
        <time>2019-07-31T21:51:37.678000Z</time>
      </trkpt>
      <trkpt lat="35.95585335" lon="120.21122533">
        <time>2019-07-31T21:51:41.633000Z</time>
      </trkpt>
      <trkpt lat="35.95577026" lon="120.21127125">
        <time>2019-07-31T21:51:45.642000Z</time>
      </trkpt>
      <trkpt lat="35.95577026" lon="120.21127125">
        <time>2019-07-31T21:51:52.633000Z</time>
      </trkpt>
      <trkpt lat="35.95570446" lon="120.21135484">
        <time>2019-07-31T21:51:52.659000Z</time>
      </trkpt>
      <trkpt lat="35.95562357" lon="120.21141106">
        <time>2019-07-31T21:51:56.626000Z</time>
      </trkpt>
      <trkpt lat="35.95554365" lon="120.21149394">
        <time>2019-07-31T21:52:00.620000Z</time>
      </trkpt>
      <trkpt lat="35.95554365" lon="120.21149394">
        <time>2019-07-31T21:52:03.004000Z</time>
      </trkpt>
      <trkpt lat="35.95553224" lon="120.21161437">
        <time>2019-07-31T21:52:05.630000Z</time>
      </trkpt>
      <trkpt lat="35.95554526" lon="120.21174866">
        <time>2019-07-31T21:52:09.634000Z</time>
      </trkpt>
      <trkpt lat="35.95557311" lon="120.21188241">
        <time>2019-07-31T21:52:13.641000Z</time>
      </trkpt>
      <trkpt lat="35.95560736" lon="120.21199846">
        <time>2019-07-31T21:52:17.635000Z</time>
      </trkpt>
      <trkpt lat="35.95564255" lon="120.21212593">
        <time>2019-07-31T21:52:22.634000Z</time>
      </trkpt>
      <trkpt lat="35.95566186" lon="120.21223727">
        <time>2019-07-31T21:52:26.633000Z</time>
      </trkpt>
      <trkpt lat="35.95567072" lon="120.21235188">
        <time>2019-07-31T21:52:30.641000Z</time>
      </trkpt>
      <trkpt lat="35.95570312" lon="120.21245973">
        <time>2019-07-31T21:52:34.636000Z</time>
      </trkpt>
      <trkpt lat="35.95571924" lon="120.21259329">
        <time>2019-07-31T21:52:39.629000Z</time>
      </trkpt>
      <trkpt lat="35.95576674" lon="120.21272268">
        <time>2019-07-31T21:52:44.636000Z</time>
      </trkpt>
      <trkpt lat="35.95581792" lon="120.21282617">
        <time>2019-07-31T21:52:48.623000Z</time>
      </trkpt>
      <trkpt lat="35.95584695" lon="120.21294747">
        <time>2019-07-31T21:52:52.616000Z</time>
      </trkpt>
      <trkpt lat="35.95591397" lon="120.21304477">
        <time>2019-07-31T21:52:56.626000Z</time>
      </trkpt>
      <trkpt lat="35.95594274" lon="120.21317133">
        <time>2019-07-31T21:53:00.630000Z</time>
      </trkpt>
      <trkpt lat="35.95589743" lon="120.21328414">
        <time>2019-07-31T21:53:05.635000Z</time>
      </trkpt>
      <trkpt lat="35.95589743" lon="120.21328414">
        <time>2019-07-31T21:53:08.064000Z</time>
      </trkpt>
      <trkpt lat="35.95584162" lon="120.21337851">
        <time>2019-07-31T21:53:11.634000Z</time>
      </trkpt>
      <trkpt lat="35.95573901" lon="120.21344253">
        <time>2019-07-31T21:53:17.636000Z</time>
      </trkpt>
      <trkpt lat="35.95573901" lon="120.21344253">
        <time>2019-07-31T21:53:18.123000Z</time>
      </trkpt>
      <trkpt lat="35.95564845" lon="120.21346583">
        <time>2019-07-31T21:53:21.617000Z</time>
      </trkpt>
      <trkpt lat="35.95555024" lon="120.2135016">
        <time>2019-07-31T21:53:25.639000Z</time>
      </trkpt>
      <trkpt lat="35.95545125" lon="120.21353125">
        <time>2019-07-31T21:53:29.651000Z</time>
      </trkpt>
      <trkpt lat="35.95535108" lon="120.21352298">
        <time>2019-07-31T21:53:33.632000Z</time>
      </trkpt>
      <trkpt lat="35.95525005" lon="120.21353715">
        <time>2019-07-31T21:53:37.632000Z</time>
      </trkpt>
      <trkpt lat="35.95515454" lon="120.21359347">
        <time>2019-07-31T21:53:41.624000Z</time>
      </trkpt>
      <trkpt lat="35.95504216" lon="120.2136247">
        <time>2019-07-31T21:53:46.621000Z</time>
      </trkpt>
      <trkpt lat="35.9549313" lon="120.21366135">
        <time>2019-07-31T21:53:50.635000Z</time>
      </trkpt>
      <trkpt lat="35.95481756" lon="120.21369421">
        <time>2019-07-31T21:53:54.631000Z</time>
      </trkpt>
      <trkpt lat="35.95471926" lon="120.2136985">
        <time>2019-07-31T21:53:58.677000Z</time>
      </trkpt>
      <trkpt lat="35.95461806" lon="120.21370685">
        <time>2019-07-31T21:54:02.631000Z</time>
      </trkpt>
      <trkpt lat="35.95451598" lon="120.21371177">
        <time>2019-07-31T21:54:06.627000Z</time>
      </trkpt>
      <trkpt lat="35.95440518" lon="120.21372143">
        <time>2019-07-31T21:54:10.645000Z</time>
      </trkpt>
      <trkpt lat="35.95430103" lon="120.2137766">
        <time>2019-07-31T21:54:14.678000Z</time>
      </trkpt>
      <trkpt lat="35.95419609" lon="120.21379608">
        <time>2019-07-31T21:54:18.623000Z</time>
      </trkpt>
      <trkpt lat="35.9540848" lon="120.21381661">
        <time>2019-07-31T21:54:23.630000Z</time>
      </trkpt>
      <trkpt lat="35.95397609" lon="120.21384315">
        <time>2019-07-31T21:54:27.614000Z</time>
      </trkpt>
      <trkpt lat="35.95387453" lon="120.21386449">
        <time>2019-07-31T21:54:31.632000Z</time>
      </trkpt>
      <trkpt lat="35.95387453" lon="120.21386449">
        <time>2019-07-31T21:54:35.249000Z</time>
      </trkpt>
      <trkpt lat="35.95378542" lon="120.21389315">
        <time>2019-07-31T21:54:37.621000Z</time>
      </trkpt>
      <trkpt lat="35.95367927" lon="120.21390934">
        <time>2019-07-31T21:54:42.634000Z</time>
      </trkpt>
      <trkpt lat="35.95367927" lon="120.21390934">
        <time>2019-07-31T21:54:45.387000Z</time>
      </trkpt>
      <trkpt lat="35.95356764" lon="120.2139238">
        <time>2019-07-31T21:54:47.656000Z</time>
      </trkpt>
      <trkpt lat="35.95348536" lon="120.21396999">
        <time>2019-07-31T21:54:51.630000Z</time>
      </trkpt>
      <trkpt lat="35.95338178" lon="120.214018">
        <time>2019-07-31T21:54:55.665000Z</time>
      </trkpt>
      <trkpt lat="35.95328093" lon="120.21404756">
        <time>2019-07-31T21:54:59.625000Z</time>
      </trkpt>
      <trkpt lat="35.95318041" lon="120.21404769">
        <time>2019-07-31T21:55:03.629000Z</time>
      </trkpt>
      <trkpt lat="35.95308334" lon="120.21399745">
        <time>2019-07-31T21:55:07.619000Z</time>
      </trkpt>
      <trkpt lat="35.95301189" lon="120.21392315">
        <time>2019-07-31T21:55:11.645000Z</time>
      </trkpt>
      <trkpt lat="35.95301189" lon="120.21392315">
        <time>2019-07-31T21:55:14.554000Z</time>
      </trkpt>
      <trkpt lat="35.95293752" lon="120.2138456">
        <time>2019-07-31T21:55:17.618000Z</time>
      </trkpt>
      <trkpt lat="35.95285197" lon="120.21378026">
        <time>2019-07-31T21:55:23.633000Z</time>
      </trkpt>
      <trkpt lat="35.95285197" lon="120.21378026">
        <time>2019-07-31T21:55:27.629000Z</time>
      </trkpt>
      <trkpt lat="35.9528078" lon="120.21366256">
        <time>2019-07-31T21:55:28.642000Z</time>
      </trkpt>
      <trkpt lat="35.95279282" lon="120.21354409">
        <time>2019-07-31T21:55:32.616000Z</time>
      </trkpt>
      <trkpt lat="35.95276838" lon="120.213426">
        <time>2019-07-31T21:55:36.620000Z</time>
      </trkpt>
      <trkpt lat="35.95272654" lon="120.21329343">
        <time>2019-07-31T21:55:41.632000Z</time>
      </trkpt>
      <trkpt lat="35.95269743" lon="120.21316511">
        <time>2019-07-31T21:55:45.624000Z</time>
      </trkpt>
      <trkpt lat="35.95267374" lon="120.21303364">
        <time>2019-07-31T21:55:49.632000Z</time>
      </trkpt>
      <trkpt lat="35.95264993" lon="120.21289611">
        <time>2019-07-31T21:55:53.627000Z</time>
      </trkpt>
      <trkpt lat="35.95261673" lon="120.21276327">
        <time>2019-07-31T21:55:57.630000Z</time>
      </trkpt>
      <trkpt lat="35.95258086" lon="120.21263486">
        <time>2019-07-31T21:56:01.623000Z</time>
      </trkpt>
      <trkpt lat="35.9525545" lon="120.21250384">
        <time>2019-07-31T21:56:05.633000Z</time>
      </trkpt>
      <trkpt lat="35.95251942" lon="120.21236948">
        <time>2019-07-31T21:56:10.104000Z</time>
      </trkpt>
      <trkpt lat="35.95248834" lon="120.21223478">
        <time>2019-07-31T21:56:13.638000Z</time>
      </trkpt>
      <trkpt lat="35.95245988" lon="120.21210404">
        <time>2019-07-31T21:56:17.623000Z</time>
      </trkpt>
      <trkpt lat="35.95241945" lon="120.21197216">
        <time>2019-07-31T21:56:22.628000Z</time>
      </trkpt>
      <trkpt lat="35.95238609" lon="120.21184983">
        <time>2019-07-31T21:56:26.649000Z</time>
      </trkpt>
      <trkpt lat="35.95237102" lon="120.21171801">
        <time>2019-07-31T21:56:30.637000Z</time>
      </trkpt>
      <trkpt lat="35.95235241" lon="120.21158978">
        <time>2019-07-31T21:56:34.631000Z</time>
      </trkpt>
      <trkpt lat="35.95232731" lon="120.21146133">
        <time>2019-07-31T21:56:38.633000Z</time>
      </trkpt>
      <trkpt lat="35.95229987" lon="120.21133784">
        <time>2019-07-31T21:56:42.624000Z</time>
      </trkpt>
      <trkpt lat="35.95226636" lon="120.21119763">
        <time>2019-07-31T21:56:46.635000Z</time>
      </trkpt>
      <trkpt lat="35.9522442" lon="120.21106234">
        <time>2019-07-31T21:56:50.617000Z</time>
      </trkpt>
      <trkpt lat="35.95221779" lon="120.2109285">
        <time>2019-07-31T21:56:54.659000Z</time>
      </trkpt>
      <trkpt lat="35.95219113" lon="120.21079667">
        <time>2019-07-31T21:56:58.634000Z</time>
      </trkpt>
      <trkpt lat="35.95215777" lon="120.21067431">
        <time>2019-07-31T21:57:02.615000Z</time>
      </trkpt>
      <trkpt lat="35.95213189" lon="120.21055337">
        <time>2019-07-31T21:57:06.621000Z</time>
      </trkpt>
      <trkpt lat="35.95210933" lon="120.21043335">
        <time>2019-07-31T21:57:10.622000Z</time>
      </trkpt>
      <trkpt lat="35.95202447" lon="120.21035691">
        <time>2019-07-31T21:57:15.621000Z</time>
      </trkpt>
      <trkpt lat="35.95193827" lon="120.21040834">
        <time>2019-07-31T21:57:18.638000Z</time>
      </trkpt>
      <trkpt lat="35.95185819" lon="120.21046138">
        <time>2019-07-31T21:57:21.620000Z</time>
      </trkpt>
      <trkpt lat="35.95176479" lon="120.2105226">
        <time>2019-07-31T21:57:25.634000Z</time>
      </trkpt>
      <trkpt lat="35.95167145" lon="120.21058686">
        <time>2019-07-31T21:57:29.639000Z</time>
      </trkpt>
      <trkpt lat="35.95156867" lon="120.21062483">
        <time>2019-07-31T21:57:33.679000Z</time>
      </trkpt>
      <trkpt lat="35.95146883" lon="120.21060882">
        <time>2019-07-31T21:57:38.635000Z</time>
      </trkpt>
      <trkpt lat="35.95137135" lon="120.21059908">
        <time>2019-07-31T21:57:43.618000Z</time>
      </trkpt>
      <trkpt lat="35.95137135" lon="120.21059908">
        <time>2019-07-31T21:57:47.662000Z</time>
      </trkpt>
      <trkpt lat="35.95128022" lon="120.21061526">
        <time>2019-07-31T21:57:49.612000Z</time>
      </trkpt>
      <trkpt lat="35.95118016" lon="120.21065407">
        <time>2019-07-31T21:57:55.634000Z</time>
      </trkpt>
      <trkpt lat="35.95118016" lon="120.21065407">
        <time>2019-07-31T21:57:58.207000Z</time>
      </trkpt>
      <trkpt lat="35.95108642" lon="120.21071146">
        <time>2019-07-31T21:57:59.622000Z</time>
      </trkpt>
      <trkpt lat="35.95097563" lon="120.21074252">
        <time>2019-07-31T21:58:03.621000Z</time>
      </trkpt>
      <trkpt lat="35.95086902" lon="120.21073598">
        <time>2019-07-31T21:58:08.639000Z</time>
      </trkpt>
      <trkpt lat="35.95075939" lon="120.21074814">
        <time>2019-07-31T21:58:14.626000Z</time>
      </trkpt>
      <trkpt lat="35.95066071" lon="120.21079934">
        <time>2019-07-31T21:58:19.643000Z</time>
      </trkpt>
      <trkpt lat="35.95055541" lon="120.21084145">
        <time>2019-07-31T21:58:26.626000Z</time>
      </trkpt>
      <trkpt lat="35.95045789" lon="120.21086319">
        <time>2019-07-31T21:58:30.633000Z</time>
      </trkpt>
      <trkpt lat="35.95034977" lon="120.21088018">
        <time>2019-07-31T21:58:34.630000Z</time>
      </trkpt>
      <trkpt lat="35.95025947" lon="120.21090961">
        <time>2019-07-31T21:58:39.626000Z</time>
      </trkpt>
      <trkpt lat="35.95016547" lon="120.21092936">
        <time>2019-07-31T21:58:44.632000Z</time>
      </trkpt>
      <trkpt lat="35.95016547" lon="120.21092936">
        <time>2019-07-31T21:58:48.295000Z</time>
      </trkpt>
      <trkpt lat="35.95005884" lon="120.21091984">
        <time>2019-07-31T21:58:51.649000Z</time>
      </trkpt>
      <trkpt lat="35.94996667" lon="120.21094486">
        <time>2019-07-31T21:58:56.629000Z</time>
      </trkpt>
      <trkpt lat="35.94996667" lon="120.21094486">
        <time>2019-07-31T21:58:58.323000Z</time>
      </trkpt>
      <trkpt lat="35.94987633" lon="120.21094644">
        <time>2019-07-31T21:59:01.628000Z</time>
      </trkpt>
      <trkpt lat="35.94976365" lon="120.21098647">
        <time>2019-07-31T21:59:05.625000Z</time>
      </trkpt>
      <trkpt lat="35.94966133" lon="120.21101387">
        <time>2019-07-31T21:59:09.625000Z</time>
      </trkpt>
      <trkpt lat="35.94956624" lon="120.21108599">
        <time>2019-07-31T21:59:13.627000Z</time>
      </trkpt>
      <trkpt lat="35.94948855" lon="120.21115269">
        <time>2019-07-31T21:59:17.643000Z</time>
      </trkpt>
      <trkpt lat="35.94936963" lon="120.21114929">
        <time>2019-07-31T21:59:22.647000Z</time>
      </trkpt>
      <trkpt lat="35.9492534" lon="120.21116085">
        <time>2019-07-31T21:59:26.640000Z</time>
      </trkpt>
      <trkpt lat="35.94914197" lon="120.21119487">
        <time>2019-07-31T21:59:30.627000Z</time>
      </trkpt>
      <trkpt lat="35.94914197" lon="120.21119487">
        <time>2019-07-31T21:59:34.425000Z</time>
      </trkpt>
      <trkpt lat="35.94904805" lon="120.2112106">
        <time>2019-07-31T21:59:34.642000Z</time>
      </trkpt>
      <trkpt lat="35.94894298" lon="120.21123647">
        <time>2019-07-31T21:59:40.628000Z</time>
      </trkpt>
      <trkpt lat="35.94885623" lon="120.2112667">
        <time>2019-07-31T21:59:44.639000Z</time>
      </trkpt>
      <trkpt lat="35.94876019" lon="120.21131641">
        <time>2019-07-31T21:59:48.620000Z</time>
      </trkpt>
      <trkpt lat="35.94866351" lon="120.21131815">
        <time>2019-07-31T21:59:52.627000Z</time>
      </trkpt>
      <trkpt lat="35.94866351" lon="120.21131815">
        <time>2019-07-31T21:59:54.554000Z</time>
      </trkpt>
      <trkpt lat="35.94856809" lon="120.21131882">
        <time>2019-07-31T21:59:56.686000Z</time>
      </trkpt>
      <trkpt lat="35.94845828" lon="120.21134804">
        <time>2019-07-31T22:00:02.001000Z</time>
      </trkpt>
      <trkpt lat="35.94835386" lon="120.21138911">
        <time>2019-07-31T22:00:04.629000Z</time>
      </trkpt>
      <trkpt lat="35.94823993" lon="120.21141387">
        <time>2019-07-31T22:00:08.624000Z</time>
      </trkpt>
      <trkpt lat="35.94812498" lon="120.21143322">
        <time>2019-07-31T22:00:12.649000Z</time>
      </trkpt>
      <trkpt lat="35.94801413" lon="120.2114359">
        <time>2019-07-31T22:00:16.632000Z</time>
      </trkpt>
      <trkpt lat="35.94790748" lon="120.21146167">
        <time>2019-07-31T22:00:20.635000Z</time>
      </trkpt>
      <trkpt lat="35.94779791" lon="120.21149967">
        <time>2019-07-31T22:00:24.632000Z</time>
      </trkpt>
      <trkpt lat="35.94770387" lon="120.21150968">
        <time>2019-07-31T22:00:27.622000Z</time>
      </trkpt>
      <trkpt lat="35.94759307" lon="120.21155712">
        <time>2019-07-31T22:00:31.639000Z</time>
      </trkpt>
      <trkpt lat="35.94759307" lon="120.21155712">
        <time>2019-07-31T22:00:35.626000Z</time>
      </trkpt>
      <trkpt lat="35.94749636" lon="120.21156441">
        <time>2019-07-31T22:00:37.642000Z</time>
      </trkpt>
      <trkpt lat="35.94740408" lon="120.21158282">
        <time>2019-07-31T22:00:44.666000Z</time>
      </trkpt>
      <trkpt lat="35.94729943" lon="120.21159008">
        <time>2019-07-31T22:00:50.629000Z</time>
      </trkpt>
      <trkpt lat="35.94729943" lon="120.21159008">
        <time>2019-07-31T22:00:51.653000Z</time>
      </trkpt>
      <trkpt lat="35.94719538" lon="120.21162306">
        <time>2019-07-31T22:00:54.623000Z</time>
      </trkpt>
      <trkpt lat="35.94709111" lon="120.21164404">
        <time>2019-07-31T22:00:58.635000Z</time>
      </trkpt>
      <trkpt lat="35.94698046" lon="120.211663">
        <time>2019-07-31T22:01:02.621000Z</time>
      </trkpt>
      <trkpt lat="35.94687396" lon="120.21168885">
        <time>2019-07-31T22:01:06.685000Z</time>
      </trkpt>
      <trkpt lat="35.94677968" lon="120.21172072">
        <time>2019-07-31T22:01:10.643000Z</time>
      </trkpt>
      <trkpt lat="35.94667816" lon="120.21177137">
        <time>2019-07-31T22:01:14.627000Z</time>
      </trkpt>
      <trkpt lat="35.94656419" lon="120.21181551">
        <time>2019-07-31T22:01:18.622000Z</time>
      </trkpt>
      <trkpt lat="35.94646542" lon="120.2118586">
        <time>2019-07-31T22:01:22.632000Z</time>
      </trkpt>
      <trkpt lat="35.94636892" lon="120.21187867">
        <time>2019-07-31T22:01:26.620000Z</time>
      </trkpt>
      <trkpt lat="35.94627005" lon="120.2119024">
        <time>2019-07-31T22:01:29.625000Z</time>
      </trkpt>
      <trkpt lat="35.94617804" lon="120.21192821">
        <time>2019-07-31T22:01:32.626000Z</time>
      </trkpt>
      <trkpt lat="35.94609239" lon="120.21197025">
        <time>2019-07-31T22:01:35.633000Z</time>
      </trkpt>
      <trkpt lat="35.94600305" lon="120.21200344">
        <time>2019-07-31T22:01:38.626000Z</time>
      </trkpt>
      <trkpt lat="35.94591152" lon="120.21204427">
        <time>2019-07-31T22:01:44.636000Z</time>
      </trkpt>
      <trkpt lat="35.94581714" lon="120.21206617">
        <time>2019-07-31T22:01:50.638000Z</time>
      </trkpt>
      <trkpt lat="35.94581714" lon="120.21206617">
        <time>2019-07-31T22:01:54.630000Z</time>
      </trkpt>
      <trkpt lat="35.94572445" lon="120.21207465">
        <time>2019-07-31T22:01:58.648000Z</time>
      </trkpt>
      <trkpt lat="35.94561177" lon="120.21213986">
        <time>2019-07-31T22:02:03.627000Z</time>
      </trkpt>
      <trkpt lat="35.94561177" lon="120.21213986">
        <time>2019-07-31T22:02:05.625000Z</time>
      </trkpt>
      <trkpt lat="35.94552158" lon="120.21218772">
        <time>2019-07-31T22:02:06.625000Z</time>
      </trkpt>
      <trkpt lat="35.94543151" lon="120.21224756">
        <time>2019-07-31T22:02:10.641000Z</time>
      </trkpt>
      <trkpt lat="35.94532489" lon="120.21227498">
        <time>2019-07-31T22:02:14.636000Z</time>
      </trkpt>
      <trkpt lat="35.94522849" lon="120.21230495">
        <time>2019-07-31T22:02:17.646000Z</time>
      </trkpt>
      <trkpt lat="35.94514384" lon="120.21234759">
        <time>2019-07-31T22:02:20.626000Z</time>
      </trkpt>
      <trkpt lat="35.94503389" lon="120.21238748">
        <time>2019-07-31T22:02:24.627000Z</time>
      </trkpt>
      <trkpt lat="35.94494699" lon="120.2124465">
        <time>2019-07-31T22:02:28.619000Z</time>
      </trkpt>
      <trkpt lat="35.9448626" lon="120.2124906">
        <time>2019-07-31T22:02:32.630000Z</time>
      </trkpt>
      <trkpt lat="35.94476385" lon="120.21252843">
        <time>2019-07-31T22:02:37.630000Z</time>
      </trkpt>
      <trkpt lat="35.94466503" lon="120.21259514">
        <time>2019-07-31T22:02:41.625000Z</time>
      </trkpt>
      <trkpt lat="35.9445763" lon="120.2126248">
        <time>2019-07-31T22:02:48.619000Z</time>
      </trkpt>
      <trkpt lat="35.94448371" lon="120.21267093">
        <time>2019-07-31T22:02:54.643000Z</time>
      </trkpt>
      <trkpt lat="35.94448371" lon="120.21267093">
        <time>2019-07-31T22:02:55.630000Z</time>
      </trkpt>
      <trkpt lat="35.94439229" lon="120.21270018">
        <time>2019-07-31T22:02:58.629000Z</time>
      </trkpt>
      <trkpt lat="35.94429178" lon="120.2127508">
        <time>2019-07-31T22:03:03.626000Z</time>
      </trkpt>
      <trkpt lat="35.94429178" lon="120.2127508">
        <time>2019-07-31T22:03:05.622000Z</time>
      </trkpt>
      <trkpt lat="35.94419805" lon="120.21280062">
        <time>2019-07-31T22:03:07.620000Z</time>
      </trkpt>
      <trkpt lat="35.94411112" lon="120.21284803">
        <time>2019-07-31T22:03:11.632000Z</time>
      </trkpt>
      <trkpt lat="35.94402019" lon="120.21293381">
        <time>2019-07-31T22:03:16.637000Z</time>
      </trkpt>
      <trkpt lat="35.94394762" lon="120.21300929">
        <time>2019-07-31T22:03:19.622000Z</time>
      </trkpt>
      <trkpt lat="35.94386626" lon="120.21306168">
        <time>2019-07-31T22:03:22.625000Z</time>
      </trkpt>
      <trkpt lat="35.94377248" lon="120.21303373">
        <time>2019-07-31T22:03:25.632000Z</time>
      </trkpt>
      <trkpt lat="35.94367921" lon="120.2129531">
        <time>2019-07-31T22:03:29.656000Z</time>
      </trkpt>
      <trkpt lat="35.94359157" lon="120.21286407">
        <time>2019-07-31T22:03:34.630000Z</time>
      </trkpt>
      <trkpt lat="35.94351981" lon="120.21276091">
        <time>2019-07-31T22:03:38.632000Z</time>
      </trkpt>
      <trkpt lat="35.94346524" lon="120.21263736">
        <time>2019-07-31T22:03:42.641000Z</time>
      </trkpt>
      <trkpt lat="35.94341299" lon="120.21253939">
        <time>2019-07-31T22:03:45.640000Z</time>
      </trkpt>
      <trkpt lat="35.94334644" lon="120.21243966">
        <time>2019-07-31T22:03:49.634000Z</time>
      </trkpt>
      <trkpt lat="35.9432954" lon="120.21232184">
        <time>2019-07-31T22:03:53.636000Z</time>
      </trkpt>
      <trkpt lat="35.94323949" lon="120.21221065">
        <time>2019-07-31T22:03:57.635000Z</time>
      </trkpt>
      <trkpt lat="35.94318977" lon="120.21210914">
        <time>2019-07-31T22:04:01.633000Z</time>
      </trkpt>
      <trkpt lat="35.94313169" lon="120.21199888">
        <time>2019-07-31T22:04:05.624000Z</time>
      </trkpt>
      <trkpt lat="35.94308155" lon="120.21189543">
        <time>2019-07-31T22:04:09.629000Z</time>
      </trkpt>
      <trkpt lat="35.94303796" lon="120.21179673">
        <time>2019-07-31T22:04:12.637000Z</time>
      </trkpt>
      <trkpt lat="35.94301536" lon="120.21168738">
        <time>2019-07-31T22:04:15.630000Z</time>
      </trkpt>
      <trkpt lat="35.94293859" lon="120.21159098">
        <time>2019-07-31T22:04:19.633000Z</time>
      </trkpt>
      <trkpt lat="35.94286551" lon="120.21151293">
        <time>2019-07-31T22:04:23.620000Z</time>
      </trkpt>
      <trkpt lat="35.94279956" lon="120.21141187">
        <time>2019-07-31T22:04:27.650000Z</time>
      </trkpt>
      <trkpt lat="35.94273383" lon="120.21131939">
        <time>2019-07-31T22:04:31.622000Z</time>
      </trkpt>
      <trkpt lat="35.94265896" lon="120.21120848">
        <time>2019-07-31T22:04:35.627000Z</time>
      </trkpt>
      <trkpt lat="35.94258439" lon="120.2111086">
        <time>2019-07-31T22:04:39.617000Z</time>
      </trkpt>
      <trkpt lat="35.94251512" lon="120.21100045">
        <time>2019-07-31T22:04:43.615000Z</time>
      </trkpt>
      <trkpt lat="35.94246291" lon="120.21090915">
        <time>2019-07-31T22:04:46.625000Z</time>
      </trkpt>
      <trkpt lat="35.94239879" lon="120.21079527">
        <time>2019-07-31T22:04:50.644000Z</time>
      </trkpt>
      <trkpt lat="35.9423375" lon="120.2106921">
        <time>2019-07-31T22:04:54.692000Z</time>
      </trkpt>
      <trkpt lat="35.9422738" lon="120.21058813">
        <time>2019-07-31T22:04:58.631000Z</time>
      </trkpt>
      <trkpt lat="35.94221503" lon="120.21047374">
        <time>2019-07-31T22:05:02.626000Z</time>
      </trkpt>
      <trkpt lat="35.94215027" lon="120.21035084">
        <time>2019-07-31T22:05:06.620000Z</time>
      </trkpt>
      <trkpt lat="35.94209681" lon="120.21025763">
        <time>2019-07-31T22:05:09.621000Z</time>
      </trkpt>
      <trkpt lat="35.94203016" lon="120.21014768">
        <time>2019-07-31T22:05:13.633000Z</time>
      </trkpt>
      <trkpt lat="35.94196137" lon="120.21003663">
        <time>2019-07-31T22:05:17.628000Z</time>
      </trkpt>
      <trkpt lat="35.94189865" lon="120.20992862">
        <time>2019-07-31T22:05:21.661000Z</time>
      </trkpt>
      <trkpt lat="35.94184092" lon="120.20982517">
        <time>2019-07-31T22:05:25.637000Z</time>
      </trkpt>
      <trkpt lat="35.94181206" lon="120.20970422">
        <time>2019-07-31T22:05:29.631000Z</time>
      </trkpt>
      <trkpt lat="35.9417769" lon="120.20958419">
        <time>2019-07-31T22:05:33.627000Z</time>
      </trkpt>
      <trkpt lat="35.94173321" lon="120.20948021">
        <time>2019-07-31T22:05:37.632000Z</time>
      </trkpt>
      <trkpt lat="35.94173321" lon="120.20948021">
        <time>2019-07-31T22:06:04.624000Z</time>
      </trkpt>
      <trkpt lat="35.94181116" lon="120.20927899">
        <time>2019-07-31T22:06:04.633000Z</time>
      </trkpt>
      <trkpt lat="35.94191004" lon="120.20926403">
        <time>2019-07-31T22:06:13.632000Z</time>
      </trkpt>
      <trkpt lat="35.94191004" lon="120.20926403">
        <time>2019-07-31T22:06:14.230000Z</time>
      </trkpt>
      <trkpt lat="35.94201333" lon="120.20924313">
        <time>2019-07-31T22:06:19.632000Z</time>
      </trkpt>
      <trkpt lat="35.94212401" lon="120.20923654">
        <time>2019-07-31T22:06:24.621000Z</time>
      </trkpt>
      <trkpt lat="35.94222548" lon="120.20922636">
        <time>2019-07-31T22:06:28.635000Z</time>
      </trkpt>
      <trkpt lat="35.94233526" lon="120.20918559">
        <time>2019-07-31T22:06:32.637000Z</time>
      </trkpt>
      <trkpt lat="35.94244323" lon="120.2091332">
        <time>2019-07-31T22:06:36.630000Z</time>
      </trkpt>
      <trkpt lat="35.94255367" lon="120.20907436">
        <time>2019-07-31T22:06:40.642000Z</time>
      </trkpt>
      <trkpt lat="35.94266818" lon="120.20903427">
        <time>2019-07-31T22:06:44.622000Z</time>
      </trkpt>
      <trkpt lat="35.94275702" lon="120.20901231">
        <time>2019-07-31T22:06:47.623000Z</time>
      </trkpt>
      <trkpt lat="35.94286746" lon="120.20899379">
        <time>2019-07-31T22:06:51.635000Z</time>
      </trkpt>
      <trkpt lat="35.94297281" lon="120.20897834">
        <time>2019-07-31T22:06:55.641000Z</time>
      </trkpt>
      <trkpt lat="35.94308864" lon="120.20896072">
        <time>2019-07-31T22:06:59.653000Z</time>
      </trkpt>
      <trkpt lat="35.94318667" lon="120.20894846">
        <time>2019-07-31T22:07:02.636000Z</time>
      </trkpt>
      <trkpt lat="35.94330031" lon="120.20892187">
        <time>2019-07-31T22:07:06.629000Z</time>
      </trkpt>
      <trkpt lat="35.94340316" lon="120.20888968">
        <time>2019-07-31T22:07:11.631000Z</time>
      </trkpt>
      <trkpt lat="35.94340316" lon="120.20888968">
        <time>2019-07-31T22:07:12.658000Z</time>
      </trkpt>
      <trkpt lat="35.94349224" lon="120.20885862">
        <time>2019-07-31T22:07:19.624000Z</time>
      </trkpt>
      <trkpt lat="35.94349224" lon="120.20885862">
        <time>2019-07-31T22:07:23.638000Z</time>
      </trkpt>
      <trkpt lat="35.94359585" lon="120.20881253">
        <time>2019-07-31T22:07:23.729000Z</time>
      </trkpt>
      <trkpt lat="35.94369652" lon="120.20878898">
        <time>2019-07-31T22:07:27.624000Z</time>
      </trkpt>
      <trkpt lat="35.94380572" lon="120.20879233">
        <time>2019-07-31T22:07:31.624000Z</time>
      </trkpt>
      <trkpt lat="35.94392107" lon="120.20881933">
        <time>2019-07-31T22:07:35.639000Z</time>
      </trkpt>
      <trkpt lat="35.9440331" lon="120.20885252">
        <time>2019-07-31T22:07:39.625000Z</time>
      </trkpt>
      <trkpt lat="35.94414161" lon="120.20888811">
        <time>2019-07-31T22:07:43.630000Z</time>
      </trkpt>
      <trkpt lat="35.94424298" lon="120.20892552">
        <time>2019-07-31T22:07:48.393000Z</time>
      </trkpt>
      <trkpt lat="35.94433546" lon="120.20894093">
        <time>2019-07-31T22:07:51.640000Z</time>
      </trkpt>
      <trkpt lat="35.94443328" lon="120.20895374">
        <time>2019-07-31T22:07:57.622000Z</time>
      </trkpt>
      <trkpt lat="35.94443328" lon="120.20895374">
        <time>2019-07-31T22:08:03.624000Z</time>
      </trkpt>
      <trkpt lat="35.94452763" lon="120.20891947">
        <time>2019-07-31T22:08:03.650000Z</time>
      </trkpt>
      <trkpt lat="35.94461898" lon="120.20889138">
        <time>2019-07-31T22:08:12.606000Z</time>
      </trkpt>
      <trkpt lat="35.94471" lon="120.20887178">
        <time>2019-07-31T22:08:21.615000Z</time>
      </trkpt>
      <trkpt lat="35.94480866" lon="120.20885945">
        <time>2019-07-31T22:08:29.622000Z</time>
      </trkpt>
      <trkpt lat="35.94490365" lon="120.20885364">
        <time>2019-07-31T22:08:38.638000Z</time>
      </trkpt>
      <trkpt lat="35.9450031" lon="120.2088415">
        <time>2019-07-31T22:08:47.620000Z</time>
      </trkpt>
      <trkpt lat="35.94509378" lon="120.20884117">
        <time>2019-07-31T22:08:55.645000Z</time>
      </trkpt>
      <trkpt lat="35.94518335" lon="120.20882938">
        <time>2019-07-31T22:09:02.628000Z</time>
      </trkpt>
      <trkpt lat="35.94528086" lon="120.20882068">
        <time>2019-07-31T22:09:09.632000Z</time>
      </trkpt>
      <trkpt lat="35.94538046" lon="120.20881249">
        <time>2019-07-31T22:09:17.629000Z</time>
      </trkpt>
      <trkpt lat="35.94547511" lon="120.20879818">
        <time>2019-07-31T22:09:24.645000Z</time>
      </trkpt>
      <trkpt lat="35.94557279" lon="120.20878244">
        <time>2019-07-31T22:09:31.635000Z</time>
      </trkpt>
      <trkpt lat="35.9456693" lon="120.20877556">
        <time>2019-07-31T22:09:39.625000Z</time>
      </trkpt>
      <trkpt lat="35.94576085" lon="120.20876248">
        <time>2019-07-31T22:09:46.622000Z</time>
      </trkpt>
      <trkpt lat="35.9458563" lon="120.2087535">
        <time>2019-07-31T22:09:53.625000Z</time>
      </trkpt>
      <trkpt lat="35.94595135" lon="120.20874821">
        <time>2019-07-31T22:10:00.635000Z</time>
      </trkpt>
      <trkpt lat="35.94604582" lon="120.20873351">
        <time>2019-07-31T22:10:07.620000Z</time>
      </trkpt>
      <trkpt lat="35.94613503" lon="120.20871808">
        <time>2019-07-31T22:10:13.633000Z</time>
      </trkpt>
      <trkpt lat="35.94623275" lon="120.20870022">
        <time>2019-07-31T22:10:20.626000Z</time>
      </trkpt>
      <trkpt lat="35.94632892" lon="120.20868859">
        <time>2019-07-31T22:10:27.649000Z</time>
      </trkpt>
      <trkpt lat="35.94642418" lon="120.20866603">
        <time>2019-07-31T22:10:34.626000Z</time>
      </trkpt>
      <trkpt lat="35.94651819" lon="120.2086408">
        <time>2019-07-31T22:10:41.678000Z</time>
      </trkpt>
      <trkpt lat="35.94661397" lon="120.2086414">
        <time>2019-07-31T22:10:49.635000Z</time>
      </trkpt>
      <trkpt lat="35.94671007" lon="120.20863729">
        <time>2019-07-31T22:10:56.646000Z</time>
      </trkpt>
      <trkpt lat="35.94680034" lon="120.20862758">
        <time>2019-07-31T22:11:03.629000Z</time>
      </trkpt>
      <trkpt lat="35.94689211" lon="120.20861898">
        <time>2019-07-31T22:11:10.634000Z</time>
      </trkpt>
      <trkpt lat="35.94699144" lon="120.20860166">
        <time>2019-07-31T22:11:17.650000Z</time>
      </trkpt>
      <trkpt lat="35.9470559" lon="120.20851924">
        <time>2019-07-31T22:11:25.638000Z</time>
      </trkpt>
      <trkpt lat="35.94704767" lon="120.20840427">
        <time>2019-07-31T22:11:32.634000Z</time>
      </trkpt>
      <trkpt lat="35.94704108" lon="120.20829295">
        <time>2019-07-31T22:11:39.621000Z</time>
      </trkpt>
      <trkpt lat="35.9470309" lon="120.20817734">
        <time>2019-07-31T22:11:46.621000Z</time>
      </trkpt>
      <trkpt lat="35.94702932" lon="120.20806456">
        <time>2019-07-31T22:11:53.631000Z</time>
      </trkpt>
      <trkpt lat="35.94702157" lon="120.20794274">
        <time>2019-07-31T22:12:01.639000Z</time>
      </trkpt>
      <trkpt lat="35.94701433" lon="120.20782858">
        <time>2019-07-31T22:12:08.718000Z</time>
      </trkpt>
      <trkpt lat="35.94699817" lon="120.20770782">
        <time>2019-07-31T22:12:16.617000Z</time>
      </trkpt>
      <trkpt lat="35.94699346" lon="120.20759672">
        <time>2019-07-31T22:12:23.634000Z</time>
      </trkpt>
      <trkpt lat="35.94698494" lon="120.20747315">
        <time>2019-07-31T22:12:31.625000Z</time>
      </trkpt>
      <trkpt lat="35.94697226" lon="120.20735366">
        <time>2019-07-31T22:12:39.639000Z</time>
      </trkpt>
      <trkpt lat="35.94695502" lon="120.20723123">
        <time>2019-07-31T22:12:47.620000Z</time>
      </trkpt>
      <trkpt lat="35.94699742" lon="120.20711702">
        <time>2019-07-31T22:12:55.629000Z</time>
      </trkpt>
      <trkpt lat="35.94701954" lon="120.20700493">
        <time>2019-07-31T22:13:03.623000Z</time>
      </trkpt>
      <trkpt lat="35.94705264" lon="120.20690004">
        <time>2019-07-31T22:13:11.638000Z</time>
      </trkpt>
      <trkpt lat="35.94710905" lon="120.20680456">
        <time>2019-07-31T22:13:18.624000Z</time>
      </trkpt>
      <trkpt lat="35.94714668" lon="120.20669516">
        <time>2019-07-31T22:13:26.639000Z</time>
      </trkpt>
      <trkpt lat="35.94716992" lon="120.20658626">
        <time>2019-07-31T22:13:33.638000Z</time>
      </trkpt>
      <trkpt lat="35.94722486" lon="120.20649109">
        <time>2019-07-31T22:13:39.627000Z</time>
      </trkpt>
      <trkpt lat="35.94728286" lon="120.20640402">
        <time>2019-07-31T22:13:45.638000Z</time>
      </trkpt>
      <trkpt lat="35.9473384" lon="120.20630717">
        <time>2019-07-31T22:13:52.641000Z</time>
      </trkpt>
      <trkpt lat="35.94738623" lon="120.20620723">
        <time>2019-07-31T22:13:59.639000Z</time>
      </trkpt>
      <trkpt lat="35.9474192" lon="120.20609688">
        <time>2019-07-31T22:14:06.630000Z</time>
      </trkpt>
      <trkpt lat="35.94746019" lon="120.20599254">
        <time>2019-07-31T22:14:14.641000Z</time>
      </trkpt>
      <trkpt lat="35.94750107" lon="120.20587776">
        <time>2019-07-31T22:14:22.621000Z</time>
      </trkpt>
      <trkpt lat="35.94754373" lon="120.20577406">
        <time>2019-07-31T22:14:29.660000Z</time>
      </trkpt>
      <trkpt lat="35.94758562" lon="120.20567132">
        <time>2019-07-31T22:14:36.633000Z</time>
      </trkpt>
      <trkpt lat="35.94762453" lon="120.20556976">
        <time>2019-07-31T22:14:43.638000Z</time>
      </trkpt>
      <trkpt lat="35.94767078" lon="120.20545597">
        <time>2019-07-31T22:14:51.637000Z</time>
      </trkpt>
      <trkpt lat="35.94770595" lon="120.20534549">
        <time>2019-07-31T22:14:58.635000Z</time>
      </trkpt>
      <trkpt lat="35.94775127" lon="120.20523158">
        <time>2019-07-31T22:15:06.789000Z</time>
      </trkpt>
      <trkpt lat="35.9477938" lon="120.20513154">
        <time>2019-07-31T22:15:13.636000Z</time>
      </trkpt>
      <trkpt lat="35.94783904" lon="120.20502643">
        <time>2019-07-31T22:15:20.635000Z</time>
      </trkpt>
      <trkpt lat="35.94788006" lon="120.20491258">
        <time>2019-07-31T22:15:28.633000Z</time>
      </trkpt>
      <trkpt lat="35.94789573" lon="120.20479862">
        <time>2019-07-31T22:15:35.626000Z</time>
      </trkpt>
      <trkpt lat="35.94790518" lon="120.20467514">
        <time>2019-07-31T22:15:42.643000Z</time>
      </trkpt>
      <trkpt lat="35.94791249" lon="120.20455507">
        <time>2019-07-31T22:15:49.634000Z</time>
      </trkpt>
      <trkpt lat="35.94791323" lon="120.20443474">
        <time>2019-07-31T22:15:56.628000Z</time>
      </trkpt>
      <trkpt lat="35.94790074" lon="120.20431409">
        <time>2019-07-31T22:16:03.631000Z</time>
      </trkpt>
      <trkpt lat="35.94789812" lon="120.20419525">
        <time>2019-07-31T22:16:11.630000Z</time>
      </trkpt>
      <trkpt lat="35.94798748" lon="120.20423017">
        <time>2019-07-31T22:16:19.640000Z</time>
      </trkpt>
      <trkpt lat="35.94807202" lon="120.20428026">
        <time>2019-07-31T22:16:27.618000Z</time>
      </trkpt>
      <trkpt lat="35.94815921" lon="120.20432671">
        <time>2019-07-31T22:16:35.646000Z</time>
      </trkpt>
      <trkpt lat="35.94824086" lon="120.20437394">
        <time>2019-07-31T22:16:42.675000Z</time>
      </trkpt>
      <trkpt lat="35.94832162" lon="120.20445104">
        <time>2019-07-31T22:16:50.679000Z</time>
      </trkpt>
      <trkpt lat="35.94838786" lon="120.20452686">
        <time>2019-07-31T22:16:57.618000Z</time>
      </trkpt>
      <trkpt lat="35.94844935" lon="120.2046103">
        <time>2019-07-31T22:17:04.664000Z</time>
      </trkpt>
      <trkpt lat="35.94852285" lon="120.20469373">
        <time>2019-07-31T22:17:12.665000Z</time>
      </trkpt>
      <trkpt lat="35.94858889" lon="120.20477289">
        <time>2019-07-31T22:17:19.632000Z</time>
      </trkpt>
      <trkpt lat="35.94866064" lon="120.20485898">
        <time>2019-07-31T22:17:27.624000Z</time>
      </trkpt>
      <trkpt lat="35.94873932" lon="120.20493495">
        <time>2019-07-31T22:17:35.629000Z</time>
      </trkpt>
      <trkpt lat="35.94881468" lon="120.20501772">
        <time>2019-07-31T22:17:43.628000Z</time>
      </trkpt>
      <trkpt lat="35.94887953" lon="120.205095">
        <time>2019-07-31T22:17:50.620000Z</time>
      </trkpt>
      <trkpt lat="35.94895432" lon="120.20517702">
        <time>2019-07-31T22:17:58.624000Z</time>
      </trkpt>
      <trkpt lat="35.94902398" lon="120.20526291">
        <time>2019-07-31T22:18:06.638000Z</time>
      </trkpt>
      <trkpt lat="35.94908643" lon="120.20535785">
        <time>2019-07-31T22:18:14.634000Z</time>
      </trkpt>
      <trkpt lat="35.94915941" lon="120.2054275">
        <time>2019-07-31T22:18:21.625000Z</time>
      </trkpt>
      <trkpt lat="35.94924541" lon="120.20546801">
        <time>2019-07-31T22:18:28.618000Z</time>
      </trkpt>
      <trkpt lat="35.94931265" lon="120.20556019">
        <time>2019-07-31T22:18:36.632000Z</time>
      </trkpt>
      <trkpt lat="35.94938666" lon="120.20563789">
        <time>2019-07-31T22:18:44.636000Z</time>
      </trkpt>
      <trkpt lat="35.94946224" lon="120.20571869">
        <time>2019-07-31T22:18:52.617000Z</time>
      </trkpt>
      <trkpt lat="35.94952783" lon="120.20581145">
        <time>2019-07-31T22:19:00.616000Z</time>
      </trkpt>
      <trkpt lat="35.94960303" lon="120.20589147">
        <time>2019-07-31T22:19:08.625000Z</time>
      </trkpt>
      <trkpt lat="35.94967242" lon="120.20597376">
        <time>2019-07-31T22:19:16.612000Z</time>
      </trkpt>
      <trkpt lat="35.94977047" lon="120.20597019">
        <time>2019-07-31T22:19:24.618000Z</time>
      </trkpt>
      <trkpt lat="35.94984628" lon="120.20589874">
        <time>2019-07-31T22:19:31.629000Z</time>
      </trkpt>
      <trkpt lat="35.94993081" lon="120.2058444">
        <time>2019-07-31T22:19:39.648000Z</time>
      </trkpt>
      <trkpt lat="35.95002685" lon="120.20582469">
        <time>2019-07-31T22:19:47.641000Z</time>
      </trkpt>
      <trkpt lat="35.9501245" lon="120.20579549">
        <time>2019-07-31T22:19:56.616000Z</time>
      </trkpt>
      <trkpt lat="35.95022088" lon="120.20577158">
        <time>2019-07-31T22:20:05.629000Z</time>
      </trkpt>
      <trkpt lat="35.95031343" lon="120.20573718">
        <time>2019-07-31T22:20:15.629000Z</time>
      </trkpt>
      <trkpt lat="35.95040699" lon="120.20571977">
        <time>2019-07-31T22:20:24.628000Z</time>
      </trkpt>
      <trkpt lat="35.95050328" lon="120.20567909">
        <time>2019-07-31T22:20:31.630000Z</time>
      </trkpt>
      <trkpt lat="35.95058979" lon="120.20562878">
        <time>2019-07-31T22:20:39.628000Z</time>
      </trkpt>
      <trkpt lat="35.95063477" lon="120.20552335">
        <time>2019-07-31T22:20:46.629000Z</time>
      </trkpt>
      <trkpt lat="35.95063578" lon="120.20539935">
        <time>2019-07-31T22:20:54.628000Z</time>
      </trkpt>
      <trkpt lat="35.95061372" lon="120.20528659">
        <time>2019-07-31T22:21:02.625000Z</time>
      </trkpt>
      <trkpt lat="35.95059096" lon="120.20517378">
        <time>2019-07-31T22:21:10.627000Z</time>
      </trkpt>
      <trkpt lat="35.95056625" lon="120.2050631">
        <time>2019-07-31T22:21:18.627000Z</time>
      </trkpt>
      <trkpt lat="35.95053542" lon="120.20495314">
        <time>2019-07-31T22:21:26.626000Z</time>
      </trkpt>
      <trkpt lat="35.95051788" lon="120.20484324">
        <time>2019-07-31T22:21:33.629000Z</time>
      </trkpt>
      <trkpt lat="35.95049506" lon="120.20473321">
        <time>2019-07-31T22:21:41.629000Z</time>
      </trkpt>
      <trkpt lat="35.95047509" lon="120.20462495">
        <time>2019-07-31T22:21:48.635000Z</time>
      </trkpt>
      <trkpt lat="35.95045143" lon="120.20450547">
        <time>2019-07-31T22:21:56.639000Z</time>
      </trkpt>
      <trkpt lat="35.9504323" lon="120.20439701">
        <time>2019-07-31T22:22:03.633000Z</time>
      </trkpt>
      <trkpt lat="35.95042789" lon="120.20428109">
        <time>2019-07-31T22:22:11.630000Z</time>
      </trkpt>
      <trkpt lat="35.95042789" lon="120.20428109">
        <time>2019-07-31T22:22:54.639000Z</time>
      </trkpt>
      <trkpt lat="35.95047472" lon="120.20418442">
        <time>2019-07-31T22:22:54.699000Z</time>
      </trkpt>
      <trkpt lat="35.95057206" lon="120.20415526">
        <time>2019-07-31T22:23:02.623000Z</time>
      </trkpt>
      <trkpt lat="35.9506717" lon="120.20413162">
        <time>2019-07-31T22:23:10.621000Z</time>
      </trkpt>
      <trkpt lat="35.95076729" lon="120.20414186">
        <time>2019-07-31T22:23:17.628000Z</time>
      </trkpt>
      <trkpt lat="35.95086184" lon="120.20418125">
        <time>2019-07-31T22:23:25.625000Z</time>
      </trkpt>
      <trkpt lat="35.95096081" lon="120.204184">
        <time>2019-07-31T22:23:33.628000Z</time>
      </trkpt>
      <trkpt lat="35.95105463" lon="120.20417209">
        <time>2019-07-31T22:23:41.633000Z</time>
      </trkpt>
      <trkpt lat="35.95115327" lon="120.20415873">
        <time>2019-07-31T22:23:50.629000Z</time>
      </trkpt>
      <trkpt lat="35.951253" lon="120.20414889">
        <time>2019-07-31T22:23:58.739000Z</time>
      </trkpt>
      <trkpt lat="35.95134445" lon="120.2041303">
        <time>2019-07-31T22:24:06.631000Z</time>
      </trkpt>
      <trkpt lat="35.95144357" lon="120.20412017">
        <time>2019-07-31T22:24:15.623000Z</time>
      </trkpt>
      <trkpt lat="35.95153899" lon="120.20409547">
        <time>2019-07-31T22:24:24.638000Z</time>
      </trkpt>
      <trkpt lat="35.95163288" lon="120.20408387">
        <time>2019-07-31T22:24:32.631000Z</time>
      </trkpt>
      <trkpt lat="35.95172428" lon="120.20406512">
        <time>2019-07-31T22:24:40.639000Z</time>
      </trkpt>
      <trkpt lat="35.95181617" lon="120.20404629">
        <time>2019-07-31T22:24:48.691000Z</time>
      </trkpt>
      <trkpt lat="35.95190766" lon="120.20403468">
        <time>2019-07-31T22:24:56.635000Z</time>
      </trkpt>
      <trkpt lat="35.95200208" lon="120.20403629">
        <time>2019-07-31T22:25:04.625000Z</time>
      </trkpt>
      <trkpt lat="35.95208991" lon="120.20400809">
        <time>2019-07-31T22:25:12.627000Z</time>
      </trkpt>
      <trkpt lat="35.95217859" lon="120.20398971">
        <time>2019-07-31T22:25:20.623000Z</time>
      </trkpt>
      <trkpt lat="35.95227051" lon="120.20398707">
        <time>2019-07-31T22:25:28.621000Z</time>
      </trkpt>
      <trkpt lat="35.95236556" lon="120.20396546">
        <time>2019-07-31T22:25:36.625000Z</time>
      </trkpt>
      <trkpt lat="35.95245739" lon="120.20394982">
        <time>2019-07-31T22:25:44.631000Z</time>
      </trkpt>
      <trkpt lat="35.95255" lon="120.20394128">
        <time>2019-07-31T22:25:52.628000Z</time>
      </trkpt>
      <trkpt lat="35.95264334" lon="120.20391987">
        <time>2019-07-31T22:26:00.623000Z</time>
      </trkpt>
      <trkpt lat="35.95274038" lon="120.2038923">
        <time>2019-07-31T22:26:09.622000Z</time>
      </trkpt>
      <trkpt lat="35.95283378" lon="120.20387588">
        <time>2019-07-31T22:26:17.627000Z</time>
      </trkpt>
      <trkpt lat="35.9529267" lon="120.2038565">
        <time>2019-07-31T22:26:30.625000Z</time>
      </trkpt>
      <trkpt lat="35.95302362" lon="120.20385105">
        <time>2019-07-31T22:26:40.821000Z</time>
      </trkpt>
      <trkpt lat="35.95312382" lon="120.20383506">
        <time>2019-07-31T22:26:48.629000Z</time>
      </trkpt>
      <trkpt lat="35.95322125" lon="120.20381875">
        <time>2019-07-31T22:26:57.639000Z</time>
      </trkpt>
      <trkpt lat="35.95331993" lon="120.20380688">
        <time>2019-07-31T22:27:06.631000Z</time>
      </trkpt>
      <trkpt lat="35.95341868" lon="120.20378968">
        <time>2019-07-31T22:27:15.629000Z</time>
      </trkpt>
      <trkpt lat="35.95351495" lon="120.20377928">
        <time>2019-07-31T22:27:24.634000Z</time>
      </trkpt>
      <trkpt lat="35.95361117" lon="120.20375988">
        <time>2019-07-31T22:27:33.630000Z</time>
      </trkpt>
      <trkpt lat="35.9537067" lon="120.20373376">
        <time>2019-07-31T22:27:42.632000Z</time>
      </trkpt>
      <trkpt lat="35.95380302" lon="120.20372345">
        <time>2019-07-31T22:27:50.630000Z</time>
      </trkpt>
      <trkpt lat="35.95389811" lon="120.2037085">
        <time>2019-07-31T22:27:59.627000Z</time>
      </trkpt>
      <trkpt lat="35.95398742" lon="120.20369461">
        <time>2019-07-31T22:28:07.632000Z</time>
      </trkpt>
      <trkpt lat="35.95407669" lon="120.20367374">
        <time>2019-07-31T22:28:15.631000Z</time>
      </trkpt>
      <trkpt lat="35.95416787" lon="120.20365652">
        <time>2019-07-31T22:28:23.622000Z</time>
      </trkpt>
      <trkpt lat="35.95416787" lon="120.20365652">
        <time>2019-07-31T22:30:08.629000Z</time>
      </trkpt>
      <trkpt lat="35.95427888" lon="120.20364068">
        <time>2019-07-31T22:30:08.652000Z</time>
      </trkpt>
      <trkpt lat="35.95437066" lon="120.20362149">
        <time>2019-07-31T22:30:17.638000Z</time>
      </trkpt>
      <trkpt lat="35.95446824" lon="120.20360826">
        <time>2019-07-31T22:30:26.631000Z</time>
      </trkpt>
      <trkpt lat="35.95456463" lon="120.2035951">
        <time>2019-07-31T22:30:35.626000Z</time>
      </trkpt>
      <trkpt lat="35.9546565" lon="120.20358772">
        <time>2019-07-31T22:30:43.629000Z</time>
      </trkpt>
      <trkpt lat="35.9546565" lon="120.20358772">
        <time>2019-07-31T22:31:04.631000Z</time>
      </trkpt>
      <trkpt lat="35.95476297" lon="120.20352011">
        <time>2019-07-31T22:31:04.647000Z</time>
      </trkpt>
      <trkpt lat="35.95485335" lon="120.20351491">
        <time>2019-07-31T22:31:13.628000Z</time>
      </trkpt>
      <trkpt lat="35.95494632" lon="120.20350794">
        <time>2019-07-31T22:31:21.630000Z</time>
      </trkpt>
      <trkpt lat="35.95503687" lon="120.20349745">
        <time>2019-07-31T22:31:28.622000Z</time>
      </trkpt>
      <trkpt lat="35.95512687" lon="120.20348584">
        <time>2019-07-31T22:31:35.624000Z</time>
      </trkpt>
      <trkpt lat="35.95522082" lon="120.20347058">
        <time>2019-07-31T22:31:42.630000Z</time>
      </trkpt>
      <trkpt lat="35.95528915" lon="120.203546">
        <time>2019-07-31T22:31:51.619000Z</time>
      </trkpt>
      <trkpt lat="35.9553057" lon="120.20366967">
        <time>2019-07-31T22:32:00.619000Z</time>
      </trkpt>
      <trkpt lat="35.95532693" lon="120.20379029">
        <time>2019-07-31T22:32:08.642000Z</time>
      </trkpt>
      <trkpt lat="35.9553431" lon="120.20390255">
        <time>2019-07-31T22:32:15.627000Z</time>
      </trkpt>
      <trkpt lat="35.95532771" lon="120.20402163">
        <time>2019-07-31T22:32:23.625000Z</time>
      </trkpt>
      <trkpt lat="35.95530188" lon="120.20413081">
        <time>2019-07-31T22:32:31.618000Z</time>
      </trkpt>
      <trkpt lat="35.95530469" lon="120.20425256">
        <time>2019-07-31T22:32:40.623000Z</time>
      </trkpt>
      <trkpt lat="35.9553187" lon="120.20437398">
        <time>2019-07-31T22:32:49.629000Z</time>
      </trkpt>
      <trkpt lat="35.95533797" lon="120.20448574">
        <time>2019-07-31T22:32:58.626000Z</time>
      </trkpt>
      <trkpt lat="35.95535519" lon="120.20459948">
        <time>2019-07-31T22:33:07.628000Z</time>
      </trkpt>
      <trkpt lat="35.95537514" lon="120.20471519">
        <time>2019-07-31T22:33:16.619000Z</time>
      </trkpt>
      <trkpt lat="35.95540062" lon="120.20483248">
        <time>2019-07-31T22:33:25.631000Z</time>
      </trkpt>
      <trkpt lat="35.95541041" lon="120.20494439">
        <time>2019-07-31T22:33:33.632000Z</time>
      </trkpt>
      <trkpt lat="35.95542936" lon="120.20505468">
        <time>2019-07-31T22:33:41.631000Z</time>
      </trkpt>
      <trkpt lat="35.95544461" lon="120.20516638">
        <time>2019-07-31T22:33:48.633000Z</time>
      </trkpt>
      <trkpt lat="35.95546046" lon="120.20527727">
        <time>2019-07-31T22:33:57.633000Z</time>
      </trkpt>
      <trkpt lat="35.95548863" lon="120.20538582">
        <time>2019-07-31T22:34:08.630000Z</time>
      </trkpt>
      <trkpt lat="35.95551235" lon="120.20549485">
        <time>2019-07-31T22:34:17.635000Z</time>
      </trkpt>
      <trkpt lat="35.95554739" lon="120.20559944">
        <time>2019-07-31T22:34:26.625000Z</time>
      </trkpt>
      <trkpt lat="35.95556588" lon="120.20570923">
        <time>2019-07-31T22:34:35.630000Z</time>
      </trkpt>
      <trkpt lat="35.95557133" lon="120.20582711">
        <time>2019-07-31T22:34:44.640000Z</time>
      </trkpt>
      <trkpt lat="35.95559477" lon="120.20594335">
        <time>2019-07-31T22:34:53.619000Z</time>
      </trkpt>
      <trkpt lat="35.95559477" lon="120.20594335">
        <time>2019-07-31T22:35:09.619000Z</time>
      </trkpt>
      <trkpt lat="35.95559477" lon="120.20594335">
        <time>2019-07-31T22:35:09.662000Z</time>
      </trkpt>
      <trkpt lat="35.95559508" lon="120.20607108">
        <time>2019-07-31T22:35:11.626000Z</time>
      </trkpt>
      <trkpt lat="35.95560451" lon="120.20619138">
        <time>2019-07-31T22:35:21.637000Z</time>
      </trkpt>
      <trkpt lat="35.95560451" lon="120.20619138">
        <time>2019-07-31T22:35:58.624000Z</time>
      </trkpt>
      <trkpt lat="35.95560451" lon="120.20619138">
        <time>2019-07-31T22:35:58.650000Z</time>
      </trkpt>
      <trkpt lat="35.95564183" lon="120.20629914">
        <time>2019-07-31T22:36:02.622000Z</time>
      </trkpt>
      <trkpt lat="35.9556566" lon="120.20642022">
        <time>2019-07-31T22:36:11.633000Z</time>
      </trkpt>
      <trkpt lat="35.95566716" lon="120.20653989">
        <time>2019-07-31T22:36:20.630000Z</time>
      </trkpt>
      <trkpt lat="35.95566716" lon="120.20653989">
        <time>2019-07-31T22:38:25.626000Z</time>
      </trkpt>
      <trkpt lat="35.95566716" lon="120.20653989">
        <time>2019-07-31T22:38:25.640000Z</time>
      </trkpt>
      <trkpt lat="35.95569588" lon="120.20667975">
        <time>2019-07-31T22:38:28.614000Z</time>
      </trkpt>
      <trkpt lat="35.95571333" lon="120.20679675">
        <time>2019-07-31T22:38:37.622000Z</time>
      </trkpt>
      <trkpt lat="35.95570041" lon="120.2069118">
        <time>2019-07-31T22:38:46.614000Z</time>
      </trkpt>
      <trkpt lat="35.95569525" lon="120.20703065">
        <time>2019-07-31T22:38:55.625000Z</time>
      </trkpt>
      <trkpt lat="35.95569352" lon="120.20714214">
        <time>2019-07-31T22:39:03.616000Z</time>
      </trkpt>
      <trkpt lat="35.95570038" lon="120.20725617">
        <time>2019-07-31T22:39:11.620000Z</time>
      </trkpt>
      <trkpt lat="35.95569237" lon="120.20737443">
        <time>2019-07-31T22:39:21.624000Z</time>
      </trkpt>
      <trkpt lat="35.955701" lon="120.20749284">
        <time>2019-07-31T22:39:30.625000Z</time>
      </trkpt>
      <trkpt lat="35.95572735" lon="120.20760343">
        <time>2019-07-31T22:39:39.625000Z</time>
      </trkpt>
      <trkpt lat="35.95579976" lon="120.20768105">
        <time>2019-07-31T22:39:49.631000Z</time>
      </trkpt>
      <trkpt lat="35.95589325" lon="120.20769766">
        <time>2019-07-31T22:40:01.625000Z</time>
      </trkpt>
      <trkpt lat="35.95598949" lon="120.20768437">
        <time>2019-07-31T22:40:11.620000Z</time>
      </trkpt>
      <trkpt lat="35.95608413" lon="120.20766234">
        <time>2019-07-31T22:40:19.612000Z</time>
      </trkpt>
      <trkpt lat="35.95617258" lon="120.20764079">
        <time>2019-07-31T22:40:28.616000Z</time>
      </trkpt>
      <trkpt lat="35.95626244" lon="120.20761532">
        <time>2019-07-31T22:40:36.617000Z</time>
      </trkpt>
      <trkpt lat="35.9563559" lon="120.20759047">
        <time>2019-07-31T22:40:45.610000Z</time>
      </trkpt>
      <trkpt lat="35.95644601" lon="120.20756158">
        <time>2019-07-31T22:40:54.619000Z</time>
      </trkpt>
      <trkpt lat="35.95652917" lon="120.20761961">
        <time>2019-07-31T22:41:05.615000Z</time>
      </trkpt>
      <trkpt lat="35.95652" lon="120.2077412">
        <time>2019-07-31T22:41:15.622000Z</time>
      </trkpt>
      <trkpt lat="35.95651435" lon="120.20785291">
        <time>2019-07-31T22:41:23.623000Z</time>
      </trkpt>
      <trkpt lat="35.95652244" lon="120.20797148">
        <time>2019-07-31T22:41:32.628000Z</time>
      </trkpt>
      <trkpt lat="35.95654068" lon="120.2080809">
        <time>2019-07-31T22:41:40.620000Z</time>
      </trkpt>
      <trkpt lat="35.95655131" lon="120.208192">
        <time>2019-07-31T22:41:47.616000Z</time>
      </trkpt>
      <trkpt lat="35.95657058" lon="120.20830701">
        <time>2019-07-31T22:41:54.622000Z</time>
      </trkpt>
      <trkpt lat="35.95658195" lon="120.20842688">
        <time>2019-07-31T22:42:02.627000Z</time>
      </trkpt>
      <trkpt lat="35.95660467" lon="120.20853449">
        <time>2019-07-31T22:42:10.625000Z</time>
      </trkpt>
      <trkpt lat="35.95662176" lon="120.20865268">
        <time>2019-07-31T22:42:18.620000Z</time>
      </trkpt>
      <trkpt lat="35.95663892" lon="120.20877138">
        <time>2019-07-31T22:42:27.626000Z</time>
      </trkpt>
      <trkpt lat="35.95655661" lon="120.20883338">
        <time>2019-07-31T22:42:39.625000Z</time>
      </trkpt>
      <trkpt lat="35.95647227" lon="120.20889386">
        <time>2019-07-31T22:42:48.747000Z</time>
      </trkpt>
      <trkpt lat="35.95647227" lon="120.20889386">
        <time>2019-07-31T22:47:49.624000Z</time>
      </trkpt>
      <trkpt lat="35.95647227" lon="120.20889386">
        <time>2019-07-31T22:47:49.645000Z</time>
      </trkpt>
      <trkpt lat="35.95637657" lon="120.20889347">
        <time>2019-07-31T22:47:54.612000Z</time>
      </trkpt>
      <trkpt lat="35.95629203" lon="120.20883712">
        <time>2019-07-31T22:48:06.620000Z</time>
      </trkpt>
      <trkpt lat="35.95625472" lon="120.2089531">
        <time>2019-07-31T22:48:17.629000Z</time>
      </trkpt>
      <trkpt lat="35.95624849" lon="120.20906936">
        <time>2019-07-31T22:48:26.616000Z</time>
      </trkpt>
      <trkpt lat="35.95625689" lon="120.20917989">
        <time>2019-07-31T22:48:37.617000Z</time>
      </trkpt>
      <trkpt lat="35.95625817" lon="120.20930026">
        <time>2019-07-31T22:48:47.610000Z</time>
      </trkpt>
      <trkpt lat="35.95624456" lon="120.20941717">
        <time>2019-07-31T22:48:58.622000Z</time>
      </trkpt>
      <trkpt lat="35.95624456" lon="120.20941717">
        <time>2019-07-31T22:49:11.619000Z</time>
      </trkpt>
      <trkpt lat="35.95624456" lon="120.20941717">
        <time>2019-07-31T22:49:11.657000Z</time>
      </trkpt>
      <trkpt lat="35.95629479" lon="120.20976366">
        <time>2019-07-31T22:50:44.635000Z</time>
      </trkpt>
      <trkpt lat="35.95629479" lon="120.20976366">
        <time>2019-07-31T22:50:44.655000Z</time>
      </trkpt>
      <trkpt lat="35.9563709" lon="120.20983639">
        <time>2019-07-31T22:50:47.628000Z</time>
      </trkpt>
      <trkpt lat="35.95644989" lon="120.20989345">
        <time>2019-07-31T22:50:59.620000Z</time>
      </trkpt>
      <trkpt lat="35.95644989" lon="120.20989345">
        <time>2019-07-31T22:51:50.615000Z</time>
      </trkpt>
      <trkpt lat="35.95644989" lon="120.20989345">
        <time>2019-07-31T22:51:50.627000Z</time>
      </trkpt>
      <trkpt lat="35.95650307" lon="120.21002136">
        <time>2019-07-31T22:51:53.628000Z</time>
      </trkpt>
      <trkpt lat="35.95660141" lon="120.21003058">
        <time>2019-07-31T22:52:05.615000Z</time>
      </trkpt>
      <trkpt lat="35.95660141" lon="120.21003058">
        <time>2019-07-31T22:52:47.606000Z</time>
      </trkpt>
      <trkpt lat="35.95674308" lon="120.20998861">
        <time>2019-07-31T22:52:47.621000Z</time>
      </trkpt>
      <trkpt lat="35.95683764" lon="120.21002422">
        <time>2019-07-31T22:52:57.620000Z</time>
      </trkpt>
      <trkpt lat="35.95693318" lon="120.210011">
        <time>2019-07-31T22:53:04.608000Z</time>
      </trkpt>
      <trkpt lat="35.95697169" lon="120.21000676">
        <time>2019-07-31T22:53:08.222000Z</time>
      </trkpt>
    </trkseg>
  </trk>
</gpx>