<?xml version="1.0" encoding="UTF-8"?>
<gpx xmlns="http://www.topografix.com/GPX/1/1" xmlns:gpxtpx="http://www.garmin.com/xmlschemas/TrackPointExtension/v1" xmlns:xsi="http://www.w3.org/2001/XMLSchema-instance" xsi:schemaLocation="http://www.topografix.com/GPX/1/1 http://www.topografix.com/GPX/1/1/gpx.xsd" version="1.1" creator="gpx.py -- https://github.com/tkrajina/gpxpy">
  <trk>
    <name>星期二 早晨跑步</name>
    <trkseg>
      <trkpt lat="35.95686444" lon="120.20996401">
        <time>2019-07-29T21:36:27.736000Z</time>
      </trkpt>
      <trkpt lat="35.95686444" lon="120.20996401">
        <time>2019-07-29T21:36:33.739000Z</time>
      </trkpt>
      <trkpt lat="35.95686444" lon="120.20996401">
        <time>2019-07-29T21:36:33.759000Z</time>
      </trkpt>
      <trkpt lat="35.95695134" lon="120.20993175">
        <time>2019-07-29T21:36:35.740000Z</time>
      </trkpt>
      <trkpt lat="35.95707224" lon="120.20992561">
        <time>2019-07-29T21:36:41.736000Z</time>
      </trkpt>
      <trkpt lat="35.95707224" lon="120.20992561">
        <time>2019-07-29T21:36:44.065000Z</time>
      </trkpt>
      <trkpt lat="35.95716071" lon="120.20988192">
        <time>2019-07-29T21:36:45.731000Z</time>
      </trkpt>
      <trkpt lat="35.95725954" lon="120.20985518">
        <time>2019-07-29T21:36:49.729000Z</time>
      </trkpt>
      <trkpt lat="35.95736334" lon="120.20983929">
        <time>2019-07-29T21:36:53.737000Z</time>
      </trkpt>
      <trkpt lat="35.95746857" lon="120.20981478">
        <time>2019-07-29T21:36:57.735000Z</time>
      </trkpt>
      <trkpt lat="35.95757561" lon="120.20979517">
        <time>2019-07-29T21:37:02.729000Z</time>
      </trkpt>
      <trkpt lat="35.95768322" lon="120.20977462">
        <time>2019-07-29T21:37:07.735000Z</time>
      </trkpt>
      <trkpt lat="35.95778974" lon="120.20976395">
        <time>2019-07-29T21:37:11.730000Z</time>
      </trkpt>
      <trkpt lat="35.95784951" lon="120.20985909">
        <time>2019-07-29T21:37:15.731000Z</time>
      </trkpt>
      <trkpt lat="35.95787052" lon="120.20998245">
        <time>2019-07-29T21:37:19.724000Z</time>
      </trkpt>
      <trkpt lat="35.95780555" lon="120.21009742">
        <time>2019-07-29T21:37:23.745000Z</time>
      </trkpt>
      <trkpt lat="35.95775942" lon="120.21021922">
        <time>2019-07-29T21:37:27.730000Z</time>
      </trkpt>
      <trkpt lat="35.95775599" lon="120.21035211">
        <time>2019-07-29T21:37:31.727000Z</time>
      </trkpt>
      <trkpt lat="35.9577849" lon="120.21048056">
        <time>2019-07-29T21:37:35.737000Z</time>
      </trkpt>
      <trkpt lat="35.95777148" lon="120.21059763">
        <time>2019-07-29T21:37:39.720000Z</time>
      </trkpt>
      <trkpt lat="35.95781083" lon="120.21071146">
        <time>2019-07-29T21:37:43.729000Z</time>
      </trkpt>
      <trkpt lat="35.95771645" lon="120.21077551">
        <time>2019-07-29T21:37:49.734000Z</time>
      </trkpt>
      <trkpt lat="35.95761346" lon="120.21078372">
        <time>2019-07-29T21:37:54.739000Z</time>
      </trkpt>
      <trkpt lat="35.95750898" lon="120.21079792">
        <time>2019-07-29T21:37:58.722000Z</time>
      </trkpt>
      <trkpt lat="35.9573997" lon="120.21080951">
        <time>2019-07-29T21:38:02.737000Z</time>
      </trkpt>
      <trkpt lat="35.95731342" lon="120.2108473">
        <time>2019-07-29T21:38:05.732000Z</time>
      </trkpt>
      <trkpt lat="35.95720913" lon="120.21087068">
        <time>2019-07-29T21:38:09.738000Z</time>
      </trkpt>
      <trkpt lat="35.95709966" lon="120.21091148">
        <time>2019-07-29T21:38:13.743000Z</time>
      </trkpt>
      <trkpt lat="35.95699143" lon="120.21092146">
        <time>2019-07-29T21:38:17.734000Z</time>
      </trkpt>
      <trkpt lat="35.95688664" lon="120.21093713">
        <time>2019-07-29T21:38:21.744000Z</time>
      </trkpt>
      <trkpt lat="35.95678183" lon="120.21099117">
        <time>2019-07-29T21:38:26.728000Z</time>
      </trkpt>
      <trkpt lat="35.95667708" lon="120.21102594">
        <time>2019-07-29T21:38:30.729000Z</time>
      </trkpt>
      <trkpt lat="35.95657852" lon="120.21105518">
        <time>2019-07-29T21:38:34.726000Z</time>
      </trkpt>
      <trkpt lat="35.95649044" lon="120.21109907">
        <time>2019-07-29T21:38:41.725000Z</time>
      </trkpt>
      <trkpt lat="35.95649044" lon="120.21109907">
        <time>2019-07-29T21:38:44.153000Z</time>
      </trkpt>
      <trkpt lat="35.95638654" lon="120.21112463">
        <time>2019-07-29T21:38:47.730000Z</time>
      </trkpt>
      <trkpt lat="35.9562897" lon="120.21113228">
        <time>2019-07-29T21:38:51.732000Z</time>
      </trkpt>
      <trkpt lat="35.9562897" lon="120.21113228">
        <time>2019-07-29T21:38:54.187000Z</time>
      </trkpt>
      <trkpt lat="35.95618605" lon="120.21112227">
        <time>2019-07-29T21:38:55.745000Z</time>
      </trkpt>
      <trkpt lat="35.95607695" lon="120.21112574">
        <time>2019-07-29T21:38:59.731000Z</time>
      </trkpt>
      <trkpt lat="35.95599243" lon="120.21116431">
        <time>2019-07-29T21:39:02.734000Z</time>
      </trkpt>
      <trkpt lat="35.95590523" lon="120.21120295">
        <time>2019-07-29T21:39:05.734000Z</time>
      </trkpt>
      <trkpt lat="35.95579154" lon="120.21122271">
        <time>2019-07-29T21:39:09.731000Z</time>
      </trkpt>
      <trkpt lat="35.95569404" lon="120.21128429">
        <time>2019-07-29T21:39:13.733000Z</time>
      </trkpt>
      <trkpt lat="35.95564867" lon="120.21139671">
        <time>2019-07-29T21:39:17.736000Z</time>
      </trkpt>
      <trkpt lat="35.95558698" lon="120.2114875">
        <time>2019-07-29T21:39:21.734000Z</time>
      </trkpt>
      <trkpt lat="35.9556023" lon="120.21160546">
        <time>2019-07-29T21:39:25.737000Z</time>
      </trkpt>
      <trkpt lat="35.9556023" lon="120.21160546">
        <time>2019-07-29T21:39:29.904000Z</time>
      </trkpt>
      <trkpt lat="35.95566009" lon="120.21169075">
        <time>2019-07-29T21:39:31.721000Z</time>
      </trkpt>
      <trkpt lat="35.95563236" lon="120.21180403">
        <time>2019-07-29T21:39:37.719000Z</time>
      </trkpt>
      <trkpt lat="35.95563236" lon="120.21180403">
        <time>2019-07-29T21:39:41.260000Z</time>
      </trkpt>
      <trkpt lat="35.95562436" lon="120.2119225">
        <time>2019-07-29T21:39:41.716000Z</time>
      </trkpt>
      <trkpt lat="35.95564895" lon="120.2120321">
        <time>2019-07-29T21:39:47.729000Z</time>
      </trkpt>
      <trkpt lat="35.95564895" lon="120.2120321">
        <time>2019-07-29T21:39:53.277000Z</time>
      </trkpt>
      <trkpt lat="35.9556691" lon="120.21216405">
        <time>2019-07-29T21:39:53.735000Z</time>
      </trkpt>
      <trkpt lat="35.95568631" lon="120.21227874">
        <time>2019-07-29T21:39:57.734000Z</time>
      </trkpt>
      <trkpt lat="35.95570901" lon="120.21240231">
        <time>2019-07-29T21:40:02.735000Z</time>
      </trkpt>
      <trkpt lat="35.95570901" lon="120.21240231">
        <time>2019-07-29T21:40:03.297000Z</time>
      </trkpt>
      <trkpt lat="35.95573965" lon="120.2125256">
        <time>2019-07-29T21:40:06.736000Z</time>
      </trkpt>
      <trkpt lat="35.95575922" lon="120.21266264">
        <time>2019-07-29T21:40:10.733000Z</time>
      </trkpt>
      <trkpt lat="35.95579578" lon="120.21278434">
        <time>2019-07-29T21:40:14.741000Z</time>
      </trkpt>
      <trkpt lat="35.95584283" lon="120.21289317">
        <time>2019-07-29T21:40:18.738000Z</time>
      </trkpt>
      <trkpt lat="35.95589294" lon="120.21300042">
        <time>2019-07-29T21:40:22.720000Z</time>
      </trkpt>
      <trkpt lat="35.9559267" lon="120.21311838">
        <time>2019-07-29T21:40:26.733000Z</time>
      </trkpt>
      <trkpt lat="35.95595218" lon="120.21323437">
        <time>2019-07-29T21:40:30.735000Z</time>
      </trkpt>
      <trkpt lat="35.95592193" lon="120.21334814">
        <time>2019-07-29T21:40:36.721000Z</time>
      </trkpt>
      <trkpt lat="35.95592193" lon="120.21334814">
        <time>2019-07-29T21:40:50.728000Z</time>
      </trkpt>
      <trkpt lat="35.95580354" lon="120.2134772">
        <time>2019-07-29T21:40:50.745000Z</time>
      </trkpt>
      <trkpt lat="35.95570614" lon="120.21348841">
        <time>2019-07-29T21:40:54.734000Z</time>
      </trkpt>
      <trkpt lat="35.95560853" lon="120.2135097">
        <time>2019-07-29T21:40:58.734000Z</time>
      </trkpt>
      <trkpt lat="35.9555093" lon="120.21353276">
        <time>2019-07-29T21:41:02.731000Z</time>
      </trkpt>
      <trkpt lat="35.95540471" lon="120.21353456">
        <time>2019-07-29T21:41:06.722000Z</time>
      </trkpt>
      <trkpt lat="35.95530806" lon="120.2135564">
        <time>2019-07-29T21:41:10.735000Z</time>
      </trkpt>
      <trkpt lat="35.9552119" lon="120.2135881">
        <time>2019-07-29T21:41:14.743000Z</time>
      </trkpt>
      <trkpt lat="35.95511641" lon="120.21362742">
        <time>2019-07-29T21:41:18.734000Z</time>
      </trkpt>
      <trkpt lat="35.95501887" lon="120.21367411">
        <time>2019-07-29T21:41:22.718000Z</time>
      </trkpt>
      <trkpt lat="35.95491185" lon="120.21368553">
        <time>2019-07-29T21:41:26.731000Z</time>
      </trkpt>
      <trkpt lat="35.95482071" lon="120.21369818">
        <time>2019-07-29T21:41:29.751000Z</time>
      </trkpt>
      <trkpt lat="35.95472193" lon="120.21372622">
        <time>2019-07-29T21:41:32.730000Z</time>
      </trkpt>
      <trkpt lat="35.95463076" lon="120.21376512">
        <time>2019-07-29T21:41:35.748000Z</time>
      </trkpt>
      <trkpt lat="35.95453214" lon="120.21374367">
        <time>2019-07-29T21:41:38.732000Z</time>
      </trkpt>
      <trkpt lat="35.9544439" lon="120.21371317">
        <time>2019-07-29T21:41:41.732000Z</time>
      </trkpt>
      <trkpt lat="35.95435236" lon="120.21377348">
        <time>2019-07-29T21:41:44.731000Z</time>
      </trkpt>
      <trkpt lat="35.95426984" lon="120.21384519">
        <time>2019-07-29T21:41:47.737000Z</time>
      </trkpt>
      <trkpt lat="35.9541971" lon="120.21391297">
        <time>2019-07-29T21:41:50.751000Z</time>
      </trkpt>
      <trkpt lat="35.95409391" lon="120.21395212">
        <time>2019-07-29T21:41:54.723000Z</time>
      </trkpt>
      <trkpt lat="35.95398383" lon="120.21396696">
        <time>2019-07-29T21:41:58.721000Z</time>
      </trkpt>
      <trkpt lat="35.95389124" lon="120.21394819">
        <time>2019-07-29T21:42:01.719000Z</time>
      </trkpt>
      <trkpt lat="35.95377274" lon="120.21396551">
        <time>2019-07-29T21:42:05.717000Z</time>
      </trkpt>
      <trkpt lat="35.95365743" lon="120.21397797">
        <time>2019-07-29T21:42:09.738000Z</time>
      </trkpt>
      <trkpt lat="35.95355044" lon="120.21400386">
        <time>2019-07-29T21:42:13.720000Z</time>
      </trkpt>
      <trkpt lat="35.95343427" lon="120.214004">
        <time>2019-07-29T21:42:18.722000Z</time>
      </trkpt>
      <trkpt lat="35.95333164" lon="120.21403808">
        <time>2019-07-29T21:42:22.723000Z</time>
      </trkpt>
      <trkpt lat="35.95323136" lon="120.21404479">
        <time>2019-07-29T21:42:26.720000Z</time>
      </trkpt>
      <trkpt lat="35.95313432" lon="120.21398131">
        <time>2019-07-29T21:42:30.723000Z</time>
      </trkpt>
      <trkpt lat="35.95302683" lon="120.21394206">
        <time>2019-07-29T21:42:34.720000Z</time>
      </trkpt>
      <trkpt lat="35.95294594" lon="120.21384753">
        <time>2019-07-29T21:42:38.718000Z</time>
      </trkpt>
      <trkpt lat="35.95285192" lon="120.21376506">
        <time>2019-07-29T21:42:42.733000Z</time>
      </trkpt>
      <trkpt lat="35.95281298" lon="120.21364969">
        <time>2019-07-29T21:42:46.726000Z</time>
      </trkpt>
      <trkpt lat="35.95278666" lon="120.21351292">
        <time>2019-07-29T21:42:50.727000Z</time>
      </trkpt>
      <trkpt lat="35.9527505" lon="120.21338433">
        <time>2019-07-29T21:42:54.716000Z</time>
      </trkpt>
      <trkpt lat="35.95270438" lon="120.21326664">
        <time>2019-07-29T21:42:58.719000Z</time>
      </trkpt>
      <trkpt lat="35.95266399" lon="120.21314407">
        <time>2019-07-29T21:43:02.734000Z</time>
      </trkpt>
      <trkpt lat="35.95264632" lon="120.21301938">
        <time>2019-07-29T21:43:06.730000Z</time>
      </trkpt>
      <trkpt lat="35.95262384" lon="120.21288459">
        <time>2019-07-29T21:43:10.719000Z</time>
      </trkpt>
      <trkpt lat="35.95258472" lon="120.21276188">
        <time>2019-07-29T21:43:14.733000Z</time>
      </trkpt>
      <trkpt lat="35.95254312" lon="120.21263332">
        <time>2019-07-29T21:43:18.729000Z</time>
      </trkpt>
      <trkpt lat="35.95250538" lon="120.21250584">
        <time>2019-07-29T21:43:22.733000Z</time>
      </trkpt>
      <trkpt lat="35.95248215" lon="120.21237818">
        <time>2019-07-29T21:43:26.750000Z</time>
      </trkpt>
      <trkpt lat="35.95246687" lon="120.21224204">
        <time>2019-07-29T21:43:30.739000Z</time>
      </trkpt>
      <trkpt lat="35.95245189" lon="120.21210689">
        <time>2019-07-29T21:43:34.724000Z</time>
      </trkpt>
      <trkpt lat="35.95242532" lon="120.21197792">
        <time>2019-07-29T21:43:38.740000Z</time>
      </trkpt>
      <trkpt lat="35.9523923" lon="120.21185468">
        <time>2019-07-29T21:43:42.746000Z</time>
      </trkpt>
      <trkpt lat="35.95233529" lon="120.21173981">
        <time>2019-07-29T21:43:46.739000Z</time>
      </trkpt>
      <trkpt lat="35.95230953" lon="120.21161186">
        <time>2019-07-29T21:43:50.734000Z</time>
      </trkpt>
      <trkpt lat="35.95227942" lon="120.21147963">
        <time>2019-07-29T21:43:54.722000Z</time>
      </trkpt>
      <trkpt lat="35.952254" lon="120.21133808">
        <time>2019-07-29T21:43:58.734000Z</time>
      </trkpt>
      <trkpt lat="35.95222758" lon="120.21120503">
        <time>2019-07-29T21:44:02.739000Z</time>
      </trkpt>
      <trkpt lat="35.95220498" lon="120.21107213">
        <time>2019-07-29T21:44:06.733000Z</time>
      </trkpt>
      <trkpt lat="35.95218364" lon="120.21093703">
        <time>2019-07-29T21:44:10.724000Z</time>
      </trkpt>
      <trkpt lat="35.95217435" lon="120.21080765">
        <time>2019-07-29T21:44:14.777000Z</time>
      </trkpt>
      <trkpt lat="35.95214574" lon="120.21067839">
        <time>2019-07-29T21:44:18.723000Z</time>
      </trkpt>
      <trkpt lat="35.95209919" lon="120.21055327">
        <time>2019-07-29T21:44:22.733000Z</time>
      </trkpt>
      <trkpt lat="35.95207174" lon="120.21042412">
        <time>2019-07-29T21:44:26.730000Z</time>
      </trkpt>
      <trkpt lat="35.9519642" lon="120.21040738">
        <time>2019-07-29T21:44:33.729000Z</time>
      </trkpt>
      <trkpt lat="35.9518692" lon="120.21045549">
        <time>2019-07-29T21:44:36.718000Z</time>
      </trkpt>
      <trkpt lat="35.9517799" lon="120.2104981">
        <time>2019-07-29T21:44:39.734000Z</time>
      </trkpt>
      <trkpt lat="35.95168994" lon="120.21054141">
        <time>2019-07-29T21:44:42.775000Z</time>
      </trkpt>
      <trkpt lat="35.95161107" lon="120.21060251">
        <time>2019-07-29T21:44:45.716000Z</time>
      </trkpt>
      <trkpt lat="35.95150079" lon="120.21062477">
        <time>2019-07-29T21:44:49.739000Z</time>
      </trkpt>
      <trkpt lat="35.9514077" lon="120.21062603">
        <time>2019-07-29T21:44:53.728000Z</time>
      </trkpt>
      <trkpt lat="35.9514077" lon="120.21062603">
        <time>2019-07-29T21:45:00.519000Z</time>
      </trkpt>
      <trkpt lat="35.95131814" lon="120.21064133">
        <time>2019-07-29T21:45:01.728000Z</time>
      </trkpt>
      <trkpt lat="35.95122426" lon="120.21062756">
        <time>2019-07-29T21:45:09.754000Z</time>
      </trkpt>
      <trkpt lat="35.95112208" lon="120.21066321">
        <time>2019-07-29T21:45:13.729000Z</time>
      </trkpt>
      <trkpt lat="35.95112208" lon="120.21066321">
        <time>2019-07-29T21:45:14.562000Z</time>
      </trkpt>
      <trkpt lat="35.95102545" lon="120.21071766">
        <time>2019-07-29T21:45:17.729000Z</time>
      </trkpt>
      <trkpt lat="35.95092569" lon="120.21075542">
        <time>2019-07-29T21:45:21.732000Z</time>
      </trkpt>
      <trkpt lat="35.950831" lon="120.21077062">
        <time>2019-07-29T21:45:25.721000Z</time>
      </trkpt>
      <trkpt lat="35.95072428" lon="120.21073758">
        <time>2019-07-29T21:45:29.724000Z</time>
      </trkpt>
      <trkpt lat="35.95061033" lon="120.21075591">
        <time>2019-07-29T21:45:33.722000Z</time>
      </trkpt>
      <trkpt lat="35.95052418" lon="120.21081257">
        <time>2019-07-29T21:45:36.722000Z</time>
      </trkpt>
      <trkpt lat="35.95043263" lon="120.21083316">
        <time>2019-07-29T21:45:40.731000Z</time>
      </trkpt>
      <trkpt lat="35.9503413" lon="120.21082123">
        <time>2019-07-29T21:45:43.736000Z</time>
      </trkpt>
      <trkpt lat="35.95024936" lon="120.21084296">
        <time>2019-07-29T21:45:46.727000Z</time>
      </trkpt>
      <trkpt lat="35.95014808" lon="120.2108685">
        <time>2019-07-29T21:45:50.739000Z</time>
      </trkpt>
      <trkpt lat="35.95006112" lon="120.2109057">
        <time>2019-07-29T21:45:54.735000Z</time>
      </trkpt>
      <trkpt lat="35.94996618" lon="120.21095335">
        <time>2019-07-29T21:45:58.852000Z</time>
      </trkpt>
      <trkpt lat="35.9498666" lon="120.21099618">
        <time>2019-07-29T21:46:02.740000Z</time>
      </trkpt>
      <trkpt lat="35.94976233" lon="120.2110719">
        <time>2019-07-29T21:46:06.738000Z</time>
      </trkpt>
      <trkpt lat="35.94965292" lon="120.2111037">
        <time>2019-07-29T21:46:10.731000Z</time>
      </trkpt>
      <trkpt lat="35.94954376" lon="120.21112409">
        <time>2019-07-29T21:46:14.718000Z</time>
      </trkpt>
      <trkpt lat="35.94943536" lon="120.21116034">
        <time>2019-07-29T21:46:18.721000Z</time>
      </trkpt>
      <trkpt lat="35.94932973" lon="120.21120168">
        <time>2019-07-29T21:46:22.729000Z</time>
      </trkpt>
      <trkpt lat="35.9492326" lon="120.2112728">
        <time>2019-07-29T21:46:26.745000Z</time>
      </trkpt>
      <trkpt lat="35.94913703" lon="120.21132052">
        <time>2019-07-29T21:46:30.729000Z</time>
      </trkpt>
      <trkpt lat="35.94904489" lon="120.21131522">
        <time>2019-07-29T21:46:33.731000Z</time>
      </trkpt>
      <trkpt lat="35.94895326" lon="120.21130518">
        <time>2019-07-29T21:46:36.727000Z</time>
      </trkpt>
      <trkpt lat="35.94885547" lon="120.21126501">
        <time>2019-07-29T21:46:42.728000Z</time>
      </trkpt>
      <trkpt lat="35.94885547" lon="120.21126501">
        <time>2019-07-29T21:46:44.692000Z</time>
      </trkpt>
      <trkpt lat="35.94876329" lon="120.21128665">
        <time>2019-07-29T21:46:50.740000Z</time>
      </trkpt>
      <trkpt lat="35.94876329" lon="120.21128665">
        <time>2019-07-29T21:46:56.097000Z</time>
      </trkpt>
      <trkpt lat="35.9486595" lon="120.21131131">
        <time>2019-07-29T21:46:56.718000Z</time>
      </trkpt>
      <trkpt lat="35.94856832" lon="120.21134049">
        <time>2019-07-29T21:47:00.723000Z</time>
      </trkpt>
      <trkpt lat="35.94845878" lon="120.21136345">
        <time>2019-07-29T21:47:05.719000Z</time>
      </trkpt>
      <trkpt lat="35.94834866" lon="120.21137126">
        <time>2019-07-29T21:47:10.729000Z</time>
      </trkpt>
      <trkpt lat="35.94825368" lon="120.21139668">
        <time>2019-07-29T21:47:14.737000Z</time>
      </trkpt>
      <trkpt lat="35.94815647" lon="120.2114344">
        <time>2019-07-29T21:47:18.733000Z</time>
      </trkpt>
      <trkpt lat="35.94805731" lon="120.21147143">
        <time>2019-07-29T21:47:22.739000Z</time>
      </trkpt>
      <trkpt lat="35.94796232" lon="120.21150012">
        <time>2019-07-29T21:47:26.782000Z</time>
      </trkpt>
      <trkpt lat="35.94787229" lon="120.21151146">
        <time>2019-07-29T21:47:29.729000Z</time>
      </trkpt>
      <trkpt lat="35.9477766" lon="120.2115123">
        <time>2019-07-29T21:47:32.737000Z</time>
      </trkpt>
      <trkpt lat="35.94766219" lon="120.21153386">
        <time>2019-07-29T21:47:36.731000Z</time>
      </trkpt>
      <trkpt lat="35.94754984" lon="120.21155772">
        <time>2019-07-29T21:47:40.718000Z</time>
      </trkpt>
      <trkpt lat="35.94743838" lon="120.21157622">
        <time>2019-07-29T21:47:44.719000Z</time>
      </trkpt>
      <trkpt lat="35.94732779" lon="120.2115703">
        <time>2019-07-29T21:47:48.717000Z</time>
      </trkpt>
      <trkpt lat="35.94721855" lon="120.21158181">
        <time>2019-07-29T21:47:52.721000Z</time>
      </trkpt>
      <trkpt lat="35.94712089" lon="120.21162787">
        <time>2019-07-29T21:47:56.719000Z</time>
      </trkpt>
      <trkpt lat="35.94702514" lon="120.21168351">
        <time>2019-07-29T21:48:00.719000Z</time>
      </trkpt>
      <trkpt lat="35.94692967" lon="120.21170256">
        <time>2019-07-29T21:48:04.720000Z</time>
      </trkpt>
      <trkpt lat="35.94683401" lon="120.21170497">
        <time>2019-07-29T21:48:10.724000Z</time>
      </trkpt>
      <trkpt lat="35.94683401" lon="120.21170497">
        <time>2019-07-29T21:48:14.014000Z</time>
      </trkpt>
      <trkpt lat="35.94674159" lon="120.21174294">
        <time>2019-07-29T21:48:15.722000Z</time>
      </trkpt>
      <trkpt lat="35.94674159" lon="120.21174294">
        <time>2019-07-29T21:48:23.726000Z</time>
      </trkpt>
      <trkpt lat="35.94663358" lon="120.21175405">
        <time>2019-07-29T21:48:23.801000Z</time>
      </trkpt>
      <trkpt lat="35.94653194" lon="120.21180376">
        <time>2019-07-29T21:48:27.764000Z</time>
      </trkpt>
      <trkpt lat="35.94643853" lon="120.2118461">
        <time>2019-07-29T21:48:31.743000Z</time>
      </trkpt>
      <trkpt lat="35.94634193" lon="120.2118763">
        <time>2019-07-29T21:48:35.719000Z</time>
      </trkpt>
      <trkpt lat="35.94623626" lon="120.21191043">
        <time>2019-07-29T21:48:40.735000Z</time>
      </trkpt>
      <trkpt lat="35.94612415" lon="120.21194993">
        <time>2019-07-29T21:48:44.729000Z</time>
      </trkpt>
      <trkpt lat="35.94601358" lon="120.21198828">
        <time>2019-07-29T21:48:48.753000Z</time>
      </trkpt>
      <trkpt lat="35.94590943" lon="120.21202132">
        <time>2019-07-29T21:48:52.745000Z</time>
      </trkpt>
      <trkpt lat="35.94590943" lon="120.21202132">
        <time>2019-07-29T21:49:00.734000Z</time>
      </trkpt>
      <trkpt lat="35.94581989" lon="120.21206789">
        <time>2019-07-29T21:49:00.787000Z</time>
      </trkpt>
      <trkpt lat="35.94570862" lon="120.2120876">
        <time>2019-07-29T21:49:07.740000Z</time>
      </trkpt>
      <trkpt lat="35.94570862" lon="120.2120876">
        <time>2019-07-29T21:49:11.162000Z</time>
      </trkpt>
      <trkpt lat="35.94559664" lon="120.21213586">
        <time>2019-07-29T21:49:11.729000Z</time>
      </trkpt>
      <trkpt lat="35.94551361" lon="120.21217866">
        <time>2019-07-29T21:49:14.728000Z</time>
      </trkpt>
      <trkpt lat="35.94543112" lon="120.21223689">
        <time>2019-07-29T21:49:18.720000Z</time>
      </trkpt>
      <trkpt lat="35.94533652" lon="120.21227115">
        <time>2019-07-29T21:49:23.736000Z</time>
      </trkpt>
      <trkpt lat="35.94524166" lon="120.21232397">
        <time>2019-07-29T21:49:26.748000Z</time>
      </trkpt>
      <trkpt lat="35.94515234" lon="120.2123637">
        <time>2019-07-29T21:49:30.729000Z</time>
      </trkpt>
      <trkpt lat="35.94504698" lon="120.21242705">
        <time>2019-07-29T21:49:34.719000Z</time>
      </trkpt>
      <trkpt lat="35.94495638" lon="120.21247511">
        <time>2019-07-29T21:49:37.737000Z</time>
      </trkpt>
      <trkpt lat="35.94485845" lon="120.21251229">
        <time>2019-07-29T21:49:40.722000Z</time>
      </trkpt>
      <trkpt lat="35.94476658" lon="120.21256292">
        <time>2019-07-29T21:49:43.725000Z</time>
      </trkpt>
      <trkpt lat="35.94466087" lon="120.21261622">
        <time>2019-07-29T21:49:47.725000Z</time>
      </trkpt>
      <trkpt lat="35.9445575" lon="120.21265791">
        <time>2019-07-29T21:49:51.752000Z</time>
      </trkpt>
      <trkpt lat="35.94446752" lon="120.2127129">
        <time>2019-07-29T21:49:55.740000Z</time>
      </trkpt>
      <trkpt lat="35.94437847" lon="120.21277334">
        <time>2019-07-29T21:49:59.724000Z</time>
      </trkpt>
      <trkpt lat="35.94428497" lon="120.21282213">
        <time>2019-07-29T21:50:03.722000Z</time>
      </trkpt>
      <trkpt lat="35.94418297" lon="120.2128809">
        <time>2019-07-29T21:50:07.767000Z</time>
      </trkpt>
      <trkpt lat="35.94409469" lon="120.21292411">
        <time>2019-07-29T21:50:12.739000Z</time>
      </trkpt>
      <trkpt lat="35.94399618" lon="120.21296752">
        <time>2019-07-29T21:50:16.727000Z</time>
      </trkpt>
      <trkpt lat="35.94391031" lon="120.21303444">
        <time>2019-07-29T21:50:20.725000Z</time>
      </trkpt>
      <trkpt lat="35.94381776" lon="120.21307689">
        <time>2019-07-29T21:50:26.730000Z</time>
      </trkpt>
      <trkpt lat="35.94381776" lon="120.21307689">
        <time>2019-07-29T21:50:27.288000Z</time>
      </trkpt>
      <trkpt lat="35.94374677" lon="120.21300727">
        <time>2019-07-29T21:50:33.737000Z</time>
      </trkpt>
      <trkpt lat="35.94367158" lon="120.21294459">
        <time>2019-07-29T21:50:39.732000Z</time>
      </trkpt>
      <trkpt lat="35.94367158" lon="120.21294459">
        <time>2019-07-29T21:50:42.383000Z</time>
      </trkpt>
      <trkpt lat="35.9435972" lon="120.21285477">
        <time>2019-07-29T21:50:43.730000Z</time>
      </trkpt>
      <trkpt lat="35.94352176" lon="120.21277132">
        <time>2019-07-29T21:50:47.716000Z</time>
      </trkpt>
      <trkpt lat="35.94345289" lon="120.21265611">
        <time>2019-07-29T21:50:51.729000Z</time>
      </trkpt>
      <trkpt lat="35.94339717" lon="120.21254564">
        <time>2019-07-29T21:50:55.783000Z</time>
      </trkpt>
      <trkpt lat="35.94332591" lon="120.21247118">
        <time>2019-07-29T21:50:59.732000Z</time>
      </trkpt>
      <trkpt lat="35.94326528" lon="120.21237661">
        <time>2019-07-29T21:51:04.719000Z</time>
      </trkpt>
      <trkpt lat="35.94320979" lon="120.21226504">
        <time>2019-07-29T21:51:09.725000Z</time>
      </trkpt>
      <trkpt lat="35.94314718" lon="120.21217913">
        <time>2019-07-29T21:51:13.723000Z</time>
      </trkpt>
      <trkpt lat="35.94309962" lon="120.2120718">
        <time>2019-07-29T21:51:18.730000Z</time>
      </trkpt>
      <trkpt lat="35.94304182" lon="120.21197627">
        <time>2019-07-29T21:51:22.740000Z</time>
      </trkpt>
      <trkpt lat="35.94298823" lon="120.21187632">
        <time>2019-07-29T21:51:26.734000Z</time>
      </trkpt>
      <trkpt lat="35.9429162" lon="120.2117803">
        <time>2019-07-29T21:51:31.732000Z</time>
      </trkpt>
      <trkpt lat="35.94283153" lon="120.21169794">
        <time>2019-07-29T21:51:36.723000Z</time>
      </trkpt>
      <trkpt lat="35.94278327" lon="120.21159604">
        <time>2019-07-29T21:51:40.732000Z</time>
      </trkpt>
      <trkpt lat="35.94270554" lon="120.21150257">
        <time>2019-07-29T21:51:45.723000Z</time>
      </trkpt>
      <trkpt lat="35.9426422" lon="120.21139728">
        <time>2019-07-29T21:51:49.725000Z</time>
      </trkpt>
      <trkpt lat="35.94258478" lon="120.21128509">
        <time>2019-07-29T21:51:53.915000Z</time>
      </trkpt>
      <trkpt lat="35.94251472" lon="120.2111637">
        <time>2019-07-29T21:51:57.753000Z</time>
      </trkpt>
      <trkpt lat="35.94246986" lon="120.21105084">
        <time>2019-07-29T21:52:00.717000Z</time>
      </trkpt>
      <trkpt lat="35.94241914" lon="120.21093597">
        <time>2019-07-29T21:52:03.728000Z</time>
      </trkpt>
      <trkpt lat="35.94236453" lon="120.21082913">
        <time>2019-07-29T21:52:06.716000Z</time>
      </trkpt>
      <trkpt lat="35.9423184" lon="120.21072465">
        <time>2019-07-29T21:52:09.729000Z</time>
      </trkpt>
      <trkpt lat="35.94226752" lon="120.21061796">
        <time>2019-07-29T21:52:12.765000Z</time>
      </trkpt>
      <trkpt lat="35.94221392" lon="120.21051511">
        <time>2019-07-29T21:52:15.724000Z</time>
      </trkpt>
      <trkpt lat="35.94216551" lon="120.21042039">
        <time>2019-07-29T21:52:18.735000Z</time>
      </trkpt>
      <trkpt lat="35.94208801" lon="120.21032548">
        <time>2019-07-29T21:52:22.741000Z</time>
      </trkpt>
      <trkpt lat="35.94201219" lon="120.2102611">
        <time>2019-07-29T21:52:25.727000Z</time>
      </trkpt>
      <trkpt lat="35.94193352" lon="120.21018294">
        <time>2019-07-29T21:52:28.776000Z</time>
      </trkpt>
      <trkpt lat="35.94185339" lon="120.21010705">
        <time>2019-07-29T21:52:31.725000Z</time>
      </trkpt>
      <trkpt lat="35.9417757" lon="120.21004183">
        <time>2019-07-29T21:52:34.728000Z</time>
      </trkpt>
      <trkpt lat="35.94167623" lon="120.21003003">
        <time>2019-07-29T21:52:37.735000Z</time>
      </trkpt>
      <trkpt lat="35.94156356" lon="120.21001769">
        <time>2019-07-29T21:52:41.736000Z</time>
      </trkpt>
      <trkpt lat="35.94146714" lon="120.21008429">
        <time>2019-07-29T21:52:45.720000Z</time>
      </trkpt>
      <trkpt lat="35.94138275" lon="120.210178">
        <time>2019-07-29T21:52:49.730000Z</time>
      </trkpt>
      <trkpt lat="35.94130702" lon="120.21024899">
        <time>2019-07-29T21:52:53.726000Z</time>
      </trkpt>
      <trkpt lat="35.94121594" lon="120.21032654">
        <time>2019-07-29T21:52:58.738000Z</time>
      </trkpt>
      <trkpt lat="35.94121594" lon="120.21032654">
        <time>2019-07-29T21:53:05.260000Z</time>
      </trkpt>
      <trkpt lat="35.94111633" lon="120.21038306">
        <time>2019-07-29T21:53:07.719000Z</time>
      </trkpt>
      <trkpt lat="35.9410192" lon="120.21040645">
        <time>2019-07-29T21:53:11.739000Z</time>
      </trkpt>
      <trkpt lat="35.9410192" lon="120.21040645">
        <time>2019-07-29T21:53:15.224000Z</time>
      </trkpt>
      <trkpt lat="35.94091154" lon="120.21040933">
        <time>2019-07-29T21:53:15.719000Z</time>
      </trkpt>
      <trkpt lat="35.94081599" lon="120.21038595">
        <time>2019-07-29T21:53:19.723000Z</time>
      </trkpt>
      <trkpt lat="35.94072632" lon="120.21033693">
        <time>2019-07-29T21:53:23.733000Z</time>
      </trkpt>
      <trkpt lat="35.94063049" lon="120.21028796">
        <time>2019-07-29T21:53:27.732000Z</time>
      </trkpt>
      <trkpt lat="35.94052318" lon="120.21028851">
        <time>2019-07-29T21:53:31.710000Z</time>
      </trkpt>
      <trkpt lat="35.94041359" lon="120.21027139">
        <time>2019-07-29T21:53:35.740000Z</time>
      </trkpt>
      <trkpt lat="35.94030804" lon="120.21025518">
        <time>2019-07-29T21:53:39.721000Z</time>
      </trkpt>
      <trkpt lat="35.94019371" lon="120.21026554">
        <time>2019-07-29T21:53:43.720000Z</time>
      </trkpt>
      <trkpt lat="35.94008561" lon="120.21029507">
        <time>2019-07-29T21:53:47.751000Z</time>
      </trkpt>
      <trkpt lat="35.93998033" lon="120.21029441">
        <time>2019-07-29T21:53:51.778000Z</time>
      </trkpt>
      <trkpt lat="35.93987234" lon="120.21029246">
        <time>2019-07-29T21:53:55.738000Z</time>
      </trkpt>
      <trkpt lat="35.93978312" lon="120.21030901">
        <time>2019-07-29T21:53:58.731000Z</time>
      </trkpt>
      <trkpt lat="35.93968275" lon="120.21036583">
        <time>2019-07-29T21:54:02.727000Z</time>
      </trkpt>
      <trkpt lat="35.93958316" lon="120.21044047">
        <time>2019-07-29T21:54:06.732000Z</time>
      </trkpt>
      <trkpt lat="35.93948488" lon="120.21051195">
        <time>2019-07-29T21:54:10.728000Z</time>
      </trkpt>
      <trkpt lat="35.93938121" lon="120.21052767">
        <time>2019-07-29T21:54:14.723000Z</time>
      </trkpt>
      <trkpt lat="35.93927959" lon="120.210533">
        <time>2019-07-29T21:54:18.740000Z</time>
      </trkpt>
      <trkpt lat="35.93918324" lon="120.21054553">
        <time>2019-07-29T21:54:22.734000Z</time>
      </trkpt>
      <trkpt lat="35.939089" lon="120.21062794">
        <time>2019-07-29T21:54:29.765000Z</time>
      </trkpt>
      <trkpt lat="35.93898293" lon="120.21069232">
        <time>2019-07-29T21:54:34.729000Z</time>
      </trkpt>
      <trkpt lat="35.93889316" lon="120.21071389">
        <time>2019-07-29T21:54:37.718000Z</time>
      </trkpt>
      <trkpt lat="35.93880205" lon="120.2107223">
        <time>2019-07-29T21:54:40.721000Z</time>
      </trkpt>
      <trkpt lat="35.93868415" lon="120.21071617">
        <time>2019-07-29T21:54:44.729000Z</time>
      </trkpt>
      <trkpt lat="35.93857352" lon="120.21070357">
        <time>2019-07-29T21:54:48.719000Z</time>
      </trkpt>
      <trkpt lat="35.9384629" lon="120.2106701">
        <time>2019-07-29T21:54:52.734000Z</time>
      </trkpt>
      <trkpt lat="35.9383708" lon="120.21064056">
        <time>2019-07-29T21:54:55.724000Z</time>
      </trkpt>
      <trkpt lat="35.93827753" lon="120.210633">
        <time>2019-07-29T21:54:58.726000Z</time>
      </trkpt>
      <trkpt lat="35.93816502" lon="120.2106053">
        <time>2019-07-29T21:55:02.718000Z</time>
      </trkpt>
      <trkpt lat="35.93807564" lon="120.21057332">
        <time>2019-07-29T21:55:05.717000Z</time>
      </trkpt>
      <trkpt lat="35.93798449" lon="120.21056028">
        <time>2019-07-29T21:55:08.838000Z</time>
      </trkpt>
      <trkpt lat="35.93791146" lon="120.21049071">
        <time>2019-07-29T21:55:12.723000Z</time>
      </trkpt>
      <trkpt lat="35.93785277" lon="120.21036647">
        <time>2019-07-29T21:55:16.719000Z</time>
      </trkpt>
      <trkpt lat="35.93779197" lon="120.21025471">
        <time>2019-07-29T21:55:20.825000Z</time>
      </trkpt>
      <trkpt lat="35.93768978" lon="120.21018273">
        <time>2019-07-29T21:55:24.731000Z</time>
      </trkpt>
      <trkpt lat="35.93759642" lon="120.21015368">
        <time>2019-07-29T21:55:27.735000Z</time>
      </trkpt>
      <trkpt lat="35.93750913" lon="120.21012001">
        <time>2019-07-29T21:55:30.744000Z</time>
      </trkpt>
      <trkpt lat="35.93741638" lon="120.21007507">
        <time>2019-07-29T21:55:33.721000Z</time>
      </trkpt>
      <trkpt lat="35.93733324" lon="120.2100244">
        <time>2019-07-29T21:55:36.729000Z</time>
      </trkpt>
      <trkpt lat="35.93722132" lon="120.20997317">
        <time>2019-07-29T21:55:40.732000Z</time>
      </trkpt>
      <trkpt lat="35.93712301" lon="120.20995741">
        <time>2019-07-29T21:55:43.730000Z</time>
      </trkpt>
      <trkpt lat="35.93701651" lon="120.20989962">
        <time>2019-07-29T21:55:47.715000Z</time>
      </trkpt>
      <trkpt lat="35.93693771" lon="120.20984534">
        <time>2019-07-29T21:55:50.742000Z</time>
      </trkpt>
      <trkpt lat="35.93685141" lon="120.20975625">
        <time>2019-07-29T21:55:54.728000Z</time>
      </trkpt>
      <trkpt lat="35.93677661" lon="120.20965668">
        <time>2019-07-29T21:55:59.720000Z</time>
      </trkpt>
      <trkpt lat="35.9367233" lon="120.20955054">
        <time>2019-07-29T21:56:03.764000Z</time>
      </trkpt>
      <trkpt lat="35.93666156" lon="120.2094662">
        <time>2019-07-29T21:56:07.715000Z</time>
      </trkpt>
      <trkpt lat="35.93657942" lon="120.20939317">
        <time>2019-07-29T21:56:11.715000Z</time>
      </trkpt>
      <trkpt lat="35.93648605" lon="120.20932665">
        <time>2019-07-29T21:56:15.715000Z</time>
      </trkpt>
      <trkpt lat="35.9363967" lon="120.20925626">
        <time>2019-07-29T21:56:19.746000Z</time>
      </trkpt>
      <trkpt lat="35.93630965" lon="120.2091852">
        <time>2019-07-29T21:56:23.764000Z</time>
      </trkpt>
      <trkpt lat="35.93624854" lon="120.20908204">
        <time>2019-07-29T21:56:27.724000Z</time>
      </trkpt>
      <trkpt lat="35.93618288" lon="120.20899286">
        <time>2019-07-29T21:56:31.732000Z</time>
      </trkpt>
      <trkpt lat="35.93611471" lon="120.20889429">
        <time>2019-07-29T21:56:35.718000Z</time>
      </trkpt>
      <trkpt lat="35.93604316" lon="120.2087912">
        <time>2019-07-29T21:56:39.720000Z</time>
      </trkpt>
      <trkpt lat="35.93598022" lon="120.20871063">
        <time>2019-07-29T21:56:42.740000Z</time>
      </trkpt>
      <trkpt lat="35.93588828" lon="120.20861925">
        <time>2019-07-29T21:56:46.712000Z</time>
      </trkpt>
      <trkpt lat="35.93581025" lon="120.20855283">
        <time>2019-07-29T21:56:49.720000Z</time>
      </trkpt>
      <trkpt lat="35.93573604" lon="120.20847831">
        <time>2019-07-29T21:56:52.728000Z</time>
      </trkpt>
      <trkpt lat="35.935637" lon="120.20840941">
        <time>2019-07-29T21:56:56.721000Z</time>
      </trkpt>
      <trkpt lat="35.93555641" lon="120.20835526">
        <time>2019-07-29T21:56:59.721000Z</time>
      </trkpt>
      <trkpt lat="35.93545243" lon="120.20828435">
        <time>2019-07-29T21:57:03.754000Z</time>
      </trkpt>
      <trkpt lat="35.93535237" lon="120.2082445">
        <time>2019-07-29T21:57:07.722000Z</time>
      </trkpt>
      <trkpt lat="35.93525926" lon="120.20818188">
        <time>2019-07-29T21:57:11.736000Z</time>
      </trkpt>
      <trkpt lat="35.9351836" lon="120.20809979">
        <time>2019-07-29T21:57:15.717000Z</time>
      </trkpt>
      <trkpt lat="35.93513742" lon="120.20798763">
        <time>2019-07-29T21:57:19.731000Z</time>
      </trkpt>
      <trkpt lat="35.93509982" lon="120.20786455">
        <time>2019-07-29T21:57:23.760000Z</time>
      </trkpt>
      <trkpt lat="35.93504453" lon="120.20774318">
        <time>2019-07-29T21:57:27.716000Z</time>
      </trkpt>
      <trkpt lat="35.93498075" lon="120.20765558">
        <time>2019-07-29T21:57:30.731000Z</time>
      </trkpt>
      <trkpt lat="35.93490077" lon="120.2075889">
        <time>2019-07-29T21:57:33.720000Z</time>
      </trkpt>
      <trkpt lat="35.93480496" lon="120.20751474">
        <time>2019-07-29T21:57:37.751000Z</time>
      </trkpt>
      <trkpt lat="35.93476019" lon="120.20739078">
        <time>2019-07-29T21:57:43.553000Z</time>
      </trkpt>
      <trkpt lat="35.93476019" lon="120.20739078">
        <time>2019-07-29T21:57:46.333000Z</time>
      </trkpt>
      <trkpt lat="35.93470873" lon="120.20727964">
        <time>2019-07-29T21:57:48.719000Z</time>
      </trkpt>
      <trkpt lat="35.93466908" lon="120.20716511">
        <time>2019-07-29T21:57:57.719000Z</time>
      </trkpt>
      <trkpt lat="35.93466908" lon="120.20716511">
        <time>2019-07-29T21:58:00.341000Z</time>
      </trkpt>
      <trkpt lat="35.9346392" lon="120.2070356">
        <time>2019-07-29T21:58:01.733000Z</time>
      </trkpt>
      <trkpt lat="35.93459398" lon="120.20690605">
        <time>2019-07-29T21:58:05.728000Z</time>
      </trkpt>
      <trkpt lat="35.93453083" lon="120.20678909">
        <time>2019-07-29T21:58:09.725000Z</time>
      </trkpt>
      <trkpt lat="35.93448499" lon="120.20669322">
        <time>2019-07-29T21:58:12.727000Z</time>
      </trkpt>
      <trkpt lat="35.93442811" lon="120.20660269">
        <time>2019-07-29T21:58:15.724000Z</time>
      </trkpt>
      <trkpt lat="35.93436202" lon="120.20652568">
        <time>2019-07-29T21:58:18.731000Z</time>
      </trkpt>
      <trkpt lat="35.93428034" lon="120.20642065">
        <time>2019-07-29T21:58:22.732000Z</time>
      </trkpt>
      <trkpt lat="35.93422055" lon="120.20633241">
        <time>2019-07-29T21:58:25.743000Z</time>
      </trkpt>
      <trkpt lat="35.93413961" lon="120.20622339">
        <time>2019-07-29T21:58:29.716000Z</time>
      </trkpt>
      <trkpt lat="35.93408593" lon="120.2061287">
        <time>2019-07-29T21:58:32.724000Z</time>
      </trkpt>
      <trkpt lat="35.93405345" lon="120.20602285">
        <time>2019-07-29T21:58:35.732000Z</time>
      </trkpt>
      <trkpt lat="35.93402443" lon="120.20588285">
        <time>2019-07-29T21:58:39.733000Z</time>
      </trkpt>
      <trkpt lat="35.93400889" lon="120.20573898">
        <time>2019-07-29T21:58:43.732000Z</time>
      </trkpt>
      <trkpt lat="35.93399797" lon="120.20559731">
        <time>2019-07-29T21:58:47.724000Z</time>
      </trkpt>
      <trkpt lat="35.93396542" lon="120.20545456">
        <time>2019-07-29T21:58:51.729000Z</time>
      </trkpt>
      <trkpt lat="35.93392763" lon="120.2053528">
        <time>2019-07-29T21:58:54.732000Z</time>
      </trkpt>
      <trkpt lat="35.93385523" lon="120.20523873">
        <time>2019-07-29T21:58:58.721000Z</time>
      </trkpt>
      <trkpt lat="35.9337844" lon="120.20516876">
        <time>2019-07-29T21:59:01.720000Z</time>
      </trkpt>
      <trkpt lat="35.93371592" lon="120.20509436">
        <time>2019-07-29T21:59:04.725000Z</time>
      </trkpt>
      <trkpt lat="35.93363148" lon="120.20500334">
        <time>2019-07-29T21:59:08.731000Z</time>
      </trkpt>
      <trkpt lat="35.93357202" lon="120.20488912">
        <time>2019-07-29T21:59:12.720000Z</time>
      </trkpt>
      <trkpt lat="35.93354795" lon="120.20476628">
        <time>2019-07-29T21:59:15.728000Z</time>
      </trkpt>
      <trkpt lat="35.93355724" lon="120.2046445">
        <time>2019-07-29T21:59:18.731000Z</time>
      </trkpt>
      <trkpt lat="35.93356594" lon="120.20452313">
        <time>2019-07-29T21:59:21.740000Z</time>
      </trkpt>
      <trkpt lat="35.93357808" lon="120.20440737">
        <time>2019-07-29T21:59:24.723000Z</time>
      </trkpt>
      <trkpt lat="35.93359233" lon="120.20429332">
        <time>2019-07-29T21:59:27.721000Z</time>
      </trkpt>
      <trkpt lat="35.93359876" lon="120.20417649">
        <time>2019-07-29T21:59:30.733000Z</time>
      </trkpt>
      <trkpt lat="35.9335854" lon="120.20406285">
        <time>2019-07-29T21:59:33.740000Z</time>
      </trkpt>
      <trkpt lat="35.93355601" lon="120.20394817">
        <time>2019-07-29T21:59:36.733000Z</time>
      </trkpt>
      <trkpt lat="35.93350925" lon="120.20384641">
        <time>2019-07-29T21:59:39.720000Z</time>
      </trkpt>
      <trkpt lat="35.93345746" lon="120.20375048">
        <time>2019-07-29T21:59:42.729000Z</time>
      </trkpt>
      <trkpt lat="35.93338851" lon="120.20363537">
        <time>2019-07-29T21:59:46.745000Z</time>
      </trkpt>
      <trkpt lat="35.93331883" lon="120.2035288">
        <time>2019-07-29T21:59:50.721000Z</time>
      </trkpt>
      <trkpt lat="35.93324914" lon="120.20340734">
        <time>2019-07-29T21:59:54.734000Z</time>
      </trkpt>
      <trkpt lat="35.93324914" lon="120.20340734">
        <time>2019-07-29T21:59:59.139000Z</time>
      </trkpt>
      <trkpt lat="35.93320701" lon="120.20329606">
        <time>2019-07-29T21:59:59.756000Z</time>
      </trkpt>
      <trkpt lat="35.93319528" lon="120.20318218">
        <time>2019-07-29T22:00:06.719000Z</time>
      </trkpt>
      <trkpt lat="35.93319528" lon="120.20318218">
        <time>2019-07-29T22:00:10.243000Z</time>
      </trkpt>
      <trkpt lat="35.93320064" lon="120.20304031">
        <time>2019-07-29T22:00:11.724000Z</time>
      </trkpt>
      <trkpt lat="35.9332043" lon="120.20290083">
        <time>2019-07-29T22:00:15.735000Z</time>
      </trkpt>
      <trkpt lat="35.93320097" lon="120.20276339">
        <time>2019-07-29T22:00:19.740000Z</time>
      </trkpt>
      <trkpt lat="35.93318189" lon="120.20262948">
        <time>2019-07-29T22:00:23.732000Z</time>
      </trkpt>
      <trkpt lat="35.93315703" lon="120.20249021">
        <time>2019-07-29T22:00:27.734000Z</time>
      </trkpt>
      <trkpt lat="35.93309686" lon="120.20237146">
        <time>2019-07-29T22:00:31.738000Z</time>
      </trkpt>
      <trkpt lat="35.93302685" lon="120.20225702">
        <time>2019-07-29T22:00:35.735000Z</time>
      </trkpt>
      <trkpt lat="35.93297197" lon="120.20214735">
        <time>2019-07-29T22:00:40.726000Z</time>
      </trkpt>
      <trkpt lat="35.93292504" lon="120.20201095">
        <time>2019-07-29T22:00:44.731000Z</time>
      </trkpt>
      <trkpt lat="35.93290159" lon="120.20190261">
        <time>2019-07-29T22:00:47.720000Z</time>
      </trkpt>
      <trkpt lat="35.93287926" lon="120.20179462">
        <time>2019-07-29T22:00:50.725000Z</time>
      </trkpt>
      <trkpt lat="35.93286386" lon="120.20165826">
        <time>2019-07-29T22:00:54.733000Z</time>
      </trkpt>
      <trkpt lat="35.93286083" lon="120.20154142">
        <time>2019-07-29T22:00:57.742000Z</time>
      </trkpt>
      <trkpt lat="35.93283493" lon="120.20139959">
        <time>2019-07-29T22:01:01.729000Z</time>
      </trkpt>
      <trkpt lat="35.93278483" lon="120.20128087">
        <time>2019-07-29T22:01:05.720000Z</time>
      </trkpt>
      <trkpt lat="35.93272213" lon="120.20117607">
        <time>2019-07-29T22:01:09.728000Z</time>
      </trkpt>
      <trkpt lat="35.93265531" lon="120.20108308">
        <time>2019-07-29T22:01:12.727000Z</time>
      </trkpt>
      <trkpt lat="35.93258779" lon="120.20100463">
        <time>2019-07-29T22:01:15.767000Z</time>
      </trkpt>
      <trkpt lat="35.93251542" lon="120.20089511">
        <time>2019-07-29T22:01:20.115000Z</time>
      </trkpt>
      <trkpt lat="35.93246822" lon="120.20077028">
        <time>2019-07-29T22:01:23.721000Z</time>
      </trkpt>
      <trkpt lat="35.93244666" lon="120.20065718">
        <time>2019-07-29T22:01:26.725000Z</time>
      </trkpt>
      <trkpt lat="35.93243274" lon="120.20052321">
        <time>2019-07-29T22:01:29.723000Z</time>
      </trkpt>
      <trkpt lat="35.93242613" lon="120.20040211">
        <time>2019-07-29T22:01:32.735000Z</time>
      </trkpt>
      <trkpt lat="35.93240656" lon="120.20026028">
        <time>2019-07-29T22:01:36.729000Z</time>
      </trkpt>
      <trkpt lat="35.93239751" lon="120.2001439">
        <time>2019-07-29T22:01:41.732000Z</time>
      </trkpt>
      <trkpt lat="35.93239751" lon="120.2001439">
        <time>2019-07-29T22:01:43.422000Z</time>
      </trkpt>
      <trkpt lat="35.93232623" lon="120.20005787">
        <time>2019-07-29T22:01:48.732000Z</time>
      </trkpt>
      <trkpt lat="35.93227732" lon="120.19994263">
        <time>2019-07-29T22:01:55.730000Z</time>
      </trkpt>
      <trkpt lat="35.93227732" lon="120.19994263">
        <time>2019-07-29T22:01:57.733000Z</time>
      </trkpt>
      <trkpt lat="35.93219633" lon="120.19987281">
        <time>2019-07-29T22:02:00.727000Z</time>
      </trkpt>
      <trkpt lat="35.93212015" lon="120.19976488">
        <time>2019-07-29T22:02:05.176000Z</time>
      </trkpt>
      <trkpt lat="35.93206646" lon="120.19965782">
        <time>2019-07-29T22:02:08.733000Z</time>
      </trkpt>
      <trkpt lat="35.93200679" lon="120.19954805">
        <time>2019-07-29T22:02:12.719000Z</time>
      </trkpt>
      <trkpt lat="35.93195186" lon="120.19942352">
        <time>2019-07-29T22:02:16.715000Z</time>
      </trkpt>
      <trkpt lat="35.93190217" lon="120.19932526">
        <time>2019-07-29T22:02:19.731000Z</time>
      </trkpt>
      <trkpt lat="35.93185407" lon="120.19922717">
        <time>2019-07-29T22:02:22.731000Z</time>
      </trkpt>
      <trkpt lat="35.93179677" lon="120.19911262">
        <time>2019-07-29T22:02:26.723000Z</time>
      </trkpt>
      <trkpt lat="35.9317671" lon="120.19898202">
        <time>2019-07-29T22:02:30.729000Z</time>
      </trkpt>
      <trkpt lat="35.93181216" lon="120.19886761">
        <time>2019-07-29T22:02:35.729000Z</time>
      </trkpt>
      <trkpt lat="35.93181216" lon="120.19886761">
        <time>2019-07-29T22:02:40.463000Z</time>
      </trkpt>
      <trkpt lat="35.93190411" lon="120.19881135">
        <time>2019-07-29T22:02:42.729000Z</time>
      </trkpt>
      <trkpt lat="35.93198095" lon="120.19874859">
        <time>2019-07-29T22:02:49.720000Z</time>
      </trkpt>
      <trkpt lat="35.93206913" lon="120.19868379">
        <time>2019-07-29T22:02:56.732000Z</time>
      </trkpt>
      <trkpt lat="35.93206913" lon="120.19868379">
        <time>2019-07-29T22:02:59.500000Z</time>
      </trkpt>
      <trkpt lat="35.93216667" lon="120.19864236">
        <time>2019-07-29T22:03:00.723000Z</time>
      </trkpt>
      <trkpt lat="35.93227536" lon="120.19859861">
        <time>2019-07-29T22:03:04.735000Z</time>
      </trkpt>
      <trkpt lat="35.93235852" lon="120.19854213">
        <time>2019-07-29T22:03:11.741000Z</time>
      </trkpt>
      <trkpt lat="35.93235852" lon="120.19854213">
        <time>2019-07-29T22:03:16.502000Z</time>
      </trkpt>
      <trkpt lat="35.93244773" lon="120.19852075">
        <time>2019-07-29T22:03:22.729000Z</time>
      </trkpt>
      <trkpt lat="35.93254308" lon="120.19850702">
        <time>2019-07-29T22:03:27.721000Z</time>
      </trkpt>
      <trkpt lat="35.93254308" lon="120.19850702">
        <time>2019-07-29T22:03:30.763000Z</time>
      </trkpt>
      <trkpt lat="35.93264467" lon="120.19848656">
        <time>2019-07-29T22:03:31.728000Z</time>
      </trkpt>
      <trkpt lat="35.93274391" lon="120.19849695">
        <time>2019-07-29T22:03:35.730000Z</time>
      </trkpt>
      <trkpt lat="35.9328482" lon="120.19852653">
        <time>2019-07-29T22:03:39.731000Z</time>
      </trkpt>
      <trkpt lat="35.93294516" lon="120.19858423">
        <time>2019-07-29T22:03:43.737000Z</time>
      </trkpt>
      <trkpt lat="35.93303079" lon="120.19863761">
        <time>2019-07-29T22:03:47.719000Z</time>
      </trkpt>
      <trkpt lat="35.93303079" lon="120.19863761">
        <time>2019-07-29T22:04:16.720000Z</time>
      </trkpt>
      <trkpt lat="35.93304345" lon="120.19881305">
        <time>2019-07-29T22:04:16.780000Z</time>
      </trkpt>
      <trkpt lat="35.93302123" lon="120.19893255">
        <time>2019-07-29T22:04:21.732000Z</time>
      </trkpt>
      <trkpt lat="35.93300262" lon="120.19905434">
        <time>2019-07-29T22:04:25.741000Z</time>
      </trkpt>
      <trkpt lat="35.93300262" lon="120.19905434">
        <time>2019-07-29T22:04:26.500000Z</time>
      </trkpt>
      <trkpt lat="35.93300262" lon="120.19905434">
        <time>2019-07-29T22:05:02.720000Z</time>
      </trkpt>
      <trkpt lat="35.93297157" lon="120.19921332">
        <time>2019-07-29T22:05:02.740000Z</time>
      </trkpt>
      <trkpt lat="35.93291986" lon="120.19930872">
        <time>2019-07-29T22:05:06.732000Z</time>
      </trkpt>
      <trkpt lat="35.93284997" lon="120.19941882">
        <time>2019-07-29T22:05:10.734000Z</time>
      </trkpt>
      <trkpt lat="35.93284997" lon="120.19941882">
        <time>2019-07-29T22:05:12.521000Z</time>
      </trkpt>
      <trkpt lat="35.93278318" lon="120.19954072">
        <time>2019-07-29T22:05:14.735000Z</time>
      </trkpt>
      <trkpt lat="35.93271996" lon="120.19962186">
        <time>2019-07-29T22:05:17.739000Z</time>
      </trkpt>
      <trkpt lat="35.93262376" lon="120.19969943">
        <time>2019-07-29T22:05:21.730000Z</time>
      </trkpt>
      <trkpt lat="35.93267234" lon="120.19982209">
        <time>2019-07-29T22:05:27.744000Z</time>
      </trkpt>
      <trkpt lat="35.9327176" lon="120.19995519">
        <time>2019-07-29T22:05:31.742000Z</time>
      </trkpt>
      <trkpt lat="35.93273728" lon="120.20010048">
        <time>2019-07-29T22:05:35.726000Z</time>
      </trkpt>
      <trkpt lat="35.9327617" lon="120.20023963">
        <time>2019-07-29T22:05:39.719000Z</time>
      </trkpt>
      <trkpt lat="35.93279827" lon="120.20037556">
        <time>2019-07-29T22:05:43.735000Z</time>
      </trkpt>
      <trkpt lat="35.93284776" lon="120.20050351">
        <time>2019-07-29T22:05:47.736000Z</time>
      </trkpt>
      <trkpt lat="35.93289975" lon="120.20062863">
        <time>2019-07-29T22:05:51.736000Z</time>
      </trkpt>
      <trkpt lat="35.93296004" lon="120.20074274">
        <time>2019-07-29T22:05:55.729000Z</time>
      </trkpt>
      <trkpt lat="35.93303301" lon="120.20083192">
        <time>2019-07-29T22:05:59.732000Z</time>
      </trkpt>
      <trkpt lat="35.93310807" lon="120.2009137">
        <time>2019-07-29T22:06:03.735000Z</time>
      </trkpt>
      <trkpt lat="35.9331809" lon="120.20100135">
        <time>2019-07-29T22:06:07.756000Z</time>
      </trkpt>
      <trkpt lat="35.93325358" lon="120.20109434">
        <time>2019-07-29T22:06:11.736000Z</time>
      </trkpt>
      <trkpt lat="35.93331852" lon="120.20119681">
        <time>2019-07-29T22:06:15.725000Z</time>
      </trkpt>
      <trkpt lat="35.93337767" lon="120.20130759">
        <time>2019-07-29T22:06:19.980000Z</time>
      </trkpt>
      <trkpt lat="35.9334262" lon="120.20140167">
        <time>2019-07-29T22:06:22.721000Z</time>
      </trkpt>
      <trkpt lat="35.93348275" lon="120.20150764">
        <time>2019-07-29T22:06:27.730000Z</time>
      </trkpt>
      <trkpt lat="35.93348275" lon="120.20150764">
        <time>2019-07-29T22:06:28.550000Z</time>
      </trkpt>
      <trkpt lat="35.93351567" lon="120.20161669">
        <time>2019-07-29T22:06:33.732000Z</time>
      </trkpt>
      <trkpt lat="35.93353805" lon="120.20172652">
        <time>2019-07-29T22:06:39.726000Z</time>
      </trkpt>
      <trkpt lat="35.93353805" lon="120.20172652">
        <time>2019-07-29T22:06:41.558000Z</time>
      </trkpt>
      <trkpt lat="35.93355547" lon="120.2018472">
        <time>2019-07-29T22:06:43.737000Z</time>
      </trkpt>
      <trkpt lat="35.93357763" lon="120.20197147">
        <time>2019-07-29T22:06:47.732000Z</time>
      </trkpt>
      <trkpt lat="35.93360177" lon="120.20209592">
        <time>2019-07-29T22:06:51.730000Z</time>
      </trkpt>
      <trkpt lat="35.93361387" lon="120.20222064">
        <time>2019-07-29T22:06:55.733000Z</time>
      </trkpt>
      <trkpt lat="35.9336281" lon="120.20235008">
        <time>2019-07-29T22:06:59.720000Z</time>
      </trkpt>
      <trkpt lat="35.93364745" lon="120.20248649">
        <time>2019-07-29T22:07:03.744000Z</time>
      </trkpt>
      <trkpt lat="35.93368434" lon="120.20261543">
        <time>2019-07-29T22:07:07.730000Z</time>
      </trkpt>
      <trkpt lat="35.93372105" lon="120.20273191">
        <time>2019-07-29T22:07:11.739000Z</time>
      </trkpt>
      <trkpt lat="35.93376446" lon="120.20285107">
        <time>2019-07-29T22:07:15.731000Z</time>
      </trkpt>
      <trkpt lat="35.93381571" lon="120.20297097">
        <time>2019-07-29T22:07:19.725000Z</time>
      </trkpt>
      <trkpt lat="35.93387207" lon="120.20308967">
        <time>2019-07-29T22:07:23.741000Z</time>
      </trkpt>
      <trkpt lat="35.93391195" lon="120.20321921">
        <time>2019-07-29T22:07:27.720000Z</time>
      </trkpt>
      <trkpt lat="35.93394313" lon="120.20334286">
        <time>2019-07-29T22:07:31.751000Z</time>
      </trkpt>
      <trkpt lat="35.93394861" lon="120.20347466">
        <time>2019-07-29T22:07:35.725000Z</time>
      </trkpt>
      <trkpt lat="35.93394149" lon="120.20359938">
        <time>2019-07-29T22:07:42.717000Z</time>
      </trkpt>
      <trkpt lat="35.93394149" lon="120.20359938">
        <time>2019-07-29T22:07:44.649000Z</time>
      </trkpt>
      <trkpt lat="35.93394373" lon="120.20371211">
        <time>2019-07-29T22:07:48.717000Z</time>
      </trkpt>
      <trkpt lat="35.93396132" lon="120.20383852">
        <time>2019-07-29T22:07:52.739000Z</time>
      </trkpt>
      <trkpt lat="35.93396132" lon="120.20383852">
        <time>2019-07-29T22:07:54.588000Z</time>
      </trkpt>
      <trkpt lat="35.93397204" lon="120.20394921">
        <time>2019-07-29T22:07:55.761000Z</time>
      </trkpt>
      <trkpt lat="35.93400062" lon="120.20408021">
        <time>2019-07-29T22:07:59.725000Z</time>
      </trkpt>
      <trkpt lat="35.93402898" lon="120.20421066">
        <time>2019-07-29T22:08:03.730000Z</time>
      </trkpt>
      <trkpt lat="35.93407177" lon="120.2043318">
        <time>2019-07-29T22:08:07.778000Z</time>
      </trkpt>
      <trkpt lat="35.93414241" lon="120.2044358">
        <time>2019-07-29T22:08:11.728000Z</time>
      </trkpt>
      <trkpt lat="35.93419159" lon="120.20456088">
        <time>2019-07-29T22:08:15.727000Z</time>
      </trkpt>
      <trkpt lat="35.93424722" lon="120.20467713">
        <time>2019-07-29T22:08:19.730000Z</time>
      </trkpt>
      <trkpt lat="35.93431099" lon="120.20478232">
        <time>2019-07-29T22:08:23.720000Z</time>
      </trkpt>
      <trkpt lat="35.93436094" lon="120.20490472">
        <time>2019-07-29T22:08:27.749000Z</time>
      </trkpt>
      <trkpt lat="35.93439759" lon="120.2050312">
        <time>2019-07-29T22:08:31.725000Z</time>
      </trkpt>
      <trkpt lat="35.9344359" lon="120.2051698">
        <time>2019-07-29T22:08:35.721000Z</time>
      </trkpt>
      <trkpt lat="35.934477" lon="120.20526887">
        <time>2019-07-29T22:08:38.726000Z</time>
      </trkpt>
      <trkpt lat="35.93452908" lon="120.20539403">
        <time>2019-07-29T22:08:42.728000Z</time>
      </trkpt>
      <trkpt lat="35.93457484" lon="120.20551857">
        <time>2019-07-29T22:08:46.735000Z</time>
      </trkpt>
      <trkpt lat="35.93464127" lon="120.2056266">
        <time>2019-07-29T22:08:50.745000Z</time>
      </trkpt>
      <trkpt lat="35.93470216" lon="120.20574871">
        <time>2019-07-29T22:08:54.726000Z</time>
      </trkpt>
      <trkpt lat="35.93473854" lon="120.20585064">
        <time>2019-07-29T22:08:57.735000Z</time>
      </trkpt>
      <trkpt lat="35.93479279" lon="120.20597415">
        <time>2019-07-29T22:09:01.730000Z</time>
      </trkpt>
      <trkpt lat="35.93483967" lon="120.20610302">
        <time>2019-07-29T22:09:05.732000Z</time>
      </trkpt>
      <trkpt lat="35.93489089" lon="120.20623197">
        <time>2019-07-29T22:09:09.734000Z</time>
      </trkpt>
      <trkpt lat="35.93496334" lon="120.20633604">
        <time>2019-07-29T22:09:13.732000Z</time>
      </trkpt>
      <trkpt lat="35.93502196" lon="120.20645335">
        <time>2019-07-29T22:09:17.739000Z</time>
      </trkpt>
      <trkpt lat="35.93509201" lon="120.206572">
        <time>2019-07-29T22:09:21.721000Z</time>
      </trkpt>
      <trkpt lat="35.93514678" lon="120.20669798">
        <time>2019-07-29T22:09:25.721000Z</time>
      </trkpt>
      <trkpt lat="35.93519485" lon="120.2067921">
        <time>2019-07-29T22:09:28.721000Z</time>
      </trkpt>
      <trkpt lat="35.93524952" lon="120.20691702">
        <time>2019-07-29T22:09:32.728000Z</time>
      </trkpt>
      <trkpt lat="35.93531595" lon="120.20703738">
        <time>2019-07-29T22:09:36.726000Z</time>
      </trkpt>
      <trkpt lat="35.93535451" lon="120.20714808">
        <time>2019-07-29T22:09:41.727000Z</time>
      </trkpt>
      <trkpt lat="35.93535451" lon="120.20714808">
        <time>2019-07-29T22:09:43.675000Z</time>
      </trkpt>
      <trkpt lat="35.93541523" lon="120.2072547">
        <time>2019-07-29T22:09:47.727000Z</time>
      </trkpt>
      <trkpt lat="35.93548071" lon="120.20733244">
        <time>2019-07-29T22:09:54.731000Z</time>
      </trkpt>
      <trkpt lat="35.93554227" lon="120.20742665">
        <time>2019-07-29T22:10:02.732000Z</time>
      </trkpt>
      <trkpt lat="35.93561615" lon="120.20752681">
        <time>2019-07-29T22:10:10.336000Z</time>
      </trkpt>
      <trkpt lat="35.93561615" lon="120.20752681">
        <time>2019-07-29T22:10:10.636000Z</time>
      </trkpt>
      <trkpt lat="35.93567929" lon="120.20763168">
        <time>2019-07-29T22:10:13.737000Z</time>
      </trkpt>
      <trkpt lat="35.93575213" lon="120.20772083">
        <time>2019-07-29T22:10:17.724000Z</time>
      </trkpt>
      <trkpt lat="35.93582394" lon="120.20782214">
        <time>2019-07-29T22:10:21.731000Z</time>
      </trkpt>
      <trkpt lat="35.93590432" lon="120.20792068">
        <time>2019-07-29T22:10:25.719000Z</time>
      </trkpt>
      <trkpt lat="35.93598167" lon="120.20801971">
        <time>2019-07-29T22:10:29.719000Z</time>
      </trkpt>
      <trkpt lat="35.93606704" lon="120.20811252">
        <time>2019-07-29T22:10:33.725000Z</time>
      </trkpt>
      <trkpt lat="35.93614599" lon="120.20820846">
        <time>2019-07-29T22:10:37.754000Z</time>
      </trkpt>
      <trkpt lat="35.93621582" lon="120.20830049">
        <time>2019-07-29T22:10:41.723000Z</time>
      </trkpt>
      <trkpt lat="35.93628991" lon="120.20840466">
        <time>2019-07-29T22:10:45.729000Z</time>
      </trkpt>
      <trkpt lat="35.93636429" lon="120.20849896">
        <time>2019-07-29T22:10:49.729000Z</time>
      </trkpt>
      <trkpt lat="35.93644066" lon="120.2086037">
        <time>2019-07-29T22:10:53.732000Z</time>
      </trkpt>
      <trkpt lat="35.93652563" lon="120.20868838">
        <time>2019-07-29T22:10:57.765000Z</time>
      </trkpt>
      <trkpt lat="35.93659633" lon="120.20878268">
        <time>2019-07-29T22:11:01.765000Z</time>
      </trkpt>
      <trkpt lat="35.93668985" lon="120.20886592">
        <time>2019-07-29T22:11:05.728000Z</time>
      </trkpt>
      <trkpt lat="35.93677795" lon="120.20894765">
        <time>2019-07-29T22:11:09.712000Z</time>
      </trkpt>
      <trkpt lat="35.93687223" lon="120.20903553">
        <time>2019-07-29T22:11:13.716000Z</time>
      </trkpt>
      <trkpt lat="35.93694993" lon="120.20910722">
        <time>2019-07-29T22:11:16.729000Z</time>
      </trkpt>
      <trkpt lat="35.93704641" lon="120.20918831">
        <time>2019-07-29T22:11:20.728000Z</time>
      </trkpt>
      <trkpt lat="35.93713658" lon="120.20926003">
        <time>2019-07-29T22:11:24.731000Z</time>
      </trkpt>
      <trkpt lat="35.9372311" lon="120.2093362">
        <time>2019-07-29T22:11:28.719000Z</time>
      </trkpt>
      <trkpt lat="35.93733009" lon="120.20940907">
        <time>2019-07-29T22:11:32.732000Z</time>
      </trkpt>
      <trkpt lat="35.93740317" lon="120.2094808">
        <time>2019-07-29T22:11:35.741000Z</time>
      </trkpt>
      <trkpt lat="35.93748398" lon="120.2095375">
        <time>2019-07-29T22:11:38.736000Z</time>
      </trkpt>
      <trkpt lat="35.93756236" lon="120.2095919">
        <time>2019-07-29T22:11:41.733000Z</time>
      </trkpt>
      <trkpt lat="35.93756236" lon="120.2095919">
        <time>2019-07-29T22:11:48.420000Z</time>
      </trkpt>
      <trkpt lat="35.93765653" lon="120.20966196">
        <time>2019-07-29T22:11:48.716000Z</time>
      </trkpt>
      <trkpt lat="35.93774027" lon="120.20972607">
        <time>2019-07-29T22:11:54.724000Z</time>
      </trkpt>
      <trkpt lat="35.93782881" lon="120.20976251">
        <time>2019-07-29T22:12:00.719000Z</time>
      </trkpt>
      <trkpt lat="35.93791757" lon="120.20981814">
        <time>2019-07-29T22:12:06.736000Z</time>
      </trkpt>
      <trkpt lat="35.93791757" lon="120.20981814">
        <time>2019-07-29T22:12:07.515000Z</time>
      </trkpt>
      <trkpt lat="35.93802034" lon="120.20987537">
        <time>2019-07-29T22:12:10.736000Z</time>
      </trkpt>
      <trkpt lat="35.9381315" lon="120.2099265">
        <time>2019-07-29T22:12:14.743000Z</time>
      </trkpt>
      <trkpt lat="35.9382377" lon="120.2099814">
        <time>2019-07-29T22:12:18.757000Z</time>
      </trkpt>
      <trkpt lat="35.93834414" lon="120.21001115">
        <time>2019-07-29T22:12:22.722000Z</time>
      </trkpt>
      <trkpt lat="35.93845286" lon="120.21003275">
        <time>2019-07-29T22:12:26.722000Z</time>
      </trkpt>
      <trkpt lat="35.93856207" lon="120.21003831">
        <time>2019-07-29T22:12:30.739000Z</time>
      </trkpt>
      <trkpt lat="35.93865496" lon="120.21004108">
        <time>2019-07-29T22:12:33.740000Z</time>
      </trkpt>
      <trkpt lat="35.93875151" lon="120.21004306">
        <time>2019-07-29T22:12:36.729000Z</time>
      </trkpt>
      <trkpt lat="35.9388432" lon="120.21003325">
        <time>2019-07-29T22:12:39.721000Z</time>
      </trkpt>
      <trkpt lat="35.93893781" lon="120.21001254">
        <time>2019-07-29T22:12:43.724000Z</time>
      </trkpt>
      <trkpt lat="35.93893781" lon="120.21001254">
        <time>2019-07-29T22:12:45.560000Z</time>
      </trkpt>
      <trkpt lat="35.93903111" lon="120.20998494">
        <time>2019-07-29T22:12:51.721000Z</time>
      </trkpt>
      <trkpt lat="35.93912427" lon="120.20995459">
        <time>2019-07-29T22:12:58.739000Z</time>
      </trkpt>
      <trkpt lat="35.93921741" lon="120.20993162">
        <time>2019-07-29T22:13:05.720000Z</time>
      </trkpt>
      <trkpt lat="35.93921741" lon="120.20993162">
        <time>2019-07-29T22:13:08.635000Z</time>
      </trkpt>
      <trkpt lat="35.93931312" lon="120.20989553">
        <time>2019-07-29T22:13:09.717000Z</time>
      </trkpt>
      <trkpt lat="35.93942249" lon="120.20985701">
        <time>2019-07-29T22:13:13.738000Z</time>
      </trkpt>
      <trkpt lat="35.93952583" lon="120.2098204">
        <time>2019-07-29T22:13:17.728000Z</time>
      </trkpt>
      <trkpt lat="35.93962612" lon="120.20978967">
        <time>2019-07-29T22:13:21.730000Z</time>
      </trkpt>
      <trkpt lat="35.93972393" lon="120.20975324">
        <time>2019-07-29T22:13:25.720000Z</time>
      </trkpt>
      <trkpt lat="35.93982495" lon="120.20971919">
        <time>2019-07-29T22:13:29.729000Z</time>
      </trkpt>
      <trkpt lat="35.93993187" lon="120.20968973">
        <time>2019-07-29T22:13:33.728000Z</time>
      </trkpt>
      <trkpt lat="35.94003645" lon="120.20962465">
        <time>2019-07-29T22:13:37.731000Z</time>
      </trkpt>
      <trkpt lat="35.94014223" lon="120.20958513">
        <time>2019-07-29T22:13:41.731000Z</time>
      </trkpt>
      <trkpt lat="35.94025662" lon="120.20956841">
        <time>2019-07-29T22:13:45.717000Z</time>
      </trkpt>
      <trkpt lat="35.94035981" lon="120.20950118">
        <time>2019-07-29T22:13:49.720000Z</time>
      </trkpt>
      <trkpt lat="35.9404071" lon="120.20937367">
        <time>2019-07-29T22:13:53.718000Z</time>
      </trkpt>
      <trkpt lat="35.94042734" lon="120.20925731">
        <time>2019-07-29T22:13:58.730000Z</time>
      </trkpt>
      <trkpt lat="35.94042734" lon="120.20925731">
        <time>2019-07-29T22:14:02.775000Z</time>
      </trkpt>
      <trkpt lat="35.94047842" lon="120.2091429">
        <time>2019-07-29T22:14:05.722000Z</time>
      </trkpt>
      <trkpt lat="35.94054138" lon="120.20904288">
        <time>2019-07-29T22:14:11.725000Z</time>
      </trkpt>
      <trkpt lat="35.94054138" lon="120.20904288">
        <time>2019-07-29T22:14:13.727000Z</time>
      </trkpt>
      <trkpt lat="35.94061915" lon="120.20894874">
        <time>2019-07-29T22:14:15.720000Z</time>
      </trkpt>
      <trkpt lat="35.94072618" lon="120.20890036">
        <time>2019-07-29T22:14:19.723000Z</time>
      </trkpt>
      <trkpt lat="35.94084221" lon="120.20887665">
        <time>2019-07-29T22:14:23.770000Z</time>
      </trkpt>
      <trkpt lat="35.94094734" lon="120.20888342">
        <time>2019-07-29T22:14:27.764000Z</time>
      </trkpt>
      <trkpt lat="35.94105584" lon="120.20891295">
        <time>2019-07-29T22:14:31.717000Z</time>
      </trkpt>
      <trkpt lat="35.94113886" lon="120.20895723">
        <time>2019-07-29T22:14:34.740000Z</time>
      </trkpt>
      <trkpt lat="35.94122072" lon="120.20901485">
        <time>2019-07-29T22:14:37.730000Z</time>
      </trkpt>
      <trkpt lat="35.94128606" lon="120.20909175">
        <time>2019-07-29T22:14:40.738000Z</time>
      </trkpt>
      <trkpt lat="35.94134598" lon="120.20921589">
        <time>2019-07-29T22:14:44.751000Z</time>
      </trkpt>
      <trkpt lat="35.94143677" lon="120.20928895">
        <time>2019-07-29T22:14:48.746000Z</time>
      </trkpt>
      <trkpt lat="35.94155453" lon="120.20928821">
        <time>2019-07-29T22:14:52.720000Z</time>
      </trkpt>
      <trkpt lat="35.94164556" lon="120.20928497">
        <time>2019-07-29T22:14:55.742000Z</time>
      </trkpt>
      <trkpt lat="35.94173721" lon="120.20929589">
        <time>2019-07-29T22:14:58.731000Z</time>
      </trkpt>
      <trkpt lat="35.94182444" lon="120.20932553">
        <time>2019-07-29T22:15:01.729000Z</time>
      </trkpt>
      <trkpt lat="35.9419398" lon="120.2093246">
        <time>2019-07-29T22:15:05.725000Z</time>
      </trkpt>
      <trkpt lat="35.94205804" lon="120.20930186">
        <time>2019-07-29T22:15:09.734000Z</time>
      </trkpt>
      <trkpt lat="35.94215204" lon="120.20928347">
        <time>2019-07-29T22:15:12.741000Z</time>
      </trkpt>
      <trkpt lat="35.94224416" lon="120.20925051">
        <time>2019-07-29T22:15:15.746000Z</time>
      </trkpt>
      <trkpt lat="35.94235224" lon="120.20919652">
        <time>2019-07-29T22:15:19.736000Z</time>
      </trkpt>
      <trkpt lat="35.94244266" lon="120.20915235">
        <time>2019-07-29T22:15:28.801000Z</time>
      </trkpt>
      <trkpt lat="35.94244266" lon="120.20915235">
        <time>2019-07-29T22:15:29.054000Z</time>
      </trkpt>
      <trkpt lat="35.94252076" lon="120.20908816">
        <time>2019-07-29T22:15:35.731000Z</time>
      </trkpt>
      <trkpt lat="35.9426146" lon="120.20904599">
        <time>2019-07-29T22:15:39.734000Z</time>
      </trkpt>
      <trkpt lat="35.9426146" lon="120.20904599">
        <time>2019-07-29T22:15:41.739000Z</time>
      </trkpt>
      <trkpt lat="35.94272328" lon="120.20900171">
        <time>2019-07-29T22:15:43.732000Z</time>
      </trkpt>
      <trkpt lat="35.94283056" lon="120.20898496">
        <time>2019-07-29T22:15:47.741000Z</time>
      </trkpt>
      <trkpt lat="35.94293706" lon="120.20897376">
        <time>2019-07-29T22:15:51.740000Z</time>
      </trkpt>
      <trkpt lat="35.94304364" lon="120.20895705">
        <time>2019-07-29T22:15:55.739000Z</time>
      </trkpt>
      <trkpt lat="35.94314882" lon="120.20894662">
        <time>2019-07-29T22:15:59.718000Z</time>
      </trkpt>
      <trkpt lat="35.94325328" lon="120.20892491">
        <time>2019-07-29T22:16:03.737000Z</time>
      </trkpt>
      <trkpt lat="35.94335992" lon="120.208892">
        <time>2019-07-29T22:16:07.725000Z</time>
      </trkpt>
      <trkpt lat="35.94346853" lon="120.20884473">
        <time>2019-07-29T22:16:11.739000Z</time>
      </trkpt>
      <trkpt lat="35.94357479" lon="120.2088056">
        <time>2019-07-29T22:16:15.736000Z</time>
      </trkpt>
      <trkpt lat="35.94368353" lon="120.2087762">
        <time>2019-07-29T22:16:19.734000Z</time>
      </trkpt>
      <trkpt lat="35.94379476" lon="120.20877068">
        <time>2019-07-29T22:16:23.738000Z</time>
      </trkpt>
      <trkpt lat="35.94390255" lon="120.20879326">
        <time>2019-07-29T22:16:27.718000Z</time>
      </trkpt>
      <trkpt lat="35.94400951" lon="120.20882634">
        <time>2019-07-29T22:16:31.730000Z</time>
      </trkpt>
      <trkpt lat="35.94411066" lon="120.20887224">
        <time>2019-07-29T22:16:35.733000Z</time>
      </trkpt>
      <trkpt lat="35.94411066" lon="120.20887224">
        <time>2019-07-29T22:16:41.731000Z</time>
      </trkpt>
      <trkpt lat="35.94419534" lon="120.20893289">
        <time>2019-07-29T22:16:41.823000Z</time>
      </trkpt>
      <trkpt lat="35.94429742" lon="120.20894856">
        <time>2019-07-29T22:16:50.722000Z</time>
      </trkpt>
      <trkpt lat="35.94439889" lon="120.20895444">
        <time>2019-07-29T22:16:57.726000Z</time>
      </trkpt>
      <trkpt lat="35.94449682" lon="120.20894659">
        <time>2019-07-29T22:17:03.774000Z</time>
      </trkpt>
      <trkpt lat="35.94459676" lon="120.20893113">
        <time>2019-07-29T22:17:09.751000Z</time>
      </trkpt>
      <trkpt lat="35.94459676" lon="120.20893113">
        <time>2019-07-29T22:17:13.241000Z</time>
      </trkpt>
      <trkpt lat="35.94469048" lon="120.20890941">
        <time>2019-07-29T22:17:14.731000Z</time>
      </trkpt>
      <trkpt lat="35.944783" lon="120.20887623">
        <time>2019-07-29T22:17:18.793000Z</time>
      </trkpt>
      <trkpt lat="35.94490032" lon="120.20884851">
        <time>2019-07-29T22:17:22.718000Z</time>
      </trkpt>
      <trkpt lat="35.94499023" lon="120.20883079">
        <time>2019-07-29T22:17:25.751000Z</time>
      </trkpt>
      <trkpt lat="35.94510221" lon="120.20882178">
        <time>2019-07-29T22:17:29.763000Z</time>
      </trkpt>
      <trkpt lat="35.94521327" lon="120.20880254">
        <time>2019-07-29T22:17:33.729000Z</time>
      </trkpt>
      <trkpt lat="35.94532468" lon="120.20879626">
        <time>2019-07-29T22:17:37.745000Z</time>
      </trkpt>
      <trkpt lat="35.94541626" lon="120.20877494">
        <time>2019-07-29T22:17:40.728000Z</time>
      </trkpt>
      <trkpt lat="35.94552264" lon="120.2087622">
        <time>2019-07-29T22:17:44.723000Z</time>
      </trkpt>
      <trkpt lat="35.9456341" lon="120.20875169">
        <time>2019-07-29T22:17:48.733000Z</time>
      </trkpt>
      <trkpt lat="35.94572541" lon="120.2087357">
        <time>2019-07-29T22:17:52.523000Z</time>
      </trkpt>
      <trkpt lat="35.94582007" lon="120.20872902">
        <time>2019-07-29T22:17:54.732000Z</time>
      </trkpt>
      <trkpt lat="35.94591416" lon="120.20873541">
        <time>2019-07-29T22:17:59.730000Z</time>
      </trkpt>
      <trkpt lat="35.94591416" lon="120.20873541">
        <time>2019-07-29T22:18:02.776000Z</time>
      </trkpt>
      <trkpt lat="35.94600898" lon="120.20872897">
        <time>2019-07-29T22:18:06.721000Z</time>
      </trkpt>
      <trkpt lat="35.94610439" lon="120.20871889">
        <time>2019-07-29T22:18:12.726000Z</time>
      </trkpt>
      <trkpt lat="35.94619708" lon="120.20870611">
        <time>2019-07-29T22:18:18.738000Z</time>
      </trkpt>
      <trkpt lat="35.94629796" lon="120.20869386">
        <time>2019-07-29T22:18:24.731000Z</time>
      </trkpt>
      <trkpt lat="35.9463885" lon="120.20868767">
        <time>2019-07-29T22:18:30.712000Z</time>
      </trkpt>
      <trkpt lat="35.94649442" lon="120.2086642">
        <time>2019-07-29T22:18:37.736000Z</time>
      </trkpt>
      <trkpt lat="35.94660439" lon="120.20864679">
        <time>2019-07-29T22:18:42.728000Z</time>
      </trkpt>
      <trkpt lat="35.94660439" lon="120.20864679">
        <time>2019-07-29T22:18:43.724000Z</time>
      </trkpt>
      <trkpt lat="35.94671943" lon="120.20861776">
        <time>2019-07-29T22:18:46.733000Z</time>
      </trkpt>
      <trkpt lat="35.94681715" lon="120.20859643">
        <time>2019-07-29T22:18:50.718000Z</time>
      </trkpt>
      <trkpt lat="35.94692088" lon="120.20856799">
        <time>2019-07-29T22:18:54.785000Z</time>
      </trkpt>
      <trkpt lat="35.94701512" lon="120.20856077">
        <time>2019-07-29T22:18:58.721000Z</time>
      </trkpt>
      <trkpt lat="35.94704905" lon="120.20843653">
        <time>2019-07-29T22:19:03.736000Z</time>
      </trkpt>
      <trkpt lat="35.94703339" lon="120.20831635">
        <time>2019-07-29T22:19:07.720000Z</time>
      </trkpt>
      <trkpt lat="35.9470202" lon="120.20819072">
        <time>2019-07-29T22:19:11.720000Z</time>
      </trkpt>
      <trkpt lat="35.94700823" lon="120.20805627">
        <time>2019-07-29T22:19:15.777000Z</time>
      </trkpt>
      <trkpt lat="35.94699307" lon="120.20792046">
        <time>2019-07-29T22:19:19.730000Z</time>
      </trkpt>
      <trkpt lat="35.94697022" lon="120.2077904">
        <time>2019-07-29T22:19:23.740000Z</time>
      </trkpt>
      <trkpt lat="35.946961" lon="120.20765896">
        <time>2019-07-29T22:19:27.722000Z</time>
      </trkpt>
      <trkpt lat="35.94695188" lon="120.20752323">
        <time>2019-07-29T22:19:31.716000Z</time>
      </trkpt>
      <trkpt lat="35.94693952" lon="120.20738601">
        <time>2019-07-29T22:19:35.731000Z</time>
      </trkpt>
      <trkpt lat="35.94692821" lon="120.20725468">
        <time>2019-07-29T22:19:39.716000Z</time>
      </trkpt>
      <trkpt lat="35.94697418" lon="120.20711943">
        <time>2019-07-29T22:19:43.734000Z</time>
      </trkpt>
      <trkpt lat="35.94702304" lon="120.20701772">
        <time>2019-07-29T22:19:46.741000Z</time>
      </trkpt>
      <trkpt lat="35.94707294" lon="120.20691983">
        <time>2019-07-29T22:19:49.731000Z</time>
      </trkpt>
      <trkpt lat="35.94710616" lon="120.20681601">
        <time>2019-07-29T22:19:52.768000Z</time>
      </trkpt>
      <trkpt lat="35.94716609" lon="120.2066899">
        <time>2019-07-29T22:19:56.722000Z</time>
      </trkpt>
      <trkpt lat="35.94721488" lon="120.2065639">
        <time>2019-07-29T22:20:00.726000Z</time>
      </trkpt>
      <trkpt lat="35.94726409" lon="120.20642709">
        <time>2019-07-29T22:20:04.729000Z</time>
      </trkpt>
      <trkpt lat="35.94730947" lon="120.20632832">
        <time>2019-07-29T22:20:07.717000Z</time>
      </trkpt>
      <trkpt lat="35.94734396" lon="120.20622319">
        <time>2019-07-29T22:20:10.719000Z</time>
      </trkpt>
      <trkpt lat="35.94738884" lon="120.2061231">
        <time>2019-07-29T22:20:13.718000Z</time>
      </trkpt>
      <trkpt lat="35.94742987" lon="120.20602389">
        <time>2019-07-29T22:20:16.731000Z</time>
      </trkpt>
      <trkpt lat="35.94746829" lon="120.20589225">
        <time>2019-07-29T22:20:20.731000Z</time>
      </trkpt>
      <trkpt lat="35.94752947" lon="120.20578054">
        <time>2019-07-29T22:20:24.723000Z</time>
      </trkpt>
      <trkpt lat="35.94758075" lon="120.20565351">
        <time>2019-07-29T22:20:28.733000Z</time>
      </trkpt>
      <trkpt lat="35.94763733" lon="120.20552507">
        <time>2019-07-29T22:20:32.720000Z</time>
      </trkpt>
      <trkpt lat="35.94767628" lon="120.20542464">
        <time>2019-07-29T22:20:35.719000Z</time>
      </trkpt>
      <trkpt lat="35.94773073" lon="120.20529269">
        <time>2019-07-29T22:20:39.730000Z</time>
      </trkpt>
      <trkpt lat="35.94776697" lon="120.20518881">
        <time>2019-07-29T22:20:42.740000Z</time>
      </trkpt>
      <trkpt lat="35.94779763" lon="120.2050806">
        <time>2019-07-29T22:20:45.773000Z</time>
      </trkpt>
      <trkpt lat="35.94784491" lon="120.2049838">
        <time>2019-07-29T22:20:48.732000Z</time>
      </trkpt>
      <trkpt lat="35.94789269" lon="120.20485064">
        <time>2019-07-29T22:20:52.723000Z</time>
      </trkpt>
      <trkpt lat="35.9479074" lon="120.20470451">
        <time>2019-07-29T22:20:56.737000Z</time>
      </trkpt>
      <trkpt lat="35.94791239" lon="120.20459281">
        <time>2019-07-29T22:20:59.769000Z</time>
      </trkpt>
      <trkpt lat="35.94790573" lon="120.20445121">
        <time>2019-07-29T22:21:03.733000Z</time>
      </trkpt>
      <trkpt lat="35.94788175" lon="120.20431508">
        <time>2019-07-29T22:21:07.727000Z</time>
      </trkpt>
      <trkpt lat="35.94787574" lon="120.2041956">
        <time>2019-07-29T22:21:12.718000Z</time>
      </trkpt>
      <trkpt lat="35.94787574" lon="120.2041956">
        <time>2019-07-29T22:21:15.684000Z</time>
      </trkpt>
      <trkpt lat="35.94796744" lon="120.20422309">
        <time>2019-07-29T22:21:17.714000Z</time>
      </trkpt>
      <trkpt lat="35.94806032" lon="120.20426273">
        <time>2019-07-29T22:21:25.740000Z</time>
      </trkpt>
      <trkpt lat="35.94814285" lon="120.20431747">
        <time>2019-07-29T22:21:32.730000Z</time>
      </trkpt>
      <trkpt lat="35.94822936" lon="120.20439443">
        <time>2019-07-29T22:21:38.729000Z</time>
      </trkpt>
      <trkpt lat="35.94828602" lon="120.20448158">
        <time>2019-07-29T22:21:43.733000Z</time>
      </trkpt>
      <trkpt lat="35.94828602" lon="120.20448158">
        <time>2019-07-29T22:21:45.723000Z</time>
      </trkpt>
      <trkpt lat="35.94835668" lon="120.20455637">
        <time>2019-07-29T22:21:47.734000Z</time>
      </trkpt>
      <trkpt lat="35.94845405" lon="120.20463487">
        <time>2019-07-29T22:21:51.727000Z</time>
      </trkpt>
      <trkpt lat="35.9485408" lon="120.20472853">
        <time>2019-07-29T22:21:55.750000Z</time>
      </trkpt>
      <trkpt lat="35.9485408" lon="120.20472853">
        <time>2019-07-29T22:21:59.907000Z</time>
      </trkpt>
      <trkpt lat="35.94862131" lon="120.20479915">
        <time>2019-07-29T22:22:00.733000Z</time>
      </trkpt>
      <trkpt lat="35.94869728" lon="120.20487226">
        <time>2019-07-29T22:22:07.712000Z</time>
      </trkpt>
      <trkpt lat="35.94876727" lon="120.20494423">
        <time>2019-07-29T22:22:14.716000Z</time>
      </trkpt>
      <trkpt lat="35.94883875" lon="120.20503599">
        <time>2019-07-29T22:22:19.731000Z</time>
      </trkpt>
      <trkpt lat="35.94883875" lon="120.20503599">
        <time>2019-07-29T22:22:20.919000Z</time>
      </trkpt>
      <trkpt lat="35.94889971" lon="120.20513901">
        <time>2019-07-29T22:22:23.734000Z</time>
      </trkpt>
      <trkpt lat="35.94898133" lon="120.20523159">
        <time>2019-07-29T22:22:27.727000Z</time>
      </trkpt>
      <trkpt lat="35.94905533" lon="120.20533046">
        <time>2019-07-29T22:22:31.739000Z</time>
      </trkpt>
      <trkpt lat="35.9491414" lon="120.2054211">
        <time>2019-07-29T22:22:35.735000Z</time>
      </trkpt>
      <trkpt lat="35.94922565" lon="120.20551748">
        <time>2019-07-29T22:22:39.731000Z</time>
      </trkpt>
      <trkpt lat="35.94931623" lon="120.20561208">
        <time>2019-07-29T22:22:43.737000Z</time>
      </trkpt>
      <trkpt lat="35.94940307" lon="120.2057035">
        <time>2019-07-29T22:22:47.730000Z</time>
      </trkpt>
      <trkpt lat="35.94948234" lon="120.20578913">
        <time>2019-07-29T22:22:51.726000Z</time>
      </trkpt>
      <trkpt lat="35.94956985" lon="120.20587256">
        <time>2019-07-29T22:22:55.731000Z</time>
      </trkpt>
      <trkpt lat="35.9496535" lon="120.20596398">
        <time>2019-07-29T22:22:59.728000Z</time>
      </trkpt>
      <trkpt lat="35.94975561" lon="120.20599534">
        <time>2019-07-29T22:23:03.735000Z</time>
      </trkpt>
      <trkpt lat="35.94984912" lon="120.20592248">
        <time>2019-07-29T22:23:07.736000Z</time>
      </trkpt>
      <trkpt lat="35.94994394" lon="120.20584923">
        <time>2019-07-29T22:23:11.723000Z</time>
      </trkpt>
      <trkpt lat="35.95004288" lon="120.20579503">
        <time>2019-07-29T22:23:15.721000Z</time>
      </trkpt>
      <trkpt lat="35.95015058" lon="120.20576025">
        <time>2019-07-29T22:23:19.731000Z</time>
      </trkpt>
      <trkpt lat="35.95025469" lon="120.20573086">
        <time>2019-07-29T22:23:23.730000Z</time>
      </trkpt>
      <trkpt lat="35.95036111" lon="120.20570058">
        <time>2019-07-29T22:23:27.731000Z</time>
      </trkpt>
      <trkpt lat="35.95047056" lon="120.2056706">
        <time>2019-07-29T22:23:31.722000Z</time>
      </trkpt>
      <trkpt lat="35.95056261" lon="120.20560964">
        <time>2019-07-29T22:23:35.733000Z</time>
      </trkpt>
      <trkpt lat="35.95063786" lon="120.20553207">
        <time>2019-07-29T22:23:39.726000Z</time>
      </trkpt>
      <trkpt lat="35.95065274" lon="120.20540777">
        <time>2019-07-29T22:23:43.738000Z</time>
      </trkpt>
      <trkpt lat="35.95063151" lon="120.20527933">
        <time>2019-07-29T22:23:47.718000Z</time>
      </trkpt>
      <trkpt lat="35.95061061" lon="120.20515503">
        <time>2019-07-29T22:23:51.715000Z</time>
      </trkpt>
      <trkpt lat="35.95058578" lon="120.2050291">
        <time>2019-07-29T22:23:55.747000Z</time>
      </trkpt>
      <trkpt lat="35.95055789" lon="120.20490644">
        <time>2019-07-29T22:23:59.731000Z</time>
      </trkpt>
      <trkpt lat="35.95052779" lon="120.20477646">
        <time>2019-07-29T22:24:03.760000Z</time>
      </trkpt>
      <trkpt lat="35.95049281" lon="120.20465008">
        <time>2019-07-29T22:24:07.788000Z</time>
      </trkpt>
      <trkpt lat="35.95045968" lon="120.20452163">
        <time>2019-07-29T22:24:11.716000Z</time>
      </trkpt>
      <trkpt lat="35.95043565" lon="120.20441178">
        <time>2019-07-29T22:24:15.737000Z</time>
      </trkpt>
      <trkpt lat="35.95041738" lon="120.20427926">
        <time>2019-07-29T22:24:20.733000Z</time>
      </trkpt>
      <trkpt lat="35.95041738" lon="120.20427926">
        <time>2019-07-29T22:24:24.033000Z</time>
      </trkpt>
      <trkpt lat="35.9504235" lon="120.20416603">
        <time>2019-07-29T22:24:28.720000Z</time>
      </trkpt>
      <trkpt lat="35.9504235" lon="120.20416603">
        <time>2019-07-29T22:24:40.720000Z</time>
      </trkpt>
      <trkpt lat="35.95053005" lon="120.20419295">
        <time>2019-07-29T22:24:41.738000Z</time>
      </trkpt>
      <trkpt lat="35.9506299" lon="120.20415396">
        <time>2019-07-29T22:24:45.734000Z</time>
      </trkpt>
      <trkpt lat="35.950738" lon="120.20414048">
        <time>2019-07-29T22:24:49.741000Z</time>
      </trkpt>
      <trkpt lat="35.95084108" lon="120.20414988">
        <time>2019-07-29T22:24:53.735000Z</time>
      </trkpt>
      <trkpt lat="35.95094782" lon="120.2041593">
        <time>2019-07-29T22:24:57.727000Z</time>
      </trkpt>
      <trkpt lat="35.9510572" lon="120.20414364">
        <time>2019-07-29T22:25:01.757000Z</time>
      </trkpt>
      <trkpt lat="35.95116235" lon="120.20411453">
        <time>2019-07-29T22:25:05.722000Z</time>
      </trkpt>
      <trkpt lat="35.9512695" lon="120.20408932">
        <time>2019-07-29T22:25:09.735000Z</time>
      </trkpt>
      <trkpt lat="35.95137374" lon="120.20405777">
        <time>2019-07-29T22:25:13.719000Z</time>
      </trkpt>
      <trkpt lat="35.95147274" lon="120.20404219">
        <time>2019-07-29T22:25:17.725000Z</time>
      </trkpt>
      <trkpt lat="35.95158204" lon="120.2040325">
        <time>2019-07-29T22:25:21.725000Z</time>
      </trkpt>
      <trkpt lat="35.95167956" lon="120.20401455">
        <time>2019-07-29T22:25:25.731000Z</time>
      </trkpt>
      <trkpt lat="35.95177707" lon="120.20405278">
        <time>2019-07-29T22:25:32.730000Z</time>
      </trkpt>
      <trkpt lat="35.95177707" lon="120.20405278">
        <time>2019-07-29T22:25:38.056000Z</time>
      </trkpt>
      <trkpt lat="35.95187738" lon="120.20406374">
        <time>2019-07-29T22:25:38.755000Z</time>
      </trkpt>
      <trkpt lat="35.95198141" lon="120.2040484">
        <time>2019-07-29T22:25:44.729000Z</time>
      </trkpt>
      <trkpt lat="35.9520838" lon="120.20401913">
        <time>2019-07-29T22:25:51.728000Z</time>
      </trkpt>
      <trkpt lat="35.9520838" lon="120.20401913">
        <time>2019-07-29T22:25:53.718000Z</time>
      </trkpt>
      <trkpt lat="35.95218561" lon="120.20400089">
        <time>2019-07-29T22:25:55.725000Z</time>
      </trkpt>
      <trkpt lat="35.95227638" lon="120.20398562">
        <time>2019-07-29T22:25:58.729000Z</time>
      </trkpt>
      <trkpt lat="35.95238508" lon="120.20396782">
        <time>2019-07-29T22:26:02.730000Z</time>
      </trkpt>
      <trkpt lat="35.9524953" lon="120.20395545">
        <time>2019-07-29T22:26:06.734000Z</time>
      </trkpt>
      <trkpt lat="35.95261164" lon="120.2039379">
        <time>2019-07-29T22:26:10.728000Z</time>
      </trkpt>
      <trkpt lat="35.95271503" lon="120.2039101">
        <time>2019-07-29T22:26:14.732000Z</time>
      </trkpt>
      <trkpt lat="35.95281213" lon="120.20388252">
        <time>2019-07-29T22:26:18.738000Z</time>
      </trkpt>
      <trkpt lat="35.95291543" lon="120.20385698">
        <time>2019-07-29T22:26:22.728000Z</time>
      </trkpt>
      <trkpt lat="35.95302988" lon="120.20383609">
        <time>2019-07-29T22:26:26.722000Z</time>
      </trkpt>
      <trkpt lat="35.95312353" lon="120.20382062">
        <time>2019-07-29T22:26:31.733000Z</time>
      </trkpt>
      <trkpt lat="35.95312353" lon="120.20382062">
        <time>2019-07-29T22:26:32.727000Z</time>
      </trkpt>
      <trkpt lat="35.95321562" lon="120.20384728">
        <time>2019-07-29T22:26:39.733000Z</time>
      </trkpt>
      <trkpt lat="35.95331644" lon="120.20382261">
        <time>2019-07-29T22:26:47.732000Z</time>
      </trkpt>
      <trkpt lat="35.95340708" lon="120.20380827">
        <time>2019-07-29T22:26:54.722000Z</time>
      </trkpt>
      <trkpt lat="35.95350582" lon="120.20380331">
        <time>2019-07-29T22:27:01.725000Z</time>
      </trkpt>
      <trkpt lat="35.95350582" lon="120.20380331">
        <time>2019-07-29T22:27:03.999000Z</time>
      </trkpt>
      <trkpt lat="35.95361607" lon="120.20374805">
        <time>2019-07-29T22:27:06.730000Z</time>
      </trkpt>
      <trkpt lat="35.95371809" lon="120.20371482">
        <time>2019-07-29T22:27:09.732000Z</time>
      </trkpt>
      <trkpt lat="35.95380866" lon="120.20368638">
        <time>2019-07-29T22:27:12.720000Z</time>
      </trkpt>
      <trkpt lat="35.95392316" lon="120.20365953">
        <time>2019-07-29T22:27:16.729000Z</time>
      </trkpt>
      <trkpt lat="35.9540134" lon="120.20364591">
        <time>2019-07-29T22:27:19.724000Z</time>
      </trkpt>
      <trkpt lat="35.95410938" lon="120.20364147">
        <time>2019-07-29T22:27:22.733000Z</time>
      </trkpt>
      <trkpt lat="35.95420249" lon="120.20363065">
        <time>2019-07-29T22:27:25.732000Z</time>
      </trkpt>
      <trkpt lat="35.95431748" lon="120.20360513">
        <time>2019-07-29T22:27:29.728000Z</time>
      </trkpt>
      <trkpt lat="35.95442185" lon="120.20359576">
        <time>2019-07-29T22:27:33.730000Z</time>
      </trkpt>
      <trkpt lat="35.95451855" lon="120.20359117">
        <time>2019-07-29T22:27:41.724000Z</time>
      </trkpt>
      <trkpt lat="35.95451855" lon="120.20359117">
        <time>2019-07-29T22:27:43.732000Z</time>
      </trkpt>
      <trkpt lat="35.95460852" lon="120.20357271">
        <time>2019-07-29T22:27:47.738000Z</time>
      </trkpt>
      <trkpt lat="35.95470492" lon="120.20355991">
        <time>2019-07-29T22:27:54.734000Z</time>
      </trkpt>
      <trkpt lat="35.95470492" lon="120.20355991">
        <time>2019-07-29T22:28:00.308000Z</time>
      </trkpt>
      <trkpt lat="35.95480585" lon="120.2035253">
        <time>2019-07-29T22:28:00.722000Z</time>
      </trkpt>
      <trkpt lat="35.95489678" lon="120.20351781">
        <time>2019-07-29T22:28:03.735000Z</time>
      </trkpt>
      <trkpt lat="35.95499182" lon="120.20350338">
        <time>2019-07-29T22:28:06.723000Z</time>
      </trkpt>
      <trkpt lat="35.95508746" lon="120.20348947">
        <time>2019-07-29T22:28:09.726000Z</time>
      </trkpt>
      <trkpt lat="35.95518266" lon="120.20348311">
        <time>2019-07-29T22:28:12.724000Z</time>
      </trkpt>
      <trkpt lat="35.95527573" lon="120.20348699">
        <time>2019-07-29T22:28:16.728000Z</time>
      </trkpt>
      <trkpt lat="35.95527573" lon="120.20348699">
        <time>2019-07-29T22:28:19.350000Z</time>
      </trkpt>
      <trkpt lat="35.95529035" lon="120.20361206">
        <time>2019-07-29T22:28:26.734000Z</time>
      </trkpt>
      <trkpt lat="35.95529589" lon="120.20372664">
        <time>2019-07-29T22:28:33.734000Z</time>
      </trkpt>
      <trkpt lat="35.95530988" lon="120.20384454">
        <time>2019-07-29T22:28:39.733000Z</time>
      </trkpt>
      <trkpt lat="35.95532213" lon="120.20395515">
        <time>2019-07-29T22:28:44.731000Z</time>
      </trkpt>
      <trkpt lat="35.95532213" lon="120.20395515">
        <time>2019-07-29T22:28:49.728000Z</time>
      </trkpt>
      <trkpt lat="35.95530184" lon="120.20408262">
        <time>2019-07-29T22:28:49.746000Z</time>
      </trkpt>
      <trkpt lat="35.95528677" lon="120.2042099">
        <time>2019-07-29T22:28:53.730000Z</time>
      </trkpt>
      <trkpt lat="35.95530819" lon="120.20432721">
        <time>2019-07-29T22:28:57.739000Z</time>
      </trkpt>
      <trkpt lat="35.95534666" lon="120.20444731">
        <time>2019-07-29T22:29:01.721000Z</time>
      </trkpt>
      <trkpt lat="35.95534666" lon="120.20444731">
        <time>2019-07-29T22:29:07.400000Z</time>
      </trkpt>
      <trkpt lat="35.95537475" lon="120.20455482">
        <time>2019-07-29T22:29:07.712000Z</time>
      </trkpt>
      <trkpt lat="35.95539797" lon="120.20468567">
        <time>2019-07-29T22:29:14.719000Z</time>
      </trkpt>
      <trkpt lat="35.95539797" lon="120.20468567">
        <time>2019-07-29T22:29:17.423000Z</time>
      </trkpt>
      <trkpt lat="35.95544426" lon="120.20479101">
        <time>2019-07-29T22:29:18.716000Z</time>
      </trkpt>
      <trkpt lat="35.95545021" lon="120.20491938">
        <time>2019-07-29T22:29:22.716000Z</time>
      </trkpt>
      <trkpt lat="35.95545868" lon="120.20505214">
        <time>2019-07-29T22:29:26.720000Z</time>
      </trkpt>
      <trkpt lat="35.95547877" lon="120.205182">
        <time>2019-07-29T22:29:30.722000Z</time>
      </trkpt>
      <trkpt lat="35.95550754" lon="120.20530473">
        <time>2019-07-29T22:29:34.717000Z</time>
      </trkpt>
      <trkpt lat="35.95552808" lon="120.20543335">
        <time>2019-07-29T22:29:38.716000Z</time>
      </trkpt>
      <trkpt lat="35.95554327" lon="120.20557009">
        <time>2019-07-29T22:29:42.711000Z</time>
      </trkpt>
      <trkpt lat="35.95556974" lon="120.20569898">
        <time>2019-07-29T22:29:46.717000Z</time>
      </trkpt>
      <trkpt lat="35.9555788" lon="120.20581894">
        <time>2019-07-29T22:29:50.714000Z</time>
      </trkpt>
      <trkpt lat="35.95558363" lon="120.20595163">
        <time>2019-07-29T22:29:54.719000Z</time>
      </trkpt>
      <trkpt lat="35.95561522" lon="120.20605558">
        <time>2019-07-29T22:29:57.717000Z</time>
      </trkpt>
      <trkpt lat="35.95564792" lon="120.20618812">
        <time>2019-07-29T22:30:01.721000Z</time>
      </trkpt>
      <trkpt lat="35.9556749" lon="120.20632699">
        <time>2019-07-29T22:30:05.719000Z</time>
      </trkpt>
      <trkpt lat="35.9556901" lon="120.20644171">
        <time>2019-07-29T22:30:08.714000Z</time>
      </trkpt>
      <trkpt lat="35.95571455" lon="120.20657986">
        <time>2019-07-29T22:30:12.714000Z</time>
      </trkpt>
      <trkpt lat="35.95570428" lon="120.20672022">
        <time>2019-07-29T22:30:16.717000Z</time>
      </trkpt>
      <trkpt lat="35.95569622" lon="120.20684416">
        <time>2019-07-29T22:30:20.718000Z</time>
      </trkpt>
      <trkpt lat="35.95569622" lon="120.20684416">
        <time>2019-07-29T22:30:25.460000Z</time>
      </trkpt>
      <trkpt lat="35.95569744" lon="120.20697395">
        <time>2019-07-29T22:30:26.734000Z</time>
      </trkpt>
      <trkpt lat="35.95572461" lon="120.20709704">
        <time>2019-07-29T22:30:31.729000Z</time>
      </trkpt>
      <trkpt lat="35.95572461" lon="120.20709704">
        <time>2019-07-29T22:30:35.471000Z</time>
      </trkpt>
      <trkpt lat="35.95573014" lon="120.20721291">
        <time>2019-07-29T22:30:35.719000Z</time>
      </trkpt>
      <trkpt lat="35.95572596" lon="120.20733219">
        <time>2019-07-29T22:30:39.721000Z</time>
      </trkpt>
      <trkpt lat="35.95571894" lon="120.20746219">
        <time>2019-07-29T22:30:43.718000Z</time>
      </trkpt>
      <trkpt lat="35.95570818" lon="120.20759246">
        <time>2019-07-29T22:30:47.723000Z</time>
      </trkpt>
      <trkpt lat="35.95576106" lon="120.20768681">
        <time>2019-07-29T22:30:53.709000Z</time>
      </trkpt>
      <trkpt lat="35.95576106" lon="120.20768681">
        <time>2019-07-29T22:30:55.085000Z</time>
      </trkpt>
      <trkpt lat="35.95586761" lon="120.20770866">
        <time>2019-07-29T22:30:59.727000Z</time>
      </trkpt>
      <trkpt lat="35.955973" lon="120.20767161">
        <time>2019-07-29T22:31:03.718000Z</time>
      </trkpt>
      <trkpt lat="35.955973" lon="120.20767161">
        <time>2019-07-29T22:31:04.719000Z</time>
      </trkpt>
      <trkpt lat="35.95608361" lon="120.20762854">
        <time>2019-07-29T22:31:07.716000Z</time>
      </trkpt>
      <trkpt lat="35.95618547" lon="120.20759614">
        <time>2019-07-29T22:31:11.720000Z</time>
      </trkpt>
      <trkpt lat="35.95624246" lon="120.20756895">
        <time>2019-07-29T22:31:14.746000Z</time>
      </trkpt>
      <trkpt lat="35.95641087" lon="120.20752715">
        <time>2019-07-29T22:31:24.708000Z</time>
      </trkpt>
      <trkpt lat="35.95641087" lon="120.20752715">
        <time>2019-07-29T22:31:30.715000Z</time>
      </trkpt>
      <trkpt lat="35.9565033" lon="120.20758411">
        <time>2019-07-29T22:31:30.727000Z</time>
      </trkpt>
      <trkpt lat="35.95653137" lon="120.20771372">
        <time>2019-07-29T22:31:34.717000Z</time>
      </trkpt>
      <trkpt lat="35.95656458" lon="120.20782352">
        <time>2019-07-29T22:31:38.728000Z</time>
      </trkpt>
      <trkpt lat="35.95659866" lon="120.20793745">
        <time>2019-07-29T22:31:42.711000Z</time>
      </trkpt>
      <trkpt lat="35.95662143" lon="120.20805106">
        <time>2019-07-29T22:31:46.718000Z</time>
      </trkpt>
      <trkpt lat="35.95662049" lon="120.20808293">
        <time>2019-07-29T22:31:47.971000Z</time>
      </trkpt>
    </trkseg>
  </trk>
</gpx>