<?xml version="1.0" encoding="UTF-8"?>
<gpx xmlns="http://www.topografix.com/GPX/1/1" xmlns:gpxtpx="http://www.garmin.com/xmlschemas/TrackPointExtension/v1" xmlns:xsi="http://www.w3.org/2001/XMLSchema-instance" xsi:schemaLocation="http://www.topografix.com/GPX/1/1 http://www.topografix.com/GPX/1/1/gpx.xsd" version="1.1" creator="gpx.py -- https://github.com/tkrajina/gpxpy">
  <trk>
    <name>星期四 早晨跑步</name>
    <trkseg>
      <trkpt lat="35.97171338" lon="120.18385038">
        <time>2019-08-14T22:03:31.819000Z</time>
      </trkpt>
      <trkpt lat="35.97176918" lon="120.18375178">
        <time>2019-08-14T22:03:38.821000Z</time>
      </trkpt>
      <trkpt lat="35.97181628" lon="120.18364742">
        <time>2019-08-14T22:03:45.818000Z</time>
      </trkpt>
      <trkpt lat="35.97186151" lon="120.18354792">
        <time>2019-08-14T22:03:52.817000Z</time>
      </trkpt>
      <trkpt lat="35.97194949" lon="120.18358943">
        <time>2019-08-14T22:04:06.796000Z</time>
      </trkpt>
      <trkpt lat="35.97203521" lon="120.18363522">
        <time>2019-08-14T22:04:16.813000Z</time>
      </trkpt>
      <trkpt lat="35.97212415" lon="120.18367197">
        <time>2019-08-14T22:04:24.818000Z</time>
      </trkpt>
      <trkpt lat="35.97220399" lon="120.1837264">
        <time>2019-08-14T22:04:33.814000Z</time>
      </trkpt>
      <trkpt lat="35.97229361" lon="120.18377732">
        <time>2019-08-14T22:04:42.828000Z</time>
      </trkpt>
      <trkpt lat="35.972377" lon="120.18382415">
        <time>2019-08-14T22:04:51.824000Z</time>
      </trkpt>
      <trkpt lat="35.97246153" lon="120.18387235">
        <time>2019-08-14T22:04:59.817000Z</time>
      </trkpt>
      <trkpt lat="35.97254747" lon="120.18391514">
        <time>2019-08-14T22:05:07.817000Z</time>
      </trkpt>
      <trkpt lat="35.97263808" lon="120.18396497">
        <time>2019-08-14T22:05:15.822000Z</time>
      </trkpt>
      <trkpt lat="35.97273214" lon="120.18400177">
        <time>2019-08-14T22:05:25.817000Z</time>
      </trkpt>
      <trkpt lat="35.97276385" lon="120.18411146">
        <time>2019-08-14T22:05:39.814000Z</time>
      </trkpt>
      <trkpt lat="35.97183582" lon="120.18359927">
        <time>2019-08-14T22:08:57.796000Z</time>
      </trkpt>
      <trkpt lat="35.97178595" lon="120.18372244">
        <time>2019-08-14T22:08:57.804000Z</time>
      </trkpt>
      <trkpt lat="35.97175781" lon="120.18385558">
        <time>2019-08-14T22:09:03.817000Z</time>
      </trkpt>
      <trkpt lat="35.97170662" lon="120.18397873">
        <time>2019-08-14T22:09:07.838000Z</time>
      </trkpt>
      <trkpt lat="35.97166047" lon="120.18410195">
        <time>2019-08-14T22:09:11.818000Z</time>
      </trkpt>
      <trkpt lat="35.97161167" lon="120.18421328">
        <time>2019-08-14T22:09:15.815000Z</time>
      </trkpt>
      <trkpt lat="35.9715965" lon="120.18433527">
        <time>2019-08-14T22:09:20.825000Z</time>
      </trkpt>
      <trkpt lat="35.97155173" lon="120.18443545">
        <time>2019-08-14T22:09:25.809000Z</time>
      </trkpt>
      <trkpt lat="35.97149554" lon="120.18454979">
        <time>2019-08-14T22:09:29.819000Z</time>
      </trkpt>
      <trkpt lat="35.97144931" lon="120.18465051">
        <time>2019-08-14T22:09:32.802000Z</time>
      </trkpt>
      <trkpt lat="35.97141514" lon="120.18475718">
        <time>2019-08-14T22:09:36.799000Z</time>
      </trkpt>
      <trkpt lat="35.97136562" lon="120.18488827">
        <time>2019-08-14T22:09:40.813000Z</time>
      </trkpt>
      <trkpt lat="35.97131627" lon="120.18498337">
        <time>2019-08-14T22:09:44.834000Z</time>
      </trkpt>
      <trkpt lat="35.97127831" lon="120.18511552">
        <time>2019-08-14T22:09:50.811000Z</time>
      </trkpt>
      <trkpt lat="35.97122323" lon="120.1852335">
        <time>2019-08-14T22:09:54.816000Z</time>
      </trkpt>
      <trkpt lat="35.97117787" lon="120.18535988">
        <time>2019-08-14T22:09:59.814000Z</time>
      </trkpt>
      <trkpt lat="35.97114737" lon="120.18548412">
        <time>2019-08-14T22:10:03.796000Z</time>
      </trkpt>
      <trkpt lat="35.97113197" lon="120.18560443">
        <time>2019-08-14T22:10:07.812000Z</time>
      </trkpt>
      <trkpt lat="35.97110943" lon="120.18572269">
        <time>2019-08-14T22:10:12.813000Z</time>
      </trkpt>
      <trkpt lat="35.97106318" lon="120.18585443">
        <time>2019-08-14T22:10:16.815000Z</time>
      </trkpt>
      <trkpt lat="35.97102204" lon="120.18595673">
        <time>2019-08-14T22:10:19.818000Z</time>
      </trkpt>
      <trkpt lat="35.97098876" lon="120.18606234">
        <time>2019-08-14T22:10:22.810000Z</time>
      </trkpt>
      <trkpt lat="35.97095332" lon="120.18616774">
        <time>2019-08-14T22:10:26.814000Z</time>
      </trkpt>
      <trkpt lat="35.97091334" lon="120.18628761">
        <time>2019-08-14T22:10:30.814000Z</time>
      </trkpt>
      <trkpt lat="35.97086717" lon="120.18640502">
        <time>2019-08-14T22:10:34.801000Z</time>
      </trkpt>
      <trkpt lat="35.97080324" lon="120.1864893">
        <time>2019-08-14T22:10:38.814000Z</time>
      </trkpt>
      <trkpt lat="35.97077184" lon="120.18659624">
        <time>2019-08-14T22:10:44.812000Z</time>
      </trkpt>
      <trkpt lat="35.97070783" lon="120.18668356">
        <time>2019-08-14T22:10:49.820000Z</time>
      </trkpt>
      <trkpt lat="35.97070783" lon="120.18668356">
        <time>2019-08-14T22:10:51.362000Z</time>
      </trkpt>
      <trkpt lat="35.97066246" lon="120.18678352">
        <time>2019-08-14T22:10:54.810000Z</time>
      </trkpt>
      <trkpt lat="35.97062261" lon="120.18688993">
        <time>2019-08-14T22:10:58.798000Z</time>
      </trkpt>
      <trkpt lat="35.97062261" lon="120.18688993">
        <time>2019-08-14T22:11:00.808000Z</time>
      </trkpt>
      <trkpt lat="35.97058658" lon="120.18699399">
        <time>2019-08-14T22:11:01.818000Z</time>
      </trkpt>
      <trkpt lat="35.9705425" lon="120.18712393">
        <time>2019-08-14T22:11:05.825000Z</time>
      </trkpt>
      <trkpt lat="35.97049747" lon="120.18724637">
        <time>2019-08-14T22:11:09.847000Z</time>
      </trkpt>
      <trkpt lat="35.97046009" lon="120.18736215">
        <time>2019-08-14T22:11:14.803000Z</time>
      </trkpt>
      <trkpt lat="35.97040965" lon="120.1874801">
        <time>2019-08-14T22:11:20.814000Z</time>
      </trkpt>
      <trkpt lat="35.97038376" lon="120.18759047">
        <time>2019-08-14T22:11:23.815000Z</time>
      </trkpt>
      <trkpt lat="35.97038168" lon="120.18773071">
        <time>2019-08-14T22:11:27.821000Z</time>
      </trkpt>
      <trkpt lat="35.97039668" lon="120.18786324">
        <time>2019-08-14T22:11:31.819000Z</time>
      </trkpt>
      <trkpt lat="35.97036985" lon="120.18800358">
        <time>2019-08-14T22:11:35.834000Z</time>
      </trkpt>
      <trkpt lat="35.9703181" lon="120.18813523">
        <time>2019-08-14T22:11:39.815000Z</time>
      </trkpt>
      <trkpt lat="35.9702885" lon="120.18824429">
        <time>2019-08-14T22:11:43.815000Z</time>
      </trkpt>
      <trkpt lat="35.97024562" lon="120.18836466">
        <time>2019-08-14T22:11:47.806000Z</time>
      </trkpt>
      <trkpt lat="35.97022327" lon="120.18847553">
        <time>2019-08-14T22:11:50.800000Z</time>
      </trkpt>
      <trkpt lat="35.97019152" lon="120.18860035">
        <time>2019-08-14T22:11:54.814000Z</time>
      </trkpt>
      <trkpt lat="35.97019152" lon="120.18860035">
        <time>2019-08-14T22:11:55.812000Z</time>
      </trkpt>
      <trkpt lat="35.97016986" lon="120.18872381">
        <time>2019-08-14T22:11:59.825000Z</time>
      </trkpt>
      <trkpt lat="35.97014493" lon="120.18885399">
        <time>2019-08-14T22:12:04.800000Z</time>
      </trkpt>
      <trkpt lat="35.97014493" lon="120.18885399">
        <time>2019-08-14T22:12:05.836000Z</time>
      </trkpt>
      <trkpt lat="35.97012838" lon="120.18897607">
        <time>2019-08-14T22:12:08.811000Z</time>
      </trkpt>
      <trkpt lat="35.97011649" lon="120.18911357">
        <time>2019-08-14T22:12:12.815000Z</time>
      </trkpt>
      <trkpt lat="35.97008957" lon="120.18922217">
        <time>2019-08-14T22:12:16.797000Z</time>
      </trkpt>
      <trkpt lat="35.97003525" lon="120.18935399">
        <time>2019-08-14T22:12:20.809000Z</time>
      </trkpt>
      <trkpt lat="35.97001933" lon="120.1894851">
        <time>2019-08-14T22:12:24.811000Z</time>
      </trkpt>
      <trkpt lat="35.97008571" lon="120.18956824">
        <time>2019-08-14T22:12:28.792000Z</time>
      </trkpt>
      <trkpt lat="35.97008571" lon="120.18956824">
        <time>2019-08-14T22:12:32.817000Z</time>
      </trkpt>
      <trkpt lat="35.96856898" lon="120.19615512">
        <time>2019-08-14T22:16:18.809000Z</time>
      </trkpt>
      <trkpt lat="35.96854437" lon="120.19628357">
        <time>2019-08-14T22:16:22.817000Z</time>
      </trkpt>
      <trkpt lat="35.96851674" lon="120.19639537">
        <time>2019-08-14T22:16:26.800000Z</time>
      </trkpt>
      <trkpt lat="35.96848951" lon="120.19651821">
        <time>2019-08-14T22:16:30.816000Z</time>
      </trkpt>
      <trkpt lat="35.96846804" lon="120.19663472">
        <time>2019-08-14T22:16:34.814000Z</time>
      </trkpt>
      <trkpt lat="35.96843946" lon="120.19676049">
        <time>2019-08-14T22:16:38.798000Z</time>
      </trkpt>
      <trkpt lat="35.96842416" lon="120.19689714">
        <time>2019-08-14T22:16:42.815000Z</time>
      </trkpt>
      <trkpt lat="35.96840526" lon="120.19700726">
        <time>2019-08-14T22:16:45.810000Z</time>
      </trkpt>
      <trkpt lat="35.96837977" lon="120.19713931">
        <time>2019-08-14T22:16:49.825000Z</time>
      </trkpt>
      <trkpt lat="35.96834688" lon="120.19725946">
        <time>2019-08-14T22:16:53.805000Z</time>
      </trkpt>
      <trkpt lat="35.96831575" lon="120.19737506">
        <time>2019-08-14T22:16:57.821000Z</time>
      </trkpt>
      <trkpt lat="35.96829872" lon="120.1974971">
        <time>2019-08-14T22:17:01.815000Z</time>
      </trkpt>
      <trkpt lat="35.96827105" lon="120.1976257">
        <time>2019-08-14T22:17:05.829000Z</time>
      </trkpt>
      <trkpt lat="35.96823797" lon="120.19774042">
        <time>2019-08-14T22:17:10.838000Z</time>
      </trkpt>
      <trkpt lat="35.96821533" lon="120.19786576">
        <time>2019-08-14T22:17:14.824000Z</time>
      </trkpt>
      <trkpt lat="35.96820233" lon="120.19797612">
        <time>2019-08-14T22:17:17.798000Z</time>
      </trkpt>
      <trkpt lat="35.96818376" lon="120.19809021">
        <time>2019-08-14T22:17:20.813000Z</time>
      </trkpt>
      <trkpt lat="35.96815151" lon="120.1982264">
        <time>2019-08-14T22:17:24.817000Z</time>
      </trkpt>
      <trkpt lat="35.96815151" lon="120.1982264">
        <time>2019-08-14T22:17:29.791000Z</time>
      </trkpt>
      <trkpt lat="35.96808454" lon="120.19830284">
        <time>2019-08-14T22:17:30.810000Z</time>
      </trkpt>
      <trkpt lat="35.96797928" lon="120.19830267">
        <time>2019-08-14T22:17:37.810000Z</time>
      </trkpt>
      <trkpt lat="35.96797928" lon="120.19830267">
        <time>2019-08-14T22:17:40.552000Z</time>
      </trkpt>
      <trkpt lat="35.96788314" lon="120.19831865">
        <time>2019-08-14T22:17:41.813000Z</time>
      </trkpt>
      <trkpt lat="35.96782935" lon="120.19841957">
        <time>2019-08-14T22:17:45.818000Z</time>
      </trkpt>
      <trkpt lat="35.96781307" lon="120.19855246">
        <time>2019-08-14T22:17:50.809000Z</time>
      </trkpt>
      <trkpt lat="35.9678166" lon="120.19866671">
        <time>2019-08-14T22:17:54.813000Z</time>
      </trkpt>
      <trkpt lat="35.96780484" lon="120.19880184">
        <time>2019-08-14T22:17:58.812000Z</time>
      </trkpt>
      <trkpt lat="35.96778615" lon="120.19892867">
        <time>2019-08-14T22:18:02.823000Z</time>
      </trkpt>
      <trkpt lat="35.96777387" lon="120.19905344">
        <time>2019-08-14T22:18:06.838000Z</time>
      </trkpt>
      <trkpt lat="35.96775844" lon="120.19918413">
        <time>2019-08-14T22:18:10.811000Z</time>
      </trkpt>
      <trkpt lat="35.96774297" lon="120.19931815">
        <time>2019-08-14T22:18:14.815000Z</time>
      </trkpt>
      <trkpt lat="35.96772666" lon="120.19946162">
        <time>2019-08-14T22:18:18.807000Z</time>
      </trkpt>
      <trkpt lat="35.96770054" lon="120.19959895">
        <time>2019-08-14T22:18:22.794000Z</time>
      </trkpt>
      <trkpt lat="35.96767179" lon="120.1997312">
        <time>2019-08-14T22:18:26.804000Z</time>
      </trkpt>
      <trkpt lat="35.96765587" lon="120.19986635">
        <time>2019-08-14T22:18:30.814000Z</time>
      </trkpt>
      <trkpt lat="35.96764454" lon="120.19999919">
        <time>2019-08-14T22:18:34.828000Z</time>
      </trkpt>
      <trkpt lat="35.96762523" lon="120.20013007">
        <time>2019-08-14T22:18:38.810000Z</time>
      </trkpt>
      <trkpt lat="35.96761105" lon="120.20026452">
        <time>2019-08-14T22:18:42.810000Z</time>
      </trkpt>
      <trkpt lat="35.96760755" lon="120.20040913">
        <time>2019-08-14T22:18:46.817000Z</time>
      </trkpt>
      <trkpt lat="35.96758697" lon="120.20051952">
        <time>2019-08-14T22:18:49.818000Z</time>
      </trkpt>
      <trkpt lat="35.96756888" lon="120.2006304">
        <time>2019-08-14T22:18:52.823000Z</time>
      </trkpt>
      <trkpt lat="35.96756063" lon="120.20077051">
        <time>2019-08-14T22:18:56.806000Z</time>
      </trkpt>
      <trkpt lat="35.96756138" lon="120.20090623">
        <time>2019-08-14T22:19:00.825000Z</time>
      </trkpt>
      <trkpt lat="35.9675515" lon="120.20103885">
        <time>2019-08-14T22:19:04.815000Z</time>
      </trkpt>
      <trkpt lat="35.96752321" lon="120.20115851">
        <time>2019-08-14T22:19:08.811000Z</time>
      </trkpt>
      <trkpt lat="35.96750477" lon="120.20129116">
        <time>2019-08-14T22:19:13.812000Z</time>
      </trkpt>
      <trkpt lat="35.96748615" lon="120.20143071">
        <time>2019-08-14T22:19:17.820000Z</time>
      </trkpt>
      <trkpt lat="35.96747053" lon="120.20156483">
        <time>2019-08-14T22:19:21.814000Z</time>
      </trkpt>
      <trkpt lat="35.96746537" lon="120.20169122">
        <time>2019-08-14T22:19:25.800000Z</time>
      </trkpt>
      <trkpt lat="35.96744373" lon="120.20180436">
        <time>2019-08-14T22:19:29.806000Z</time>
      </trkpt>
      <trkpt lat="35.96741607" lon="120.20194319">
        <time>2019-08-14T22:19:33.816000Z</time>
      </trkpt>
      <trkpt lat="35.96740643" lon="120.20205729">
        <time>2019-08-14T22:19:37.801000Z</time>
      </trkpt>
      <trkpt lat="35.96739136" lon="120.20216732">
        <time>2019-08-14T22:19:41.814000Z</time>
      </trkpt>
      <trkpt lat="35.96739136" lon="120.20216732">
        <time>2019-08-14T22:19:47.736000Z</time>
      </trkpt>
      <trkpt lat="35.96737335" lon="120.20229461">
        <time>2019-08-14T22:19:48.809000Z</time>
      </trkpt>
      <trkpt lat="35.96736457" lon="120.20241034">
        <time>2019-08-14T22:19:55.789000Z</time>
      </trkpt>
      <trkpt lat="35.96736457" lon="120.20241034">
        <time>2019-08-14T22:19:59.595000Z</time>
      </trkpt>
      <trkpt lat="35.96736012" lon="120.20252451">
        <time>2019-08-14T22:20:00.807000Z</time>
      </trkpt>
      <trkpt lat="35.96734605" lon="120.20265747">
        <time>2019-08-14T22:20:04.815000Z</time>
      </trkpt>
      <trkpt lat="35.96733577" lon="120.20276925">
        <time>2019-08-14T22:20:07.801000Z</time>
      </trkpt>
      <trkpt lat="35.96731925" lon="120.20290807">
        <time>2019-08-14T22:20:11.799000Z</time>
      </trkpt>
      <trkpt lat="35.967312" lon="120.20303129">
        <time>2019-08-14T22:20:15.815000Z</time>
      </trkpt>
      <trkpt lat="35.96732078" lon="120.20315524">
        <time>2019-08-14T22:20:19.808000Z</time>
      </trkpt>
      <trkpt lat="35.96731303" lon="120.20328016">
        <time>2019-08-14T22:20:23.816000Z</time>
      </trkpt>
      <trkpt lat="35.96730427" lon="120.20339179">
        <time>2019-08-14T22:20:27.816000Z</time>
      </trkpt>
      <trkpt lat="35.96729222" lon="120.20351279">
        <time>2019-08-14T22:20:33.813000Z</time>
      </trkpt>
      <trkpt lat="35.96729222" lon="120.20351279">
        <time>2019-08-14T22:20:34.630000Z</time>
      </trkpt>
      <trkpt lat="35.96726843" lon="120.20363589">
        <time>2019-08-14T22:20:39.817000Z</time>
      </trkpt>
      <trkpt lat="35.96728542" lon="120.20375595">
        <time>2019-08-14T22:20:47.798000Z</time>
      </trkpt>
      <trkpt lat="35.96727906" lon="120.20387001">
        <time>2019-08-14T22:20:54.814000Z</time>
      </trkpt>
      <trkpt lat="35.96727906" lon="120.20387001">
        <time>2019-08-14T22:20:59.639000Z</time>
      </trkpt>
      <trkpt lat="35.96728589" lon="120.20398444">
        <time>2019-08-14T22:20:59.833000Z</time>
      </trkpt>
      <trkpt lat="35.96727658" lon="120.20411107">
        <time>2019-08-14T22:21:03.829000Z</time>
      </trkpt>
      <trkpt lat="35.967271" lon="120.20423876">
        <time>2019-08-14T22:21:07.810000Z</time>
      </trkpt>
      <trkpt lat="35.96725621" lon="120.20437337">
        <time>2019-08-14T22:21:11.804000Z</time>
      </trkpt>
      <trkpt lat="35.9672757" lon="120.20451669">
        <time>2019-08-14T22:21:16.814000Z</time>
      </trkpt>
      <trkpt lat="35.96727671" lon="120.20463047">
        <time>2019-08-14T22:21:19.817000Z</time>
      </trkpt>
      <trkpt lat="35.96727865" lon="120.20477477">
        <time>2019-08-14T22:21:23.816000Z</time>
      </trkpt>
      <trkpt lat="35.96726737" lon="120.2049146">
        <time>2019-08-14T22:21:27.812000Z</time>
      </trkpt>
      <trkpt lat="35.96726395" lon="120.20504714">
        <time>2019-08-14T22:21:31.804000Z</time>
      </trkpt>
      <trkpt lat="35.96719964" lon="120.20513765">
        <time>2019-08-14T22:21:35.802000Z</time>
      </trkpt>
      <trkpt lat="35.96708249" lon="120.20515934">
        <time>2019-08-14T22:21:39.817000Z</time>
      </trkpt>
      <trkpt lat="35.96697277" lon="120.20517797">
        <time>2019-08-14T22:21:43.813000Z</time>
      </trkpt>
      <trkpt lat="35.96686126" lon="120.20520524">
        <time>2019-08-14T22:21:47.813000Z</time>
      </trkpt>
      <trkpt lat="35.9667484" lon="120.20521457">
        <time>2019-08-14T22:21:51.830000Z</time>
      </trkpt>
      <trkpt lat="35.96664498" lon="120.20522609">
        <time>2019-08-14T22:21:55.841000Z</time>
      </trkpt>
      <trkpt lat="35.96653702" lon="120.20523433">
        <time>2019-08-14T22:21:59.818000Z</time>
      </trkpt>
      <trkpt lat="35.96644307" lon="120.20524983">
        <time>2019-08-14T22:22:03.821000Z</time>
      </trkpt>
      <trkpt lat="35.96635616" lon="120.20528351">
        <time>2019-08-14T22:22:07.789000Z</time>
      </trkpt>
      <trkpt lat="35.96635616" lon="120.20528351">
        <time>2019-08-14T22:22:12.675000Z</time>
      </trkpt>
      <trkpt lat="35.96626471" lon="120.20532622">
        <time>2019-08-14T22:22:13.790000Z</time>
      </trkpt>
      <trkpt lat="35.96616657" lon="120.20534103">
        <time>2019-08-14T22:22:23.826000Z</time>
      </trkpt>
      <trkpt lat="35.96606669" lon="120.20536029">
        <time>2019-08-14T22:22:32.813000Z</time>
      </trkpt>
      <trkpt lat="35.96596665" lon="120.20537495">
        <time>2019-08-14T22:22:40.795000Z</time>
      </trkpt>
      <trkpt lat="35.96587186" lon="120.20540215">
        <time>2019-08-14T22:22:49.816000Z</time>
      </trkpt>
      <trkpt lat="35.96578015" lon="120.20542086">
        <time>2019-08-14T22:22:58.818000Z</time>
      </trkpt>
      <trkpt lat="35.9656895" lon="120.20544034">
        <time>2019-08-14T22:23:08.832000Z</time>
      </trkpt>
      <trkpt lat="35.96559864" lon="120.20544708">
        <time>2019-08-14T22:23:16.801000Z</time>
      </trkpt>
      <trkpt lat="35.96550126" lon="120.20547054">
        <time>2019-08-14T22:23:25.793000Z</time>
      </trkpt>
      <trkpt lat="35.96540856" lon="120.20549248">
        <time>2019-08-14T22:23:34.799000Z</time>
      </trkpt>
      <trkpt lat="35.96531842" lon="120.20550861">
        <time>2019-08-14T22:23:39.788000Z</time>
      </trkpt>
      <trkpt lat="35.96531842" lon="120.20550861">
        <time>2019-08-14T22:23:40.716000Z</time>
      </trkpt>
      <trkpt lat="35.96521996" lon="120.20552265">
        <time>2019-08-14T22:23:43.820000Z</time>
      </trkpt>
      <trkpt lat="35.96510845" lon="120.20556703">
        <time>2019-08-14T22:23:47.816000Z</time>
      </trkpt>
      <trkpt lat="35.96501574" lon="120.20558968">
        <time>2019-08-14T22:23:50.834000Z</time>
      </trkpt>
      <trkpt lat="35.96490229" lon="120.205629">
        <time>2019-08-14T22:23:54.811000Z</time>
      </trkpt>
      <trkpt lat="35.96480111" lon="120.2056407">
        <time>2019-08-14T22:23:58.808000Z</time>
      </trkpt>
      <trkpt lat="35.96469503" lon="120.20564246">
        <time>2019-08-14T22:24:02.818000Z</time>
      </trkpt>
      <trkpt lat="35.96458812" lon="120.20564302">
        <time>2019-08-14T22:24:06.813000Z</time>
      </trkpt>
      <trkpt lat="35.96447016" lon="120.20567018">
        <time>2019-08-14T22:24:10.830000Z</time>
      </trkpt>
      <trkpt lat="35.96437957" lon="120.20569662">
        <time>2019-08-14T22:24:13.805000Z</time>
      </trkpt>
      <trkpt lat="35.96428744" lon="120.20571218">
        <time>2019-08-14T22:24:16.833000Z</time>
      </trkpt>
      <trkpt lat="35.96418057" lon="120.20573792">
        <time>2019-08-14T22:24:20.811000Z</time>
      </trkpt>
      <trkpt lat="35.96407145" lon="120.20575276">
        <time>2019-08-14T22:24:24.814000Z</time>
      </trkpt>
      <trkpt lat="35.96396234" lon="120.2057645">
        <time>2019-08-14T22:24:28.809000Z</time>
      </trkpt>
      <trkpt lat="35.96385964" lon="120.20579528">
        <time>2019-08-14T22:24:32.824000Z</time>
      </trkpt>
      <trkpt lat="35.96375489" lon="120.20581698">
        <time>2019-08-14T22:24:36.816000Z</time>
      </trkpt>
      <trkpt lat="35.96365797" lon="120.20583425">
        <time>2019-08-14T22:24:42.822000Z</time>
      </trkpt>
      <trkpt lat="35.96365797" lon="120.20583425">
        <time>2019-08-14T22:24:45.738000Z</time>
      </trkpt>
      <trkpt lat="35.9635555" lon="120.20581571">
        <time>2019-08-14T22:24:51.802000Z</time>
      </trkpt>
      <trkpt lat="35.9635555" lon="120.20581571">
        <time>2019-08-14T22:24:55.746000Z</time>
      </trkpt>
      <trkpt lat="35.9634559" lon="120.20583173">
        <time>2019-08-14T22:24:56.800000Z</time>
      </trkpt>
      <trkpt lat="35.96335297" lon="120.20580969">
        <time>2019-08-14T22:25:01.829000Z</time>
      </trkpt>
      <trkpt lat="35.96325039" lon="120.20584041">
        <time>2019-08-14T22:25:05.819000Z</time>
      </trkpt>
      <trkpt lat="35.96317044" lon="120.20590442">
        <time>2019-08-14T22:25:08.812000Z</time>
      </trkpt>
      <trkpt lat="35.96308279" lon="120.2059517">
        <time>2019-08-14T22:25:12.816000Z</time>
      </trkpt>
      <trkpt lat="35.96298487" lon="120.20595621">
        <time>2019-08-14T22:25:16.794000Z</time>
      </trkpt>
      <trkpt lat="35.96288744" lon="120.20599714">
        <time>2019-08-14T22:25:20.816000Z</time>
      </trkpt>
      <trkpt lat="35.9627762" lon="120.20602583">
        <time>2019-08-14T22:25:25.815000Z</time>
      </trkpt>
      <trkpt lat="35.96265697" lon="120.20603768">
        <time>2019-08-14T22:25:29.820000Z</time>
      </trkpt>
      <trkpt lat="35.96256581" lon="120.20603965">
        <time>2019-08-14T22:25:32.825000Z</time>
      </trkpt>
      <trkpt lat="35.9624542" lon="120.20604872">
        <time>2019-08-14T22:25:36.809000Z</time>
      </trkpt>
      <trkpt lat="35.96235359" lon="120.20608046">
        <time>2019-08-14T22:25:41.812000Z</time>
      </trkpt>
      <trkpt lat="35.9622918" lon="120.20617707">
        <time>2019-08-14T22:25:47.794000Z</time>
      </trkpt>
      <trkpt lat="35.9622918" lon="120.20617707">
        <time>2019-08-14T22:25:52.779000Z</time>
      </trkpt>
      <trkpt lat="35.9622918" lon="120.20617707">
        <time>2019-08-14T22:31:15.058000Z</time>
      </trkpt>
      <trkpt lat="35.95789276" lon="120.209731">
        <time>2019-08-14T22:31:22.815000Z</time>
      </trkpt>
      <trkpt lat="35.95779146" lon="120.20971547">
        <time>2019-08-14T22:31:27.797000Z</time>
      </trkpt>
      <trkpt lat="35.95769918" lon="120.20974113">
        <time>2019-08-14T22:31:30.814000Z</time>
      </trkpt>
      <trkpt lat="35.95760855" lon="120.20977152">
        <time>2019-08-14T22:31:33.821000Z</time>
      </trkpt>
      <trkpt lat="35.95751919" lon="120.20979576">
        <time>2019-08-14T22:31:36.806000Z</time>
      </trkpt>
      <trkpt lat="35.95740868" lon="120.20984743">
        <time>2019-08-14T22:31:40.811000Z</time>
      </trkpt>
      <trkpt lat="35.95730105" lon="120.20986003">
        <time>2019-08-14T22:31:44.806000Z</time>
      </trkpt>
      <trkpt lat="35.95719648" lon="120.20986222">
        <time>2019-08-14T22:31:48.814000Z</time>
      </trkpt>
      <trkpt lat="35.95708012" lon="120.2098989">
        <time>2019-08-14T22:31:52.811000Z</time>
      </trkpt>
      <trkpt lat="35.95698711" lon="120.20992914">
        <time>2019-08-14T22:31:55.822000Z</time>
      </trkpt>
      <trkpt lat="35.95689214" lon="120.20994087">
        <time>2019-08-14T22:31:59.811000Z</time>
      </trkpt>
      <trkpt lat="35.95679948" lon="120.20988676">
        <time>2019-08-14T22:32:03.806000Z</time>
      </trkpt>
      <trkpt lat="35.95676763" lon="120.20975005">
        <time>2019-08-14T22:32:07.826000Z</time>
      </trkpt>
      <trkpt lat="35.95675354" lon="120.20962062">
        <time>2019-08-14T22:32:11.818000Z</time>
      </trkpt>
      <trkpt lat="35.95673462" lon="120.20949001">
        <time>2019-08-14T22:32:15.807000Z</time>
      </trkpt>
      <trkpt lat="35.95673595" lon="120.20937646">
        <time>2019-08-14T22:32:18.822000Z</time>
      </trkpt>
      <trkpt lat="35.95671837" lon="120.20924206">
        <time>2019-08-14T22:32:22.801000Z</time>
      </trkpt>
      <trkpt lat="35.95671264" lon="120.20910236">
        <time>2019-08-14T22:32:26.810000Z</time>
      </trkpt>
      <trkpt lat="35.95670015" lon="120.20897604">
        <time>2019-08-14T22:32:30.810000Z</time>
      </trkpt>
      <trkpt lat="35.95667299" lon="120.20887892">
        <time>2019-08-14T22:32:34.068000Z</time>
      </trkpt>
    </trkseg>
  </trk>
</gpx>