<?xml version="1.0" encoding="UTF-8"?>
<gpx xmlns="http://www.topografix.com/GPX/1/1" xmlns:gpxtpx="http://www.garmin.com/xmlschemas/TrackPointExtension/v1" xmlns:xsi="http://www.w3.org/2001/XMLSchema-instance" xsi:schemaLocation="http://www.topografix.com/GPX/1/1 http://www.topografix.com/GPX/1/1/gpx.xsd" version="1.1" creator="gpx.py -- https://github.com/tkrajina/gpxpy">
  <trk>
    <name>星期五 夜跑</name>
    <trkseg>
      <trkpt lat="35.93075682" lon="120.20487867">
        <time>2019-08-09T15:49:52.445000Z</time>
      </trkpt>
      <trkpt lat="35.93076527" lon="120.20489109">
        <time>2019-08-09T15:49:52.937000Z</time>
      </trkpt>
      <trkpt lat="35.93084395" lon="120.2049673">
        <time>2019-08-09T15:49:58.947000Z</time>
      </trkpt>
      <trkpt lat="35.93092476" lon="120.20506861">
        <time>2019-08-09T15:50:02.949000Z</time>
      </trkpt>
      <trkpt lat="35.93092476" lon="120.20506861">
        <time>2019-08-09T15:50:04.955000Z</time>
      </trkpt>
      <trkpt lat="35.93099524" lon="120.20513852">
        <time>2019-08-09T15:50:05.967000Z</time>
      </trkpt>
      <trkpt lat="35.9310654" lon="120.20521227">
        <time>2019-08-09T15:50:08.946000Z</time>
      </trkpt>
      <trkpt lat="35.93115005" lon="120.20530688">
        <time>2019-08-09T15:50:12.957000Z</time>
      </trkpt>
      <trkpt lat="35.93120795" lon="120.20540452">
        <time>2019-08-09T15:50:19.932000Z</time>
      </trkpt>
      <trkpt lat="35.93120795" lon="120.20540452">
        <time>2019-08-09T15:50:26.992000Z</time>
      </trkpt>
      <trkpt lat="35.93126447" lon="120.20550231">
        <time>2019-08-09T15:50:28.949000Z</time>
      </trkpt>
      <trkpt lat="35.93134007" lon="120.20556794">
        <time>2019-08-09T15:50:36.946000Z</time>
      </trkpt>
      <trkpt lat="35.9314104" lon="120.2056656">
        <time>2019-08-09T15:50:44.955000Z</time>
      </trkpt>
      <trkpt lat="35.9314104" lon="120.2056656">
        <time>2019-08-09T15:50:48.995000Z</time>
      </trkpt>
      <trkpt lat="35.93147775" lon="120.20576699">
        <time>2019-08-09T15:50:49.956000Z</time>
      </trkpt>
      <trkpt lat="35.93153779" lon="120.20585206">
        <time>2019-08-09T15:50:53.943000Z</time>
      </trkpt>
      <trkpt lat="35.93160804" lon="120.20592859">
        <time>2019-08-09T15:50:57.949000Z</time>
      </trkpt>
      <trkpt lat="35.93167029" lon="120.20603194">
        <time>2019-08-09T15:51:01.981000Z</time>
      </trkpt>
      <trkpt lat="35.93174018" lon="120.20612811">
        <time>2019-08-09T15:51:05.968000Z</time>
      </trkpt>
      <trkpt lat="35.93180843" lon="120.2062178">
        <time>2019-08-09T15:51:09.953000Z</time>
      </trkpt>
      <trkpt lat="35.93187274" lon="120.20631562">
        <time>2019-08-09T15:51:13.956000Z</time>
      </trkpt>
      <trkpt lat="35.93187274" lon="120.20631562">
        <time>2019-08-09T15:51:19.502000Z</time>
      </trkpt>
      <trkpt lat="35.93195379" lon="120.20640255">
        <time>2019-08-09T15:51:19.954000Z</time>
      </trkpt>
      <trkpt lat="35.93201122" lon="120.20649704">
        <time>2019-08-09T15:51:25.959000Z</time>
      </trkpt>
      <trkpt lat="35.93206753" lon="120.20658884">
        <time>2019-08-09T15:51:32.952000Z</time>
      </trkpt>
      <trkpt lat="35.9321443" lon="120.2066554">
        <time>2019-08-09T15:51:39.972000Z</time>
      </trkpt>
      <trkpt lat="35.93221891" lon="120.20672412">
        <time>2019-08-09T15:51:47.952000Z</time>
      </trkpt>
      <trkpt lat="35.93229659" lon="120.20679024">
        <time>2019-08-09T15:51:54.964000Z</time>
      </trkpt>
      <trkpt lat="35.93235526" lon="120.20689317">
        <time>2019-08-09T15:52:01.955000Z</time>
      </trkpt>
      <trkpt lat="35.9324249" lon="120.20697806">
        <time>2019-08-09T15:52:07.951000Z</time>
      </trkpt>
      <trkpt lat="35.93250017" lon="120.20705088">
        <time>2019-08-09T15:52:14.935000Z</time>
      </trkpt>
      <trkpt lat="35.93256159" lon="120.20714983">
        <time>2019-08-09T15:52:22.950000Z</time>
      </trkpt>
      <trkpt lat="35.93262601" lon="120.20724584">
        <time>2019-08-09T15:52:28.951000Z</time>
      </trkpt>
      <trkpt lat="35.93269852" lon="120.20732046">
        <time>2019-08-09T15:52:34.971000Z</time>
      </trkpt>
      <trkpt lat="35.93276614" lon="120.20739591">
        <time>2019-08-09T15:52:40.957000Z</time>
      </trkpt>
      <trkpt lat="35.93285099" lon="120.20746692">
        <time>2019-08-09T15:52:47.955000Z</time>
      </trkpt>
      <trkpt lat="35.93291952" lon="120.20754789">
        <time>2019-08-09T15:52:55.926000Z</time>
      </trkpt>
      <trkpt lat="35.93291952" lon="120.20754789">
        <time>2019-08-09T15:53:06.931000Z</time>
      </trkpt>
      <trkpt lat="35.93291952" lon="120.20754789">
        <time>2019-08-09T15:54:48.934000Z</time>
      </trkpt>
      <trkpt lat="35.93313054" lon="120.20777338">
        <time>2019-08-09T15:54:48.938000Z</time>
      </trkpt>
      <trkpt lat="35.93319233" lon="120.20786244">
        <time>2019-08-09T15:54:57.937000Z</time>
      </trkpt>
      <trkpt lat="35.93325705" lon="120.20794841">
        <time>2019-08-09T15:55:05.930000Z</time>
      </trkpt>
      <trkpt lat="35.93333971" lon="120.2080133">
        <time>2019-08-09T15:55:12.935000Z</time>
      </trkpt>
      <trkpt lat="35.93340667" lon="120.20809475">
        <time>2019-08-09T15:55:19.940000Z</time>
      </trkpt>
      <trkpt lat="35.93348766" lon="120.20816551">
        <time>2019-08-09T15:55:27.937000Z</time>
      </trkpt>
      <trkpt lat="35.93357476" lon="120.20823341">
        <time>2019-08-09T15:55:35.931000Z</time>
      </trkpt>
      <trkpt lat="35.93364173" lon="120.2083185">
        <time>2019-08-09T15:55:42.937000Z</time>
      </trkpt>
      <trkpt lat="35.93371005" lon="120.20841277">
        <time>2019-08-09T15:55:50.941000Z</time>
      </trkpt>
      <trkpt lat="35.93378322" lon="120.20849747">
        <time>2019-08-09T15:55:58.939000Z</time>
      </trkpt>
      <trkpt lat="35.93383635" lon="120.20860706">
        <time>2019-08-09T15:56:06.939000Z</time>
      </trkpt>
      <trkpt lat="35.93391035" lon="120.20868835">
        <time>2019-08-09T15:56:13.947000Z</time>
      </trkpt>
      <trkpt lat="35.93398379" lon="120.20877508">
        <time>2019-08-09T15:56:21.932000Z</time>
      </trkpt>
      <trkpt lat="35.9340537" lon="120.20885487">
        <time>2019-08-09T15:56:29.935000Z</time>
      </trkpt>
      <trkpt lat="35.93412626" lon="120.20892997">
        <time>2019-08-09T15:56:36.938000Z</time>
      </trkpt>
      <trkpt lat="35.93419754" lon="120.20901789">
        <time>2019-08-09T15:56:44.924000Z</time>
      </trkpt>
      <trkpt lat="35.93419754" lon="120.20901789">
        <time>2019-08-09T15:57:10.954000Z</time>
      </trkpt>
      <trkpt lat="35.9343945" lon="120.20924788">
        <time>2019-08-09T15:57:10.960000Z</time>
      </trkpt>
      <trkpt lat="35.93446772" lon="120.2093243">
        <time>2019-08-09T15:57:18.932000Z</time>
      </trkpt>
      <trkpt lat="35.93446772" lon="120.2093243">
        <time>2019-08-09T15:57:21.731000Z</time>
      </trkpt>
      <trkpt lat="35.93454591" lon="120.209397">
        <time>2019-08-09T15:57:22.932000Z</time>
      </trkpt>
      <trkpt lat="35.93463486" lon="120.20948509">
        <time>2019-08-09T15:57:26.950000Z</time>
      </trkpt>
      <trkpt lat="35.93472475" lon="120.20957222">
        <time>2019-08-09T15:57:30.937000Z</time>
      </trkpt>
      <trkpt lat="35.93480728" lon="120.20965539">
        <time>2019-08-09T15:57:34.952000Z</time>
      </trkpt>
      <trkpt lat="35.93488833" lon="120.20973704">
        <time>2019-08-09T15:57:38.953000Z</time>
      </trkpt>
      <trkpt lat="35.93497397" lon="120.20979049">
        <time>2019-08-09T15:57:47.944000Z</time>
      </trkpt>
      <trkpt lat="35.93505084" lon="120.20985118">
        <time>2019-08-09T15:57:52.939000Z</time>
      </trkpt>
      <trkpt lat="35.93512771" lon="120.20993589">
        <time>2019-08-09T15:57:57.927000Z</time>
      </trkpt>
      <trkpt lat="35.9352214" lon="120.21001079">
        <time>2019-08-09T15:58:02.936000Z</time>
      </trkpt>
      <trkpt lat="35.93530417" lon="120.21006911">
        <time>2019-08-09T15:58:06.953000Z</time>
      </trkpt>
      <trkpt lat="35.93539273" lon="120.21013069">
        <time>2019-08-09T15:58:10.960000Z</time>
      </trkpt>
      <trkpt lat="35.93546909" lon="120.21020118">
        <time>2019-08-09T15:58:14.948000Z</time>
      </trkpt>
      <trkpt lat="35.93555878" lon="120.21025519">
        <time>2019-08-09T15:58:20.935000Z</time>
      </trkpt>
      <trkpt lat="35.93555878" lon="120.21025519">
        <time>2019-08-09T15:58:23.948000Z</time>
      </trkpt>
      <trkpt lat="35.93563144" lon="120.21033967">
        <time>2019-08-09T15:58:30.934000Z</time>
      </trkpt>
      <trkpt lat="35.93571596" lon="120.21040342">
        <time>2019-08-09T15:58:38.934000Z</time>
      </trkpt>
      <trkpt lat="35.93580094" lon="120.21046173">
        <time>2019-08-09T15:58:45.935000Z</time>
      </trkpt>
      <trkpt lat="35.93588475" lon="120.21051305">
        <time>2019-08-09T15:58:52.937000Z</time>
      </trkpt>
      <trkpt lat="35.93597379" lon="120.21054824">
        <time>2019-08-09T15:58:59.953000Z</time>
      </trkpt>
      <trkpt lat="35.93604564" lon="120.2106235">
        <time>2019-08-09T15:59:06.936000Z</time>
      </trkpt>
      <trkpt lat="35.93611991" lon="120.21069468">
        <time>2019-08-09T15:59:13.945000Z</time>
      </trkpt>
      <trkpt lat="35.93619763" lon="120.21075418">
        <time>2019-08-09T15:59:19.938000Z</time>
      </trkpt>
      <trkpt lat="35.93627823" lon="120.21080546">
        <time>2019-08-09T15:59:25.939000Z</time>
      </trkpt>
      <trkpt lat="35.93637044" lon="120.21086508">
        <time>2019-08-09T15:59:29.964000Z</time>
      </trkpt>
      <trkpt lat="35.93645871" lon="120.21092743">
        <time>2019-08-09T15:59:33.936000Z</time>
      </trkpt>
      <trkpt lat="35.93654321" lon="120.21099112">
        <time>2019-08-09T15:59:37.934000Z</time>
      </trkpt>
      <trkpt lat="35.93663857" lon="120.21103011">
        <time>2019-08-09T15:59:43.940000Z</time>
      </trkpt>
      <trkpt lat="35.93671469" lon="120.21110454">
        <time>2019-08-09T15:59:51.936000Z</time>
      </trkpt>
      <trkpt lat="35.93679901" lon="120.21115541">
        <time>2019-08-09T15:59:58.948000Z</time>
      </trkpt>
      <trkpt lat="35.93689009" lon="120.21121261">
        <time>2019-08-09T16:00:06.940000Z</time>
      </trkpt>
      <trkpt lat="35.93697129" lon="120.21126304">
        <time>2019-08-09T16:00:13.946000Z</time>
      </trkpt>
      <trkpt lat="35.93706504" lon="120.21131252">
        <time>2019-08-09T16:00:20.932000Z</time>
      </trkpt>
      <trkpt lat="35.93714511" lon="120.21138512">
        <time>2019-08-09T16:00:27.933000Z</time>
      </trkpt>
      <trkpt lat="35.93723034" lon="120.21143964">
        <time>2019-08-09T16:00:34.944000Z</time>
      </trkpt>
      <trkpt lat="35.93731898" lon="120.21146142">
        <time>2019-08-09T16:00:40.993000Z</time>
      </trkpt>
      <trkpt lat="35.93740195" lon="120.21151665">
        <time>2019-08-09T16:00:47.929000Z</time>
      </trkpt>
      <trkpt lat="35.93749503" lon="120.21157143">
        <time>2019-08-09T16:00:55.954000Z</time>
      </trkpt>
      <trkpt lat="35.93758105" lon="120.21161452">
        <time>2019-08-09T16:01:02.956000Z</time>
      </trkpt>
      <trkpt lat="35.93766617" lon="120.21167531">
        <time>2019-08-09T16:01:09.960000Z</time>
      </trkpt>
      <trkpt lat="35.93776377" lon="120.21171767">
        <time>2019-08-09T16:01:18.928000Z</time>
      </trkpt>
      <trkpt lat="35.93785488" lon="120.2117735">
        <time>2019-08-09T16:01:26.949000Z</time>
      </trkpt>
      <trkpt lat="35.93794649" lon="120.21181005">
        <time>2019-08-09T16:01:33.953000Z</time>
      </trkpt>
      <trkpt lat="35.93803319" lon="120.21186318">
        <time>2019-08-09T16:01:40.964000Z</time>
      </trkpt>
      <trkpt lat="35.93813061" lon="120.21189951">
        <time>2019-08-09T16:01:47.956000Z</time>
      </trkpt>
      <trkpt lat="35.93822197" lon="120.2119364">
        <time>2019-08-09T16:01:54.953000Z</time>
      </trkpt>
      <trkpt lat="35.93831169" lon="120.21197236">
        <time>2019-08-09T16:02:01.956000Z</time>
      </trkpt>
      <trkpt lat="35.93840009" lon="120.21201567">
        <time>2019-08-09T16:02:08.952000Z</time>
      </trkpt>
      <trkpt lat="35.93848964" lon="120.2120582">
        <time>2019-08-09T16:02:14.935000Z</time>
      </trkpt>
      <trkpt lat="35.93857401" lon="120.2120985">
        <time>2019-08-09T16:02:20.952000Z</time>
      </trkpt>
      <trkpt lat="35.9386648" lon="120.21213543">
        <time>2019-08-09T16:02:27.963000Z</time>
      </trkpt>
      <trkpt lat="35.93875206" lon="120.21218428">
        <time>2019-08-09T16:02:34.951000Z</time>
      </trkpt>
      <trkpt lat="35.93883815" lon="120.21221948">
        <time>2019-08-09T16:02:40.954000Z</time>
      </trkpt>
      <trkpt lat="35.9389374" lon="120.21223934">
        <time>2019-08-09T16:02:46.951000Z</time>
      </trkpt>
      <trkpt lat="35.9389374" lon="120.21223934">
        <time>2019-08-09T16:03:16.948000Z</time>
      </trkpt>
      <trkpt lat="35.93903059" lon="120.21228875">
        <time>2019-08-09T16:03:16.954000Z</time>
      </trkpt>
      <trkpt lat="35.93911225" lon="120.21236098">
        <time>2019-08-09T16:03:24.940000Z</time>
      </trkpt>
      <trkpt lat="35.9392015" lon="120.21241711">
        <time>2019-08-09T16:03:33.934000Z</time>
      </trkpt>
    </trkseg>
  </trk>
</gpx>