<?xml version="1.0" encoding="UTF-8"?>
<gpx xmlns="http://www.topografix.com/GPX/1/1" xmlns:gpxtpx="http://www.garmin.com/xmlschemas/TrackPointExtension/v1" xmlns:xsi="http://www.w3.org/2001/XMLSchema-instance" xsi:schemaLocation="http://www.topografix.com/GPX/1/1 http://www.topografix.com/GPX/1/1/gpx.xsd" version="1.1" creator="gpx.py -- https://github.com/tkrajina/gpxpy">
  <trk>
    <name>星期日 夜跑</name>
    <trkseg>
      <trkpt lat="35.95565697" lon="120.20746684">
        <time>2019-08-25T13:12:52.083000Z</time>
      </trkpt>
      <trkpt lat="35.95565697" lon="120.20746684">
        <time>2019-08-25T13:13:40.094000Z</time>
      </trkpt>
      <trkpt lat="35.95565697" lon="120.20746684">
        <time>2019-08-25T13:13:40.104000Z</time>
      </trkpt>
      <trkpt lat="35.95571398" lon="120.20732343">
        <time>2019-08-25T13:13:43.063000Z</time>
      </trkpt>
      <trkpt lat="35.95571417" lon="120.20719892">
        <time>2019-08-25T13:13:48.080000Z</time>
      </trkpt>
      <trkpt lat="35.95571934" lon="120.20707931">
        <time>2019-08-25T13:13:52.081000Z</time>
      </trkpt>
      <trkpt lat="35.95571934" lon="120.20707931">
        <time>2019-08-25T13:13:53.306000Z</time>
      </trkpt>
      <trkpt lat="35.95572876" lon="120.20694692">
        <time>2019-08-25T13:13:56.090000Z</time>
      </trkpt>
      <trkpt lat="35.95572418" lon="120.20680504">
        <time>2019-08-25T13:14:00.060000Z</time>
      </trkpt>
      <trkpt lat="35.95572418" lon="120.20680504">
        <time>2019-08-25T13:14:04.084000Z</time>
      </trkpt>
      <trkpt lat="35.95571953" lon="120.2066848">
        <time>2019-08-25T13:14:07.088000Z</time>
      </trkpt>
      <trkpt lat="35.95570683" lon="120.20654703">
        <time>2019-08-25T13:14:14.074000Z</time>
      </trkpt>
      <trkpt lat="35.95570683" lon="120.20654703">
        <time>2019-08-25T13:14:14.314000Z</time>
      </trkpt>
      <trkpt lat="35.95569581" lon="120.20641599">
        <time>2019-08-25T13:14:18.080000Z</time>
      </trkpt>
      <trkpt lat="35.95567466" lon="120.20627896">
        <time>2019-08-25T13:14:22.089000Z</time>
      </trkpt>
      <trkpt lat="35.95564254" lon="120.20614821">
        <time>2019-08-25T13:14:26.102000Z</time>
      </trkpt>
      <trkpt lat="35.95562978" lon="120.20602856">
        <time>2019-08-25T13:14:30.090000Z</time>
      </trkpt>
      <trkpt lat="35.95562978" lon="120.20602856">
        <time>2019-08-25T13:14:31.321000Z</time>
      </trkpt>
      <trkpt lat="35.95558954" lon="120.20591698">
        <time>2019-08-25T13:14:37.079000Z</time>
      </trkpt>
      <trkpt lat="35.95555825" lon="120.20578871">
        <time>2019-08-25T13:14:41.085000Z</time>
      </trkpt>
      <trkpt lat="35.95555825" lon="120.20578871">
        <time>2019-08-25T13:14:41.319000Z</time>
      </trkpt>
      <trkpt lat="35.95553095" lon="120.20565247">
        <time>2019-08-25T13:14:45.085000Z</time>
      </trkpt>
      <trkpt lat="35.95551775" lon="120.20550952">
        <time>2019-08-25T13:14:49.102000Z</time>
      </trkpt>
      <trkpt lat="35.95550024" lon="120.20539391">
        <time>2019-08-25T13:14:52.100000Z</time>
      </trkpt>
      <trkpt lat="35.95547778" lon="120.20527585">
        <time>2019-08-25T13:14:55.111000Z</time>
      </trkpt>
      <trkpt lat="35.95544854" lon="120.20513895">
        <time>2019-08-25T13:14:59.106000Z</time>
      </trkpt>
      <trkpt lat="35.95544507" lon="120.2049971">
        <time>2019-08-25T13:15:03.098000Z</time>
      </trkpt>
      <trkpt lat="35.95540701" lon="120.20486173">
        <time>2019-08-25T13:15:07.075000Z</time>
      </trkpt>
      <trkpt lat="35.95537566" lon="120.20475771">
        <time>2019-08-25T13:15:11.076000Z</time>
      </trkpt>
      <trkpt lat="35.95536496" lon="120.2046178">
        <time>2019-08-25T13:15:17.101000Z</time>
      </trkpt>
      <trkpt lat="35.95534567" lon="120.20450678">
        <time>2019-08-25T13:15:20.074000Z</time>
      </trkpt>
      <trkpt lat="35.95534567" lon="120.20450678">
        <time>2019-08-25T13:15:24.079000Z</time>
      </trkpt>
      <trkpt lat="35.9553348" lon="120.20438429">
        <time>2019-08-25T13:15:27.077000Z</time>
      </trkpt>
      <trkpt lat="35.9553174" lon="120.20426396">
        <time>2019-08-25T13:15:31.098000Z</time>
      </trkpt>
      <trkpt lat="35.9553174" lon="120.20426396">
        <time>2019-08-25T13:15:34.090000Z</time>
      </trkpt>
      <trkpt lat="35.95530263" lon="120.20413441">
        <time>2019-08-25T13:15:35.088000Z</time>
      </trkpt>
      <trkpt lat="35.95530089" lon="120.20400992">
        <time>2019-08-25T13:15:39.090000Z</time>
      </trkpt>
      <trkpt lat="35.95532719" lon="120.20390048">
        <time>2019-08-25T13:15:43.074000Z</time>
      </trkpt>
      <trkpt lat="35.95530326" lon="120.20377533">
        <time>2019-08-25T13:15:47.103000Z</time>
      </trkpt>
      <trkpt lat="35.95528359" lon="120.20366378">
        <time>2019-08-25T13:15:50.078000Z</time>
      </trkpt>
      <trkpt lat="35.95526327" lon="120.2035537">
        <time>2019-08-25T13:15:53.094000Z</time>
      </trkpt>
      <trkpt lat="35.95522036" lon="120.20342173">
        <time>2019-08-25T13:15:57.087000Z</time>
      </trkpt>
      <trkpt lat="35.95516692" lon="120.20329465">
        <time>2019-08-25T13:16:01.080000Z</time>
      </trkpt>
      <trkpt lat="35.95513307" lon="120.20318493">
        <time>2019-08-25T13:16:04.087000Z</time>
      </trkpt>
      <trkpt lat="35.95510642" lon="120.20306006">
        <time>2019-08-25T13:16:08.075000Z</time>
      </trkpt>
      <trkpt lat="35.95510642" lon="120.20306006">
        <time>2019-08-25T13:16:12.179000Z</time>
      </trkpt>
      <trkpt lat="35.95510208" lon="120.20293537">
        <time>2019-08-25T13:16:15.103000Z</time>
      </trkpt>
      <trkpt lat="35.95508617" lon="120.20279189">
        <time>2019-08-25T13:16:19.101000Z</time>
      </trkpt>
      <trkpt lat="35.95508617" lon="120.20279189">
        <time>2019-08-25T13:16:22.098000Z</time>
      </trkpt>
      <trkpt lat="35.95505768" lon="120.20265041">
        <time>2019-08-25T13:16:23.084000Z</time>
      </trkpt>
      <trkpt lat="35.955027" lon="120.20254366">
        <time>2019-08-25T13:16:26.093000Z</time>
      </trkpt>
      <trkpt lat="35.95500974" lon="120.20240109">
        <time>2019-08-25T13:16:30.116000Z</time>
      </trkpt>
      <trkpt lat="35.95496975" lon="120.20227791">
        <time>2019-08-25T13:16:34.112000Z</time>
      </trkpt>
      <trkpt lat="35.95494434" lon="120.20213544">
        <time>2019-08-25T13:16:38.084000Z</time>
      </trkpt>
      <trkpt lat="35.95492815" lon="120.20201983">
        <time>2019-08-25T13:16:41.091000Z</time>
      </trkpt>
      <trkpt lat="35.95490091" lon="120.20190913">
        <time>2019-08-25T13:16:44.104000Z</time>
      </trkpt>
      <trkpt lat="35.95486633" lon="120.20177126">
        <time>2019-08-25T13:16:48.099000Z</time>
      </trkpt>
      <trkpt lat="35.95484749" lon="120.20163188">
        <time>2019-08-25T13:16:52.102000Z</time>
      </trkpt>
      <trkpt lat="35.95481364" lon="120.20152604">
        <time>2019-08-25T13:16:55.099000Z</time>
      </trkpt>
      <trkpt lat="35.95478125" lon="120.20142113">
        <time>2019-08-25T13:16:58.125000Z</time>
      </trkpt>
      <trkpt lat="35.9547556" lon="120.20127892">
        <time>2019-08-25T13:17:02.092000Z</time>
      </trkpt>
      <trkpt lat="35.95474037" lon="120.20116726">
        <time>2019-08-25T13:17:05.117000Z</time>
      </trkpt>
      <trkpt lat="35.95472182" lon="120.2010573">
        <time>2019-08-25T13:17:08.092000Z</time>
      </trkpt>
      <trkpt lat="35.95471207" lon="120.20093039">
        <time>2019-08-25T13:17:14.072000Z</time>
      </trkpt>
      <trkpt lat="35.95471207" lon="120.20093039">
        <time>2019-08-25T13:17:14.242000Z</time>
      </trkpt>
      <trkpt lat="35.95470174" lon="120.20081145">
        <time>2019-08-25T13:17:20.101000Z</time>
      </trkpt>
      <trkpt lat="35.95467566" lon="120.20069772">
        <time>2019-08-25T13:17:27.071000Z</time>
      </trkpt>
      <trkpt lat="35.95464867" lon="120.20057877">
        <time>2019-08-25T13:17:35.073000Z</time>
      </trkpt>
      <trkpt lat="35.95464867" lon="120.20057877">
        <time>2019-08-25T13:17:38.274000Z</time>
      </trkpt>
      <trkpt lat="35.95461152" lon="120.20045516">
        <time>2019-08-25T13:17:40.073000Z</time>
      </trkpt>
      <trkpt lat="35.95459401" lon="120.20034527">
        <time>2019-08-25T13:17:43.086000Z</time>
      </trkpt>
      <trkpt lat="35.95457313" lon="120.20022978">
        <time>2019-08-25T13:17:46.094000Z</time>
      </trkpt>
      <trkpt lat="35.9545465" lon="120.20011373">
        <time>2019-08-25T13:17:49.101000Z</time>
      </trkpt>
      <trkpt lat="35.95452538" lon="120.19998067">
        <time>2019-08-25T13:17:52.098000Z</time>
      </trkpt>
      <trkpt lat="35.95451445" lon="120.19984606">
        <time>2019-08-25T13:17:55.098000Z</time>
      </trkpt>
      <trkpt lat="35.95449473" lon="120.19972431">
        <time>2019-08-25T13:17:58.100000Z</time>
      </trkpt>
      <trkpt lat="35.95446481" lon="120.1996051">
        <time>2019-08-25T13:18:01.097000Z</time>
      </trkpt>
      <trkpt lat="35.95444514" lon="120.19948721">
        <time>2019-08-25T13:18:04.097000Z</time>
      </trkpt>
      <trkpt lat="35.95441616" lon="120.19937902">
        <time>2019-08-25T13:18:07.109000Z</time>
      </trkpt>
      <trkpt lat="35.9543897" lon="120.19926381">
        <time>2019-08-25T13:18:10.113000Z</time>
      </trkpt>
      <trkpt lat="35.95437381" lon="120.19915355">
        <time>2019-08-25T13:18:13.098000Z</time>
      </trkpt>
      <trkpt lat="35.95436481" lon="120.19901274">
        <time>2019-08-25T13:18:17.099000Z</time>
      </trkpt>
      <trkpt lat="35.95435941" lon="120.19889784">
        <time>2019-08-25T13:18:20.100000Z</time>
      </trkpt>
      <trkpt lat="35.95433944" lon="120.19878813">
        <time>2019-08-25T13:18:23.096000Z</time>
      </trkpt>
      <trkpt lat="35.95429893" lon="120.19868349">
        <time>2019-08-25T13:18:26.092000Z</time>
      </trkpt>
      <trkpt lat="35.95427369" lon="120.19854925">
        <time>2019-08-25T13:18:30.121000Z</time>
      </trkpt>
      <trkpt lat="35.95425292" lon="120.1984123">
        <time>2019-08-25T13:18:34.106000Z</time>
      </trkpt>
      <trkpt lat="35.95421955" lon="120.19830366">
        <time>2019-08-25T13:18:37.101000Z</time>
      </trkpt>
      <trkpt lat="35.95418058" lon="120.19820341">
        <time>2019-08-25T13:18:40.102000Z</time>
      </trkpt>
      <trkpt lat="35.95413999" lon="120.19807144">
        <time>2019-08-25T13:18:44.095000Z</time>
      </trkpt>
      <trkpt lat="35.95413323" lon="120.19795189">
        <time>2019-08-25T13:18:48.106000Z</time>
      </trkpt>
      <trkpt lat="35.9541131" lon="120.19781325">
        <time>2019-08-25T13:18:52.095000Z</time>
      </trkpt>
      <trkpt lat="35.95409687" lon="120.19769951">
        <time>2019-08-25T13:18:55.102000Z</time>
      </trkpt>
      <trkpt lat="35.95406154" lon="120.19756111">
        <time>2019-08-25T13:18:59.098000Z</time>
      </trkpt>
      <trkpt lat="35.95403491" lon="120.19743848">
        <time>2019-08-25T13:19:02.090000Z</time>
      </trkpt>
      <trkpt lat="35.95400332" lon="120.19731861">
        <time>2019-08-25T13:19:05.090000Z</time>
      </trkpt>
      <trkpt lat="35.95395856" lon="120.19721476">
        <time>2019-08-25T13:19:08.104000Z</time>
      </trkpt>
      <trkpt lat="35.95392531" lon="120.1971049">
        <time>2019-08-25T13:19:11.111000Z</time>
      </trkpt>
      <trkpt lat="35.95391039" lon="120.19699041">
        <time>2019-08-25T13:19:14.099000Z</time>
      </trkpt>
      <trkpt lat="35.9539056" lon="120.19687146">
        <time>2019-08-25T13:19:17.102000Z</time>
      </trkpt>
      <trkpt lat="35.9538853" lon="120.19674989">
        <time>2019-08-25T13:19:20.115000Z</time>
      </trkpt>
      <trkpt lat="35.95386415" lon="120.1966276">
        <time>2019-08-25T13:19:23.094000Z</time>
      </trkpt>
      <trkpt lat="35.95386785" lon="120.1965121">
        <time>2019-08-25T13:19:26.078000Z</time>
      </trkpt>
      <trkpt lat="35.95386563" lon="120.19636659">
        <time>2019-08-25T13:19:30.078000Z</time>
      </trkpt>
      <trkpt lat="35.9538424" lon="120.19622392">
        <time>2019-08-25T13:19:34.083000Z</time>
      </trkpt>
      <trkpt lat="35.95380834" lon="120.19608767">
        <time>2019-08-25T13:19:38.090000Z</time>
      </trkpt>
      <trkpt lat="35.95377734" lon="120.19594718">
        <time>2019-08-25T13:19:42.089000Z</time>
      </trkpt>
      <trkpt lat="35.95375294" lon="120.19583916">
        <time>2019-08-25T13:19:45.157000Z</time>
      </trkpt>
      <trkpt lat="35.95373919" lon="120.19572771">
        <time>2019-08-25T13:19:48.084000Z</time>
      </trkpt>
      <trkpt lat="35.95372532" lon="120.19558719">
        <time>2019-08-25T13:19:52.088000Z</time>
      </trkpt>
      <trkpt lat="35.95369888" lon="120.19545469">
        <time>2019-08-25T13:19:56.159000Z</time>
      </trkpt>
      <trkpt lat="35.95368504" lon="120.19530992">
        <time>2019-08-25T13:20:00.103000Z</time>
      </trkpt>
      <trkpt lat="35.95365806" lon="120.19518856">
        <time>2019-08-25T13:20:04.098000Z</time>
      </trkpt>
      <trkpt lat="35.95365806" lon="120.19518856">
        <time>2019-08-25T13:20:06.429000Z</time>
      </trkpt>
      <trkpt lat="35.95362566" lon="120.19507397">
        <time>2019-08-25T13:20:10.095000Z</time>
      </trkpt>
      <trkpt lat="35.95360701" lon="120.1949514">
        <time>2019-08-25T13:20:19.073000Z</time>
      </trkpt>
      <trkpt lat="35.95359805" lon="120.19483368">
        <time>2019-08-25T13:20:29.092000Z</time>
      </trkpt>
      <trkpt lat="35.95357294" lon="120.19471417">
        <time>2019-08-25T13:20:32.088000Z</time>
      </trkpt>
      <trkpt lat="35.95357294" lon="120.19471417">
        <time>2019-08-25T13:20:32.457000Z</time>
      </trkpt>
      <trkpt lat="35.95354898" lon="120.19459997">
        <time>2019-08-25T13:20:35.088000Z</time>
      </trkpt>
      <trkpt lat="35.9535387" lon="120.19447604">
        <time>2019-08-25T13:20:38.109000Z</time>
      </trkpt>
      <trkpt lat="35.95353386" lon="120.19435558">
        <time>2019-08-25T13:20:41.101000Z</time>
      </trkpt>
      <trkpt lat="35.9535259" lon="120.19424196">
        <time>2019-08-25T13:20:44.090000Z</time>
      </trkpt>
      <trkpt lat="35.95349913" lon="120.19410958">
        <time>2019-08-25T13:20:48.105000Z</time>
      </trkpt>
      <trkpt lat="35.95347898" lon="120.1939828">
        <time>2019-08-25T13:20:52.102000Z</time>
      </trkpt>
      <trkpt lat="35.95345416" lon="120.19384784">
        <time>2019-08-25T13:20:56.080000Z</time>
      </trkpt>
      <trkpt lat="35.95342501" lon="120.1937118">
        <time>2019-08-25T13:21:00.085000Z</time>
      </trkpt>
      <trkpt lat="35.95340673" lon="120.19357346">
        <time>2019-08-25T13:21:04.078000Z</time>
      </trkpt>
      <trkpt lat="35.9533915" lon="120.19346219">
        <time>2019-08-25T13:21:07.089000Z</time>
      </trkpt>
      <trkpt lat="35.9533527" lon="120.19332703">
        <time>2019-08-25T13:21:11.083000Z</time>
      </trkpt>
      <trkpt lat="35.95332637" lon="120.19319573">
        <time>2019-08-25T13:21:15.086000Z</time>
      </trkpt>
      <trkpt lat="35.95331432" lon="120.19305666">
        <time>2019-08-25T13:21:19.098000Z</time>
      </trkpt>
      <trkpt lat="35.95329498" lon="120.19291607">
        <time>2019-08-25T13:21:23.091000Z</time>
      </trkpt>
      <trkpt lat="35.95327149" lon="120.19280495">
        <time>2019-08-25T13:21:26.102000Z</time>
      </trkpt>
      <trkpt lat="35.9532441" lon="120.19268802">
        <time>2019-08-25T13:21:29.092000Z</time>
      </trkpt>
      <trkpt lat="35.95321996" lon="120.19257487">
        <time>2019-08-25T13:21:32.104000Z</time>
      </trkpt>
      <trkpt lat="35.95318603" lon="120.19243319">
        <time>2019-08-25T13:21:36.075000Z</time>
      </trkpt>
      <trkpt lat="35.95315325" lon="120.19229487">
        <time>2019-08-25T13:21:40.109000Z</time>
      </trkpt>
      <trkpt lat="35.95313903" lon="120.19215614">
        <time>2019-08-25T13:21:44.092000Z</time>
      </trkpt>
      <trkpt lat="35.95311579" lon="120.19201009">
        <time>2019-08-25T13:21:48.086000Z</time>
      </trkpt>
      <trkpt lat="35.95310819" lon="120.19189713">
        <time>2019-08-25T13:21:51.107000Z</time>
      </trkpt>
      <trkpt lat="35.95309637" lon="120.19178183">
        <time>2019-08-25T13:21:54.093000Z</time>
      </trkpt>
      <trkpt lat="35.95309965" lon="120.19164572">
        <time>2019-08-25T13:21:58.100000Z</time>
      </trkpt>
      <trkpt lat="35.95306879" lon="120.19153406">
        <time>2019-08-25T13:22:02.081000Z</time>
      </trkpt>
      <trkpt lat="35.95303496" lon="120.19141294">
        <time>2019-08-25T13:22:06.099000Z</time>
      </trkpt>
      <trkpt lat="35.95300796" lon="120.19128204">
        <time>2019-08-25T13:22:10.075000Z</time>
      </trkpt>
      <trkpt lat="35.95298017" lon="120.19117586">
        <time>2019-08-25T13:22:13.118000Z</time>
      </trkpt>
      <trkpt lat="35.93827312" lon="120.17348197">
        <time>2019-08-25T13:38:35.465000Z</time>
      </trkpt>
      <trkpt lat="35.93827312" lon="120.17348197">
        <time>2019-08-25T13:38:41.058000Z</time>
      </trkpt>
      <trkpt lat="35.93821391" lon="120.17339397">
        <time>2019-08-25T13:38:45.083000Z</time>
      </trkpt>
      <trkpt lat="35.93816172" lon="120.17329942">
        <time>2019-08-25T13:38:54.077000Z</time>
      </trkpt>
      <trkpt lat="35.93816172" lon="120.17329942">
        <time>2019-08-25T13:38:58.090000Z</time>
      </trkpt>
      <trkpt lat="35.93809778" lon="120.17319478">
        <time>2019-08-25T13:38:59.097000Z</time>
      </trkpt>
      <trkpt lat="35.93804439" lon="120.17307706">
        <time>2019-08-25T13:39:03.105000Z</time>
      </trkpt>
      <trkpt lat="35.93799003" lon="120.17295888">
        <time>2019-08-25T13:39:07.084000Z</time>
      </trkpt>
      <trkpt lat="35.93793317" lon="120.1728318">
        <time>2019-08-25T13:39:11.116000Z</time>
      </trkpt>
      <trkpt lat="35.93787325" lon="120.17270726">
        <time>2019-08-25T13:39:15.093000Z</time>
      </trkpt>
      <trkpt lat="35.93780995" lon="120.17258696">
        <time>2019-08-25T13:39:19.120000Z</time>
      </trkpt>
      <trkpt lat="35.93774779" lon="120.1724737">
        <time>2019-08-25T13:39:23.089000Z</time>
      </trkpt>
      <trkpt lat="35.93769101" lon="120.17235123">
        <time>2019-08-25T13:39:27.091000Z</time>
      </trkpt>
      <trkpt lat="35.93763075" lon="120.1722254">
        <time>2019-08-25T13:39:31.100000Z</time>
      </trkpt>
      <trkpt lat="35.9375813" lon="120.17213275">
        <time>2019-08-25T13:39:34.084000Z</time>
      </trkpt>
      <trkpt lat="35.93750924" lon="120.17201349">
        <time>2019-08-25T13:39:38.093000Z</time>
      </trkpt>
      <trkpt lat="35.93746024" lon="120.17191236">
        <time>2019-08-25T13:39:41.097000Z</time>
      </trkpt>
      <trkpt lat="35.93741542" lon="120.17180837">
        <time>2019-08-25T13:39:44.105000Z</time>
      </trkpt>
      <trkpt lat="35.93736634" lon="120.17171523">
        <time>2019-08-25T13:39:47.081000Z</time>
      </trkpt>
      <trkpt lat="35.9373076" lon="120.17159149">
        <time>2019-08-25T13:39:51.094000Z</time>
      </trkpt>
      <trkpt lat="35.93725893" lon="120.17148533">
        <time>2019-08-25T13:39:55.083000Z</time>
      </trkpt>
      <trkpt lat="35.93725893" lon="120.17148533">
        <time>2019-08-25T13:40:01.382000Z</time>
      </trkpt>
      <trkpt lat="35.93719511" lon="120.17139248">
        <time>2019-08-25T13:40:02.109000Z</time>
      </trkpt>
      <trkpt lat="35.93715219" lon="120.17127948">
        <time>2019-08-25T13:40:10.126000Z</time>
      </trkpt>
      <trkpt lat="35.93715219" lon="120.17127948">
        <time>2019-08-25T13:40:13.088000Z</time>
      </trkpt>
      <trkpt lat="35.93710708" lon="120.1711777">
        <time>2019-08-25T13:40:14.090000Z</time>
      </trkpt>
      <trkpt lat="35.93705727" lon="120.17107799">
        <time>2019-08-25T13:40:17.089000Z</time>
      </trkpt>
      <trkpt lat="35.93700148" lon="120.17095839">
        <time>2019-08-25T13:40:21.098000Z</time>
      </trkpt>
      <trkpt lat="35.93693956" lon="120.17083494">
        <time>2019-08-25T13:40:25.096000Z</time>
      </trkpt>
      <trkpt lat="35.93688846" lon="120.17070686">
        <time>2019-08-25T13:40:29.088000Z</time>
      </trkpt>
      <trkpt lat="35.93683678" lon="120.17057471">
        <time>2019-08-25T13:40:33.099000Z</time>
      </trkpt>
      <trkpt lat="35.93678147" lon="120.17045432">
        <time>2019-08-25T13:40:37.121000Z</time>
      </trkpt>
      <trkpt lat="35.93675407" lon="120.17034755">
        <time>2019-08-25T13:40:40.097000Z</time>
      </trkpt>
      <trkpt lat="35.93670405" lon="120.17021566">
        <time>2019-08-25T13:40:44.110000Z</time>
      </trkpt>
      <trkpt lat="35.93665772" lon="120.17011866">
        <time>2019-08-25T13:40:47.088000Z</time>
      </trkpt>
      <trkpt lat="35.93660853" lon="120.17002224">
        <time>2019-08-25T13:40:50.096000Z</time>
      </trkpt>
      <trkpt lat="35.93656293" lon="120.16992496">
        <time>2019-08-25T13:40:53.090000Z</time>
      </trkpt>
      <trkpt lat="35.93650741" lon="120.16980479">
        <time>2019-08-25T13:40:57.099000Z</time>
      </trkpt>
      <trkpt lat="35.93645512" lon="120.16969363">
        <time>2019-08-25T13:41:01.092000Z</time>
      </trkpt>
      <trkpt lat="35.93639988" lon="120.16957695">
        <time>2019-08-25T13:41:05.087000Z</time>
      </trkpt>
      <trkpt lat="35.93635865" lon="120.16944424">
        <time>2019-08-25T13:41:09.100000Z</time>
      </trkpt>
      <trkpt lat="35.93631224" lon="120.16932613">
        <time>2019-08-25T13:41:13.078000Z</time>
      </trkpt>
      <trkpt lat="35.93631224" lon="120.16932613">
        <time>2019-08-25T13:41:16.080000Z</time>
      </trkpt>
      <trkpt lat="35.93626526" lon="120.16922013">
        <time>2019-08-25T13:41:21.071000Z</time>
      </trkpt>
      <trkpt lat="35.93621535" lon="120.16910206">
        <time>2019-08-25T13:41:31.072000Z</time>
      </trkpt>
      <trkpt lat="35.93621535" lon="120.16910206">
        <time>2019-08-25T13:41:34.086000Z</time>
      </trkpt>
      <trkpt lat="35.93616494" lon="120.16900062">
        <time>2019-08-25T13:41:35.078000Z</time>
      </trkpt>
      <trkpt lat="35.93610901" lon="120.16889118">
        <time>2019-08-25T13:41:39.113000Z</time>
      </trkpt>
      <trkpt lat="35.93606651" lon="120.16876864">
        <time>2019-08-25T13:41:43.094000Z</time>
      </trkpt>
      <trkpt lat="35.93601468" lon="120.16865387">
        <time>2019-08-25T13:41:47.104000Z</time>
      </trkpt>
      <trkpt lat="35.93595117" lon="120.16853286">
        <time>2019-08-25T13:41:51.097000Z</time>
      </trkpt>
      <trkpt lat="35.93588134" lon="120.16841771">
        <time>2019-08-25T13:41:55.091000Z</time>
      </trkpt>
      <trkpt lat="35.93584269" lon="120.16831743">
        <time>2019-08-25T13:41:58.087000Z</time>
      </trkpt>
      <trkpt lat="35.93582323" lon="120.16819216">
        <time>2019-08-25T13:42:01.099000Z</time>
      </trkpt>
      <trkpt lat="35.93577592" lon="120.16807508">
        <time>2019-08-25T13:42:04.098000Z</time>
      </trkpt>
      <trkpt lat="35.93570449" lon="120.16796716">
        <time>2019-08-25T13:42:07.085000Z</time>
      </trkpt>
      <trkpt lat="35.93563929" lon="120.16784478">
        <time>2019-08-25T13:42:10.085000Z</time>
      </trkpt>
      <trkpt lat="35.93559323" lon="120.16771905">
        <time>2019-08-25T13:42:13.127000Z</time>
      </trkpt>
      <trkpt lat="35.93558959" lon="120.16758545">
        <time>2019-08-25T13:42:16.095000Z</time>
      </trkpt>
      <trkpt lat="35.93552037" lon="120.16751437">
        <time>2019-08-25T13:42:19.110000Z</time>
      </trkpt>
      <trkpt lat="35.93545482" lon="120.16740499">
        <time>2019-08-25T13:42:23.091000Z</time>
      </trkpt>
      <trkpt lat="35.93540618" lon="120.16729807">
        <time>2019-08-25T13:42:27.080000Z</time>
      </trkpt>
      <trkpt lat="35.93535719" lon="120.16720187">
        <time>2019-08-25T13:42:30.088000Z</time>
      </trkpt>
      <trkpt lat="35.93530473" lon="120.16710304">
        <time>2019-08-25T13:42:33.088000Z</time>
      </trkpt>
      <trkpt lat="35.93525595" lon="120.16700139">
        <time>2019-08-25T13:42:40.086000Z</time>
      </trkpt>
      <trkpt lat="35.93525595" lon="120.16700139">
        <time>2019-08-25T13:42:42.422000Z</time>
      </trkpt>
      <trkpt lat="35.93520587" lon="120.16689483">
        <time>2019-08-25T13:42:49.090000Z</time>
      </trkpt>
      <trkpt lat="35.93515466" lon="120.16680163">
        <time>2019-08-25T13:42:57.089000Z</time>
      </trkpt>
      <trkpt lat="35.93510387" lon="120.16668889">
        <time>2019-08-25T13:43:04.090000Z</time>
      </trkpt>
      <trkpt lat="35.93504215" lon="120.16660826">
        <time>2019-08-25T13:43:13.088000Z</time>
      </trkpt>
      <trkpt lat="35.93497119" lon="120.16651722">
        <time>2019-08-25T13:43:19.083000Z</time>
      </trkpt>
      <trkpt lat="35.9349128" lon="120.1664099">
        <time>2019-08-25T13:43:25.089000Z</time>
      </trkpt>
      <trkpt lat="35.93483994" lon="120.16634176">
        <time>2019-08-25T13:43:31.089000Z</time>
      </trkpt>
      <trkpt lat="35.93475369" lon="120.16627414">
        <time>2019-08-25T13:43:39.088000Z</time>
      </trkpt>
      <trkpt lat="35.93468419" lon="120.16617676">
        <time>2019-08-25T13:43:46.098000Z</time>
      </trkpt>
      <trkpt lat="35.93468419" lon="120.16617676">
        <time>2019-08-25T13:43:50.084000Z</time>
      </trkpt>
      <trkpt lat="35.93462524" lon="120.16606487">
        <time>2019-08-25T13:43:50.090000Z</time>
      </trkpt>
      <trkpt lat="35.93456787" lon="120.16595446">
        <time>2019-08-25T13:43:54.091000Z</time>
      </trkpt>
      <trkpt lat="35.93450151" lon="120.16583232">
        <time>2019-08-25T13:43:58.084000Z</time>
      </trkpt>
      <trkpt lat="35.93443716" lon="120.16574927">
        <time>2019-08-25T13:44:01.112000Z</time>
      </trkpt>
      <trkpt lat="35.93437595" lon="120.16566116">
        <time>2019-08-25T13:44:04.101000Z</time>
      </trkpt>
      <trkpt lat="35.93429768" lon="120.16555411">
        <time>2019-08-25T13:44:08.095000Z</time>
      </trkpt>
      <trkpt lat="35.93421629" lon="120.16545392">
        <time>2019-08-25T13:44:12.097000Z</time>
      </trkpt>
      <trkpt lat="35.9341415" lon="120.16536034">
        <time>2019-08-25T13:44:16.090000Z</time>
      </trkpt>
      <trkpt lat="35.93406478" lon="120.16526918">
        <time>2019-08-25T13:44:20.108000Z</time>
      </trkpt>
      <trkpt lat="35.93398395" lon="120.16517463">
        <time>2019-08-25T13:44:24.087000Z</time>
      </trkpt>
      <trkpt lat="35.93390562" lon="120.1650771">
        <time>2019-08-25T13:44:28.120000Z</time>
      </trkpt>
      <trkpt lat="35.93382932" lon="120.16498778">
        <time>2019-08-25T13:44:32.093000Z</time>
      </trkpt>
      <trkpt lat="35.9337449" lon="120.16490083">
        <time>2019-08-25T13:44:36.097000Z</time>
      </trkpt>
      <trkpt lat="35.93366091" lon="120.16480658">
        <time>2019-08-25T13:44:40.087000Z</time>
      </trkpt>
      <trkpt lat="35.93358293" lon="120.16470303">
        <time>2019-08-25T13:44:44.080000Z</time>
      </trkpt>
      <trkpt lat="35.93350249" lon="120.16459994">
        <time>2019-08-25T13:44:48.090000Z</time>
      </trkpt>
      <trkpt lat="35.93340215" lon="120.16452293">
        <time>2019-08-25T13:44:52.097000Z</time>
      </trkpt>
      <trkpt lat="35.93332182" lon="120.16447047">
        <time>2019-08-25T13:44:55.099000Z</time>
      </trkpt>
      <trkpt lat="35.93324796" lon="120.16440506">
        <time>2019-08-25T13:44:58.100000Z</time>
      </trkpt>
      <trkpt lat="35.93316968" lon="120.16430962">
        <time>2019-08-25T13:45:02.095000Z</time>
      </trkpt>
      <trkpt lat="35.9330913" lon="120.16421061">
        <time>2019-08-25T13:45:06.096000Z</time>
      </trkpt>
      <trkpt lat="35.93301577" lon="120.16410886">
        <time>2019-08-25T13:45:10.095000Z</time>
      </trkpt>
      <trkpt lat="35.93292454" lon="120.16402157">
        <time>2019-08-25T13:45:14.100000Z</time>
      </trkpt>
      <trkpt lat="35.93284005" lon="120.16394419">
        <time>2019-08-25T13:45:18.110000Z</time>
      </trkpt>
      <trkpt lat="35.93277857" lon="120.16385991">
        <time>2019-08-25T13:45:22.126000Z</time>
      </trkpt>
      <trkpt lat="35.93277857" lon="120.16385991">
        <time>2019-08-25T13:45:26.519000Z</time>
      </trkpt>
      <trkpt lat="35.93270439" lon="120.16395003">
        <time>2019-08-25T13:45:35.082000Z</time>
      </trkpt>
      <trkpt lat="35.93270439" lon="120.16395003">
        <time>2019-08-25T13:45:36.524000Z</time>
      </trkpt>
      <trkpt lat="35.93262159" lon="120.16405402">
        <time>2019-08-25T13:45:39.082000Z</time>
      </trkpt>
      <trkpt lat="35.93255859" lon="120.16415288">
        <time>2019-08-25T13:45:42.091000Z</time>
      </trkpt>
      <trkpt lat="35.9325695" lon="120.16428387">
        <time>2019-08-25T13:45:45.096000Z</time>
      </trkpt>
      <trkpt lat="35.93258742" lon="120.16441694">
        <time>2019-08-25T13:45:48.103000Z</time>
      </trkpt>
      <trkpt lat="35.93262772" lon="120.16452741">
        <time>2019-08-25T13:45:51.102000Z</time>
      </trkpt>
      <trkpt lat="35.93269546" lon="120.16461077">
        <time>2019-08-25T13:45:54.094000Z</time>
      </trkpt>
      <trkpt lat="35.93277177" lon="120.16469166">
        <time>2019-08-25T13:45:57.085000Z</time>
      </trkpt>
      <trkpt lat="35.93285282" lon="120.16476705">
        <time>2019-08-25T13:46:00.097000Z</time>
      </trkpt>
      <trkpt lat="35.93292859" lon="120.16485353">
        <time>2019-08-25T13:46:03.105000Z</time>
      </trkpt>
      <trkpt lat="35.93298326" lon="120.16494471">
        <time>2019-08-25T13:46:06.094000Z</time>
      </trkpt>
      <trkpt lat="35.9329937" lon="120.16505956">
        <time>2019-08-25T13:46:09.097000Z</time>
      </trkpt>
      <trkpt lat="35.93299132" lon="120.16518521">
        <time>2019-08-25T13:46:12.093000Z</time>
      </trkpt>
      <trkpt lat="35.93302313" lon="120.16529945">
        <time>2019-08-25T13:46:15.090000Z</time>
      </trkpt>
      <trkpt lat="35.93299802" lon="120.16544041">
        <time>2019-08-25T13:46:19.069000Z</time>
      </trkpt>
      <trkpt lat="35.93292238" lon="120.16550949">
        <time>2019-08-25T13:46:22.104000Z</time>
      </trkpt>
      <trkpt lat="35.93283014" lon="120.16552126">
        <time>2019-08-25T13:46:25.086000Z</time>
      </trkpt>
      <trkpt lat="35.93273744" lon="120.16542787">
        <time>2019-08-25T13:46:29.094000Z</time>
      </trkpt>
      <trkpt lat="35.9326756" lon="120.16533327">
        <time>2019-08-25T13:46:32.071000Z</time>
      </trkpt>
      <trkpt lat="35.93260555" lon="120.16524156">
        <time>2019-08-25T13:46:37.100000Z</time>
      </trkpt>
      <trkpt lat="35.93260555" lon="120.16524156">
        <time>2019-08-25T13:46:58.093000Z</time>
      </trkpt>
      <trkpt lat="35.93260555" lon="120.16524156">
        <time>2019-08-25T13:46:58.100000Z</time>
      </trkpt>
      <trkpt lat="35.9326891" lon="120.16530294">
        <time>2019-08-25T13:47:01.092000Z</time>
      </trkpt>
      <trkpt lat="35.9326891" lon="120.16530294">
        <time>2019-08-25T13:47:07.090000Z</time>
      </trkpt>
      <trkpt lat="35.93268637" lon="120.16542141">
        <time>2019-08-25T13:47:07.099000Z</time>
      </trkpt>
      <trkpt lat="35.93265159" lon="120.16552492">
        <time>2019-08-25T13:47:12.090000Z</time>
      </trkpt>
      <trkpt lat="35.9326648" lon="120.16564761">
        <time>2019-08-25T13:47:17.086000Z</time>
      </trkpt>
      <trkpt lat="35.9326648" lon="120.16564761">
        <time>2019-08-25T13:47:19.574000Z</time>
      </trkpt>
      <trkpt lat="35.9327227" lon="120.1657734">
        <time>2019-08-25T13:47:21.088000Z</time>
      </trkpt>
      <trkpt lat="35.93274818" lon="120.16588751">
        <time>2019-08-25T13:47:24.103000Z</time>
      </trkpt>
      <trkpt lat="35.93278673" lon="120.16602044">
        <time>2019-08-25T13:47:28.093000Z</time>
      </trkpt>
      <trkpt lat="35.93284106" lon="120.16613273">
        <time>2019-08-25T13:47:31.102000Z</time>
      </trkpt>
      <trkpt lat="35.9328832" lon="120.16627066">
        <time>2019-08-25T13:47:35.093000Z</time>
      </trkpt>
      <trkpt lat="35.93292049" lon="120.16639031">
        <time>2019-08-25T13:47:38.092000Z</time>
      </trkpt>
      <trkpt lat="35.93292917" lon="120.16651766">
        <time>2019-08-25T13:47:41.078000Z</time>
      </trkpt>
      <trkpt lat="35.93293504" lon="120.1666534">
        <time>2019-08-25T13:47:44.093000Z</time>
      </trkpt>
      <trkpt lat="35.93294752" lon="120.16679532">
        <time>2019-08-25T13:47:47.090000Z</time>
      </trkpt>
      <trkpt lat="35.93296555" lon="120.16694089">
        <time>2019-08-25T13:47:50.082000Z</time>
      </trkpt>
      <trkpt lat="35.93296401" lon="120.16708786">
        <time>2019-08-25T13:47:53.108000Z</time>
      </trkpt>
      <trkpt lat="35.93299959" lon="120.16723676">
        <time>2019-08-25T13:47:56.094000Z</time>
      </trkpt>
      <trkpt lat="35.93303547" lon="120.16739435">
        <time>2019-08-25T13:47:59.087000Z</time>
      </trkpt>
      <trkpt lat="35.93307467" lon="120.16753201">
        <time>2019-08-25T13:48:02.089000Z</time>
      </trkpt>
      <trkpt lat="35.93315644" lon="120.16759997">
        <time>2019-08-25T13:48:05.095000Z</time>
      </trkpt>
      <trkpt lat="35.93324767" lon="120.16763488">
        <time>2019-08-25T13:48:08.094000Z</time>
      </trkpt>
      <trkpt lat="35.93333892" lon="120.16768189">
        <time>2019-08-25T13:48:15.078000Z</time>
      </trkpt>
      <trkpt lat="35.93333892" lon="120.16768189">
        <time>2019-08-25T13:48:15.799000Z</time>
      </trkpt>
      <trkpt lat="35.93337929" lon="120.16778721">
        <time>2019-08-25T13:48:19.098000Z</time>
      </trkpt>
      <trkpt lat="35.93342075" lon="120.16788793">
        <time>2019-08-25T13:48:23.103000Z</time>
      </trkpt>
      <trkpt lat="35.93351395" lon="120.16789991">
        <time>2019-08-25T13:48:28.092000Z</time>
      </trkpt>
      <trkpt lat="35.93351395" lon="120.16789991">
        <time>2019-08-25T13:48:29.614000Z</time>
      </trkpt>
      <trkpt lat="35.93357471" lon="120.16798436">
        <time>2019-08-25T13:48:37.091000Z</time>
      </trkpt>
      <trkpt lat="35.93357471" lon="120.16798436">
        <time>2019-08-25T13:48:41.076000Z</time>
      </trkpt>
      <trkpt lat="35.93364432" lon="120.16807764">
        <time>2019-08-25T13:48:45.111000Z</time>
      </trkpt>
      <trkpt lat="35.9336908" lon="120.1681729">
        <time>2019-08-25T13:48:53.080000Z</time>
      </trkpt>
      <trkpt lat="35.93374345" lon="120.1682751">
        <time>2019-08-25T13:49:02.080000Z</time>
      </trkpt>
      <trkpt lat="35.93371434" lon="120.16839024">
        <time>2019-08-25T13:49:05.084000Z</time>
      </trkpt>
      <trkpt lat="35.93371434" lon="120.16839024">
        <time>2019-08-25T13:49:06.839000Z</time>
      </trkpt>
      <trkpt lat="35.93367342" lon="120.16852233">
        <time>2019-08-25T13:49:08.086000Z</time>
      </trkpt>
      <trkpt lat="35.93366013" lon="120.1686623">
        <time>2019-08-25T13:49:11.088000Z</time>
      </trkpt>
      <trkpt lat="35.93373016" lon="120.16877321">
        <time>2019-08-25T13:49:14.076000Z</time>
      </trkpt>
      <trkpt lat="35.93383773" lon="120.16879405">
        <time>2019-08-25T13:49:17.097000Z</time>
      </trkpt>
      <trkpt lat="35.93393091" lon="120.16880664">
        <time>2019-08-25T13:49:21.078000Z</time>
      </trkpt>
      <trkpt lat="35.93393091" lon="120.16880664">
        <time>2019-08-25T13:49:53.081000Z</time>
      </trkpt>
      <trkpt lat="35.93402736" lon="120.16882921">
        <time>2019-08-25T13:49:53.087000Z</time>
      </trkpt>
      <trkpt lat="35.93412187" lon="120.16881544">
        <time>2019-08-25T13:50:01.073000Z</time>
      </trkpt>
      <trkpt lat="35.93423169" lon="120.16879553">
        <time>2019-08-25T13:50:07.094000Z</time>
      </trkpt>
      <trkpt lat="35.93423169" lon="120.16879553">
        <time>2019-08-25T13:50:07.642000Z</time>
      </trkpt>
      <trkpt lat="35.93433005" lon="120.1687565">
        <time>2019-08-25T13:50:10.098000Z</time>
      </trkpt>
      <trkpt lat="35.93444529" lon="120.16876989">
        <time>2019-08-25T13:50:13.078000Z</time>
      </trkpt>
      <trkpt lat="35.93456059" lon="120.16883025">
        <time>2019-08-25T13:50:16.083000Z</time>
      </trkpt>
      <trkpt lat="35.9346591" lon="120.16886144">
        <time>2019-08-25T13:50:19.101000Z</time>
      </trkpt>
      <trkpt lat="35.93473613" lon="120.16893007">
        <time>2019-08-25T13:50:22.100000Z</time>
      </trkpt>
      <trkpt lat="35.93474824" lon="120.1690507">
        <time>2019-08-25T13:50:25.090000Z</time>
      </trkpt>
      <trkpt lat="35.93474262" lon="120.1691773">
        <time>2019-08-25T13:50:28.099000Z</time>
      </trkpt>
      <trkpt lat="35.93474262" lon="120.1691773">
        <time>2019-08-25T13:50:47.088000Z</time>
      </trkpt>
      <trkpt lat="35.93475418" lon="120.16936147">
        <time>2019-08-25T13:50:47.092000Z</time>
      </trkpt>
      <trkpt lat="35.9347615" lon="120.16947686">
        <time>2019-08-25T13:50:53.096000Z</time>
      </trkpt>
      <trkpt lat="35.9347615" lon="120.16947686">
        <time>2019-08-25T13:50:57.938000Z</time>
      </trkpt>
      <trkpt lat="35.9347964" lon="120.16961172">
        <time>2019-08-25T13:50:59.087000Z</time>
      </trkpt>
      <trkpt lat="35.93483863" lon="120.16974414">
        <time>2019-08-25T13:51:03.136000Z</time>
      </trkpt>
      <trkpt lat="35.93488737" lon="120.16983971">
        <time>2019-08-25T13:51:06.093000Z</time>
      </trkpt>
      <trkpt lat="35.93494816" lon="120.16992252">
        <time>2019-08-25T13:51:09.103000Z</time>
      </trkpt>
      <trkpt lat="35.93503479" lon="120.17000681">
        <time>2019-08-25T13:51:13.085000Z</time>
      </trkpt>
      <trkpt lat="35.93511237" lon="120.17007318">
        <time>2019-08-25T13:51:16.103000Z</time>
      </trkpt>
      <trkpt lat="35.93519741" lon="120.17012968">
        <time>2019-08-25T13:51:19.095000Z</time>
      </trkpt>
      <trkpt lat="35.93528558" lon="120.17017505">
        <time>2019-08-25T13:51:22.090000Z</time>
      </trkpt>
      <trkpt lat="35.93538454" lon="120.17018596">
        <time>2019-08-25T13:51:25.089000Z</time>
      </trkpt>
      <trkpt lat="35.93547881" lon="120.17019673">
        <time>2019-08-25T13:51:28.072000Z</time>
      </trkpt>
      <trkpt lat="35.93547881" lon="120.17019673">
        <time>2019-08-25T13:51:29.663000Z</time>
      </trkpt>
      <trkpt lat="35.93557749" lon="120.17024103">
        <time>2019-08-25T13:51:32.076000Z</time>
      </trkpt>
      <trkpt lat="35.93565547" lon="120.17029696">
        <time>2019-08-25T13:51:36.063000Z</time>
      </trkpt>
      <trkpt lat="35.93573581" lon="120.1703651">
        <time>2019-08-25T13:51:42.086000Z</time>
      </trkpt>
      <trkpt lat="35.93580423" lon="120.17045087">
        <time>2019-08-25T13:51:47.131000Z</time>
      </trkpt>
      <trkpt lat="35.93580423" lon="120.17045087">
        <time>2019-08-25T13:51:47.999000Z</time>
      </trkpt>
      <trkpt lat="35.93586577" lon="120.17055131">
        <time>2019-08-25T13:51:51.077000Z</time>
      </trkpt>
      <trkpt lat="35.93593112" lon="120.17066427">
        <time>2019-08-25T13:51:55.104000Z</time>
      </trkpt>
      <trkpt lat="35.93598131" lon="120.17075906">
        <time>2019-08-25T13:51:58.077000Z</time>
      </trkpt>
      <trkpt lat="35.93602199" lon="120.17085847">
        <time>2019-08-25T13:52:01.089000Z</time>
      </trkpt>
      <trkpt lat="35.93606486" lon="120.17099452">
        <time>2019-08-25T13:52:05.084000Z</time>
      </trkpt>
      <trkpt lat="35.93610996" lon="120.17111742">
        <time>2019-08-25T13:52:09.130000Z</time>
      </trkpt>
      <trkpt lat="35.93615111" lon="120.17125232">
        <time>2019-08-25T13:52:13.072000Z</time>
      </trkpt>
      <trkpt lat="35.93619398" lon="120.17136033">
        <time>2019-08-25T13:52:19.073000Z</time>
      </trkpt>
      <trkpt lat="35.93619398" lon="120.17136033">
        <time>2019-08-25T13:52:20.674000Z</time>
      </trkpt>
      <trkpt lat="35.93623203" lon="120.1714726">
        <time>2019-08-25T13:52:27.070000Z</time>
      </trkpt>
      <trkpt lat="35.9362638" lon="120.17158208">
        <time>2019-08-25T13:52:32.092000Z</time>
      </trkpt>
      <trkpt lat="35.9362638" lon="120.17158208">
        <time>2019-08-25T13:52:32.681000Z</time>
      </trkpt>
      <trkpt lat="35.93629359" lon="120.17168966">
        <time>2019-08-25T13:52:35.094000Z</time>
      </trkpt>
      <trkpt lat="35.93633787" lon="120.17182535">
        <time>2019-08-25T13:52:39.095000Z</time>
      </trkpt>
      <trkpt lat="35.93637006" lon="120.17193033">
        <time>2019-08-25T13:52:42.119000Z</time>
      </trkpt>
      <trkpt lat="35.93640032" lon="120.17206751">
        <time>2019-08-25T13:52:46.100000Z</time>
      </trkpt>
      <trkpt lat="35.93643989" lon="120.17220644">
        <time>2019-08-25T13:52:50.100000Z</time>
      </trkpt>
      <trkpt lat="35.93647539" lon="120.17234497">
        <time>2019-08-25T13:52:54.110000Z</time>
      </trkpt>
      <trkpt lat="35.93649919" lon="120.17248478">
        <time>2019-08-25T13:52:58.081000Z</time>
      </trkpt>
      <trkpt lat="35.93649919" lon="120.17248478">
        <time>2019-08-25T13:53:00.692000Z</time>
      </trkpt>
      <trkpt lat="35.93652735" lon="120.1725914">
        <time>2019-08-25T13:53:02.080000Z</time>
      </trkpt>
      <trkpt lat="35.93654805" lon="120.17270066">
        <time>2019-08-25T13:53:05.081000Z</time>
      </trkpt>
      <trkpt lat="35.93657345" lon="120.17284278">
        <time>2019-08-25T13:53:09.080000Z</time>
      </trkpt>
      <trkpt lat="35.93657345" lon="120.17284278">
        <time>2019-08-25T13:53:11.699000Z</time>
      </trkpt>
      <trkpt lat="35.93660247" lon="120.17295228">
        <time>2019-08-25T13:53:12.083000Z</time>
      </trkpt>
      <trkpt lat="35.93662197" lon="120.17307109">
        <time>2019-08-25T13:53:15.087000Z</time>
      </trkpt>
      <trkpt lat="35.93665002" lon="120.17318706">
        <time>2019-08-25T13:53:18.099000Z</time>
      </trkpt>
      <trkpt lat="35.93667942" lon="120.17332847">
        <time>2019-08-25T13:53:22.082000Z</time>
      </trkpt>
      <trkpt lat="35.93670376" lon="120.17347207">
        <time>2019-08-25T13:53:26.094000Z</time>
      </trkpt>
      <trkpt lat="35.93672266" lon="120.17359408">
        <time>2019-08-25T13:53:29.085000Z</time>
      </trkpt>
      <trkpt lat="35.93675095" lon="120.17371232">
        <time>2019-08-25T13:53:32.094000Z</time>
      </trkpt>
      <trkpt lat="35.93678362" lon="120.17382808">
        <time>2019-08-25T13:53:35.091000Z</time>
      </trkpt>
      <trkpt lat="35.9368078" lon="120.17393946">
        <time>2019-08-25T13:53:38.089000Z</time>
      </trkpt>
      <trkpt lat="35.93682203" lon="120.17405103">
        <time>2019-08-25T13:53:41.086000Z</time>
      </trkpt>
      <trkpt lat="35.93685474" lon="120.17419247">
        <time>2019-08-25T13:53:45.093000Z</time>
      </trkpt>
      <trkpt lat="35.93688404" lon="120.17433056">
        <time>2019-08-25T13:53:49.096000Z</time>
      </trkpt>
      <trkpt lat="35.9368957" lon="120.17447364">
        <time>2019-08-25T13:53:53.085000Z</time>
      </trkpt>
      <trkpt lat="35.93693104" lon="120.1746057">
        <time>2019-08-25T13:53:57.096000Z</time>
      </trkpt>
      <trkpt lat="35.93695004" lon="120.17474831">
        <time>2019-08-25T13:54:01.071000Z</time>
      </trkpt>
      <trkpt lat="35.93701991" lon="120.17485716">
        <time>2019-08-25T13:54:05.097000Z</time>
      </trkpt>
      <trkpt lat="35.93710374" lon="120.17489761">
        <time>2019-08-25T13:54:08.100000Z</time>
      </trkpt>
      <trkpt lat="35.93720036" lon="120.1749145">
        <time>2019-08-25T13:54:11.096000Z</time>
      </trkpt>
      <trkpt lat="35.9373123" lon="120.17495592">
        <time>2019-08-25T13:54:15.083000Z</time>
      </trkpt>
      <trkpt lat="35.93738552" lon="120.17502503">
        <time>2019-08-25T13:54:18.091000Z</time>
      </trkpt>
      <trkpt lat="35.93745789" lon="120.17510267">
        <time>2019-08-25T13:54:21.079000Z</time>
      </trkpt>
      <trkpt lat="35.93752534" lon="120.17518789">
        <time>2019-08-25T13:54:24.091000Z</time>
      </trkpt>
      <trkpt lat="35.93759551" lon="120.17528458">
        <time>2019-08-25T13:54:27.098000Z</time>
      </trkpt>
      <trkpt lat="35.93765542" lon="120.17539271">
        <time>2019-08-25T13:54:30.090000Z</time>
      </trkpt>
      <trkpt lat="35.9377211" lon="120.17550077">
        <time>2019-08-25T13:54:33.089000Z</time>
      </trkpt>
      <trkpt lat="35.93778915" lon="120.17560606">
        <time>2019-08-25T13:54:36.098000Z</time>
      </trkpt>
      <trkpt lat="35.93784625" lon="120.17572574">
        <time>2019-08-25T13:54:39.119000Z</time>
      </trkpt>
      <trkpt lat="35.93790467" lon="120.17584856">
        <time>2019-08-25T13:54:42.089000Z</time>
      </trkpt>
      <trkpt lat="35.93796864" lon="120.1759687">
        <time>2019-08-25T13:54:45.087000Z</time>
      </trkpt>
      <trkpt lat="35.93803818" lon="120.17608189">
        <time>2019-08-25T13:54:48.101000Z</time>
      </trkpt>
      <trkpt lat="35.93810271" lon="120.1762022">
        <time>2019-08-25T13:54:51.097000Z</time>
      </trkpt>
      <trkpt lat="35.93816528" lon="120.17631296">
        <time>2019-08-25T13:54:54.099000Z</time>
      </trkpt>
      <trkpt lat="35.93822358" lon="120.17641383">
        <time>2019-08-25T13:54:58.088000Z</time>
      </trkpt>
      <trkpt lat="35.93822358" lon="120.17641383">
        <time>2019-08-25T13:55:01.075000Z</time>
      </trkpt>
      <trkpt lat="35.93828286" lon="120.17651641">
        <time>2019-08-25T13:55:06.097000Z</time>
      </trkpt>
      <trkpt lat="35.93834015" lon="120.17660763">
        <time>2019-08-25T13:55:13.115000Z</time>
      </trkpt>
      <trkpt lat="35.93840232" lon="120.17669689">
        <time>2019-08-25T13:55:19.139000Z</time>
      </trkpt>
      <trkpt lat="35.93847607" lon="120.17681058">
        <time>2019-08-25T13:55:23.088000Z</time>
      </trkpt>
      <trkpt lat="35.93847607" lon="120.17681058">
        <time>2019-08-25T13:55:24.766000Z</time>
      </trkpt>
      <trkpt lat="35.93854316" lon="120.17693092">
        <time>2019-08-25T13:55:27.100000Z</time>
      </trkpt>
      <trkpt lat="35.93862184" lon="120.17703935">
        <time>2019-08-25T13:55:31.123000Z</time>
      </trkpt>
      <trkpt lat="35.93870583" lon="120.1771448">
        <time>2019-08-25T13:55:35.097000Z</time>
      </trkpt>
      <trkpt lat="35.93875219" lon="120.17724324">
        <time>2019-08-25T13:55:38.088000Z</time>
      </trkpt>
      <trkpt lat="35.93878944" lon="120.17734703">
        <time>2019-08-25T13:55:41.144000Z</time>
      </trkpt>
      <trkpt lat="35.93885628" lon="120.17746935">
        <time>2019-08-25T13:55:45.114000Z</time>
      </trkpt>
      <trkpt lat="35.9389168" lon="120.17755973">
        <time>2019-08-25T13:55:48.092000Z</time>
      </trkpt>
      <trkpt lat="35.93899721" lon="120.17766537">
        <time>2019-08-25T13:55:52.096000Z</time>
      </trkpt>
      <trkpt lat="35.93905664" lon="120.17775635">
        <time>2019-08-25T13:55:57.081000Z</time>
      </trkpt>
      <trkpt lat="35.93905664" lon="120.17775635">
        <time>2019-08-25T13:55:58.774000Z</time>
      </trkpt>
      <trkpt lat="35.93910994" lon="120.17785907">
        <time>2019-08-25T13:56:04.065000Z</time>
      </trkpt>
      <trkpt lat="35.93915321" lon="120.17796401">
        <time>2019-08-25T13:56:11.070000Z</time>
      </trkpt>
      <trkpt lat="35.93920218" lon="120.1780707">
        <time>2019-08-25T13:56:19.064000Z</time>
      </trkpt>
      <trkpt lat="35.93920218" lon="120.1780707">
        <time>2019-08-25T13:56:24.074000Z</time>
      </trkpt>
      <trkpt lat="35.93926277" lon="120.17818523">
        <time>2019-08-25T13:56:24.085000Z</time>
      </trkpt>
      <trkpt lat="35.93931989" lon="120.17827814">
        <time>2019-08-25T13:56:27.082000Z</time>
      </trkpt>
      <trkpt lat="35.9393832" lon="120.17839323">
        <time>2019-08-25T13:56:31.099000Z</time>
      </trkpt>
      <trkpt lat="35.93944441" lon="120.17850362">
        <time>2019-08-25T13:56:35.099000Z</time>
      </trkpt>
      <trkpt lat="35.93951059" lon="120.1786024">
        <time>2019-08-25T13:56:39.102000Z</time>
      </trkpt>
      <trkpt lat="35.93957264" lon="120.17870341">
        <time>2019-08-25T13:56:43.094000Z</time>
      </trkpt>
      <trkpt lat="35.93963403" lon="120.17881102">
        <time>2019-08-25T13:56:47.102000Z</time>
      </trkpt>
      <trkpt lat="35.93969997" lon="120.17893059">
        <time>2019-08-25T13:56:51.084000Z</time>
      </trkpt>
      <trkpt lat="35.93975707" lon="120.17905546">
        <time>2019-08-25T13:56:55.094000Z</time>
      </trkpt>
      <trkpt lat="35.93975707" lon="120.17905546">
        <time>2019-08-25T14:07:31.621000Z</time>
      </trkpt>
      <trkpt lat="35.94632924" lon="120.19498544">
        <time>2019-08-25T14:07:39.080000Z</time>
      </trkpt>
      <trkpt lat="35.94633319" lon="120.19510455">
        <time>2019-08-25T14:07:48.072000Z</time>
      </trkpt>
      <trkpt lat="35.94639084" lon="120.19519247">
        <time>2019-08-25T14:08:00.067000Z</time>
      </trkpt>
      <trkpt lat="35.94647734" lon="120.19513358">
        <time>2019-08-25T14:08:07.075000Z</time>
      </trkpt>
      <trkpt lat="35.94656995" lon="120.1951019">
        <time>2019-08-25T14:08:13.084000Z</time>
      </trkpt>
      <trkpt lat="35.94656995" lon="120.1951019">
        <time>2019-08-25T14:08:13.475000Z</time>
      </trkpt>
      <trkpt lat="35.94667443" lon="120.19505949">
        <time>2019-08-25T14:08:17.130000Z</time>
      </trkpt>
      <trkpt lat="35.94677507" lon="120.19499761">
        <time>2019-08-25T14:08:21.086000Z</time>
      </trkpt>
      <trkpt lat="35.94688091" lon="120.19493126">
        <time>2019-08-25T14:08:25.090000Z</time>
      </trkpt>
      <trkpt lat="35.94696181" lon="120.19487984">
        <time>2019-08-25T14:08:28.125000Z</time>
      </trkpt>
      <trkpt lat="35.94704359" lon="120.19482453">
        <time>2019-08-25T14:08:31.126000Z</time>
      </trkpt>
      <trkpt lat="35.94712711" lon="120.19477034">
        <time>2019-08-25T14:08:34.071000Z</time>
      </trkpt>
      <trkpt lat="35.94721894" lon="120.19472879">
        <time>2019-08-25T14:08:37.087000Z</time>
      </trkpt>
      <trkpt lat="35.94731754" lon="120.19474971">
        <time>2019-08-25T14:08:40.075000Z</time>
      </trkpt>
      <trkpt lat="35.94739914" lon="120.19483643">
        <time>2019-08-25T14:08:43.085000Z</time>
      </trkpt>
      <trkpt lat="35.94744531" lon="120.19494777">
        <time>2019-08-25T14:08:46.082000Z</time>
      </trkpt>
      <trkpt lat="35.94747304" lon="120.19506245">
        <time>2019-08-25T14:08:49.085000Z</time>
      </trkpt>
      <trkpt lat="35.94750627" lon="120.1951675">
        <time>2019-08-25T14:08:53.095000Z</time>
      </trkpt>
      <trkpt lat="35.94750627" lon="120.1951675">
        <time>2019-08-25T14:08:55.085000Z</time>
      </trkpt>
      <trkpt lat="35.9475386" lon="120.19527762">
        <time>2019-08-25T14:09:01.085000Z</time>
      </trkpt>
      <trkpt lat="35.94758634" lon="120.19537202">
        <time>2019-08-25T14:09:08.116000Z</time>
      </trkpt>
      <trkpt lat="35.94762972" lon="120.19548293">
        <time>2019-08-25T14:09:14.096000Z</time>
      </trkpt>
      <trkpt lat="35.9476938" lon="120.19557617">
        <time>2019-08-25T14:09:20.086000Z</time>
      </trkpt>
      <trkpt lat="35.94777781" lon="120.19563951">
        <time>2019-08-25T14:09:24.079000Z</time>
      </trkpt>
      <trkpt lat="35.94777781" lon="120.19563951">
        <time>2019-08-25T14:09:25.505000Z</time>
      </trkpt>
      <trkpt lat="35.9478922" lon="120.19565794">
        <time>2019-08-25T14:09:28.089000Z</time>
      </trkpt>
      <trkpt lat="35.94800031" lon="120.19567725">
        <time>2019-08-25T14:09:32.095000Z</time>
      </trkpt>
      <trkpt lat="35.94800031" lon="120.19567725">
        <time>2019-08-25T14:09:35.082000Z</time>
      </trkpt>
      <trkpt lat="35.94808826" lon="120.19571009">
        <time>2019-08-25T14:09:39.060000Z</time>
      </trkpt>
      <trkpt lat="35.94805553" lon="120.19582244">
        <time>2019-08-25T14:09:46.084000Z</time>
      </trkpt>
      <trkpt lat="35.94807613" lon="120.19595156">
        <time>2019-08-25T14:09:55.079000Z</time>
      </trkpt>
      <trkpt lat="35.94807613" lon="120.19595156">
        <time>2019-08-25T14:09:56.520000Z</time>
      </trkpt>
      <trkpt lat="35.94811625" lon="120.19607741">
        <time>2019-08-25T14:09:59.091000Z</time>
      </trkpt>
      <trkpt lat="35.9481651" lon="120.19620017">
        <time>2019-08-25T14:10:03.118000Z</time>
      </trkpt>
      <trkpt lat="35.94821415" lon="120.1963208">
        <time>2019-08-25T14:10:07.096000Z</time>
      </trkpt>
      <trkpt lat="35.94824476" lon="120.19646111">
        <time>2019-08-25T14:10:11.097000Z</time>
      </trkpt>
      <trkpt lat="35.94828216" lon="120.19656892">
        <time>2019-08-25T14:10:14.125000Z</time>
      </trkpt>
      <trkpt lat="35.94832567" lon="120.19667348">
        <time>2019-08-25T14:10:17.099000Z</time>
      </trkpt>
      <trkpt lat="35.94836404" lon="120.1968092">
        <time>2019-08-25T14:10:21.093000Z</time>
      </trkpt>
      <trkpt lat="35.94839103" lon="120.19695388">
        <time>2019-08-25T14:10:25.092000Z</time>
      </trkpt>
      <trkpt lat="35.9484225" lon="120.19708632">
        <time>2019-08-25T14:10:29.085000Z</time>
      </trkpt>
      <trkpt lat="35.9484572" lon="120.1972281">
        <time>2019-08-25T14:10:33.096000Z</time>
      </trkpt>
      <trkpt lat="35.94850049" lon="120.19733598">
        <time>2019-08-25T14:10:36.093000Z</time>
      </trkpt>
      <trkpt lat="35.94853705" lon="120.19744201">
        <time>2019-08-25T14:10:39.083000Z</time>
      </trkpt>
      <trkpt lat="35.94857786" lon="120.19754539">
        <time>2019-08-25T14:10:42.094000Z</time>
      </trkpt>
      <trkpt lat="35.9486284" lon="120.19767821">
        <time>2019-08-25T14:10:46.099000Z</time>
      </trkpt>
      <trkpt lat="35.94865342" lon="120.1977857">
        <time>2019-08-25T14:10:49.104000Z</time>
      </trkpt>
      <trkpt lat="35.94868018" lon="120.19789645">
        <time>2019-08-25T14:10:52.086000Z</time>
      </trkpt>
      <trkpt lat="35.94871125" lon="120.19800609">
        <time>2019-08-25T14:10:55.086000Z</time>
      </trkpt>
      <trkpt lat="35.94874934" lon="120.19811">
        <time>2019-08-25T14:10:58.083000Z</time>
      </trkpt>
      <trkpt lat="35.94878603" lon="120.19821822">
        <time>2019-08-25T14:11:02.106000Z</time>
      </trkpt>
      <trkpt lat="35.94878603" lon="120.19821822">
        <time>2019-08-25T14:11:05.075000Z</time>
      </trkpt>
      <trkpt lat="35.94882257" lon="120.1983311">
        <time>2019-08-25T14:11:10.096000Z</time>
      </trkpt>
      <trkpt lat="35.9488887" lon="120.19842011">
        <time>2019-08-25T14:11:17.146000Z</time>
      </trkpt>
      <trkpt lat="35.94891723" lon="120.19855308">
        <time>2019-08-25T14:11:23.111000Z</time>
      </trkpt>
      <trkpt lat="35.94891723" lon="120.19855308">
        <time>2019-08-25T14:11:26.565000Z</time>
      </trkpt>
      <trkpt lat="35.94895774" lon="120.19868034">
        <time>2019-08-25T14:11:27.098000Z</time>
      </trkpt>
      <trkpt lat="35.9490008" lon="120.19880916">
        <time>2019-08-25T14:11:31.084000Z</time>
      </trkpt>
      <trkpt lat="35.94903778" lon="120.19893205">
        <time>2019-08-25T14:11:35.114000Z</time>
      </trkpt>
      <trkpt lat="35.94906063" lon="120.19906207">
        <time>2019-08-25T14:11:39.085000Z</time>
      </trkpt>
      <trkpt lat="35.94909457" lon="120.19918856">
        <time>2019-08-25T14:11:43.101000Z</time>
      </trkpt>
      <trkpt lat="35.94914543" lon="120.19930979">
        <time>2019-08-25T14:11:47.101000Z</time>
      </trkpt>
      <trkpt lat="35.94917511" lon="120.19943768">
        <time>2019-08-25T14:11:51.093000Z</time>
      </trkpt>
      <trkpt lat="35.94920972" lon="120.19955957">
        <time>2019-08-25T14:11:55.089000Z</time>
      </trkpt>
      <trkpt lat="35.9492583" lon="120.19967893">
        <time>2019-08-25T14:12:00.087000Z</time>
      </trkpt>
      <trkpt lat="35.9492583" lon="120.19967893">
        <time>2019-08-25T14:12:01.138000Z</time>
      </trkpt>
      <trkpt lat="35.949296" lon="120.19977973">
        <time>2019-08-25T14:12:08.077000Z</time>
      </trkpt>
      <trkpt lat="35.94931931" lon="120.19989298">
        <time>2019-08-25T14:12:16.082000Z</time>
      </trkpt>
      <trkpt lat="35.94935054" lon="120.20000488">
        <time>2019-08-25T14:12:24.082000Z</time>
      </trkpt>
      <trkpt lat="35.9493664" lon="120.20011782">
        <time>2019-08-25T14:12:31.072000Z</time>
      </trkpt>
      <trkpt lat="35.9493664" lon="120.20011782">
        <time>2019-08-25T14:12:36.591000Z</time>
      </trkpt>
      <trkpt lat="35.94937893" lon="120.20024397">
        <time>2019-08-25T14:12:38.087000Z</time>
      </trkpt>
      <trkpt lat="35.94939867" lon="120.200359">
        <time>2019-08-25T14:12:42.089000Z</time>
      </trkpt>
      <trkpt lat="35.94944244" lon="120.20049114">
        <time>2019-08-25T14:12:46.088000Z</time>
      </trkpt>
      <trkpt lat="35.94947672" lon="120.20059951">
        <time>2019-08-25T14:12:49.108000Z</time>
      </trkpt>
      <trkpt lat="35.94951322" lon="120.20070466">
        <time>2019-08-25T14:12:52.085000Z</time>
      </trkpt>
      <trkpt lat="35.94955995" lon="120.20084224">
        <time>2019-08-25T14:12:56.088000Z</time>
      </trkpt>
      <trkpt lat="35.94959624" lon="120.20095986">
        <time>2019-08-25T14:12:59.088000Z</time>
      </trkpt>
      <trkpt lat="35.94963328" lon="120.20108054">
        <time>2019-08-25T14:13:02.085000Z</time>
      </trkpt>
      <trkpt lat="35.94966465" lon="120.20119947">
        <time>2019-08-25T14:13:05.089000Z</time>
      </trkpt>
      <trkpt lat="35.94968843" lon="120.20131696">
        <time>2019-08-25T14:13:08.086000Z</time>
      </trkpt>
      <trkpt lat="35.94971714" lon="120.20144066">
        <time>2019-08-25T14:13:11.109000Z</time>
      </trkpt>
      <trkpt lat="35.94974961" lon="120.20155948">
        <time>2019-08-25T14:13:14.089000Z</time>
      </trkpt>
      <trkpt lat="35.94978416" lon="120.20166847">
        <time>2019-08-25T14:13:17.131000Z</time>
      </trkpt>
      <trkpt lat="35.9498213" lon="120.20176971">
        <time>2019-08-25T14:13:20.091000Z</time>
      </trkpt>
      <trkpt lat="35.94985393" lon="120.20190538">
        <time>2019-08-25T14:13:24.087000Z</time>
      </trkpt>
      <trkpt lat="35.94988769" lon="120.20204427">
        <time>2019-08-25T14:13:28.084000Z</time>
      </trkpt>
      <trkpt lat="35.94991431" lon="120.20218411">
        <time>2019-08-25T14:13:32.085000Z</time>
      </trkpt>
      <trkpt lat="35.94993332" lon="120.20232327">
        <time>2019-08-25T14:13:36.099000Z</time>
      </trkpt>
      <trkpt lat="35.94997112" lon="120.20245555">
        <time>2019-08-25T14:13:40.075000Z</time>
      </trkpt>
      <trkpt lat="35.94999858" lon="120.20258769">
        <time>2019-08-25T14:13:44.097000Z</time>
      </trkpt>
      <trkpt lat="35.95002258" lon="120.2027226">
        <time>2019-08-25T14:13:48.102000Z</time>
      </trkpt>
      <trkpt lat="35.9500533" lon="120.2028649">
        <time>2019-08-25T14:13:52.130000Z</time>
      </trkpt>
      <trkpt lat="35.95007661" lon="120.20297745">
        <time>2019-08-25T14:13:55.094000Z</time>
      </trkpt>
      <trkpt lat="35.95010256" lon="120.20312087">
        <time>2019-08-25T14:13:59.090000Z</time>
      </trkpt>
      <trkpt lat="35.95012839" lon="120.20326317">
        <time>2019-08-25T14:14:03.090000Z</time>
      </trkpt>
      <trkpt lat="35.95016668" lon="120.20340411">
        <time>2019-08-25T14:14:07.100000Z</time>
      </trkpt>
      <trkpt lat="35.95020486" lon="120.20350939">
        <time>2019-08-25T14:14:10.101000Z</time>
      </trkpt>
      <trkpt lat="35.95023894" lon="120.20364598">
        <time>2019-08-25T14:14:14.102000Z</time>
      </trkpt>
      <trkpt lat="35.95026244" lon="120.20375431">
        <time>2019-08-25T14:14:17.106000Z</time>
      </trkpt>
      <trkpt lat="35.95029" lon="120.20386483">
        <time>2019-08-25T14:14:20.105000Z</time>
      </trkpt>
      <trkpt lat="35.95032748" lon="120.20396865">
        <time>2019-08-25T14:14:23.104000Z</time>
      </trkpt>
      <trkpt lat="35.95036885" lon="120.20407612">
        <time>2019-08-25T14:14:26.100000Z</time>
      </trkpt>
      <trkpt lat="35.95039925" lon="120.20418378">
        <time>2019-08-25T14:14:29.080000Z</time>
      </trkpt>
      <trkpt lat="35.95046146" lon="120.20426398">
        <time>2019-08-25T14:14:33.084000Z</time>
      </trkpt>
      <trkpt lat="35.95054443" lon="120.20419992">
        <time>2019-08-25T14:14:36.093000Z</time>
      </trkpt>
      <trkpt lat="35.95062999" lon="120.20413651">
        <time>2019-08-25T14:14:39.096000Z</time>
      </trkpt>
      <trkpt lat="35.9507289" lon="120.20411538">
        <time>2019-08-25T14:14:42.090000Z</time>
      </trkpt>
      <trkpt lat="35.95082991" lon="120.20414664">
        <time>2019-08-25T14:14:45.087000Z</time>
      </trkpt>
      <trkpt lat="35.95093477" lon="120.20416568">
        <time>2019-08-25T14:14:48.104000Z</time>
      </trkpt>
      <trkpt lat="35.95103199" lon="120.20416377">
        <time>2019-08-25T14:14:51.102000Z</time>
      </trkpt>
      <trkpt lat="35.95112155" lon="120.20415107">
        <time>2019-08-25T14:14:54.098000Z</time>
      </trkpt>
      <trkpt lat="35.9512373" lon="120.20412593">
        <time>2019-08-25T14:14:58.090000Z</time>
      </trkpt>
      <trkpt lat="35.95134953" lon="120.20409859">
        <time>2019-08-25T14:15:02.131000Z</time>
      </trkpt>
      <trkpt lat="35.95144024" lon="120.20408419">
        <time>2019-08-25T14:15:05.105000Z</time>
      </trkpt>
      <trkpt lat="35.95156053" lon="120.20407975">
        <time>2019-08-25T14:15:09.092000Z</time>
      </trkpt>
      <trkpt lat="35.95165462" lon="120.20406384">
        <time>2019-08-25T14:15:12.089000Z</time>
      </trkpt>
      <trkpt lat="35.95174671" lon="120.20405624">
        <time>2019-08-25T14:15:15.094000Z</time>
      </trkpt>
      <trkpt lat="35.95184081" lon="120.20404221">
        <time>2019-08-25T14:15:18.089000Z</time>
      </trkpt>
      <trkpt lat="35.95193268" lon="120.20403092">
        <time>2019-08-25T14:15:21.084000Z</time>
      </trkpt>
      <trkpt lat="35.95202779" lon="120.20401287">
        <time>2019-08-25T14:15:24.085000Z</time>
      </trkpt>
      <trkpt lat="35.9521314" lon="120.2039906">
        <time>2019-08-25T14:15:27.099000Z</time>
      </trkpt>
      <trkpt lat="35.95223674" lon="120.20398241">
        <time>2019-08-25T14:15:30.085000Z</time>
      </trkpt>
      <trkpt lat="35.95233736" lon="120.20398215">
        <time>2019-08-25T14:15:33.074000Z</time>
      </trkpt>
      <trkpt lat="35.95243377" lon="120.20397294">
        <time>2019-08-25T14:15:36.085000Z</time>
      </trkpt>
      <trkpt lat="35.9525257" lon="120.20395379">
        <time>2019-08-25T14:15:39.090000Z</time>
      </trkpt>
      <trkpt lat="35.95262141" lon="120.20394027">
        <time>2019-08-25T14:15:42.093000Z</time>
      </trkpt>
      <trkpt lat="35.95271816" lon="120.20390312">
        <time>2019-08-25T14:15:46.081000Z</time>
      </trkpt>
      <trkpt lat="35.95271816" lon="120.20390312">
        <time>2019-08-25T14:15:51.679000Z</time>
      </trkpt>
      <trkpt lat="35.95281374" lon="120.20388565">
        <time>2019-08-25T14:15:52.072000Z</time>
      </trkpt>
      <trkpt lat="35.95291051" lon="120.20385968">
        <time>2019-08-25T14:16:00.071000Z</time>
      </trkpt>
      <trkpt lat="35.95299885" lon="120.20383229">
        <time>2019-08-25T14:16:06.068000Z</time>
      </trkpt>
      <trkpt lat="35.95310996" lon="120.20381423">
        <time>2019-08-25T14:16:11.088000Z</time>
      </trkpt>
      <trkpt lat="35.95310996" lon="120.20381423">
        <time>2019-08-25T14:16:12.689000Z</time>
      </trkpt>
      <trkpt lat="35.95321642" lon="120.20380601">
        <time>2019-08-25T14:16:15.131000Z</time>
      </trkpt>
      <trkpt lat="35.95332508" lon="120.20379534">
        <time>2019-08-25T14:16:19.092000Z</time>
      </trkpt>
      <trkpt lat="35.95343242" lon="120.20378561">
        <time>2019-08-25T14:16:23.085000Z</time>
      </trkpt>
      <trkpt lat="35.95353788" lon="120.20376662">
        <time>2019-08-25T14:16:27.131000Z</time>
      </trkpt>
      <trkpt lat="35.95364105" lon="120.20374704">
        <time>2019-08-25T14:16:31.086000Z</time>
      </trkpt>
      <trkpt lat="35.95374562" lon="120.20373391">
        <time>2019-08-25T14:16:35.081000Z</time>
      </trkpt>
      <trkpt lat="35.95385552" lon="120.2037131">
        <time>2019-08-25T14:16:39.088000Z</time>
      </trkpt>
      <trkpt lat="35.9539694" lon="120.20369939">
        <time>2019-08-25T14:16:43.092000Z</time>
      </trkpt>
      <trkpt lat="35.95407394" lon="120.20368467">
        <time>2019-08-25T14:16:47.085000Z</time>
      </trkpt>
      <trkpt lat="35.95418992" lon="120.2036698">
        <time>2019-08-25T14:16:51.079000Z</time>
      </trkpt>
      <trkpt lat="35.95603319" lon="120.20761205">
        <time>2019-08-25T14:20:05.074000Z</time>
      </trkpt>
      <trkpt lat="35.95612751" lon="120.20757979">
        <time>2019-08-25T14:20:08.070000Z</time>
      </trkpt>
      <trkpt lat="35.95623929" lon="120.2075667">
        <time>2019-08-25T14:20:12.082000Z</time>
      </trkpt>
      <trkpt lat="35.95633529" lon="120.20756305">
        <time>2019-08-25T14:20:16.083000Z</time>
      </trkpt>
      <trkpt lat="35.9564434" lon="120.20751398">
        <time>2019-08-25T14:20:20.098000Z</time>
      </trkpt>
      <trkpt lat="35.95654756" lon="120.20751013">
        <time>2019-08-25T14:20:24.087000Z</time>
      </trkpt>
      <trkpt lat="35.95654842" lon="120.20762866">
        <time>2019-08-25T14:20:28.084000Z</time>
      </trkpt>
      <trkpt lat="35.95655436" lon="120.20774594">
        <time>2019-08-25T14:20:31.097000Z</time>
      </trkpt>
      <trkpt lat="35.95655423" lon="120.20786391">
        <time>2019-08-25T14:20:34.088000Z</time>
      </trkpt>
      <trkpt lat="35.95655312" lon="120.20797923">
        <time>2019-08-25T14:20:37.092000Z</time>
      </trkpt>
      <trkpt lat="35.95655239" lon="120.20809134">
        <time>2019-08-25T14:20:40.088000Z</time>
      </trkpt>
      <trkpt lat="35.9565583" lon="120.20822634">
        <time>2019-08-25T14:20:44.098000Z</time>
      </trkpt>
      <trkpt lat="35.95658459" lon="120.20836403">
        <time>2019-08-25T14:20:48.089000Z</time>
      </trkpt>
      <trkpt lat="35.95660697" lon="120.20849743">
        <time>2019-08-25T14:20:52.090000Z</time>
      </trkpt>
      <trkpt lat="35.95660697" lon="120.20849743">
        <time>2019-08-25T14:20:56.860000Z</time>
      </trkpt>
      <trkpt lat="35.95661449" lon="120.20861952">
        <time>2019-08-25T14:20:58.085000Z</time>
      </trkpt>
      <trkpt lat="35.95664952" lon="120.20873248">
        <time>2019-08-25T14:21:06.074000Z</time>
      </trkpt>
      <trkpt lat="35.95665421" lon="120.2087514">
        <time>2019-08-25T14:21:08.538000Z</time>
      </trkpt>
    </trkseg>
  </trk>
</gpx>