<?xml version="1.0" encoding="UTF-8"?>
<gpx xmlns="http://www.topografix.com/GPX/1/1" xmlns:gpxtpx="http://www.garmin.com/xmlschemas/TrackPointExtension/v1" xmlns:xsi="http://www.w3.org/2001/XMLSchema-instance" xsi:schemaLocation="http://www.topografix.com/GPX/1/1 http://www.topografix.com/GPX/1/1/gpx.xsd" version="1.1" creator="gpx.py -- https://github.com/tkrajina/gpxpy">
  <trk>
    <name>星期四 傍晚跑步</name>
    <trkseg>
      <trkpt lat="35.93844936" lon="120.21065808">
        <time>2019-08-22T12:21:55.965000Z</time>
      </trkpt>
      <trkpt lat="35.93843736" lon="120.21065436">
        <time>2019-08-22T12:21:56.972000Z</time>
      </trkpt>
      <trkpt lat="35.93843736" lon="120.21065436">
        <time>2019-08-22T12:21:57.970000Z</time>
      </trkpt>
      <trkpt lat="35.93843736" lon="120.21065436">
        <time>2019-08-22T12:22:02.970000Z</time>
      </trkpt>
      <trkpt lat="35.93843736" lon="120.21065436">
        <time>2019-08-22T12:22:02.977000Z</time>
      </trkpt>
      <trkpt lat="35.93832335" lon="120.21063634">
        <time>2019-08-22T12:22:05.972000Z</time>
      </trkpt>
      <trkpt lat="35.93823043" lon="120.21063433">
        <time>2019-08-22T12:22:12.980000Z</time>
      </trkpt>
      <trkpt lat="35.93813597" lon="120.21061169">
        <time>2019-08-22T12:22:18.996000Z</time>
      </trkpt>
      <trkpt lat="35.93804916" lon="120.21058092">
        <time>2019-08-22T12:22:24.999000Z</time>
      </trkpt>
      <trkpt lat="35.93804916" lon="120.21058092">
        <time>2019-08-22T12:22:28.978000Z</time>
      </trkpt>
      <trkpt lat="35.93795879" lon="120.21054027">
        <time>2019-08-22T12:22:32.965000Z</time>
      </trkpt>
      <trkpt lat="35.93795879" lon="120.21054027">
        <time>2019-08-22T12:22:38.982000Z</time>
      </trkpt>
      <trkpt lat="35.93789463" lon="120.21044923">
        <time>2019-08-22T12:22:38.994000Z</time>
      </trkpt>
      <trkpt lat="35.93785403" lon="120.210336">
        <time>2019-08-22T12:22:45.988000Z</time>
      </trkpt>
      <trkpt lat="35.93778953" lon="120.21024226">
        <time>2019-08-22T12:22:53.016000Z</time>
      </trkpt>
      <trkpt lat="35.93770758" lon="120.2101923">
        <time>2019-08-22T12:22:59.974000Z</time>
      </trkpt>
      <trkpt lat="35.93763082" lon="120.21013122">
        <time>2019-08-22T12:23:06.990000Z</time>
      </trkpt>
      <trkpt lat="35.93753065" lon="120.21012113">
        <time>2019-08-22T12:23:13.993000Z</time>
      </trkpt>
      <trkpt lat="35.93743994" lon="120.21007845">
        <time>2019-08-22T12:23:20.983000Z</time>
      </trkpt>
      <trkpt lat="35.93735042" lon="120.21004225">
        <time>2019-08-22T12:23:27.989000Z</time>
      </trkpt>
      <trkpt lat="35.93725654" lon="120.21002046">
        <time>2019-08-22T12:23:34.968000Z</time>
      </trkpt>
      <trkpt lat="35.93717138" lon="120.20997164">
        <time>2019-08-22T12:23:41.983000Z</time>
      </trkpt>
      <trkpt lat="35.93707848" lon="120.20991173">
        <time>2019-08-22T12:23:49.993000Z</time>
      </trkpt>
      <trkpt lat="35.9369903" lon="120.20987276">
        <time>2019-08-22T12:23:55.984000Z</time>
      </trkpt>
      <trkpt lat="35.93691096" lon="120.20980413">
        <time>2019-08-22T12:24:02.976000Z</time>
      </trkpt>
      <trkpt lat="35.93683219" lon="120.20972565">
        <time>2019-08-22T12:24:09.976000Z</time>
      </trkpt>
      <trkpt lat="35.93676829" lon="120.20963331">
        <time>2019-08-22T12:24:16.995000Z</time>
      </trkpt>
      <trkpt lat="35.93670961" lon="120.20952955">
        <time>2019-08-22T12:24:23.974000Z</time>
      </trkpt>
      <trkpt lat="35.93664442" lon="120.20944739">
        <time>2019-08-22T12:24:30.998000Z</time>
      </trkpt>
      <trkpt lat="35.93657914" lon="120.20935966">
        <time>2019-08-22T12:24:38.974000Z</time>
      </trkpt>
      <trkpt lat="35.93648359" lon="120.2093317">
        <time>2019-08-22T12:24:46.990000Z</time>
      </trkpt>
      <trkpt lat="35.93640895" lon="120.20926851">
        <time>2019-08-22T12:24:53.977000Z</time>
      </trkpt>
      <trkpt lat="35.93633307" lon="120.20918509">
        <time>2019-08-22T12:25:01.993000Z</time>
      </trkpt>
      <trkpt lat="35.93626809" lon="120.20909371">
        <time>2019-08-22T12:25:09.992000Z</time>
      </trkpt>
      <trkpt lat="35.93619775" lon="120.20901337">
        <time>2019-08-22T12:25:16.976000Z</time>
      </trkpt>
      <trkpt lat="35.93614037" lon="120.20891736">
        <time>2019-08-22T12:25:23.975000Z</time>
      </trkpt>
      <trkpt lat="35.93607669" lon="120.2088347">
        <time>2019-08-22T12:25:30.978000Z</time>
      </trkpt>
      <trkpt lat="35.93601442" lon="120.20873909">
        <time>2019-08-22T12:25:37.987000Z</time>
      </trkpt>
      <trkpt lat="35.93594938" lon="120.20864907">
        <time>2019-08-22T12:25:45.963000Z</time>
      </trkpt>
      <trkpt lat="35.93586622" lon="120.20858357">
        <time>2019-08-22T12:25:53.962000Z</time>
      </trkpt>
      <trkpt lat="35.93579324" lon="120.20851571">
        <time>2019-08-22T12:26:00.973000Z</time>
      </trkpt>
      <trkpt lat="35.9357104" lon="120.20845011">
        <time>2019-08-22T12:26:08.978000Z</time>
      </trkpt>
      <trkpt lat="35.93562146" lon="120.20839734">
        <time>2019-08-22T12:26:16.015000Z</time>
      </trkpt>
      <trkpt lat="35.93554718" lon="120.20833228">
        <time>2019-08-22T12:26:23.984000Z</time>
      </trkpt>
      <trkpt lat="35.93545173" lon="120.20829225">
        <time>2019-08-22T12:26:30.980000Z</time>
      </trkpt>
      <trkpt lat="35.93535758" lon="120.20823767">
        <time>2019-08-22T12:26:37.981000Z</time>
      </trkpt>
      <trkpt lat="35.93526331" lon="120.20821543">
        <time>2019-08-22T12:26:45.009000Z</time>
      </trkpt>
      <trkpt lat="35.93519327" lon="120.20812889">
        <time>2019-08-22T12:26:51.974000Z</time>
      </trkpt>
      <trkpt lat="35.93515489" lon="120.20802078">
        <time>2019-08-22T12:26:58.990000Z</time>
      </trkpt>
      <trkpt lat="35.93510812" lon="120.2079171">
        <time>2019-08-22T12:27:05.983000Z</time>
      </trkpt>
      <trkpt lat="35.93508233" lon="120.20780819">
        <time>2019-08-22T12:27:12.982000Z</time>
      </trkpt>
      <trkpt lat="35.93508233" lon="120.20780819">
        <time>2019-08-22T12:27:21.921000Z</time>
      </trkpt>
      <trkpt lat="35.93500726" lon="120.20772288">
        <time>2019-08-22T12:27:21.982000Z</time>
      </trkpt>
      <trkpt lat="35.9349703" lon="120.20760955">
        <time>2019-08-22T12:27:27.989000Z</time>
      </trkpt>
      <trkpt lat="35.9349703" lon="120.20760955">
        <time>2019-08-22T12:27:32.945000Z</time>
      </trkpt>
      <trkpt lat="35.93489622" lon="120.20754111">
        <time>2019-08-22T12:27:33.989000Z</time>
      </trkpt>
      <trkpt lat="35.93479635" lon="120.2074941">
        <time>2019-08-22T12:27:39.982000Z</time>
      </trkpt>
      <trkpt lat="35.93471798" lon="120.20743673">
        <time>2019-08-22T12:27:45.987000Z</time>
      </trkpt>
      <trkpt lat="35.93468302" lon="120.20732868">
        <time>2019-08-22T12:27:51.990000Z</time>
      </trkpt>
      <trkpt lat="35.93464821" lon="120.2072176">
        <time>2019-08-22T12:27:57.980000Z</time>
      </trkpt>
      <trkpt lat="35.93463733" lon="120.20710436">
        <time>2019-08-22T12:28:04Z</time>
      </trkpt>
      <trkpt lat="35.93461743" lon="120.2069826">
        <time>2019-08-22T12:28:11.015000Z</time>
      </trkpt>
      <trkpt lat="35.93457124" lon="120.20687247">
        <time>2019-08-22T12:28:18.988000Z</time>
      </trkpt>
      <trkpt lat="35.93453168" lon="120.20677249">
        <time>2019-08-22T12:28:25.982000Z</time>
      </trkpt>
      <trkpt lat="35.93447059" lon="120.20668065">
        <time>2019-08-22T12:28:32.985000Z</time>
      </trkpt>
      <trkpt lat="35.93439849" lon="120.20660622">
        <time>2019-08-22T12:28:39.981000Z</time>
      </trkpt>
      <trkpt lat="35.93433197" lon="120.20651565">
        <time>2019-08-22T12:28:48.011000Z</time>
      </trkpt>
      <trkpt lat="35.93426254" lon="120.20642621">
        <time>2019-08-22T12:28:55.987000Z</time>
      </trkpt>
      <trkpt lat="35.9342004" lon="120.20633954">
        <time>2019-08-22T12:29:03.980000Z</time>
      </trkpt>
      <trkpt lat="35.93415324" lon="120.20624388">
        <time>2019-08-22T12:29:11.020000Z</time>
      </trkpt>
      <trkpt lat="35.93408823" lon="120.2061631">
        <time>2019-08-22T12:29:20.988000Z</time>
      </trkpt>
      <trkpt lat="35.93405246" lon="120.20605126">
        <time>2019-08-22T12:29:27.977000Z</time>
      </trkpt>
      <trkpt lat="35.93402509" lon="120.20594337">
        <time>2019-08-22T12:29:34.981000Z</time>
      </trkpt>
      <trkpt lat="35.93400499" lon="120.20582602">
        <time>2019-08-22T12:29:41.980000Z</time>
      </trkpt>
      <trkpt lat="35.93399442" lon="120.205704">
        <time>2019-08-22T12:29:47.988000Z</time>
      </trkpt>
      <trkpt lat="35.93396902" lon="120.20558659">
        <time>2019-08-22T12:29:54.989000Z</time>
      </trkpt>
      <trkpt lat="35.93394994" lon="120.20547271">
        <time>2019-08-22T12:30:02.006000Z</time>
      </trkpt>
      <trkpt lat="35.93390685" lon="120.20536449">
        <time>2019-08-22T12:30:08.999000Z</time>
      </trkpt>
      <trkpt lat="35.93383169" lon="120.20530308">
        <time>2019-08-22T12:30:15.987000Z</time>
      </trkpt>
      <trkpt lat="35.93376714" lon="120.20521904">
        <time>2019-08-22T12:30:21.982000Z</time>
      </trkpt>
      <trkpt lat="35.93370512" lon="120.20512168">
        <time>2019-08-22T12:30:29.962000Z</time>
      </trkpt>
      <trkpt lat="35.93363171" lon="120.20505255">
        <time>2019-08-22T12:30:36.981000Z</time>
      </trkpt>
      <trkpt lat="35.93359181" lon="120.20495084">
        <time>2019-08-22T12:30:42.981000Z</time>
      </trkpt>
      <trkpt lat="35.93355055" lon="120.20485184">
        <time>2019-08-22T12:30:49.980000Z</time>
      </trkpt>
      <trkpt lat="35.93355675" lon="120.20472396">
        <time>2019-08-22T12:30:56.976000Z</time>
      </trkpt>
      <trkpt lat="35.93355126" lon="120.20460524">
        <time>2019-08-22T12:31:02.979000Z</time>
      </trkpt>
      <trkpt lat="35.93357787" lon="120.20449794">
        <time>2019-08-22T12:31:09.982000Z</time>
      </trkpt>
      <trkpt lat="35.93361162" lon="120.20438997">
        <time>2019-08-22T12:31:16.981000Z</time>
      </trkpt>
      <trkpt lat="35.93361775" lon="120.2042652">
        <time>2019-08-22T12:31:24.979000Z</time>
      </trkpt>
      <trkpt lat="35.93360843" lon="120.20413977">
        <time>2019-08-22T12:31:31.991000Z</time>
      </trkpt>
      <trkpt lat="35.93357587" lon="120.20402924">
        <time>2019-08-22T12:31:38.980000Z</time>
      </trkpt>
      <trkpt lat="35.93352997" lon="120.2039186">
        <time>2019-08-22T12:31:45.961000Z</time>
      </trkpt>
      <trkpt lat="35.93346756" lon="120.20382576">
        <time>2019-08-22T12:31:52.961000Z</time>
      </trkpt>
      <trkpt lat="35.933408" lon="120.20373738">
        <time>2019-08-22T12:31:59.972000Z</time>
      </trkpt>
      <trkpt lat="35.93335392" lon="120.20364762">
        <time>2019-08-22T12:32:05.966000Z</time>
      </trkpt>
      <trkpt lat="35.93335392" lon="120.20364762">
        <time>2019-08-22T12:32:10.413000Z</time>
      </trkpt>
      <trkpt lat="35.93328868" lon="120.2035567">
        <time>2019-08-22T12:32:12.984000Z</time>
      </trkpt>
      <trkpt lat="35.93323778" lon="120.20344266">
        <time>2019-08-22T12:32:18.976000Z</time>
      </trkpt>
      <trkpt lat="35.93323778" lon="120.20344266">
        <time>2019-08-22T12:32:22.977000Z</time>
      </trkpt>
      <trkpt lat="35.93320152" lon="120.2033256">
        <time>2019-08-22T12:32:25.977000Z</time>
      </trkpt>
      <trkpt lat="35.93320619" lon="120.20321192">
        <time>2019-08-22T12:32:31.979000Z</time>
      </trkpt>
      <trkpt lat="35.93320423" lon="120.20308307">
        <time>2019-08-22T12:32:39.001000Z</time>
      </trkpt>
      <trkpt lat="35.93319814" lon="120.20295544">
        <time>2019-08-22T12:32:45.980000Z</time>
      </trkpt>
      <trkpt lat="35.93319495" lon="120.20283388">
        <time>2019-08-22T12:32:52.980000Z</time>
      </trkpt>
      <trkpt lat="35.93319457" lon="120.2027044">
        <time>2019-08-22T12:32:58.990000Z</time>
      </trkpt>
      <trkpt lat="35.93316615" lon="120.20259676">
        <time>2019-08-22T12:33:03.980000Z</time>
      </trkpt>
      <trkpt lat="35.93313248" lon="120.2024916">
        <time>2019-08-22T12:33:08.966000Z</time>
      </trkpt>
      <trkpt lat="35.93307682" lon="120.20238503">
        <time>2019-08-22T12:33:15.961000Z</time>
      </trkpt>
      <trkpt lat="35.93302224" lon="120.20229399">
        <time>2019-08-22T12:33:22.974000Z</time>
      </trkpt>
      <trkpt lat="35.93296395" lon="120.20220544">
        <time>2019-08-22T12:33:29.969000Z</time>
      </trkpt>
      <trkpt lat="35.9329145" lon="120.2020962">
        <time>2019-08-22T12:33:37.970000Z</time>
      </trkpt>
      <trkpt lat="35.93287668" lon="120.20198017">
        <time>2019-08-22T12:33:46.014000Z</time>
      </trkpt>
      <trkpt lat="35.9328597" lon="120.20187007">
        <time>2019-08-22T12:33:52.994000Z</time>
      </trkpt>
      <trkpt lat="35.9328847" lon="120.20174813">
        <time>2019-08-22T12:34:00.990000Z</time>
      </trkpt>
      <trkpt lat="35.93290827" lon="120.20163599">
        <time>2019-08-22T12:34:07.971000Z</time>
      </trkpt>
      <trkpt lat="35.93286167" lon="120.20152685">
        <time>2019-08-22T12:34:13.990000Z</time>
      </trkpt>
      <trkpt lat="35.93282978" lon="120.20142105">
        <time>2019-08-22T12:34:19.970000Z</time>
      </trkpt>
      <trkpt lat="35.9327822" lon="120.20130752">
        <time>2019-08-22T12:34:26.988000Z</time>
      </trkpt>
      <trkpt lat="35.9327329" lon="120.20120387">
        <time>2019-08-22T12:34:32.990000Z</time>
      </trkpt>
      <trkpt lat="35.93268513" lon="120.20109234">
        <time>2019-08-22T12:34:40.978000Z</time>
      </trkpt>
      <trkpt lat="35.93262913" lon="120.20100289">
        <time>2019-08-22T12:34:46.970000Z</time>
      </trkpt>
      <trkpt lat="35.93256185" lon="120.20091415">
        <time>2019-08-22T12:34:52.969000Z</time>
      </trkpt>
      <trkpt lat="35.93252456" lon="120.20080656">
        <time>2019-08-22T12:34:59.978000Z</time>
      </trkpt>
      <trkpt lat="35.93249923" lon="120.20069973">
        <time>2019-08-22T12:35:06.988000Z</time>
      </trkpt>
      <trkpt lat="35.93247073" lon="120.2005941">
        <time>2019-08-22T12:35:14Z</time>
      </trkpt>
      <trkpt lat="35.93243169" lon="120.20048151">
        <time>2019-08-22T12:35:20.983000Z</time>
      </trkpt>
      <trkpt lat="35.93244496" lon="120.20035811">
        <time>2019-08-22T12:35:26.995000Z</time>
      </trkpt>
      <trkpt lat="35.93238454" lon="120.20025652">
        <time>2019-08-22T12:35:32.990000Z</time>
      </trkpt>
      <trkpt lat="35.93234731" lon="120.20014466">
        <time>2019-08-22T12:35:38.981000Z</time>
      </trkpt>
      <trkpt lat="35.93229267" lon="120.20004546">
        <time>2019-08-22T12:35:46.004000Z</time>
      </trkpt>
      <trkpt lat="35.93225466" lon="120.19993898">
        <time>2019-08-22T12:35:52.997000Z</time>
      </trkpt>
      <trkpt lat="35.93992884" lon="120.20970424">
        <time>2019-08-22T13:01:27.444000Z</time>
      </trkpt>
      <trkpt lat="35.93994367" lon="120.20969781">
        <time>2019-08-22T13:01:28.025000Z</time>
      </trkpt>
    </trkseg>
  </trk>
</gpx>