<?xml version="1.0" encoding="UTF-8"?>
<gpx xmlns="http://www.topografix.com/GPX/1/1" xmlns:gpxtpx="http://www.garmin.com/xmlschemas/TrackPointExtension/v1" xmlns:xsi="http://www.w3.org/2001/XMLSchema-instance" xsi:schemaLocation="http://www.topografix.com/GPX/1/1 http://www.topografix.com/GPX/1/1/gpx.xsd" version="1.1" creator="gpx.py -- https://github.com/tkrajina/gpxpy">
  <trk>
    <name>星期日 夜跑</name>
    <trkseg>
      <trkpt lat="35.95685229" lon="120.20988864">
        <time>2019-09-08T13:37:27.683000Z</time>
      </trkpt>
      <trkpt lat="35.95685229" lon="120.20988864">
        <time>2019-09-08T13:37:29.685000Z</time>
      </trkpt>
      <trkpt lat="35.95685229" lon="120.20988864">
        <time>2019-09-08T13:37:29.705000Z</time>
      </trkpt>
      <trkpt lat="35.95694739" lon="120.20984668">
        <time>2019-09-08T13:37:31.678000Z</time>
      </trkpt>
      <trkpt lat="35.95703935" lon="120.20984784">
        <time>2019-09-08T13:37:38.714000Z</time>
      </trkpt>
      <trkpt lat="35.95703935" lon="120.20984784">
        <time>2019-09-08T13:37:39.709000Z</time>
      </trkpt>
      <trkpt lat="35.95703858" lon="120.20996389">
        <time>2019-09-08T13:37:43.671000Z</time>
      </trkpt>
      <trkpt lat="35.95715596" lon="120.20995453">
        <time>2019-09-08T13:37:47.657000Z</time>
      </trkpt>
      <trkpt lat="35.95725876" lon="120.20991369">
        <time>2019-09-08T13:37:50.663000Z</time>
      </trkpt>
      <trkpt lat="35.95735943" lon="120.20988668">
        <time>2019-09-08T13:37:53.673000Z</time>
      </trkpt>
      <trkpt lat="35.95745885" lon="120.20982645">
        <time>2019-09-08T13:37:57.686000Z</time>
      </trkpt>
      <trkpt lat="35.95753943" lon="120.20987825">
        <time>2019-09-08T13:38:03.673000Z</time>
      </trkpt>
      <trkpt lat="35.95762926" lon="120.20990765">
        <time>2019-09-08T13:38:08.681000Z</time>
      </trkpt>
      <trkpt lat="35.95771509" lon="120.20996043">
        <time>2019-09-08T13:38:13.673000Z</time>
      </trkpt>
      <trkpt lat="35.95774959" lon="120.21008705">
        <time>2019-09-08T13:38:18.657000Z</time>
      </trkpt>
      <trkpt lat="35.95774959" lon="120.21008705">
        <time>2019-09-08T13:38:21.670000Z</time>
      </trkpt>
      <trkpt lat="35.95773775" lon="120.2106662">
        <time>2019-09-08T13:38:39.687000Z</time>
      </trkpt>
      <trkpt lat="35.95763943" lon="120.21068681">
        <time>2019-09-08T13:38:45.702000Z</time>
      </trkpt>
      <trkpt lat="35.95752634" lon="120.21077658">
        <time>2019-09-08T13:38:48.679000Z</time>
      </trkpt>
      <trkpt lat="35.95743785" lon="120.21087843">
        <time>2019-09-08T13:38:51.670000Z</time>
      </trkpt>
      <trkpt lat="35.95733574" lon="120.21092683">
        <time>2019-09-08T13:38:55.683000Z</time>
      </trkpt>
      <trkpt lat="35.9572401" lon="120.2109234">
        <time>2019-09-08T13:38:59.668000Z</time>
      </trkpt>
      <trkpt lat="35.95714888" lon="120.21090837">
        <time>2019-09-08T13:39:03.669000Z</time>
      </trkpt>
      <trkpt lat="35.95705654" lon="120.21084701">
        <time>2019-09-08T13:39:07.679000Z</time>
      </trkpt>
      <trkpt lat="35.9569685" lon="120.2108115">
        <time>2019-09-08T13:39:11.668000Z</time>
      </trkpt>
      <trkpt lat="35.9568865" lon="120.21088303">
        <time>2019-09-08T13:39:15.693000Z</time>
      </trkpt>
      <trkpt lat="35.95680813" lon="120.21094697">
        <time>2019-09-08T13:39:19.665000Z</time>
      </trkpt>
      <trkpt lat="35.95674478" lon="120.21103543">
        <time>2019-09-08T13:39:24.656000Z</time>
      </trkpt>
      <trkpt lat="35.95668565" lon="120.21113135">
        <time>2019-09-08T13:39:29.684000Z</time>
      </trkpt>
      <trkpt lat="35.95656836" lon="120.21113918">
        <time>2019-09-08T13:39:33.710000Z</time>
      </trkpt>
      <trkpt lat="35.95646714" lon="120.21110929">
        <time>2019-09-08T13:39:36.673000Z</time>
      </trkpt>
      <trkpt lat="35.95636234" lon="120.21108563">
        <time>2019-09-08T13:39:40.680000Z</time>
      </trkpt>
      <trkpt lat="35.95625855" lon="120.21107">
        <time>2019-09-08T13:39:44.683000Z</time>
      </trkpt>
      <trkpt lat="35.95615573" lon="120.21106106">
        <time>2019-09-08T13:39:48.677000Z</time>
      </trkpt>
      <trkpt lat="35.95605722" lon="120.2110768">
        <time>2019-09-08T13:39:52.677000Z</time>
      </trkpt>
      <trkpt lat="35.9559639" lon="120.21108778">
        <time>2019-09-08T13:39:56.756000Z</time>
      </trkpt>
      <trkpt lat="35.95585803" lon="120.21108344">
        <time>2019-09-08T13:40:01.673000Z</time>
      </trkpt>
      <trkpt lat="35.95575391" lon="120.21112405">
        <time>2019-09-08T13:40:06.683000Z</time>
      </trkpt>
      <trkpt lat="35.95572619" lon="120.21125132">
        <time>2019-09-08T13:40:11.680000Z</time>
      </trkpt>
      <trkpt lat="35.955681" lon="120.21136923">
        <time>2019-09-08T13:40:15.685000Z</time>
      </trkpt>
      <trkpt lat="35.95560849" lon="120.21146923">
        <time>2019-09-08T13:40:20.677000Z</time>
      </trkpt>
      <trkpt lat="35.95553875" lon="120.21157175">
        <time>2019-09-08T13:40:25.677000Z</time>
      </trkpt>
      <trkpt lat="35.95550447" lon="120.21169799">
        <time>2019-09-08T13:40:30.680000Z</time>
      </trkpt>
      <trkpt lat="35.95552524" lon="120.21180878">
        <time>2019-09-08T13:40:34.706000Z</time>
      </trkpt>
      <trkpt lat="35.95555249" lon="120.21192516">
        <time>2019-09-08T13:40:38.692000Z</time>
      </trkpt>
      <trkpt lat="35.95560344" lon="120.2120323">
        <time>2019-09-08T13:40:42.674000Z</time>
      </trkpt>
      <trkpt lat="35.95565129" lon="120.21213048">
        <time>2019-09-08T13:40:46.678000Z</time>
      </trkpt>
      <trkpt lat="35.95569171" lon="120.21223927">
        <time>2019-09-08T13:40:51.675000Z</time>
      </trkpt>
      <trkpt lat="35.95571788" lon="120.21235215">
        <time>2019-09-08T13:40:55.676000Z</time>
      </trkpt>
      <trkpt lat="35.95576055" lon="120.21246162">
        <time>2019-09-08T13:40:59.682000Z</time>
      </trkpt>
      <trkpt lat="35.95581742" lon="120.21255245">
        <time>2019-09-08T13:41:03.677000Z</time>
      </trkpt>
      <trkpt lat="35.95589282" lon="120.21263629">
        <time>2019-09-08T13:41:07.675000Z</time>
      </trkpt>
      <trkpt lat="35.95589282" lon="120.21263629">
        <time>2019-09-08T13:41:13.680000Z</time>
      </trkpt>
      <trkpt lat="35.95591576" lon="120.21328245">
        <time>2019-09-08T13:41:34.672000Z</time>
      </trkpt>
      <trkpt lat="35.95582628" lon="120.21343796">
        <time>2019-09-08T13:41:37.667000Z</time>
      </trkpt>
      <trkpt lat="35.95573114" lon="120.21351181">
        <time>2019-09-08T13:41:40.677000Z</time>
      </trkpt>
      <trkpt lat="35.95564346" lon="120.21357144">
        <time>2019-09-08T13:41:43.680000Z</time>
      </trkpt>
      <trkpt lat="35.95553618" lon="120.21361066">
        <time>2019-09-08T13:41:47.673000Z</time>
      </trkpt>
      <trkpt lat="35.95543758" lon="120.2136268">
        <time>2019-09-08T13:41:51.702000Z</time>
      </trkpt>
      <trkpt lat="35.95533663" lon="120.21360827">
        <time>2019-09-08T13:41:56.674000Z</time>
      </trkpt>
      <trkpt lat="35.95523708" lon="120.21365394">
        <time>2019-09-08T13:42:00.674000Z</time>
      </trkpt>
      <trkpt lat="35.95514698" lon="120.21369423">
        <time>2019-09-08T13:42:04.674000Z</time>
      </trkpt>
      <trkpt lat="35.95504261" lon="120.21370302">
        <time>2019-09-08T13:42:09.679000Z</time>
      </trkpt>
      <trkpt lat="35.95493504" lon="120.21373937">
        <time>2019-09-08T13:42:14.675000Z</time>
      </trkpt>
      <trkpt lat="35.95483654" lon="120.21374406">
        <time>2019-09-08T13:42:17.672000Z</time>
      </trkpt>
      <trkpt lat="35.9547439" lon="120.21376075">
        <time>2019-09-08T13:42:20.655000Z</time>
      </trkpt>
      <trkpt lat="35.95464797" lon="120.21378136">
        <time>2019-09-08T13:42:24.666000Z</time>
      </trkpt>
      <trkpt lat="35.9545427" lon="120.21378318">
        <time>2019-09-08T13:42:28.677000Z</time>
      </trkpt>
      <trkpt lat="35.95444544" lon="120.21381004">
        <time>2019-09-08T13:42:32.681000Z</time>
      </trkpt>
      <trkpt lat="35.95434643" lon="120.21379935">
        <time>2019-09-08T13:42:36.676000Z</time>
      </trkpt>
      <trkpt lat="35.9542427" lon="120.21383765">
        <time>2019-09-08T13:42:41.682000Z</time>
      </trkpt>
      <trkpt lat="35.95414797" lon="120.21388464">
        <time>2019-09-08T13:42:45.677000Z</time>
      </trkpt>
      <trkpt lat="35.95406542" lon="120.2139871">
        <time>2019-09-08T13:42:49.681000Z</time>
      </trkpt>
      <trkpt lat="35.95397511" lon="120.21405571">
        <time>2019-09-08T13:42:53.673000Z</time>
      </trkpt>
      <trkpt lat="35.95388939" lon="120.21412527">
        <time>2019-09-08T13:42:57.677000Z</time>
      </trkpt>
      <trkpt lat="35.95378258" lon="120.21411478">
        <time>2019-09-08T13:43:01.680000Z</time>
      </trkpt>
      <trkpt lat="35.95368117" lon="120.21413311">
        <time>2019-09-08T13:43:07.677000Z</time>
      </trkpt>
      <trkpt lat="35.95359624" lon="120.21409132">
        <time>2019-09-08T13:43:11.677000Z</time>
      </trkpt>
      <trkpt lat="35.95351083" lon="120.21405128">
        <time>2019-09-08T13:43:15.679000Z</time>
      </trkpt>
      <trkpt lat="35.95341089" lon="120.21408806">
        <time>2019-09-08T13:43:19.678000Z</time>
      </trkpt>
      <trkpt lat="35.95330755" lon="120.21409378">
        <time>2019-09-08T13:43:23.671000Z</time>
      </trkpt>
      <trkpt lat="35.9532109" lon="120.21405076">
        <time>2019-09-08T13:43:27.724000Z</time>
      </trkpt>
      <trkpt lat="35.95312771" lon="120.21398744">
        <time>2019-09-08T13:43:31.690000Z</time>
      </trkpt>
      <trkpt lat="35.95303541" lon="120.2140221">
        <time>2019-09-08T13:43:35.684000Z</time>
      </trkpt>
      <trkpt lat="35.95293658" lon="120.21398342">
        <time>2019-09-08T13:43:40.677000Z</time>
      </trkpt>
      <trkpt lat="35.95289089" lon="120.21387142">
        <time>2019-09-08T13:43:42.684000Z</time>
      </trkpt>
      <trkpt lat="35.95285418" lon="120.21371179">
        <time>2019-09-08T13:43:45.684000Z</time>
      </trkpt>
      <trkpt lat="35.95283389" lon="120.2135815">
        <time>2019-09-08T13:43:48.681000Z</time>
      </trkpt>
      <trkpt lat="35.9528034" lon="120.21346794">
        <time>2019-09-08T13:43:51.682000Z</time>
      </trkpt>
      <trkpt lat="35.95275059" lon="120.21334735">
        <time>2019-09-08T13:43:54.695000Z</time>
      </trkpt>
      <trkpt lat="35.9526928" lon="120.21324515">
        <time>2019-09-08T13:43:57.678000Z</time>
      </trkpt>
      <trkpt lat="35.95262267" lon="120.21315677">
        <time>2019-09-08T13:44:00.690000Z</time>
      </trkpt>
      <trkpt lat="35.95258325" lon="120.21305307">
        <time>2019-09-08T13:44:03.719000Z</time>
      </trkpt>
      <trkpt lat="35.95251338" lon="120.2129585">
        <time>2019-09-08T13:44:07.663000Z</time>
      </trkpt>
      <trkpt lat="35.95244199" lon="120.21286427">
        <time>2019-09-08T13:44:11.667000Z</time>
      </trkpt>
      <trkpt lat="35.95239183" lon="120.21275824">
        <time>2019-09-08T13:44:15.712000Z</time>
      </trkpt>
      <trkpt lat="35.95237645" lon="120.21261324">
        <time>2019-09-08T13:44:19.668000Z</time>
      </trkpt>
      <trkpt lat="35.95235828" lon="120.21246984">
        <time>2019-09-08T13:44:23.682000Z</time>
      </trkpt>
      <trkpt lat="35.95237419" lon="120.21235173">
        <time>2019-09-08T13:44:26.672000Z</time>
      </trkpt>
      <trkpt lat="35.95235813" lon="120.21220882">
        <time>2019-09-08T13:44:30.682000Z</time>
      </trkpt>
      <trkpt lat="35.95234636" lon="120.21206702">
        <time>2019-09-08T13:44:34.669000Z</time>
      </trkpt>
      <trkpt lat="35.95233744" lon="120.21192473">
        <time>2019-09-08T13:44:38.695000Z</time>
      </trkpt>
      <trkpt lat="35.95232446" lon="120.21178801">
        <time>2019-09-08T13:44:42.669000Z</time>
      </trkpt>
      <trkpt lat="35.95233263" lon="120.21167342">
        <time>2019-09-08T13:44:45.678000Z</time>
      </trkpt>
      <trkpt lat="35.9522978" lon="120.21154038">
        <time>2019-09-08T13:44:49.675000Z</time>
      </trkpt>
      <trkpt lat="35.95225803" lon="120.21141687">
        <time>2019-09-08T13:44:53.681000Z</time>
      </trkpt>
      <trkpt lat="35.95224268" lon="120.21128639">
        <time>2019-09-08T13:44:57.663000Z</time>
      </trkpt>
      <trkpt lat="35.95222355" lon="120.21116224">
        <time>2019-09-08T13:45:01.683000Z</time>
      </trkpt>
      <trkpt lat="35.95219506" lon="120.21103817">
        <time>2019-09-08T13:45:05.687000Z</time>
      </trkpt>
      <trkpt lat="35.95213751" lon="120.21093049">
        <time>2019-09-08T13:45:09.675000Z</time>
      </trkpt>
      <trkpt lat="35.95210594" lon="120.21081885">
        <time>2019-09-08T13:45:13.662000Z</time>
      </trkpt>
      <trkpt lat="35.95199482" lon="120.21081004">
        <time>2019-09-08T13:45:18.675000Z</time>
      </trkpt>
      <trkpt lat="35.95190069" lon="120.21087855">
        <time>2019-09-08T13:45:22.661000Z</time>
      </trkpt>
      <trkpt lat="35.9518201" lon="120.21093342">
        <time>2019-09-08T13:45:26.685000Z</time>
      </trkpt>
      <trkpt lat="35.9518201" lon="120.21093342">
        <time>2019-09-08T13:45:32.673000Z</time>
      </trkpt>
      <trkpt lat="35.95173921" lon="120.21088234">
        <time>2019-09-08T13:45:32.692000Z</time>
      </trkpt>
      <trkpt lat="35.95173921" lon="120.21088234">
        <time>2019-09-08T13:46:04.668000Z</time>
      </trkpt>
      <trkpt lat="35.95173921" lon="120.21088234">
        <time>2019-09-08T13:46:04.680000Z</time>
      </trkpt>
      <trkpt lat="35.95181593" lon="120.21077792">
        <time>2019-09-08T13:46:06.673000Z</time>
      </trkpt>
      <trkpt lat="35.9517652" lon="120.21068438">
        <time>2019-09-08T13:46:10.671000Z</time>
      </trkpt>
      <trkpt lat="35.95166749" lon="120.21062899">
        <time>2019-09-08T13:46:13.682000Z</time>
      </trkpt>
      <trkpt lat="35.95155904" lon="120.21061476">
        <time>2019-09-08T13:46:17.682000Z</time>
      </trkpt>
      <trkpt lat="35.95146901" lon="120.21064105">
        <time>2019-09-08T13:46:21.682000Z</time>
      </trkpt>
      <trkpt lat="35.95137595" lon="120.21066907">
        <time>2019-09-08T13:46:25.676000Z</time>
      </trkpt>
      <trkpt lat="35.95126621" lon="120.21066988">
        <time>2019-09-08T13:46:29.675000Z</time>
      </trkpt>
      <trkpt lat="35.951187" lon="120.2107285">
        <time>2019-09-08T13:46:33.680000Z</time>
      </trkpt>
      <trkpt lat="35.95109157" lon="120.21075836">
        <time>2019-09-08T13:46:37.698000Z</time>
      </trkpt>
      <trkpt lat="35.95098974" lon="120.21075058">
        <time>2019-09-08T13:46:41.671000Z</time>
      </trkpt>
      <trkpt lat="35.95098974" lon="120.21075058">
        <time>2019-09-08T13:46:48.677000Z</time>
      </trkpt>
      <trkpt lat="35.95059701" lon="120.21102432">
        <time>2019-09-08T13:47:03.681000Z</time>
      </trkpt>
      <trkpt lat="35.9504921" lon="120.2110442">
        <time>2019-09-08T13:47:06.677000Z</time>
      </trkpt>
      <trkpt lat="35.95037977" lon="120.21104826">
        <time>2019-09-08T13:47:09.675000Z</time>
      </trkpt>
      <trkpt lat="35.95028149" lon="120.21106093">
        <time>2019-09-08T13:47:12.669000Z</time>
      </trkpt>
      <trkpt lat="35.95017885" lon="120.21110026">
        <time>2019-09-08T13:47:16.672000Z</time>
      </trkpt>
      <trkpt lat="35.95009323" lon="120.21116123">
        <time>2019-09-08T13:47:20.663000Z</time>
      </trkpt>
      <trkpt lat="35.94999975" lon="120.21118172">
        <time>2019-09-08T13:47:23.675000Z</time>
      </trkpt>
      <trkpt lat="35.94990971" lon="120.21119734">
        <time>2019-09-08T13:47:26.669000Z</time>
      </trkpt>
      <trkpt lat="35.9497972" lon="120.21123693">
        <time>2019-09-08T13:47:30.674000Z</time>
      </trkpt>
      <trkpt lat="35.9497972" lon="120.21123693">
        <time>2019-09-08T13:47:35.678000Z</time>
      </trkpt>
      <trkpt lat="35.94842044" lon="120.21137994">
        <time>2019-09-08T13:48:18.670000Z</time>
      </trkpt>
      <trkpt lat="35.94834304" lon="120.21145466">
        <time>2019-09-08T13:48:23.678000Z</time>
      </trkpt>
      <trkpt lat="35.94823344" lon="120.21147422">
        <time>2019-09-08T13:48:28.674000Z</time>
      </trkpt>
      <trkpt lat="35.94813859" lon="120.21151022">
        <time>2019-09-08T13:48:32.679000Z</time>
      </trkpt>
      <trkpt lat="35.9480286" lon="120.21148839">
        <time>2019-09-08T13:48:36.673000Z</time>
      </trkpt>
      <trkpt lat="35.94792364" lon="120.21148031">
        <time>2019-09-08T13:48:40.674000Z</time>
      </trkpt>
      <trkpt lat="35.94783667" lon="120.21153116">
        <time>2019-09-08T13:48:44.676000Z</time>
      </trkpt>
      <trkpt lat="35.9477309" lon="120.21153076">
        <time>2019-09-08T13:48:48.676000Z</time>
      </trkpt>
      <trkpt lat="35.94763276" lon="120.2115713">
        <time>2019-09-08T13:48:52.670000Z</time>
      </trkpt>
      <trkpt lat="35.94756734" lon="120.2116622">
        <time>2019-09-08T13:48:56.675000Z</time>
      </trkpt>
      <trkpt lat="35.94747238" lon="120.21161954">
        <time>2019-09-08T13:48:59.657000Z</time>
      </trkpt>
      <trkpt lat="35.94737548" lon="120.21158473">
        <time>2019-09-08T13:49:02.683000Z</time>
      </trkpt>
      <trkpt lat="35.94728399" lon="120.21159945">
        <time>2019-09-08T13:49:05.680000Z</time>
      </trkpt>
      <trkpt lat="35.94717329" lon="120.2116065">
        <time>2019-09-08T13:49:09.667000Z</time>
      </trkpt>
      <trkpt lat="35.94707731" lon="120.21161445">
        <time>2019-09-08T13:49:13.677000Z</time>
      </trkpt>
      <trkpt lat="35.94698568" lon="120.21163935">
        <time>2019-09-08T13:49:17.678000Z</time>
      </trkpt>
      <trkpt lat="35.94688753" lon="120.21170019">
        <time>2019-09-08T13:49:21.689000Z</time>
      </trkpt>
      <trkpt lat="35.94681821" lon="120.21177381">
        <time>2019-09-08T13:49:24.679000Z</time>
      </trkpt>
      <trkpt lat="35.94670694" lon="120.21172747">
        <time>2019-09-08T13:49:28.665000Z</time>
      </trkpt>
      <trkpt lat="35.94670694" lon="120.21172747">
        <time>2019-09-08T13:49:32.676000Z</time>
      </trkpt>
      <trkpt lat="35.94629976" lon="120.21196865">
        <time>2019-09-08T13:49:44.668000Z</time>
      </trkpt>
      <trkpt lat="35.94620648" lon="120.21201616">
        <time>2019-09-08T13:49:48.666000Z</time>
      </trkpt>
      <trkpt lat="35.94610198" lon="120.21203792">
        <time>2019-09-08T13:49:52.681000Z</time>
      </trkpt>
      <trkpt lat="35.94598536" lon="120.21204469">
        <time>2019-09-08T13:49:56.671000Z</time>
      </trkpt>
      <trkpt lat="35.94589442" lon="120.21208393">
        <time>2019-09-08T13:50:00.693000Z</time>
      </trkpt>
      <trkpt lat="35.94579586" lon="120.21204775">
        <time>2019-09-08T13:50:04.682000Z</time>
      </trkpt>
      <trkpt lat="35.94570655" lon="120.21206209">
        <time>2019-09-08T13:50:08.662000Z</time>
      </trkpt>
      <trkpt lat="35.94562049" lon="120.21211156">
        <time>2019-09-08T13:50:12.685000Z</time>
      </trkpt>
      <trkpt lat="35.94553465" lon="120.21215179">
        <time>2019-09-08T13:50:16.677000Z</time>
      </trkpt>
      <trkpt lat="35.94542969" lon="120.21217504">
        <time>2019-09-08T13:50:22.676000Z</time>
      </trkpt>
      <trkpt lat="35.94533227" lon="120.21225915">
        <time>2019-09-08T13:50:27.683000Z</time>
      </trkpt>
      <trkpt lat="35.94525313" lon="120.21232839">
        <time>2019-09-08T13:50:30.681000Z</time>
      </trkpt>
      <trkpt lat="35.94515818" lon="120.21238034">
        <time>2019-09-08T13:50:33.677000Z</time>
      </trkpt>
      <trkpt lat="35.94506125" lon="120.21244128">
        <time>2019-09-08T13:50:36.679000Z</time>
      </trkpt>
      <trkpt lat="35.94496108" lon="120.21249457">
        <time>2019-09-08T13:50:39.680000Z</time>
      </trkpt>
      <trkpt lat="35.94488028" lon="120.21255329">
        <time>2019-09-08T13:50:42.682000Z</time>
      </trkpt>
      <trkpt lat="35.94479163" lon="120.21260521">
        <time>2019-09-08T13:50:45.682000Z</time>
      </trkpt>
      <trkpt lat="35.94468628" lon="120.21266862">
        <time>2019-09-08T13:50:49.680000Z</time>
      </trkpt>
      <trkpt lat="35.94458272" lon="120.21270959">
        <time>2019-09-08T13:50:53.660000Z</time>
      </trkpt>
      <trkpt lat="35.94448986" lon="120.21273736">
        <time>2019-09-08T13:50:57.694000Z</time>
      </trkpt>
      <trkpt lat="35.94439637" lon="120.21277789">
        <time>2019-09-08T13:51:01.679000Z</time>
      </trkpt>
      <trkpt lat="35.94430594" lon="120.21281676">
        <time>2019-09-08T13:51:05.675000Z</time>
      </trkpt>
      <trkpt lat="35.94421529" lon="120.21290105">
        <time>2019-09-08T13:51:09.696000Z</time>
      </trkpt>
      <trkpt lat="35.94416037" lon="120.21300163">
        <time>2019-09-08T13:51:13.673000Z</time>
      </trkpt>
      <trkpt lat="35.94407394" lon="120.21305625">
        <time>2019-09-08T13:51:18.679000Z</time>
      </trkpt>
      <trkpt lat="35.9439822" lon="120.2130701">
        <time>2019-09-08T13:51:21.676000Z</time>
      </trkpt>
      <trkpt lat="35.94387987" lon="120.21302954">
        <time>2019-09-08T13:51:25.683000Z</time>
      </trkpt>
      <trkpt lat="35.94382696" lon="120.21293916">
        <time>2019-09-08T13:51:28.667000Z</time>
      </trkpt>
      <trkpt lat="35.94374513" lon="120.21285991">
        <time>2019-09-08T13:51:32.684000Z</time>
      </trkpt>
      <trkpt lat="35.94370203" lon="120.21274926">
        <time>2019-09-08T13:51:36.653000Z</time>
      </trkpt>
      <trkpt lat="35.9436192" lon="120.2126777">
        <time>2019-09-08T13:51:40.684000Z</time>
      </trkpt>
      <trkpt lat="35.94353784" lon="120.21260971">
        <time>2019-09-08T13:51:44.676000Z</time>
      </trkpt>
      <trkpt lat="35.94352662" lon="120.21245602">
        <time>2019-09-08T13:51:48.674000Z</time>
      </trkpt>
      <trkpt lat="35.94351501" lon="120.21233907">
        <time>2019-09-08T13:51:51.676000Z</time>
      </trkpt>
      <trkpt lat="35.9434615" lon="120.21222445">
        <time>2019-09-08T13:51:55.676000Z</time>
      </trkpt>
      <trkpt lat="35.9434615" lon="120.21222445">
        <time>2019-09-08T13:51:59.682000Z</time>
      </trkpt>
      <trkpt lat="35.9427732" lon="120.21145891">
        <time>2019-09-08T13:52:32.683000Z</time>
      </trkpt>
      <trkpt lat="35.9427732" lon="120.21145891">
        <time>2019-09-08T13:52:36.674000Z</time>
      </trkpt>
      <trkpt lat="35.94224974" lon="120.21058872">
        <time>2019-09-08T13:53:04.677000Z</time>
      </trkpt>
      <trkpt lat="35.94217092" lon="120.21051118">
        <time>2019-09-08T13:53:09.688000Z</time>
      </trkpt>
      <trkpt lat="35.94211127" lon="120.21041249">
        <time>2019-09-08T13:53:14.677000Z</time>
      </trkpt>
      <trkpt lat="35.94206851" lon="120.21030011">
        <time>2019-09-08T13:53:19.669000Z</time>
      </trkpt>
      <trkpt lat="35.94204495" lon="120.21016402">
        <time>2019-09-08T13:53:24.677000Z</time>
      </trkpt>
      <trkpt lat="35.9419887" lon="120.21006203">
        <time>2019-09-08T13:53:28.684000Z</time>
      </trkpt>
      <trkpt lat="35.94192085" lon="120.20996712">
        <time>2019-09-08T13:53:32.679000Z</time>
      </trkpt>
      <trkpt lat="35.94186141" lon="120.20988228">
        <time>2019-09-08T13:53:35.680000Z</time>
      </trkpt>
      <trkpt lat="35.94180137" lon="120.20978072">
        <time>2019-09-08T13:53:39.675000Z</time>
      </trkpt>
      <trkpt lat="35.94175553" lon="120.20965715">
        <time>2019-09-08T13:53:43.674000Z</time>
      </trkpt>
      <trkpt lat="35.94173997" lon="120.20953789">
        <time>2019-09-08T13:53:48.710000Z</time>
      </trkpt>
      <trkpt lat="35.94179428" lon="120.20940648">
        <time>2019-09-08T13:53:52.681000Z</time>
      </trkpt>
      <trkpt lat="35.94188496" lon="120.20936337">
        <time>2019-09-08T13:53:56.679000Z</time>
      </trkpt>
      <trkpt lat="35.94197615" lon="120.20934891">
        <time>2019-09-08T13:54:00.714000Z</time>
      </trkpt>
      <trkpt lat="35.94206185" lon="120.20927742">
        <time>2019-09-08T13:54:04.681000Z</time>
      </trkpt>
      <trkpt lat="35.94216173" lon="120.20922542">
        <time>2019-09-08T13:54:09.675000Z</time>
      </trkpt>
      <trkpt lat="35.9422655" lon="120.20917399">
        <time>2019-09-08T13:54:14.679000Z</time>
      </trkpt>
      <trkpt lat="35.94234039" lon="120.20910645">
        <time>2019-09-08T13:54:18.680000Z</time>
      </trkpt>
      <trkpt lat="35.94244402" lon="120.20906978">
        <time>2019-09-08T13:54:22.681000Z</time>
      </trkpt>
      <trkpt lat="35.94253789" lon="120.20903907">
        <time>2019-09-08T13:54:26.658000Z</time>
      </trkpt>
      <trkpt lat="35.94264669" lon="120.20900932">
        <time>2019-09-08T13:54:31.671000Z</time>
      </trkpt>
      <trkpt lat="35.94274154" lon="120.2089872">
        <time>2019-09-08T13:54:35.671000Z</time>
      </trkpt>
      <trkpt lat="35.94285023" lon="120.20895454">
        <time>2019-09-08T13:54:39.685000Z</time>
      </trkpt>
      <trkpt lat="35.94295187" lon="120.20892624">
        <time>2019-09-08T13:54:43.679000Z</time>
      </trkpt>
      <trkpt lat="35.94304573" lon="120.20890073">
        <time>2019-09-08T13:54:47.677000Z</time>
      </trkpt>
      <trkpt lat="35.94314627" lon="120.20886386">
        <time>2019-09-08T13:54:51.671000Z</time>
      </trkpt>
      <trkpt lat="35.94325421" lon="120.20881721">
        <time>2019-09-08T13:54:56.653000Z</time>
      </trkpt>
      <trkpt lat="35.94334771" lon="120.20877403">
        <time>2019-09-08T13:55:00.680000Z</time>
      </trkpt>
      <trkpt lat="35.94345968" lon="120.20876069">
        <time>2019-09-08T13:55:04.666000Z</time>
      </trkpt>
      <trkpt lat="35.94356566" lon="120.2087285">
        <time>2019-09-08T13:55:08.705000Z</time>
      </trkpt>
      <trkpt lat="35.94356566" lon="120.2087285">
        <time>2019-09-08T13:55:12.675000Z</time>
      </trkpt>
      <trkpt lat="35.94453873" lon="120.20885165">
        <time>2019-09-08T13:55:43.688000Z</time>
      </trkpt>
      <trkpt lat="35.94461839" lon="120.20879633">
        <time>2019-09-08T13:55:47.672000Z</time>
      </trkpt>
      <trkpt lat="35.94470709" lon="120.20876695">
        <time>2019-09-08T13:55:51.682000Z</time>
      </trkpt>
      <trkpt lat="35.94479799" lon="120.20877285">
        <time>2019-09-08T13:55:55.671000Z</time>
      </trkpt>
      <trkpt lat="35.94489319" lon="120.20878689">
        <time>2019-09-08T13:55:59.674000Z</time>
      </trkpt>
      <trkpt lat="35.94499222" lon="120.20881764">
        <time>2019-09-08T13:56:03.678000Z</time>
      </trkpt>
      <trkpt lat="35.94508628" lon="120.20884418">
        <time>2019-09-08T13:56:07.680000Z</time>
      </trkpt>
      <trkpt lat="35.94517919" lon="120.20886741">
        <time>2019-09-08T13:56:11.691000Z</time>
      </trkpt>
      <trkpt lat="35.94527212" lon="120.20882281">
        <time>2019-09-08T13:56:15.674000Z</time>
      </trkpt>
      <trkpt lat="35.94535178" lon="120.20875223">
        <time>2019-09-08T13:56:19.716000Z</time>
      </trkpt>
      <trkpt lat="35.94546926" lon="120.20874724">
        <time>2019-09-08T13:56:23.680000Z</time>
      </trkpt>
      <trkpt lat="35.94555836" lon="120.20876734">
        <time>2019-09-08T13:56:26.673000Z</time>
      </trkpt>
      <trkpt lat="35.94566586" lon="120.20875414">
        <time>2019-09-08T13:56:30.682000Z</time>
      </trkpt>
      <trkpt lat="35.94577938" lon="120.20872791">
        <time>2019-09-08T13:56:34.678000Z</time>
      </trkpt>
      <trkpt lat="35.94588428" lon="120.20866928">
        <time>2019-09-08T13:56:38.662000Z</time>
      </trkpt>
      <trkpt lat="35.94599548" lon="120.20865173">
        <time>2019-09-08T13:56:42.693000Z</time>
      </trkpt>
      <trkpt lat="35.94609441" lon="120.20865207">
        <time>2019-09-08T13:56:45.679000Z</time>
      </trkpt>
      <trkpt lat="35.94620043" lon="120.20863059">
        <time>2019-09-08T13:56:49.678000Z</time>
      </trkpt>
      <trkpt lat="35.94620043" lon="120.20863059">
        <time>2019-09-08T13:56:52.630000Z</time>
      </trkpt>
      <trkpt lat="35.94630433" lon="120.20864424">
        <time>2019-09-08T13:56:53.667000Z</time>
      </trkpt>
      <trkpt lat="35.94639551" lon="120.20864164">
        <time>2019-09-08T13:56:57.689000Z</time>
      </trkpt>
      <trkpt lat="35.94649369" lon="120.20862893">
        <time>2019-09-08T13:57:01.686000Z</time>
      </trkpt>
      <trkpt lat="35.94649369" lon="120.20862893">
        <time>2019-09-08T13:57:02.647000Z</time>
      </trkpt>
      <trkpt lat="35.94659168" lon="120.20861787">
        <time>2019-09-08T13:57:05.679000Z</time>
      </trkpt>
      <trkpt lat="35.94668992" lon="120.20858941">
        <time>2019-09-08T13:57:09.697000Z</time>
      </trkpt>
      <trkpt lat="35.9467933" lon="120.20859519">
        <time>2019-09-08T13:57:13.715000Z</time>
      </trkpt>
      <trkpt lat="35.94690201" lon="120.20857848">
        <time>2019-09-08T13:57:17.684000Z</time>
      </trkpt>
      <trkpt lat="35.94698958" lon="120.20850463">
        <time>2019-09-08T13:57:21.674000Z</time>
      </trkpt>
      <trkpt lat="35.94699076" lon="120.20837372">
        <time>2019-09-08T13:57:25.675000Z</time>
      </trkpt>
      <trkpt lat="35.94698802" lon="120.20824197">
        <time>2019-09-08T13:57:29.693000Z</time>
      </trkpt>
      <trkpt lat="35.9469945" lon="120.20810821">
        <time>2019-09-08T13:57:33.678000Z</time>
      </trkpt>
      <trkpt lat="35.94698567" lon="120.20798031">
        <time>2019-09-08T13:57:37.658000Z</time>
      </trkpt>
      <trkpt lat="35.94698415" lon="120.20784657">
        <time>2019-09-08T13:57:41.675000Z</time>
      </trkpt>
      <trkpt lat="35.94696888" lon="120.20771825">
        <time>2019-09-08T13:57:45.723000Z</time>
      </trkpt>
      <trkpt lat="35.94693502" lon="120.2076089">
        <time>2019-09-08T13:57:49.676000Z</time>
      </trkpt>
      <trkpt lat="35.94693548" lon="120.20747521">
        <time>2019-09-08T13:57:53.667000Z</time>
      </trkpt>
      <trkpt lat="35.94694606" lon="120.20733628">
        <time>2019-09-08T13:57:57.671000Z</time>
      </trkpt>
      <trkpt lat="35.94694081" lon="120.20719691">
        <time>2019-09-08T13:58:01.660000Z</time>
      </trkpt>
      <trkpt lat="35.94697492" lon="120.20706132">
        <time>2019-09-08T13:58:05.659000Z</time>
      </trkpt>
      <trkpt lat="35.94703533" lon="120.20695542">
        <time>2019-09-08T13:58:09.671000Z</time>
      </trkpt>
      <trkpt lat="35.94709179" lon="120.20683743">
        <time>2019-09-08T13:58:13.672000Z</time>
      </trkpt>
      <trkpt lat="35.94713599" lon="120.2067252">
        <time>2019-09-08T13:58:17.672000Z</time>
      </trkpt>
      <trkpt lat="35.94718159" lon="120.20659689">
        <time>2019-09-08T13:58:22.676000Z</time>
      </trkpt>
      <trkpt lat="35.94721515" lon="120.20648673">
        <time>2019-09-08T13:58:26.671000Z</time>
      </trkpt>
      <trkpt lat="35.94723209" lon="120.20637145">
        <time>2019-09-08T13:58:30.676000Z</time>
      </trkpt>
      <trkpt lat="35.9472804" lon="120.20625592">
        <time>2019-09-08T13:58:34.674000Z</time>
      </trkpt>
      <trkpt lat="35.94732861" lon="120.2061294">
        <time>2019-09-08T13:58:38.671000Z</time>
      </trkpt>
      <trkpt lat="35.94736784" lon="120.20600232">
        <time>2019-09-08T13:58:42.672000Z</time>
      </trkpt>
      <trkpt lat="35.94742277" lon="120.20587666">
        <time>2019-09-08T13:58:46.688000Z</time>
      </trkpt>
      <trkpt lat="35.94744935" lon="120.20576371">
        <time>2019-09-08T13:58:50.671000Z</time>
      </trkpt>
      <trkpt lat="35.94747943" lon="120.20564311">
        <time>2019-09-08T13:58:54.684000Z</time>
      </trkpt>
      <trkpt lat="35.94753024" lon="120.20551555">
        <time>2019-09-08T13:58:58.709000Z</time>
      </trkpt>
      <trkpt lat="35.94758266" lon="120.20538556">
        <time>2019-09-08T13:59:02.685000Z</time>
      </trkpt>
      <trkpt lat="35.94763576" lon="120.20526288">
        <time>2019-09-08T13:59:06.666000Z</time>
      </trkpt>
      <trkpt lat="35.9476896" lon="120.20517223">
        <time>2019-09-08T13:59:09.676000Z</time>
      </trkpt>
      <trkpt lat="35.94774887" lon="120.20504546">
        <time>2019-09-08T13:59:13.686000Z</time>
      </trkpt>
      <trkpt lat="35.9477971" lon="120.20491367">
        <time>2019-09-08T13:59:17.680000Z</time>
      </trkpt>
      <trkpt lat="35.9478445" lon="120.20478108">
        <time>2019-09-08T13:59:21.669000Z</time>
      </trkpt>
      <trkpt lat="35.9478598" lon="120.20465418">
        <time>2019-09-08T13:59:25.666000Z</time>
      </trkpt>
      <trkpt lat="35.94786106" lon="120.20452379">
        <time>2019-09-08T13:59:29.713000Z</time>
      </trkpt>
      <trkpt lat="35.94786879" lon="120.20439279">
        <time>2019-09-08T13:59:33.661000Z</time>
      </trkpt>
      <trkpt lat="35.94781556" lon="120.20428451">
        <time>2019-09-08T13:59:37.668000Z</time>
      </trkpt>
      <trkpt lat="35.94788978" lon="120.20421238">
        <time>2019-09-08T13:59:44.676000Z</time>
      </trkpt>
      <trkpt lat="35.9479871" lon="120.20428221">
        <time>2019-09-08T13:59:48.673000Z</time>
      </trkpt>
      <trkpt lat="35.94809366" lon="120.2043344">
        <time>2019-09-08T13:59:52.671000Z</time>
      </trkpt>
      <trkpt lat="35.9481976" lon="120.20437697">
        <time>2019-09-08T13:59:56.664000Z</time>
      </trkpt>
      <trkpt lat="35.94827276" lon="120.20445967">
        <time>2019-09-08T14:00:00.660000Z</time>
      </trkpt>
      <trkpt lat="35.94835519" lon="120.20453046">
        <time>2019-09-08T14:00:04.655000Z</time>
      </trkpt>
      <trkpt lat="35.94843872" lon="120.2046082">
        <time>2019-09-08T14:00:08.665000Z</time>
      </trkpt>
      <trkpt lat="35.9485064" lon="120.20470895">
        <time>2019-09-08T14:00:12.659000Z</time>
      </trkpt>
      <trkpt lat="35.94859467" lon="120.20479603">
        <time>2019-09-08T14:00:16.671000Z</time>
      </trkpt>
      <trkpt lat="35.94868103" lon="120.20484316">
        <time>2019-09-08T14:00:19.663000Z</time>
      </trkpt>
      <trkpt lat="35.94875033" lon="120.20491731">
        <time>2019-09-08T14:00:22.677000Z</time>
      </trkpt>
      <trkpt lat="35.94882108" lon="120.20500371">
        <time>2019-09-08T14:00:25.675000Z</time>
      </trkpt>
      <trkpt lat="35.94888864" lon="120.20509563">
        <time>2019-09-08T14:00:28.675000Z</time>
      </trkpt>
      <trkpt lat="35.94895784" lon="120.2051808">
        <time>2019-09-08T14:00:31.671000Z</time>
      </trkpt>
      <trkpt lat="35.94902399" lon="120.20525952">
        <time>2019-09-08T14:00:34.680000Z</time>
      </trkpt>
      <trkpt lat="35.949109" lon="120.20536028">
        <time>2019-09-08T14:00:38.680000Z</time>
      </trkpt>
      <trkpt lat="35.94919032" lon="120.20544725">
        <time>2019-09-08T14:00:42.679000Z</time>
      </trkpt>
      <trkpt lat="35.9492828" lon="120.20552191">
        <time>2019-09-08T14:00:46.675000Z</time>
      </trkpt>
      <trkpt lat="35.94937524" lon="120.20560751">
        <time>2019-09-08T14:00:50.676000Z</time>
      </trkpt>
      <trkpt lat="35.94943605" lon="120.20569772">
        <time>2019-09-08T14:00:53.680000Z</time>
      </trkpt>
      <trkpt lat="35.94950345" lon="120.20578377">
        <time>2019-09-08T14:00:56.677000Z</time>
      </trkpt>
      <trkpt lat="35.94958777" lon="120.20587893">
        <time>2019-09-08T14:01:00.666000Z</time>
      </trkpt>
      <trkpt lat="35.94966694" lon="120.20593568">
        <time>2019-09-08T14:01:03.666000Z</time>
      </trkpt>
      <trkpt lat="35.94973106" lon="120.20601588">
        <time>2019-09-08T14:01:06.676000Z</time>
      </trkpt>
      <trkpt lat="35.9498366" lon="120.20605136">
        <time>2019-09-08T14:01:10.676000Z</time>
      </trkpt>
      <trkpt lat="35.94993456" lon="120.20599372">
        <time>2019-09-08T14:01:14.672000Z</time>
      </trkpt>
      <trkpt lat="35.95002114" lon="120.2059091">
        <time>2019-09-08T14:01:18.675000Z</time>
      </trkpt>
      <trkpt lat="35.95011564" lon="120.20584734">
        <time>2019-09-08T14:01:22.677000Z</time>
      </trkpt>
      <trkpt lat="35.95020609" lon="120.20578963">
        <time>2019-09-08T14:01:26.655000Z</time>
      </trkpt>
      <trkpt lat="35.95029443" lon="120.20574298">
        <time>2019-09-08T14:01:30.677000Z</time>
      </trkpt>
      <trkpt lat="35.95039162" lon="120.20569727">
        <time>2019-09-08T14:01:34.706000Z</time>
      </trkpt>
      <trkpt lat="35.95048194" lon="120.20565281">
        <time>2019-09-08T14:01:39.662000Z</time>
      </trkpt>
      <trkpt lat="35.95056984" lon="120.20560158">
        <time>2019-09-08T14:01:43.671000Z</time>
      </trkpt>
      <trkpt lat="35.95061142" lon="120.20549546">
        <time>2019-09-08T14:01:47.670000Z</time>
      </trkpt>
      <trkpt lat="35.95060705" lon="120.20537219">
        <time>2019-09-08T14:01:51.681000Z</time>
      </trkpt>
      <trkpt lat="35.95058626" lon="120.20525098">
        <time>2019-09-08T14:01:55.679000Z</time>
      </trkpt>
      <trkpt lat="35.95055323" lon="120.20513583">
        <time>2019-09-08T14:01:59.655000Z</time>
      </trkpt>
      <trkpt lat="35.95054836" lon="120.20501132">
        <time>2019-09-08T14:02:04.679000Z</time>
      </trkpt>
      <trkpt lat="35.95054836" lon="120.20501132">
        <time>2019-09-08T14:02:04.872000Z</time>
      </trkpt>
      <trkpt lat="35.95054816" lon="120.20489678">
        <time>2019-09-08T14:02:09.676000Z</time>
      </trkpt>
      <trkpt lat="35.95054816" lon="120.20489678">
        <time>2019-09-08T14:03:32.696000Z</time>
      </trkpt>
      <trkpt lat="35.95064398" lon="120.20483558">
        <time>2019-09-08T14:03:32.700000Z</time>
      </trkpt>
      <trkpt lat="35.95071967" lon="120.20475884">
        <time>2019-09-08T14:03:36.657000Z</time>
      </trkpt>
      <trkpt lat="35.95080326" lon="120.20467851">
        <time>2019-09-08T14:03:40.660000Z</time>
      </trkpt>
      <trkpt lat="35.95089603" lon="120.20460109">
        <time>2019-09-08T14:03:44.672000Z</time>
      </trkpt>
      <trkpt lat="35.95098691" lon="120.20452501">
        <time>2019-09-08T14:03:48.674000Z</time>
      </trkpt>
      <trkpt lat="35.95108211" lon="120.20446799">
        <time>2019-09-08T14:03:52.676000Z</time>
      </trkpt>
      <trkpt lat="35.95119177" lon="120.2044487">
        <time>2019-09-08T14:03:56.670000Z</time>
      </trkpt>
      <trkpt lat="35.95130594" lon="120.20444103">
        <time>2019-09-08T14:04:00.675000Z</time>
      </trkpt>
      <trkpt lat="35.95141629" lon="120.20441321">
        <time>2019-09-08T14:04:04.673000Z</time>
      </trkpt>
      <trkpt lat="35.9515117" lon="120.20439511">
        <time>2019-09-08T14:04:07.678000Z</time>
      </trkpt>
      <trkpt lat="35.95163045" lon="120.20438479">
        <time>2019-09-08T14:04:11.686000Z</time>
      </trkpt>
      <trkpt lat="35.95173039" lon="120.20438972">
        <time>2019-09-08T14:04:14.667000Z</time>
      </trkpt>
      <trkpt lat="35.95183728" lon="120.20438505">
        <time>2019-09-08T14:04:18.657000Z</time>
      </trkpt>
      <trkpt lat="35.95194872" lon="120.20435553">
        <time>2019-09-08T14:04:22.666000Z</time>
      </trkpt>
      <trkpt lat="35.95205525" lon="120.20433909">
        <time>2019-09-08T14:04:26.671000Z</time>
      </trkpt>
      <trkpt lat="35.95215002" lon="120.20433844">
        <time>2019-09-08T14:04:30.686000Z</time>
      </trkpt>
      <trkpt lat="35.95225958" lon="120.20433018">
        <time>2019-09-08T14:04:35.659000Z</time>
      </trkpt>
      <trkpt lat="35.95235148" lon="120.20434634">
        <time>2019-09-08T14:04:39.681000Z</time>
      </trkpt>
      <trkpt lat="35.95245641" lon="120.20433758">
        <time>2019-09-08T14:04:43.667000Z</time>
      </trkpt>
      <trkpt lat="35.95256622" lon="120.20430575">
        <time>2019-09-08T14:04:47.700000Z</time>
      </trkpt>
      <trkpt lat="35.95267493" lon="120.20430255">
        <time>2019-09-08T14:04:51.664000Z</time>
      </trkpt>
      <trkpt lat="35.95278025" lon="120.204293">
        <time>2019-09-08T14:04:55.672000Z</time>
      </trkpt>
      <trkpt lat="35.95287338" lon="120.2042565">
        <time>2019-09-08T14:04:59.672000Z</time>
      </trkpt>
      <trkpt lat="35.95297575" lon="120.20423146">
        <time>2019-09-08T14:05:03.681000Z</time>
      </trkpt>
      <trkpt lat="35.95307305" lon="120.20425163">
        <time>2019-09-08T14:05:08.690000Z</time>
      </trkpt>
      <trkpt lat="35.95317483" lon="120.20424691">
        <time>2019-09-08T14:05:12.676000Z</time>
      </trkpt>
      <trkpt lat="35.9532848" lon="120.20419278">
        <time>2019-09-08T14:05:16.667000Z</time>
      </trkpt>
      <trkpt lat="35.95337577" lon="120.20419644">
        <time>2019-09-08T14:05:19.668000Z</time>
      </trkpt>
      <trkpt lat="35.95346753" lon="120.20419571">
        <time>2019-09-08T14:05:22.692000Z</time>
      </trkpt>
      <trkpt lat="35.953553" lon="120.20414951">
        <time>2019-09-08T14:05:25.690000Z</time>
      </trkpt>
      <trkpt lat="35.9536441" lon="120.20412826">
        <time>2019-09-08T14:05:28.680000Z</time>
      </trkpt>
      <trkpt lat="35.95373561" lon="120.20411634">
        <time>2019-09-08T14:05:31.685000Z</time>
      </trkpt>
      <trkpt lat="35.95384723" lon="120.20411546">
        <time>2019-09-08T14:05:35.704000Z</time>
      </trkpt>
      <trkpt lat="35.95395007" lon="120.20408307">
        <time>2019-09-08T14:05:39.677000Z</time>
      </trkpt>
      <trkpt lat="35.95405473" lon="120.20408906">
        <time>2019-09-08T14:05:44.671000Z</time>
      </trkpt>
      <trkpt lat="35.9541658" lon="120.20410454">
        <time>2019-09-08T14:05:48.666000Z</time>
      </trkpt>
      <trkpt lat="35.95425654" lon="120.20413574">
        <time>2019-09-08T14:05:51.659000Z</time>
      </trkpt>
      <trkpt lat="35.95435052" lon="120.20419055">
        <time>2019-09-08T14:05:54.674000Z</time>
      </trkpt>
      <trkpt lat="35.95443993" lon="120.20417403">
        <time>2019-09-08T14:05:57.665000Z</time>
      </trkpt>
      <trkpt lat="35.95451144" lon="120.20410592">
        <time>2019-09-08T14:06:00.674000Z</time>
      </trkpt>
      <trkpt lat="35.95458554" lon="120.20403948">
        <time>2019-09-08T14:06:03.668000Z</time>
      </trkpt>
      <trkpt lat="35.95468528" lon="120.20397433">
        <time>2019-09-08T14:06:07.704000Z</time>
      </trkpt>
      <trkpt lat="35.95478259" lon="120.20392062">
        <time>2019-09-08T14:06:11.673000Z</time>
      </trkpt>
      <trkpt lat="35.954879" lon="120.20395027">
        <time>2019-09-08T14:06:15.674000Z</time>
      </trkpt>
      <trkpt lat="35.95497057" lon="120.20400058">
        <time>2019-09-08T14:06:19.675000Z</time>
      </trkpt>
      <trkpt lat="35.95497057" lon="120.20400058">
        <time>2019-09-08T14:06:23.627000Z</time>
      </trkpt>
      <trkpt lat="35.95506547" lon="120.20401635">
        <time>2019-09-08T14:06:25.670000Z</time>
      </trkpt>
      <trkpt lat="35.95517004" lon="120.20402125">
        <time>2019-09-08T14:06:29.680000Z</time>
      </trkpt>
      <trkpt lat="35.95517004" lon="120.20402125">
        <time>2019-09-08T14:06:33.630000Z</time>
      </trkpt>
      <trkpt lat="35.95526667" lon="120.20402569">
        <time>2019-09-08T14:06:33.668000Z</time>
      </trkpt>
      <trkpt lat="35.95534116" lon="120.20411345">
        <time>2019-09-08T14:06:38.672000Z</time>
      </trkpt>
      <trkpt lat="35.95534056" lon="120.20424874">
        <time>2019-09-08T14:06:42.664000Z</time>
      </trkpt>
      <trkpt lat="35.95534056" lon="120.20424874">
        <time>2019-09-08T14:06:44.630000Z</time>
      </trkpt>
      <trkpt lat="35.95536874" lon="120.20437661">
        <time>2019-09-08T14:06:46.662000Z</time>
      </trkpt>
      <trkpt lat="35.95538902" lon="120.20449994">
        <time>2019-09-08T14:06:50.657000Z</time>
      </trkpt>
      <trkpt lat="35.95538902" lon="120.20449994">
        <time>2019-09-08T14:06:54.638000Z</time>
      </trkpt>
      <trkpt lat="35.95543898" lon="120.20461535">
        <time>2019-09-08T14:06:55.662000Z</time>
      </trkpt>
      <trkpt lat="35.95547777" lon="120.20472138">
        <time>2019-09-08T14:06:59.674000Z</time>
      </trkpt>
      <trkpt lat="35.95548533" lon="120.20484953">
        <time>2019-09-08T14:07:03.675000Z</time>
      </trkpt>
      <trkpt lat="35.95553549" lon="120.20497081">
        <time>2019-09-08T14:07:07.673000Z</time>
      </trkpt>
      <trkpt lat="35.95557662" lon="120.20509752">
        <time>2019-09-08T14:07:11.676000Z</time>
      </trkpt>
      <trkpt lat="35.95560515" lon="120.20523502">
        <time>2019-09-08T14:07:15.710000Z</time>
      </trkpt>
      <trkpt lat="35.95560672" lon="120.20536553">
        <time>2019-09-08T14:07:19.674000Z</time>
      </trkpt>
      <trkpt lat="35.95559735" lon="120.20547631">
        <time>2019-09-08T14:07:22.681000Z</time>
      </trkpt>
      <trkpt lat="35.95559106" lon="120.20560918">
        <time>2019-09-08T14:07:26.676000Z</time>
      </trkpt>
      <trkpt lat="35.95559663" lon="120.20572941">
        <time>2019-09-08T14:07:30.675000Z</time>
      </trkpt>
      <trkpt lat="35.95562611" lon="120.20584907">
        <time>2019-09-08T14:07:34.681000Z</time>
      </trkpt>
      <trkpt lat="35.95565263" lon="120.20597218">
        <time>2019-09-08T14:07:38.662000Z</time>
      </trkpt>
      <trkpt lat="35.95569886" lon="120.20609447">
        <time>2019-09-08T14:07:42.708000Z</time>
      </trkpt>
      <trkpt lat="35.95572403" lon="120.20621489">
        <time>2019-09-08T14:07:46.656000Z</time>
      </trkpt>
      <trkpt lat="35.95575979" lon="120.20635138">
        <time>2019-09-08T14:07:50.675000Z</time>
      </trkpt>
      <trkpt lat="35.95578285" lon="120.20649102">
        <time>2019-09-08T14:07:54.677000Z</time>
      </trkpt>
      <trkpt lat="35.95577678" lon="120.20663972">
        <time>2019-09-08T14:07:58.676000Z</time>
      </trkpt>
      <trkpt lat="35.95576622" lon="120.20676873">
        <time>2019-09-08T14:08:01.675000Z</time>
      </trkpt>
      <trkpt lat="35.95574929" lon="120.20688697">
        <time>2019-09-08T14:08:04.677000Z</time>
      </trkpt>
      <trkpt lat="35.95575474" lon="120.20702631">
        <time>2019-09-08T14:08:08.653000Z</time>
      </trkpt>
      <trkpt lat="35.95575558" lon="120.20715578">
        <time>2019-09-08T14:08:12.672000Z</time>
      </trkpt>
      <trkpt lat="35.95574923" lon="120.20728603">
        <time>2019-09-08T14:08:16.678000Z</time>
      </trkpt>
      <trkpt lat="35.95578366" lon="120.20741363">
        <time>2019-09-08T14:08:20.675000Z</time>
      </trkpt>
      <trkpt lat="35.95577416" lon="120.20753412">
        <time>2019-09-08T14:08:24.670000Z</time>
      </trkpt>
      <trkpt lat="35.95579643" lon="120.20764527">
        <time>2019-09-08T14:08:29.671000Z</time>
      </trkpt>
      <trkpt lat="35.95589981" lon="120.20761524">
        <time>2019-09-08T14:08:34.676000Z</time>
      </trkpt>
      <trkpt lat="35.95599899" lon="120.20760295">
        <time>2019-09-08T14:08:39.671000Z</time>
      </trkpt>
      <trkpt lat="35.95609081" lon="120.20758065">
        <time>2019-09-08T14:08:44.667000Z</time>
      </trkpt>
      <trkpt lat="35.95618334" lon="120.2075724">
        <time>2019-09-08T14:08:48.666000Z</time>
      </trkpt>
      <trkpt lat="35.95627545" lon="120.20756758">
        <time>2019-09-08T14:08:52.675000Z</time>
      </trkpt>
      <trkpt lat="35.95635619" lon="120.20751566">
        <time>2019-09-08T14:08:56.670000Z</time>
      </trkpt>
      <trkpt lat="35.95645355" lon="120.20746029">
        <time>2019-09-08T14:09:02.659000Z</time>
      </trkpt>
      <trkpt lat="35.95645355" lon="120.20746029">
        <time>2019-09-08T14:09:05.157000Z</time>
      </trkpt>
      <trkpt lat="35.95652552" lon="120.20755932">
        <time>2019-09-08T14:09:11.673000Z</time>
      </trkpt>
      <trkpt lat="35.95652552" lon="120.20755932">
        <time>2019-09-08T14:09:15.176000Z</time>
      </trkpt>
      <trkpt lat="35.95655622" lon="120.20766769">
        <time>2019-09-08T14:09:15.668000Z</time>
      </trkpt>
      <trkpt lat="35.95657795" lon="120.20778612">
        <time>2019-09-08T14:09:19.673000Z</time>
      </trkpt>
      <trkpt lat="35.95661117" lon="120.20791768">
        <time>2019-09-08T14:09:24.657000Z</time>
      </trkpt>
      <trkpt lat="35.95666487" lon="120.20800796">
        <time>2019-09-08T14:09:28.677000Z</time>
      </trkpt>
      <trkpt lat="35.95668596" lon="120.20812859">
        <time>2019-09-08T14:09:32.673000Z</time>
      </trkpt>
      <trkpt lat="35.95666707" lon="120.20825459">
        <time>2019-09-08T14:09:36.682000Z</time>
      </trkpt>
      <trkpt lat="35.95666007" lon="120.208366">
        <time>2019-09-08T14:09:40.675000Z</time>
      </trkpt>
      <trkpt lat="35.95666007" lon="120.208366">
        <time>2019-09-08T14:09:45.209000Z</time>
      </trkpt>
      <trkpt lat="35.95663152" lon="120.20847685">
        <time>2019-09-08T14:09:45.657000Z</time>
      </trkpt>
    </trkseg>
  </trk>
</gpx>