<?xml version="1.0" encoding="UTF-8"?>
<gpx xmlns="http://www.topografix.com/GPX/1/1" xmlns:gpxtpx="http://www.garmin.com/xmlschemas/TrackPointExtension/v1" xmlns:xsi="http://www.w3.org/2001/XMLSchema-instance" xsi:schemaLocation="http://www.topografix.com/GPX/1/1 http://www.topografix.com/GPX/1/1/gpx.xsd" version="1.1" creator="gpx.py -- https://github.com/tkrajina/gpxpy">
  <trk>
    <name>星期三 傍晚跑步</name>
    <trkseg>
      <trkpt lat="35.95709161" lon="120.21085639">
        <time>2019-08-28T12:38:04.995000Z</time>
      </trkpt>
      <trkpt lat="35.95709161" lon="120.21085639">
        <time>2019-08-28T12:38:27.998000Z</time>
      </trkpt>
      <trkpt lat="35.95691396" lon="120.21089421">
        <time>2019-08-28T12:38:28.006000Z</time>
      </trkpt>
      <trkpt lat="35.95681072" lon="120.2109027">
        <time>2019-08-28T12:38:33.995000Z</time>
      </trkpt>
      <trkpt lat="35.95681072" lon="120.2109027">
        <time>2019-08-28T12:38:37.780000Z</time>
      </trkpt>
      <trkpt lat="35.95671146" lon="120.21092939">
        <time>2019-08-28T12:38:37.999000Z</time>
      </trkpt>
      <trkpt lat="35.95661128" lon="120.21097538">
        <time>2019-08-28T12:38:41.978000Z</time>
      </trkpt>
      <trkpt lat="35.95650969" lon="120.21098681">
        <time>2019-08-28T12:38:45.995000Z</time>
      </trkpt>
      <trkpt lat="35.95640502" lon="120.21097852">
        <time>2019-08-28T12:38:49.996000Z</time>
      </trkpt>
      <trkpt lat="35.95629675" lon="120.2109913">
        <time>2019-08-28T12:38:54.010000Z</time>
      </trkpt>
      <trkpt lat="35.95619041" lon="120.2110238">
        <time>2019-08-28T12:38:58.016000Z</time>
      </trkpt>
      <trkpt lat="35.95608433" lon="120.2110516">
        <time>2019-08-28T12:39:02.008000Z</time>
      </trkpt>
      <trkpt lat="35.95598559" lon="120.21108359">
        <time>2019-08-28T12:39:06.027000Z</time>
      </trkpt>
      <trkpt lat="35.95588664" lon="120.21108819">
        <time>2019-08-28T12:39:10.002000Z</time>
      </trkpt>
      <trkpt lat="35.95578198" lon="120.21107494">
        <time>2019-08-28T12:39:14.002000Z</time>
      </trkpt>
      <trkpt lat="35.95572988" lon="120.21097491">
        <time>2019-08-28T12:39:17.998000Z</time>
      </trkpt>
      <trkpt lat="35.9557106" lon="120.21086042">
        <time>2019-08-28T12:39:22.014000Z</time>
      </trkpt>
      <trkpt lat="35.9557203" lon="120.21073286">
        <time>2019-08-28T12:39:25.991000Z</time>
      </trkpt>
      <trkpt lat="35.9557241" lon="120.21059972">
        <time>2019-08-28T12:39:29.995000Z</time>
      </trkpt>
      <trkpt lat="35.95572959" lon="120.21047475">
        <time>2019-08-28T12:39:34.017000Z</time>
      </trkpt>
      <trkpt lat="35.95574907" lon="120.21034565">
        <time>2019-08-28T12:39:37.996000Z</time>
      </trkpt>
      <trkpt lat="35.95575872" lon="120.21020117">
        <time>2019-08-28T12:39:42.024000Z</time>
      </trkpt>
      <trkpt lat="35.95576845" lon="120.21005711">
        <time>2019-08-28T12:39:45.997000Z</time>
      </trkpt>
      <trkpt lat="35.9557653" lon="120.20991251">
        <time>2019-08-28T12:39:49.994000Z</time>
      </trkpt>
      <trkpt lat="35.95575152" lon="120.20978197">
        <time>2019-08-28T12:39:54.009000Z</time>
      </trkpt>
      <trkpt lat="35.95575077" lon="120.20964009">
        <time>2019-08-28T12:39:58.005000Z</time>
      </trkpt>
      <trkpt lat="35.95573949" lon="120.20949355">
        <time>2019-08-28T12:40:02Z</time>
      </trkpt>
      <trkpt lat="35.95573717" lon="120.20938249">
        <time>2019-08-28T12:40:05.014000Z</time>
      </trkpt>
      <trkpt lat="35.95573902" lon="120.2092438">
        <time>2019-08-28T12:40:08.995000Z</time>
      </trkpt>
      <trkpt lat="35.9557348" lon="120.20910978">
        <time>2019-08-28T12:40:13.032000Z</time>
      </trkpt>
      <trkpt lat="35.95573975" lon="120.20897974">
        <time>2019-08-28T12:40:17.014000Z</time>
      </trkpt>
      <trkpt lat="35.95574092" lon="120.2088571">
        <time>2019-08-28T12:40:20.995000Z</time>
      </trkpt>
      <trkpt lat="35.95574193" lon="120.20872806">
        <time>2019-08-28T12:40:25.007000Z</time>
      </trkpt>
      <trkpt lat="35.95575449" lon="120.20860012">
        <time>2019-08-28T12:40:29.011000Z</time>
      </trkpt>
      <trkpt lat="35.95575428" lon="120.20845976">
        <time>2019-08-28T12:40:33.006000Z</time>
      </trkpt>
      <trkpt lat="35.95575311" lon="120.20831304">
        <time>2019-08-28T12:40:37Z</time>
      </trkpt>
      <trkpt lat="35.95574928" lon="120.20817044">
        <time>2019-08-28T12:40:40.996000Z</time>
      </trkpt>
      <trkpt lat="35.95573919" lon="120.20802943">
        <time>2019-08-28T12:40:45.035000Z</time>
      </trkpt>
      <trkpt lat="35.95574325" lon="120.20788325">
        <time>2019-08-28T12:40:48.999000Z</time>
      </trkpt>
      <trkpt lat="35.95574409" lon="120.20774971">
        <time>2019-08-28T12:40:52.997000Z</time>
      </trkpt>
      <trkpt lat="35.95576345" lon="120.20761751">
        <time>2019-08-28T12:40:57.003000Z</time>
      </trkpt>
      <trkpt lat="35.95577499" lon="120.20748631">
        <time>2019-08-28T12:41:01.004000Z</time>
      </trkpt>
      <trkpt lat="35.95578021" lon="120.20734227">
        <time>2019-08-28T12:41:05.018000Z</time>
      </trkpt>
      <trkpt lat="35.95577162" lon="120.20722795">
        <time>2019-08-28T12:41:08.006000Z</time>
      </trkpt>
      <trkpt lat="35.95577367" lon="120.20711507">
        <time>2019-08-28T12:41:11.014000Z</time>
      </trkpt>
      <trkpt lat="35.95501720905304" lon="120.19494116306305">
        <time>2019-08-28T12:51:08.485000Z</time>
      </trkpt>
      <trkpt lat="35.95501720905304" lon="120.19494116306305">
        <time>2019-08-28T12:52:42.022000Z</time>
      </trkpt>
      <trkpt lat="35.95492839" lon="120.19504504">
        <time>2019-08-28T12:52:42.030000Z</time>
      </trkpt>
      <trkpt lat="35.95482862" lon="120.19507724">
        <time>2019-08-28T12:52:50.993000Z</time>
      </trkpt>
      <trkpt lat="35.95482862" lon="120.19507724">
        <time>2019-08-28T12:52:55.019000Z</time>
      </trkpt>
      <trkpt lat="35.95473368" lon="120.19509975">
        <time>2019-08-28T12:52:57.017000Z</time>
      </trkpt>
      <trkpt lat="35.95463545" lon="120.19513757">
        <time>2019-08-28T12:53:01.011000Z</time>
      </trkpt>
      <trkpt lat="35.95452077" lon="120.19515277">
        <time>2019-08-28T12:53:05.029000Z</time>
      </trkpt>
      <trkpt lat="35.95441018" lon="120.19518227">
        <time>2019-08-28T12:53:09.011000Z</time>
      </trkpt>
      <trkpt lat="35.95431898" lon="120.19519988">
        <time>2019-08-28T12:53:16.014000Z</time>
      </trkpt>
      <trkpt lat="35.95431898" lon="120.19519988">
        <time>2019-08-28T12:53:16.321000Z</time>
      </trkpt>
      <trkpt lat="35.95421669" lon="120.19522947">
        <time>2019-08-28T12:53:21.018000Z</time>
      </trkpt>
      <trkpt lat="35.95421669" lon="120.19522947">
        <time>2019-08-28T12:53:35.994000Z</time>
      </trkpt>
      <trkpt lat="35.95421669" lon="120.19522947">
        <time>2019-08-28T12:53:35.999000Z</time>
      </trkpt>
      <trkpt lat="35.95412988" lon="120.19526386">
        <time>2019-08-28T12:53:37.996000Z</time>
      </trkpt>
      <trkpt lat="35.95422317" lon="120.19524248">
        <time>2019-08-28T12:53:48.002000Z</time>
      </trkpt>
      <trkpt lat="35.95422317" lon="120.19524248">
        <time>2019-08-28T12:54:02.994000Z</time>
      </trkpt>
      <trkpt lat="35.95422317" lon="120.19524248">
        <time>2019-08-28T12:54:03.005000Z</time>
      </trkpt>
      <trkpt lat="35.9541287" lon="120.19522676">
        <time>2019-08-28T12:54:07.011000Z</time>
      </trkpt>
      <trkpt lat="35.9540376" lon="120.19524668">
        <time>2019-08-28T12:54:20.013000Z</time>
      </trkpt>
      <trkpt lat="35.95394471" lon="120.19526776">
        <time>2019-08-28T12:54:29.024000Z</time>
      </trkpt>
      <trkpt lat="35.95385882" lon="120.19532761">
        <time>2019-08-28T12:54:41.011000Z</time>
      </trkpt>
      <trkpt lat="35.95377486" lon="120.19537277">
        <time>2019-08-28T12:54:51.053000Z</time>
      </trkpt>
      <trkpt lat="35.95377486" lon="120.19537277">
        <time>2019-08-28T12:55:32.008000Z</time>
      </trkpt>
      <trkpt lat="35.95377486" lon="120.19537277">
        <time>2019-08-28T12:55:32.020000Z</time>
      </trkpt>
      <trkpt lat="35.95369404" lon="120.19530802">
        <time>2019-08-28T12:55:35.008000Z</time>
      </trkpt>
      <trkpt lat="35.95368072" lon="120.19518858">
        <time>2019-08-28T12:55:40.994000Z</time>
      </trkpt>
      <trkpt lat="35.95368072" lon="120.19518858">
        <time>2019-08-28T12:55:47.995000Z</time>
      </trkpt>
      <trkpt lat="35.95366229" lon="120.1950583">
        <time>2019-08-28T12:55:48Z</time>
      </trkpt>
      <trkpt lat="35.95364415" lon="120.19494077">
        <time>2019-08-28T12:55:51.990000Z</time>
      </trkpt>
      <trkpt lat="35.95362486" lon="120.19482284">
        <time>2019-08-28T12:55:56.007000Z</time>
      </trkpt>
      <trkpt lat="35.95360319" lon="120.19469863">
        <time>2019-08-28T12:56:00.008000Z</time>
      </trkpt>
      <trkpt lat="35.95358101" lon="120.19457608">
        <time>2019-08-28T12:56:04.019000Z</time>
      </trkpt>
      <trkpt lat="35.95356944" lon="120.19443875">
        <time>2019-08-28T12:56:08.039000Z</time>
      </trkpt>
      <trkpt lat="35.95356296" lon="120.19429126">
        <time>2019-08-28T12:56:13.002000Z</time>
      </trkpt>
      <trkpt lat="35.95353656" lon="120.19417204">
        <time>2019-08-28T12:56:15.988000Z</time>
      </trkpt>
      <trkpt lat="35.95351964" lon="120.194033">
        <time>2019-08-28T12:56:19.998000Z</time>
      </trkpt>
      <trkpt lat="35.95350429" lon="120.1939176">
        <time>2019-08-28T12:56:23.011000Z</time>
      </trkpt>
      <trkpt lat="35.95347621" lon="120.19378154">
        <time>2019-08-28T12:56:27.003000Z</time>
      </trkpt>
      <trkpt lat="35.95344858" lon="120.1936514">
        <time>2019-08-28T12:56:30.996000Z</time>
      </trkpt>
      <trkpt lat="35.95342566" lon="120.19351865">
        <time>2019-08-28T12:56:35.035000Z</time>
      </trkpt>
      <trkpt lat="35.95340661" lon="120.19338231">
        <time>2019-08-28T12:56:39.018000Z</time>
      </trkpt>
      <trkpt lat="35.95338557" lon="120.19323872">
        <time>2019-08-28T12:56:43.013000Z</time>
      </trkpt>
      <trkpt lat="35.95336231" lon="120.19312956">
        <time>2019-08-28T12:56:46.002000Z</time>
      </trkpt>
      <trkpt lat="35.95333813" lon="120.19301877">
        <time>2019-08-28T12:56:49.008000Z</time>
      </trkpt>
      <trkpt lat="35.953319" lon="120.19287863">
        <time>2019-08-28T12:56:53.005000Z</time>
      </trkpt>
      <trkpt lat="35.95329437" lon="120.1927549">
        <time>2019-08-28T12:56:57.008000Z</time>
      </trkpt>
      <trkpt lat="35.95327813" lon="120.19263183">
        <time>2019-08-28T12:57:00.989000Z</time>
      </trkpt>
      <trkpt lat="35.95323818" lon="120.19252515">
        <time>2019-08-28T12:57:04.007000Z</time>
      </trkpt>
      <trkpt lat="35.95320569" lon="120.19241865">
        <time>2019-08-28T12:57:08.011000Z</time>
      </trkpt>
      <trkpt lat="35.95316742" lon="120.1922866">
        <time>2019-08-28T12:57:12.034000Z</time>
      </trkpt>
      <trkpt lat="35.95310373" lon="120.19218934">
        <time>2019-08-28T12:57:15.993000Z</time>
      </trkpt>
      <trkpt lat="35.95307483" lon="120.19207772">
        <time>2019-08-28T12:57:19.005000Z</time>
      </trkpt>
      <trkpt lat="35.95305129" lon="120.19195434">
        <time>2019-08-28T12:57:22.014000Z</time>
      </trkpt>
      <trkpt lat="35.95307091" lon="120.19180301">
        <time>2019-08-28T12:57:26.015000Z</time>
      </trkpt>
      <trkpt lat="35.95307731" lon="120.19168685">
        <time>2019-08-28T12:57:28.990000Z</time>
      </trkpt>
      <trkpt lat="35.95306451" lon="120.19157666">
        <time>2019-08-28T12:57:32.012000Z</time>
      </trkpt>
      <trkpt lat="35.95303334" lon="120.19144464">
        <time>2019-08-28T12:57:36.001000Z</time>
      </trkpt>
      <trkpt lat="35.95301722" lon="120.19133545">
        <time>2019-08-28T12:57:39.003000Z</time>
      </trkpt>
      <trkpt lat="35.95298578" lon="120.19120972">
        <time>2019-08-28T12:57:41.988000Z</time>
      </trkpt>
      <trkpt lat="35.95295634" lon="120.19108889">
        <time>2019-08-28T12:57:44.999000Z</time>
      </trkpt>
      <trkpt lat="35.95294205" lon="120.1909774">
        <time>2019-08-28T12:57:48.023000Z</time>
      </trkpt>
      <trkpt lat="35.95295871" lon="120.19085022">
        <time>2019-08-28T12:57:54.016000Z</time>
      </trkpt>
      <trkpt lat="35.95290846" lon="120.19071774">
        <time>2019-08-28T12:57:56.994000Z</time>
      </trkpt>
      <trkpt lat="35.95289291" lon="120.19060257">
        <time>2019-08-28T12:58:00.019000Z</time>
      </trkpt>
      <trkpt lat="35.95288266" lon="120.19048851">
        <time>2019-08-28T12:58:03.004000Z</time>
      </trkpt>
      <trkpt lat="35.95285106" lon="120.19035726">
        <time>2019-08-28T12:58:05.989000Z</time>
      </trkpt>
      <trkpt lat="35.95280614" lon="120.19025961">
        <time>2019-08-28T12:58:09.010000Z</time>
      </trkpt>
      <trkpt lat="35.95276481" lon="120.19013696">
        <time>2019-08-28T12:58:16.002000Z</time>
      </trkpt>
      <trkpt lat="35.95270189" lon="120.19000492">
        <time>2019-08-28T12:58:19.012000Z</time>
      </trkpt>
      <trkpt lat="35.95266268" lon="120.18988478">
        <time>2019-08-28T12:58:22.004000Z</time>
      </trkpt>
      <trkpt lat="35.95262446" lon="120.18976496">
        <time>2019-08-28T12:58:25.008000Z</time>
      </trkpt>
      <trkpt lat="35.95257379" lon="120.18963752">
        <time>2019-08-28T12:58:28.007000Z</time>
      </trkpt>
      <trkpt lat="35.95253798" lon="120.18950769">
        <time>2019-08-28T12:58:31.017000Z</time>
      </trkpt>
      <trkpt lat="35.95249351" lon="120.18939079">
        <time>2019-08-28T12:58:34.042000Z</time>
      </trkpt>
      <trkpt lat="35.952461" lon="120.18928143">
        <time>2019-08-28T12:58:37.021000Z</time>
      </trkpt>
      <trkpt lat="35.95244462" lon="120.18917128">
        <time>2019-08-28T12:58:40.023000Z</time>
      </trkpt>
      <trkpt lat="35.95243071" lon="120.18905921">
        <time>2019-08-28T12:58:42.998000Z</time>
      </trkpt>
      <trkpt lat="35.9524057" lon="120.18893491">
        <time>2019-08-28T12:58:45.998000Z</time>
      </trkpt>
      <trkpt lat="35.95238477" lon="120.18881128">
        <time>2019-08-28T12:58:49.012000Z</time>
      </trkpt>
      <trkpt lat="35.95236916" lon="120.18869462">
        <time>2019-08-28T12:58:53.009000Z</time>
      </trkpt>
      <trkpt lat="35.95236916" lon="120.18869462">
        <time>2019-08-28T12:58:56.621000Z</time>
      </trkpt>
      <trkpt lat="35.95239282" lon="120.18858146">
        <time>2019-08-28T12:58:59.010000Z</time>
      </trkpt>
      <trkpt lat="35.95239282" lon="120.18858146">
        <time>2019-08-28T12:59:16.649000Z</time>
      </trkpt>
      <trkpt lat="35.95236994" lon="120.1884507">
        <time>2019-08-28T12:59:17.013000Z</time>
      </trkpt>
      <trkpt lat="35.95232798" lon="120.18832478">
        <time>2019-08-28T12:59:21.006000Z</time>
      </trkpt>
      <trkpt lat="35.95226264" lon="120.18821249">
        <time>2019-08-28T12:59:24.991000Z</time>
      </trkpt>
      <trkpt lat="35.95220048" lon="120.18811592">
        <time>2019-08-28T12:59:30.014000Z</time>
      </trkpt>
      <trkpt lat="35.95215502" lon="120.18801801">
        <time>2019-08-28T12:59:34.024000Z</time>
      </trkpt>
      <trkpt lat="35.95212141" lon="120.18789186">
        <time>2019-08-28T12:59:37.002000Z</time>
      </trkpt>
      <trkpt lat="35.9521008" lon="120.18774772">
        <time>2019-08-28T12:59:40.015000Z</time>
      </trkpt>
      <trkpt lat="35.95207187" lon="120.187638">
        <time>2019-08-28T12:59:43.010000Z</time>
      </trkpt>
      <trkpt lat="35.95200571" lon="120.18753074">
        <time>2019-08-28T12:59:49.043000Z</time>
      </trkpt>
      <trkpt lat="35.95195581" lon="120.18741721">
        <time>2019-08-28T12:59:53.001000Z</time>
      </trkpt>
      <trkpt lat="35.95189065" lon="120.18733266">
        <time>2019-08-28T12:59:56.003000Z</time>
      </trkpt>
      <trkpt lat="35.95184457" lon="120.18720933">
        <time>2019-08-28T12:59:59.028000Z</time>
      </trkpt>
      <trkpt lat="35.95178803" lon="120.1871003">
        <time>2019-08-28T13:00:02.001000Z</time>
      </trkpt>
      <trkpt lat="35.95172417" lon="120.18700064">
        <time>2019-08-28T13:00:05.002000Z</time>
      </trkpt>
      <trkpt lat="35.95165793" lon="120.18690455">
        <time>2019-08-28T13:00:08.006000Z</time>
      </trkpt>
      <trkpt lat="35.95159643" lon="120.18680452">
        <time>2019-08-28T13:00:11Z</time>
      </trkpt>
      <trkpt lat="35.95153569" lon="120.18670553">
        <time>2019-08-28T13:00:14.003000Z</time>
      </trkpt>
      <trkpt lat="35.95149187" lon="120.18656844">
        <time>2019-08-28T13:00:18.007000Z</time>
      </trkpt>
      <trkpt lat="35.95144131" lon="120.18646976">
        <time>2019-08-28T13:00:20.988000Z</time>
      </trkpt>
      <trkpt lat="35.95140451" lon="120.18635408">
        <time>2019-08-28T13:00:23.992000Z</time>
      </trkpt>
      <trkpt lat="35.95134961" lon="120.18622439">
        <time>2019-08-28T13:00:26.989000Z</time>
      </trkpt>
      <trkpt lat="35.95129307" lon="120.1861077">
        <time>2019-08-28T13:00:30Z</time>
      </trkpt>
      <trkpt lat="35.9512352" lon="120.18599432">
        <time>2019-08-28T13:00:33.006000Z</time>
      </trkpt>
      <trkpt lat="35.95116859" lon="120.18588846">
        <time>2019-08-28T13:00:36.009000Z</time>
      </trkpt>
      <trkpt lat="35.95110716" lon="120.18579042">
        <time>2019-08-28T13:00:39.011000Z</time>
      </trkpt>
      <trkpt lat="35.95106222" lon="120.18568054">
        <time>2019-08-28T13:00:41.988000Z</time>
      </trkpt>
      <trkpt lat="35.95102247" lon="120.18558036">
        <time>2019-08-28T13:00:45.992000Z</time>
      </trkpt>
      <trkpt lat="35.95096358" lon="120.18548823">
        <time>2019-08-28T13:00:48.987000Z</time>
      </trkpt>
      <trkpt lat="35.95091232" lon="120.18538797">
        <time>2019-08-28T13:00:51.993000Z</time>
      </trkpt>
      <trkpt lat="35.95085413" lon="120.1852878">
        <time>2019-08-28T13:00:54.989000Z</time>
      </trkpt>
      <trkpt lat="35.95081208" lon="120.18515906">
        <time>2019-08-28T13:00:59.005000Z</time>
      </trkpt>
      <trkpt lat="35.95081706" lon="120.18504288">
        <time>2019-08-28T13:01:01.997000Z</time>
      </trkpt>
      <trkpt lat="35.95077909" lon="120.18491611">
        <time>2019-08-28T13:01:05.992000Z</time>
      </trkpt>
      <trkpt lat="35.95074614" lon="120.18479618">
        <time>2019-08-28T13:01:09.994000Z</time>
      </trkpt>
      <trkpt lat="35.95071975" lon="120.18466405">
        <time>2019-08-28T13:01:13.996000Z</time>
      </trkpt>
      <trkpt lat="35.95069096" lon="120.18452208">
        <time>2019-08-28T13:01:18.014000Z</time>
      </trkpt>
      <trkpt lat="35.95063677" lon="120.18441085">
        <time>2019-08-28T13:01:21.990000Z</time>
      </trkpt>
      <trkpt lat="35.95059884" lon="120.18429766">
        <time>2019-08-28T13:01:24.992000Z</time>
      </trkpt>
      <trkpt lat="35.95056516" lon="120.18416995">
        <time>2019-08-28T13:01:28.005000Z</time>
      </trkpt>
      <trkpt lat="35.95051224" lon="120.18405076">
        <time>2019-08-28T13:01:30.988000Z</time>
      </trkpt>
      <trkpt lat="35.95044615" lon="120.18397144">
        <time>2019-08-28T13:01:34.041000Z</time>
      </trkpt>
      <trkpt lat="35.95039389" lon="120.18387406">
        <time>2019-08-28T13:01:36.984000Z</time>
      </trkpt>
      <trkpt lat="35.95039389" lon="120.18387406">
        <time>2019-08-28T13:01:40.552000Z</time>
      </trkpt>
      <trkpt lat="35.95033371" lon="120.18376982">
        <time>2019-08-28T13:01:40.993000Z</time>
      </trkpt>
      <trkpt lat="35.95030117" lon="120.18365219">
        <time>2019-08-28T13:01:47.996000Z</time>
      </trkpt>
      <trkpt lat="35.95026698" lon="120.18353496">
        <time>2019-08-28T13:01:55.016000Z</time>
      </trkpt>
      <trkpt lat="35.95026698" lon="120.18353496">
        <time>2019-08-28T13:01:55.762000Z</time>
      </trkpt>
      <trkpt lat="35.95020141" lon="120.18343877">
        <time>2019-08-28T13:02:00.024000Z</time>
      </trkpt>
      <trkpt lat="35.95015215" lon="120.18330527">
        <time>2019-08-28T13:02:05.991000Z</time>
      </trkpt>
      <trkpt lat="35.95010537" lon="120.18318843">
        <time>2019-08-28T13:02:09.006000Z</time>
      </trkpt>
      <trkpt lat="35.9500608" lon="120.18306226">
        <time>2019-08-28T13:02:13.011000Z</time>
      </trkpt>
      <trkpt lat="35.95005727" lon="120.18294782">
        <time>2019-08-28T13:02:17.993000Z</time>
      </trkpt>
      <trkpt lat="35.95001058" lon="120.18283713">
        <time>2019-08-28T13:02:20.997000Z</time>
      </trkpt>
      <trkpt lat="35.94994678" lon="120.18274303">
        <time>2019-08-28T13:02:23.996000Z</time>
      </trkpt>
      <trkpt lat="35.94987387" lon="120.18262189">
        <time>2019-08-28T13:02:27.009000Z</time>
      </trkpt>
      <trkpt lat="35.94977845" lon="120.18252999">
        <time>2019-08-28T13:02:30.005000Z</time>
      </trkpt>
      <trkpt lat="35.94968723" lon="120.18244131">
        <time>2019-08-28T13:02:34.026000Z</time>
      </trkpt>
      <trkpt lat="35.94965155" lon="120.18232859">
        <time>2019-08-28T13:02:37.998000Z</time>
      </trkpt>
      <trkpt lat="35.94964581" lon="120.18220205">
        <time>2019-08-28T13:02:42.002000Z</time>
      </trkpt>
      <trkpt lat="35.94962462" lon="120.18208763">
        <time>2019-08-28T13:02:45.005000Z</time>
      </trkpt>
      <trkpt lat="35.94961708" lon="120.18196889">
        <time>2019-08-28T13:02:50.010000Z</time>
      </trkpt>
      <trkpt lat="35.94961708" lon="120.18196889">
        <time>2019-08-28T13:02:52.592000Z</time>
      </trkpt>
      <trkpt lat="35.94956628" lon="120.1818666">
        <time>2019-08-28T13:02:54.988000Z</time>
      </trkpt>
      <trkpt lat="35.94951225" lon="120.18177666">
        <time>2019-08-28T13:03:00.996000Z</time>
      </trkpt>
      <trkpt lat="35.94947181" lon="120.18165403">
        <time>2019-08-28T13:03:09.012000Z</time>
      </trkpt>
      <trkpt lat="35.94947181" lon="120.18165403">
        <time>2019-08-28T13:03:10.596000Z</time>
      </trkpt>
      <trkpt lat="35.94942609" lon="120.18154486">
        <time>2019-08-28T13:03:12.987000Z</time>
      </trkpt>
      <trkpt lat="35.9493782" lon="120.1814413">
        <time>2019-08-28T13:03:18.996000Z</time>
      </trkpt>
      <trkpt lat="35.9493782" lon="120.1814413">
        <time>2019-08-28T13:03:20.828000Z</time>
      </trkpt>
      <trkpt lat="35.94929572" lon="120.18151908">
        <time>2019-08-28T13:03:25.010000Z</time>
      </trkpt>
      <trkpt lat="35.94919986" lon="120.18158853">
        <time>2019-08-28T13:03:29.015000Z</time>
      </trkpt>
      <trkpt lat="35.94919986" lon="120.18158853">
        <time>2019-08-28T13:03:30.988000Z</time>
      </trkpt>
      <trkpt lat="35.94909288" lon="120.18162845">
        <time>2019-08-28T13:03:33.015000Z</time>
      </trkpt>
      <trkpt lat="35.94901302" lon="120.18156081">
        <time>2019-08-28T13:03:37.009000Z</time>
      </trkpt>
      <trkpt lat="35.94895065" lon="120.18146266">
        <time>2019-08-28T13:03:41.018000Z</time>
      </trkpt>
      <trkpt lat="35.9489405" lon="120.1813364">
        <time>2019-08-28T13:03:45.024000Z</time>
      </trkpt>
      <trkpt lat="35.94891006" lon="120.18121485">
        <time>2019-08-28T13:03:49.014000Z</time>
      </trkpt>
      <trkpt lat="35.94886043" lon="120.18110694">
        <time>2019-08-28T13:03:53.003000Z</time>
      </trkpt>
      <trkpt lat="35.94879483" lon="120.18099991">
        <time>2019-08-28T13:03:57.006000Z</time>
      </trkpt>
      <trkpt lat="35.94873887" lon="120.18089255">
        <time>2019-08-28T13:04:01.007000Z</time>
      </trkpt>
      <trkpt lat="35.94869924" lon="120.18075346">
        <time>2019-08-28T13:04:04.984000Z</time>
      </trkpt>
      <trkpt lat="35.94866839" lon="120.18063786">
        <time>2019-08-28T13:04:07.986000Z</time>
      </trkpt>
      <trkpt lat="35.94863499" lon="120.18052533">
        <time>2019-08-28T13:04:10.996000Z</time>
      </trkpt>
      <trkpt lat="35.94859473" lon="120.18042279">
        <time>2019-08-28T13:04:14.013000Z</time>
      </trkpt>
      <trkpt lat="35.94853848" lon="120.18032419">
        <time>2019-08-28T13:04:16.987000Z</time>
      </trkpt>
      <trkpt lat="35.94848016" lon="120.18023263">
        <time>2019-08-28T13:04:20.002000Z</time>
      </trkpt>
      <trkpt lat="35.94841683" lon="120.18012477">
        <time>2019-08-28T13:04:23.995000Z</time>
      </trkpt>
      <trkpt lat="35.94837226" lon="120.17998971">
        <time>2019-08-28T13:04:27.983000Z</time>
      </trkpt>
      <trkpt lat="35.94832481" lon="120.17989508">
        <time>2019-08-28T13:04:31.022000Z</time>
      </trkpt>
      <trkpt lat="35.94826546" lon="120.17977">
        <time>2019-08-28T13:04:35.020000Z</time>
      </trkpt>
      <trkpt lat="35.94821751" lon="120.17964549">
        <time>2019-08-28T13:04:39.008000Z</time>
      </trkpt>
      <trkpt lat="35.94815229" lon="120.17952994">
        <time>2019-08-28T13:04:43.013000Z</time>
      </trkpt>
      <trkpt lat="35.94811706" lon="120.17941881">
        <time>2019-08-28T13:04:46.023000Z</time>
      </trkpt>
      <trkpt lat="35.94806318" lon="120.17931229">
        <time>2019-08-28T13:04:49.985000Z</time>
      </trkpt>
      <trkpt lat="35.94801097" lon="120.17921229">
        <time>2019-08-28T13:04:53.044000Z</time>
      </trkpt>
      <trkpt lat="35.94797965" lon="120.17910341">
        <time>2019-08-28T13:04:56.991000Z</time>
      </trkpt>
      <trkpt lat="35.94794209" lon="120.1789937">
        <time>2019-08-28T13:05:00.003000Z</time>
      </trkpt>
      <trkpt lat="35.94791975" lon="120.17888197">
        <time>2019-08-28T13:05:04.013000Z</time>
      </trkpt>
      <trkpt lat="35.94791975" lon="120.17888197">
        <time>2019-08-28T13:05:13.912000Z</time>
      </trkpt>
      <trkpt lat="35.9478598" lon="120.17878589">
        <time>2019-08-28T13:05:18.024000Z</time>
      </trkpt>
      <trkpt lat="35.9478598" lon="120.17878589">
        <time>2019-08-28T13:05:24.650000Z</time>
      </trkpt>
      <trkpt lat="35.9477833" lon="120.17870312">
        <time>2019-08-28T13:05:25.021000Z</time>
      </trkpt>
      <trkpt lat="35.94771219" lon="120.1786175">
        <time>2019-08-28T13:05:30.012000Z</time>
      </trkpt>
      <trkpt lat="35.94761528" lon="120.17855841">
        <time>2019-08-28T13:05:34.002000Z</time>
      </trkpt>
      <trkpt lat="35.9475093" lon="120.17853267">
        <time>2019-08-28T13:05:38.015000Z</time>
      </trkpt>
      <trkpt lat="35.94740761" lon="120.17848953">
        <time>2019-08-28T13:05:42.008000Z</time>
      </trkpt>
      <trkpt lat="35.9473011" lon="120.17847719">
        <time>2019-08-28T13:05:45.998000Z</time>
      </trkpt>
      <trkpt lat="35.94718771" lon="120.17845196">
        <time>2019-08-28T13:05:49.989000Z</time>
      </trkpt>
      <trkpt lat="35.94707878" lon="120.17840579">
        <time>2019-08-28T13:05:54.007000Z</time>
      </trkpt>
      <trkpt lat="35.94697446" lon="120.17837095">
        <time>2019-08-28T13:05:57.989000Z</time>
      </trkpt>
      <trkpt lat="35.94687435" lon="120.1783146">
        <time>2019-08-28T13:06:01.987000Z</time>
      </trkpt>
      <trkpt lat="35.9467842" lon="120.17829159">
        <time>2019-08-28T13:06:05.008000Z</time>
      </trkpt>
      <trkpt lat="35.94669524" lon="120.17826876">
        <time>2019-08-28T13:06:08.020000Z</time>
      </trkpt>
      <trkpt lat="35.94660765" lon="120.17823631">
        <time>2019-08-28T13:06:10.991000Z</time>
      </trkpt>
      <trkpt lat="35.94651718" lon="120.1782124">
        <time>2019-08-28T13:06:14.006000Z</time>
      </trkpt>
      <trkpt lat="35.94642828" lon="120.17818006">
        <time>2019-08-28T13:06:16.992000Z</time>
      </trkpt>
      <trkpt lat="35.94633097" lon="120.17815528">
        <time>2019-08-28T13:06:20.014000Z</time>
      </trkpt>
      <trkpt lat="35.94623535" lon="120.17812685">
        <time>2019-08-28T13:06:22.992000Z</time>
      </trkpt>
      <trkpt lat="35.94615142" lon="120.17808594">
        <time>2019-08-28T13:06:26.001000Z</time>
      </trkpt>
      <trkpt lat="35.94605933" lon="120.17804999">
        <time>2019-08-28T13:06:29.009000Z</time>
      </trkpt>
      <trkpt lat="35.94597219" lon="120.17801424">
        <time>2019-08-28T13:06:31.991000Z</time>
      </trkpt>
      <trkpt lat="35.94586543" lon="120.17801085">
        <time>2019-08-28T13:06:36.008000Z</time>
      </trkpt>
      <trkpt lat="35.94575548" lon="120.17796871">
        <time>2019-08-28T13:06:40.002000Z</time>
      </trkpt>
      <trkpt lat="35.94564166" lon="120.17792633">
        <time>2019-08-28T13:06:44.006000Z</time>
      </trkpt>
      <trkpt lat="35.94552959" lon="120.17789008">
        <time>2019-08-28T13:06:48.011000Z</time>
      </trkpt>
      <trkpt lat="35.94541939" lon="120.17785133">
        <time>2019-08-28T13:06:51.994000Z</time>
      </trkpt>
      <trkpt lat="35.94531774" lon="120.17782811">
        <time>2019-08-28T13:06:55.993000Z</time>
      </trkpt>
      <trkpt lat="35.94521429" lon="120.17779673">
        <time>2019-08-28T13:07:00.013000Z</time>
      </trkpt>
      <trkpt lat="35.9451108" lon="120.17777078">
        <time>2019-08-28T13:07:04.001000Z</time>
      </trkpt>
      <trkpt lat="35.94499521" lon="120.17774849">
        <time>2019-08-28T13:07:07.996000Z</time>
      </trkpt>
      <trkpt lat="35.94491357" lon="120.17770001">
        <time>2019-08-28T13:07:10.985000Z</time>
      </trkpt>
      <trkpt lat="35.94480712" lon="120.17763105">
        <time>2019-08-28T13:07:14.983000Z</time>
      </trkpt>
      <trkpt lat="35.936402678489685" lon="120.17064034938812">
        <time>2019-08-28T13:16:04.092000Z</time>
      </trkpt>
      <trkpt lat="35.93635638" lon="120.1705269">
        <time>2019-08-28T13:16:06.995000Z</time>
      </trkpt>
      <trkpt lat="35.93635638" lon="120.1705269">
        <time>2019-08-28T13:16:08.888000Z</time>
      </trkpt>
      <trkpt lat="35.93632503" lon="120.17041659">
        <time>2019-08-28T13:16:12.005000Z</time>
      </trkpt>
      <trkpt lat="35.93628791" lon="120.1703007">
        <time>2019-08-28T13:16:16.017000Z</time>
      </trkpt>
      <trkpt lat="35.93628791" lon="120.1703007">
        <time>2019-08-28T13:16:18.898000Z</time>
      </trkpt>
      <trkpt lat="35.93624943" lon="120.17017175">
        <time>2019-08-28T13:16:19.983000Z</time>
      </trkpt>
      <trkpt lat="35.93619314" lon="120.17004465">
        <time>2019-08-28T13:16:23.983000Z</time>
      </trkpt>
      <trkpt lat="35.93613538" lon="120.16992353">
        <time>2019-08-28T13:16:28.003000Z</time>
      </trkpt>
      <trkpt lat="35.93608484" lon="120.16980513">
        <time>2019-08-28T13:16:32.003000Z</time>
      </trkpt>
      <trkpt lat="35.9360305" lon="120.16967351">
        <time>2019-08-28T13:16:36.009000Z</time>
      </trkpt>
      <trkpt lat="35.93598788" lon="120.16957433">
        <time>2019-08-28T13:16:38.991000Z</time>
      </trkpt>
      <trkpt lat="35.93594747" lon="120.16943743">
        <time>2019-08-28T13:16:42.997000Z</time>
      </trkpt>
      <trkpt lat="35.93590397" lon="120.16930369">
        <time>2019-08-28T13:16:47.002000Z</time>
      </trkpt>
      <trkpt lat="35.93585339" lon="120.16917192">
        <time>2019-08-28T13:16:51.004000Z</time>
      </trkpt>
      <trkpt lat="35.93580062" lon="120.1690507">
        <time>2019-08-28T13:16:55.006000Z</time>
      </trkpt>
      <trkpt lat="35.93575061" lon="120.16895182">
        <time>2019-08-28T13:16:59.018000Z</time>
      </trkpt>
      <trkpt lat="35.93570254" lon="120.16884259">
        <time>2019-08-28T13:17:03.005000Z</time>
      </trkpt>
      <trkpt lat="35.93564096" lon="120.16873815">
        <time>2019-08-28T13:17:07.004000Z</time>
      </trkpt>
      <trkpt lat="35.9355981" lon="120.16863975">
        <time>2019-08-28T13:17:10.002000Z</time>
      </trkpt>
      <trkpt lat="35.93554117" lon="120.1685186">
        <time>2019-08-28T13:17:14.002000Z</time>
      </trkpt>
      <trkpt lat="35.9354835" lon="120.16840254">
        <time>2019-08-28T13:17:17.993000Z</time>
      </trkpt>
      <trkpt lat="35.9354424" lon="120.1683029">
        <time>2019-08-28T13:17:21.005000Z</time>
      </trkpt>
      <trkpt lat="35.93538697" lon="120.16817169">
        <time>2019-08-28T13:17:24.996000Z</time>
      </trkpt>
      <trkpt lat="35.93535019" lon="120.16804015">
        <time>2019-08-28T13:17:29.052000Z</time>
      </trkpt>
      <trkpt lat="35.93528955" lon="120.16792258">
        <time>2019-08-28T13:17:32.999000Z</time>
      </trkpt>
      <trkpt lat="35.93523627" lon="120.16781478">
        <time>2019-08-28T13:17:38.008000Z</time>
      </trkpt>
      <trkpt lat="35.93523627" lon="120.16781478">
        <time>2019-08-28T13:17:38.929000Z</time>
      </trkpt>
      <trkpt lat="35.9351731" lon="120.16772253">
        <time>2019-08-28T13:17:46.008000Z</time>
      </trkpt>
      <trkpt lat="35.9351731" lon="120.16772253">
        <time>2019-08-28T13:17:49.933000Z</time>
      </trkpt>
      <trkpt lat="35.9351175" lon="120.16761583">
        <time>2019-08-28T13:17:53.017000Z</time>
      </trkpt>
      <trkpt lat="35.93504342" lon="120.16751095">
        <time>2019-08-28T13:17:57.995000Z</time>
      </trkpt>
      <trkpt lat="35.93498099" lon="120.16740568">
        <time>2019-08-28T13:18:02.006000Z</time>
      </trkpt>
      <trkpt lat="35.93492676" lon="120.16729868">
        <time>2019-08-28T13:18:06.019000Z</time>
      </trkpt>
      <trkpt lat="35.93486968" lon="120.16716829">
        <time>2019-08-28T13:18:10.002000Z</time>
      </trkpt>
      <trkpt lat="35.93481978" lon="120.16706393">
        <time>2019-08-28T13:18:13.016000Z</time>
      </trkpt>
      <trkpt lat="35.93473946" lon="120.1669652">
        <time>2019-08-28T13:18:16.986000Z</time>
      </trkpt>
      <trkpt lat="35.93466002" lon="120.16686933">
        <time>2019-08-28T13:18:21.014000Z</time>
      </trkpt>
      <trkpt lat="35.93459315" lon="120.1667446">
        <time>2019-08-28T13:18:25.017000Z</time>
      </trkpt>
      <trkpt lat="35.9345315" lon="120.16665559">
        <time>2019-08-28T13:18:28.008000Z</time>
      </trkpt>
      <trkpt lat="35.93446958" lon="120.16656788">
        <time>2019-08-28T13:18:31.001000Z</time>
      </trkpt>
      <trkpt lat="35.93438651" lon="120.16646214">
        <time>2019-08-28T13:18:34.991000Z</time>
      </trkpt>
      <trkpt lat="35.93433561" lon="120.16637037">
        <time>2019-08-28T13:18:37.998000Z</time>
      </trkpt>
      <trkpt lat="35.93427002" lon="120.16625661">
        <time>2019-08-28T13:18:41.991000Z</time>
      </trkpt>
      <trkpt lat="35.93421837" lon="120.16615849">
        <time>2019-08-28T13:18:45.001000Z</time>
      </trkpt>
      <trkpt lat="35.93415647" lon="120.16607031">
        <time>2019-08-28T13:18:48.047000Z</time>
      </trkpt>
      <trkpt lat="35.93405795" lon="120.16601326">
        <time>2019-08-28T13:18:52.020000Z</time>
      </trkpt>
      <trkpt lat="35.9339478" lon="120.16599195">
        <time>2019-08-28T13:18:55.999000Z</time>
      </trkpt>
      <trkpt lat="35.93385367" lon="120.16597875">
        <time>2019-08-28T13:18:59Z</time>
      </trkpt>
      <trkpt lat="35.93375612" lon="120.16596251">
        <time>2019-08-28T13:19:01.983000Z</time>
      </trkpt>
      <trkpt lat="35.93365975" lon="120.16594319">
        <time>2019-08-28T13:19:05.007000Z</time>
      </trkpt>
      <trkpt lat="35.93355081" lon="120.16589697">
        <time>2019-08-28T13:19:09.017000Z</time>
      </trkpt>
      <trkpt lat="35.93345246" lon="120.16583076">
        <time>2019-08-28T13:19:12.994000Z</time>
      </trkpt>
      <trkpt lat="35.93337474" lon="120.16575625">
        <time>2019-08-28T13:19:16.992000Z</time>
      </trkpt>
      <trkpt lat="35.93330188" lon="120.1656712">
        <time>2019-08-28T13:19:20.985000Z</time>
      </trkpt>
      <trkpt lat="35.93322564" lon="120.16558843">
        <time>2019-08-28T13:19:25.009000Z</time>
      </trkpt>
      <trkpt lat="35.93315426" lon="120.16549385">
        <time>2019-08-28T13:19:29.006000Z</time>
      </trkpt>
      <trkpt lat="35.93309118" lon="120.16541182">
        <time>2019-08-28T13:19:33.008000Z</time>
      </trkpt>
      <trkpt lat="35.93299988" lon="120.16536514">
        <time>2019-08-28T13:19:37.014000Z</time>
      </trkpt>
      <trkpt lat="35.93291477" lon="120.16545232">
        <time>2019-08-28T13:19:41.010000Z</time>
      </trkpt>
      <trkpt lat="35.93280711" lon="120.16546422">
        <time>2019-08-28T13:19:44.991000Z</time>
      </trkpt>
      <trkpt lat="35.93271349" lon="120.16540166">
        <time>2019-08-28T13:19:48.982000Z</time>
      </trkpt>
      <trkpt lat="35.9326194" lon="120.16535127">
        <time>2019-08-28T13:19:52.989000Z</time>
      </trkpt>
      <trkpt lat="35.9326194" lon="120.16535127">
        <time>2019-08-28T13:20:02.004000Z</time>
      </trkpt>
      <trkpt lat="35.93251814" lon="120.16539239">
        <time>2019-08-28T13:20:02.012000Z</time>
      </trkpt>
      <trkpt lat="35.93251814" lon="120.16539239">
        <time>2019-08-28T13:20:15.001000Z</time>
      </trkpt>
      <trkpt lat="35.93251814" lon="120.16539239">
        <time>2019-08-28T13:20:15.013000Z</time>
      </trkpt>
      <trkpt lat="35.93256162" lon="120.16550686">
        <time>2019-08-28T13:20:17.004000Z</time>
      </trkpt>
      <trkpt lat="35.93261579" lon="120.16562805">
        <time>2019-08-28T13:20:21.030000Z</time>
      </trkpt>
      <trkpt lat="35.93261579" lon="120.16562805">
        <time>2019-08-28T13:20:24.997000Z</time>
      </trkpt>
      <trkpt lat="35.93269429" lon="120.16573984">
        <time>2019-08-28T13:20:25.009000Z</time>
      </trkpt>
      <trkpt lat="35.93275228" lon="120.16583929">
        <time>2019-08-28T13:20:27.997000Z</time>
      </trkpt>
      <trkpt lat="35.93278727" lon="120.16597089">
        <time>2019-08-28T13:20:30.992000Z</time>
      </trkpt>
      <trkpt lat="35.93283532" lon="120.16610843">
        <time>2019-08-28T13:20:34.006000Z</time>
      </trkpt>
      <trkpt lat="35.93289006" lon="120.16624707">
        <time>2019-08-28T13:20:38.016000Z</time>
      </trkpt>
      <trkpt lat="35.93291954" lon="120.16637632">
        <time>2019-08-28T13:20:41.002000Z</time>
      </trkpt>
      <trkpt lat="35.93294849" lon="120.16651856">
        <time>2019-08-28T13:20:43.985000Z</time>
      </trkpt>
      <trkpt lat="35.93295554" lon="120.16665814">
        <time>2019-08-28T13:20:47.004000Z</time>
      </trkpt>
      <trkpt lat="35.93298252" lon="120.16680208">
        <time>2019-08-28T13:20:49.993000Z</time>
      </trkpt>
      <trkpt lat="35.93298525" lon="120.16695072">
        <time>2019-08-28T13:20:52.989000Z</time>
      </trkpt>
      <trkpt lat="35.9330146" lon="120.16706577">
        <time>2019-08-28T13:20:56.020000Z</time>
      </trkpt>
      <trkpt lat="35.9330146" lon="120.16706577">
        <time>2019-08-28T13:21:01.993000Z</time>
      </trkpt>
      <trkpt lat="35.93307266" lon="120.16716286">
        <time>2019-08-28T13:21:04.989000Z</time>
      </trkpt>
      <trkpt lat="35.93315833" lon="120.16721933">
        <time>2019-08-28T13:21:13.003000Z</time>
      </trkpt>
      <trkpt lat="35.93307347" lon="120.16734821">
        <time>2019-08-28T13:22:05.001000Z</time>
      </trkpt>
      <trkpt lat="35.93307347" lon="120.16734821">
        <time>2019-08-28T13:23:25.994000Z</time>
      </trkpt>
      <trkpt lat="35.93310103" lon="120.16747814">
        <time>2019-08-28T13:23:26.014000Z</time>
      </trkpt>
      <trkpt lat="35.93314272" lon="120.16758402">
        <time>2019-08-28T13:23:32.993000Z</time>
      </trkpt>
      <trkpt lat="35.93318407" lon="120.16769492">
        <time>2019-08-28T13:23:44.007000Z</time>
      </trkpt>
      <trkpt lat="35.93318407" lon="120.16769492">
        <time>2019-08-28T13:24:17.990000Z</time>
      </trkpt>
      <trkpt lat="35.93335813" lon="120.16786112">
        <time>2019-08-28T13:24:18.001000Z</time>
      </trkpt>
      <trkpt lat="35.93346172" lon="120.16789477">
        <time>2019-08-28T13:24:22.005000Z</time>
      </trkpt>
      <trkpt lat="35.93354178" lon="120.16794688">
        <time>2019-08-28T13:24:26.009000Z</time>
      </trkpt>
      <trkpt lat="35.93356804" lon="120.16807212">
        <time>2019-08-28T13:24:30.008000Z</time>
      </trkpt>
      <trkpt lat="35.93356804" lon="120.16807212">
        <time>2019-08-28T13:24:33.010000Z</time>
      </trkpt>
      <trkpt lat="35.93362465" lon="120.16816569">
        <time>2019-08-28T13:24:34.007000Z</time>
      </trkpt>
      <trkpt lat="35.93364941" lon="120.16828479">
        <time>2019-08-28T13:24:37.990000Z</time>
      </trkpt>
      <trkpt lat="35.9336074" lon="120.16841407">
        <time>2019-08-28T13:24:42.027000Z</time>
      </trkpt>
      <trkpt lat="35.93358691" lon="120.16852798">
        <time>2019-08-28T13:24:44.998000Z</time>
      </trkpt>
      <trkpt lat="35.93356437" lon="120.16864584">
        <time>2019-08-28T13:24:48.008000Z</time>
      </trkpt>
      <trkpt lat="35.93355789" lon="120.16877595">
        <time>2019-08-28T13:24:51.020000Z</time>
      </trkpt>
      <trkpt lat="35.93360015" lon="120.16889037">
        <time>2019-08-28T13:24:54.007000Z</time>
      </trkpt>
      <trkpt lat="35.93370497" lon="120.16895611">
        <time>2019-08-28T13:24:57.995000Z</time>
      </trkpt>
      <trkpt lat="35.93379523" lon="120.16894539">
        <time>2019-08-28T13:25:01.008000Z</time>
      </trkpt>
      <trkpt lat="35.93390021" lon="120.16889075">
        <time>2019-08-28T13:25:05.022000Z</time>
      </trkpt>
      <trkpt lat="35.93398953" lon="120.16881967">
        <time>2019-08-28T13:25:09.007000Z</time>
      </trkpt>
      <trkpt lat="35.93408666" lon="120.16880987">
        <time>2019-08-28T13:25:17.003000Z</time>
      </trkpt>
      <trkpt lat="35.93418053" lon="120.16879118">
        <time>2019-08-28T13:25:22.014000Z</time>
      </trkpt>
      <trkpt lat="35.93430888" lon="120.16878148">
        <time>2019-08-28T13:25:26.001000Z</time>
      </trkpt>
      <trkpt lat="35.93443823" lon="120.16880554">
        <time>2019-08-28T13:25:28.981000Z</time>
      </trkpt>
      <trkpt lat="35.93453756" lon="120.16884952">
        <time>2019-08-28T13:25:32.995000Z</time>
      </trkpt>
      <trkpt lat="35.9346358" lon="120.16888355">
        <time>2019-08-28T13:25:35.988000Z</time>
      </trkpt>
      <trkpt lat="35.93470821" lon="120.16896599">
        <time>2019-08-28T13:25:38.986000Z</time>
      </trkpt>
      <trkpt lat="35.93472216" lon="120.16909825">
        <time>2019-08-28T13:25:42.005000Z</time>
      </trkpt>
      <trkpt lat="35.93471668" lon="120.16923299">
        <time>2019-08-28T13:25:44.988000Z</time>
      </trkpt>
      <trkpt lat="35.93472781" lon="120.16936191">
        <time>2019-08-28T13:25:47.990000Z</time>
      </trkpt>
      <trkpt lat="35.93474095" lon="120.16948222">
        <time>2019-08-28T13:25:50.990000Z</time>
      </trkpt>
      <trkpt lat="35.93476341" lon="120.16959623">
        <time>2019-08-28T13:25:53.991000Z</time>
      </trkpt>
      <trkpt lat="35.93479999" lon="120.1697063">
        <time>2019-08-28T13:25:56.989000Z</time>
      </trkpt>
      <trkpt lat="35.93484575" lon="120.16980891">
        <time>2019-08-28T13:26:00.007000Z</time>
      </trkpt>
      <trkpt lat="35.93490128" lon="120.16989942">
        <time>2019-08-28T13:26:02.992000Z</time>
      </trkpt>
      <trkpt lat="35.93496919" lon="120.16998486">
        <time>2019-08-28T13:26:05.985000Z</time>
      </trkpt>
      <trkpt lat="35.93505234" lon="120.1700518">
        <time>2019-08-28T13:26:08.994000Z</time>
      </trkpt>
      <trkpt lat="35.93513387" lon="120.17010581">
        <time>2019-08-28T13:26:12.006000Z</time>
      </trkpt>
      <trkpt lat="35.93522788" lon="120.17014869">
        <time>2019-08-28T13:26:15.040000Z</time>
      </trkpt>
      <trkpt lat="35.93532478" lon="120.17018021">
        <time>2019-08-28T13:26:17.990000Z</time>
      </trkpt>
      <trkpt lat="35.93542294" lon="120.17018819">
        <time>2019-08-28T13:26:20.983000Z</time>
      </trkpt>
      <trkpt lat="35.93551823" lon="120.17021098">
        <time>2019-08-28T13:26:23.988000Z</time>
      </trkpt>
      <trkpt lat="35.93561167" lon="120.17024305">
        <time>2019-08-28T13:26:26.985000Z</time>
      </trkpt>
      <trkpt lat="35.93570431" lon="120.17028684">
        <time>2019-08-28T13:26:30.009000Z</time>
      </trkpt>
      <trkpt lat="35.9357753" lon="120.17036357">
        <time>2019-08-28T13:26:32.991000Z</time>
      </trkpt>
      <trkpt lat="35.9358208" lon="120.17046822">
        <time>2019-08-28T13:26:36.018000Z</time>
      </trkpt>
      <trkpt lat="35.93587911" lon="120.1705667">
        <time>2019-08-28T13:26:39.014000Z</time>
      </trkpt>
      <trkpt lat="35.93593385" lon="120.17066054">
        <time>2019-08-28T13:26:41.987000Z</time>
      </trkpt>
      <trkpt lat="35.93598127" lon="120.17076154">
        <time>2019-08-28T13:26:44.991000Z</time>
      </trkpt>
      <trkpt lat="35.93601023" lon="120.17087153">
        <time>2019-08-28T13:26:48.006000Z</time>
      </trkpt>
      <trkpt lat="35.93607062" lon="120.17099207">
        <time>2019-08-28T13:26:51.985000Z</time>
      </trkpt>
      <trkpt lat="35.93614096" lon="120.17110951">
        <time>2019-08-28T13:26:56.003000Z</time>
      </trkpt>
      <trkpt lat="35.93619581" lon="120.17122986">
        <time>2019-08-28T13:26:59.987000Z</time>
      </trkpt>
      <trkpt lat="35.93621446" lon="120.17134053">
        <time>2019-08-28T13:27:02.987000Z</time>
      </trkpt>
      <trkpt lat="35.93625386" lon="120.17147777">
        <time>2019-08-28T13:27:06.994000Z</time>
      </trkpt>
      <trkpt lat="35.93629066" lon="120.17158132">
        <time>2019-08-28T13:27:09.997000Z</time>
      </trkpt>
      <trkpt lat="35.93632816" lon="120.17168896">
        <time>2019-08-28T13:27:12.987000Z</time>
      </trkpt>
      <trkpt lat="35.93634652" lon="120.17182425">
        <time>2019-08-28T13:27:16.999000Z</time>
      </trkpt>
      <trkpt lat="35.93636371" lon="120.1719584">
        <time>2019-08-28T13:27:20.980000Z</time>
      </trkpt>
      <trkpt lat="35.93638207" lon="120.17208766">
        <time>2019-08-28T13:27:25.001000Z</time>
      </trkpt>
      <trkpt lat="35.93642124" lon="120.17221965">
        <time>2019-08-28T13:27:29.022000Z</time>
      </trkpt>
      <trkpt lat="35.93644178" lon="120.17233075">
        <time>2019-08-28T13:27:31.997000Z</time>
      </trkpt>
      <trkpt lat="35.93646638" lon="120.17243894">
        <time>2019-08-28T13:27:34.994000Z</time>
      </trkpt>
      <trkpt lat="35.93650293" lon="120.17254196">
        <time>2019-08-28T13:27:38.001000Z</time>
      </trkpt>
      <trkpt lat="35.93653085" lon="120.17264927">
        <time>2019-08-28T13:27:40.989000Z</time>
      </trkpt>
      <trkpt lat="35.93654507" lon="120.17276737">
        <time>2019-08-28T13:27:43.981000Z</time>
      </trkpt>
      <trkpt lat="35.93655956" lon="120.17288823">
        <time>2019-08-28T13:27:46.996000Z</time>
      </trkpt>
      <trkpt lat="35.93660812" lon="120.1730167">
        <time>2019-08-28T13:27:50.988000Z</time>
      </trkpt>
      <trkpt lat="35.93662602" lon="120.17315363">
        <time>2019-08-28T13:27:54.991000Z</time>
      </trkpt>
      <trkpt lat="35.93664771" lon="120.17329401">
        <time>2019-08-28T13:27:58.990000Z</time>
      </trkpt>
      <trkpt lat="35.93667398" lon="120.17340867">
        <time>2019-08-28T13:28:02.017000Z</time>
      </trkpt>
      <trkpt lat="35.93668959" lon="120.17352839">
        <time>2019-08-28T13:28:04.987000Z</time>
      </trkpt>
      <trkpt lat="35.93670633" lon="120.17365107">
        <time>2019-08-28T13:28:07.994000Z</time>
      </trkpt>
      <trkpt lat="35.93672633" lon="120.17376637">
        <time>2019-08-28T13:28:10.986000Z</time>
      </trkpt>
      <trkpt lat="35.93676278" lon="120.17390394">
        <time>2019-08-28T13:28:14.990000Z</time>
      </trkpt>
      <trkpt lat="35.93678648" lon="120.17401503">
        <time>2019-08-28T13:28:17.985000Z</time>
      </trkpt>
      <trkpt lat="35.93681392" lon="120.17412735">
        <time>2019-08-28T13:28:20.988000Z</time>
      </trkpt>
      <trkpt lat="35.93684925" lon="120.17423206">
        <time>2019-08-28T13:28:24.006000Z</time>
      </trkpt>
      <trkpt lat="35.93688712" lon="120.17433929">
        <time>2019-08-28T13:28:26.990000Z</time>
      </trkpt>
      <trkpt lat="35.93691141" lon="120.17445077">
        <time>2019-08-28T13:28:29.992000Z</time>
      </trkpt>
      <trkpt lat="35.93691455" lon="120.17457267">
        <time>2019-08-28T13:28:33.012000Z</time>
      </trkpt>
      <trkpt lat="35.93693023" lon="120.17468921">
        <time>2019-08-28T13:28:35.990000Z</time>
      </trkpt>
      <trkpt lat="35.93697779" lon="120.1747908">
        <time>2019-08-28T13:28:39.013000Z</time>
      </trkpt>
      <trkpt lat="35.93705494" lon="120.17485908">
        <time>2019-08-28T13:28:42.001000Z</time>
      </trkpt>
      <trkpt lat="35.93715445" lon="120.17490386">
        <time>2019-08-28T13:28:45.005000Z</time>
      </trkpt>
      <trkpt lat="35.93725825" lon="120.17493855">
        <time>2019-08-28T13:28:48.028000Z</time>
      </trkpt>
      <trkpt lat="35.93735352" lon="120.17499413">
        <time>2019-08-28T13:28:51.009000Z</time>
      </trkpt>
      <trkpt lat="35.93742817" lon="120.1750586">
        <time>2019-08-28T13:28:56.003000Z</time>
      </trkpt>
      <trkpt lat="35.93742817" lon="120.1750586">
        <time>2019-08-28T13:29:08.027000Z</time>
      </trkpt>
      <trkpt lat="35.93749259" lon="120.17514913">
        <time>2019-08-28T13:29:08.033000Z</time>
      </trkpt>
      <trkpt lat="35.93753637" lon="120.17525867">
        <time>2019-08-28T13:29:19.027000Z</time>
      </trkpt>
      <trkpt lat="35.93753637" lon="120.17525867">
        <time>2019-08-28T13:29:36.044000Z</time>
      </trkpt>
      <trkpt lat="35.93766868" lon="120.17546765">
        <time>2019-08-28T13:29:36.053000Z</time>
      </trkpt>
      <trkpt lat="35.93772804" lon="120.17558093">
        <time>2019-08-28T13:29:39.993000Z</time>
      </trkpt>
      <trkpt lat="35.93778087" lon="120.1756925">
        <time>2019-08-28T13:29:44.016000Z</time>
      </trkpt>
      <trkpt lat="35.93778087" lon="120.1756925">
        <time>2019-08-28T13:29:45.415000Z</time>
      </trkpt>
      <trkpt lat="35.93784221" lon="120.17580659">
        <time>2019-08-28T13:29:47.985000Z</time>
      </trkpt>
      <trkpt lat="35.93791623" lon="120.17591408">
        <time>2019-08-28T13:29:52.007000Z</time>
      </trkpt>
      <trkpt lat="35.93797484" lon="120.1760341">
        <time>2019-08-28T13:29:56.014000Z</time>
      </trkpt>
      <trkpt lat="35.93803675" lon="120.17614939">
        <time>2019-08-28T13:30:00.051000Z</time>
      </trkpt>
      <trkpt lat="35.93809503" lon="120.17625538">
        <time>2019-08-28T13:30:04.005000Z</time>
      </trkpt>
      <trkpt lat="35.93815812" lon="120.17636175">
        <time>2019-08-28T13:30:07.984000Z</time>
      </trkpt>
      <trkpt lat="35.93822713" lon="120.17647101">
        <time>2019-08-28T13:30:12.014000Z</time>
      </trkpt>
      <trkpt lat="35.93829677" lon="120.1765885">
        <time>2019-08-28T13:30:15.990000Z</time>
      </trkpt>
      <trkpt lat="35.93835467" lon="120.1766765">
        <time>2019-08-28T13:30:18.983000Z</time>
      </trkpt>
      <trkpt lat="35.93841692" lon="120.1767901">
        <time>2019-08-28T13:30:23.001000Z</time>
      </trkpt>
      <trkpt lat="35.93848098" lon="120.17690605">
        <time>2019-08-28T13:30:27.010000Z</time>
      </trkpt>
      <trkpt lat="35.93853778" lon="120.17699907">
        <time>2019-08-28T13:30:29.990000Z</time>
      </trkpt>
      <trkpt lat="35.93859791" lon="120.17708967">
        <time>2019-08-28T13:30:32.993000Z</time>
      </trkpt>
      <trkpt lat="35.93865474" lon="120.17717641">
        <time>2019-08-28T13:30:36.018000Z</time>
      </trkpt>
      <trkpt lat="35.93872151" lon="120.17729202">
        <time>2019-08-28T13:30:40.041000Z</time>
      </trkpt>
      <trkpt lat="35.93879378" lon="120.17740812">
        <time>2019-08-28T13:30:44.008000Z</time>
      </trkpt>
      <trkpt lat="35.93885114" lon="120.17749717">
        <time>2019-08-28T13:30:46.986000Z</time>
      </trkpt>
      <trkpt lat="35.93891791" lon="120.17761597">
        <time>2019-08-28T13:30:50.995000Z</time>
      </trkpt>
      <trkpt lat="35.93898634" lon="120.17772886">
        <time>2019-08-28T13:30:54.987000Z</time>
      </trkpt>
      <trkpt lat="35.93903788" lon="120.17782163">
        <time>2019-08-28T13:30:58.002000Z</time>
      </trkpt>
      <trkpt lat="35.93909321" lon="120.17791506">
        <time>2019-08-28T13:31:01.004000Z</time>
      </trkpt>
      <trkpt lat="35.93914941" lon="120.17800457">
        <time>2019-08-28T13:31:04.002000Z</time>
      </trkpt>
      <trkpt lat="35.93922243" lon="120.17811825">
        <time>2019-08-28T13:31:08.013000Z</time>
      </trkpt>
      <trkpt lat="35.93927806" lon="120.17823538">
        <time>2019-08-28T13:31:11.991000Z</time>
      </trkpt>
      <trkpt lat="35.93934071" lon="120.17835712">
        <time>2019-08-28T13:31:16.010000Z</time>
      </trkpt>
      <trkpt lat="35.93939089" lon="120.17845628">
        <time>2019-08-28T13:31:18.986000Z</time>
      </trkpt>
      <trkpt lat="35.93944657" lon="120.17855562">
        <time>2019-08-28T13:31:21.989000Z</time>
      </trkpt>
      <trkpt lat="35.93951059" lon="120.1786475">
        <time>2019-08-28T13:31:25.009000Z</time>
      </trkpt>
      <trkpt lat="35.93956779" lon="120.17874237">
        <time>2019-08-28T13:31:28.024000Z</time>
      </trkpt>
      <trkpt lat="35.93962764" lon="120.17883551">
        <time>2019-08-28T13:31:32.004000Z</time>
      </trkpt>
      <trkpt lat="35.93962764" lon="120.17883551">
        <time>2019-08-28T13:31:35.228000Z</time>
      </trkpt>
      <trkpt lat="35.9396865" lon="120.17893168">
        <time>2019-08-28T13:31:38.005000Z</time>
      </trkpt>
      <trkpt lat="35.9396865" lon="120.17893168">
        <time>2019-08-28T13:31:45.008000Z</time>
      </trkpt>
      <trkpt lat="35.93973437" lon="120.17905053">
        <time>2019-08-28T13:31:45.017000Z</time>
      </trkpt>
      <trkpt lat="35.93977179" lon="120.17918673">
        <time>2019-08-28T13:31:49.010000Z</time>
      </trkpt>
      <trkpt lat="35.93979375" lon="120.17932471">
        <time>2019-08-28T13:31:53.001000Z</time>
      </trkpt>
      <trkpt lat="35.93981814" lon="120.17946529">
        <time>2019-08-28T13:31:57.008000Z</time>
      </trkpt>
      <trkpt lat="35.93983521" lon="120.17959881">
        <time>2019-08-28T13:32:00.986000Z</time>
      </trkpt>
      <trkpt lat="35.93985401" lon="120.17973069">
        <time>2019-08-28T13:32:04.990000Z</time>
      </trkpt>
      <trkpt lat="35.93989376" lon="120.17985052">
        <time>2019-08-28T13:32:08.997000Z</time>
      </trkpt>
      <trkpt lat="35.93996098" lon="120.17994551">
        <time>2019-08-28T13:32:12.998000Z</time>
      </trkpt>
      <trkpt lat="35.94000032" lon="120.18006883">
        <time>2019-08-28T13:32:16.988000Z</time>
      </trkpt>
      <trkpt lat="35.94004395" lon="120.18019608">
        <time>2019-08-28T13:32:20.995000Z</time>
      </trkpt>
      <trkpt lat="35.94009573" lon="120.18032122">
        <time>2019-08-28T13:32:24.988000Z</time>
      </trkpt>
      <trkpt lat="35.94012437" lon="120.18045219">
        <time>2019-08-28T13:32:28.993000Z</time>
      </trkpt>
      <trkpt lat="35.94016615" lon="120.18057282">
        <time>2019-08-28T13:32:32.988000Z</time>
      </trkpt>
      <trkpt lat="35.94018411" lon="120.18069666">
        <time>2019-08-28T13:32:37.004000Z</time>
      </trkpt>
      <trkpt lat="35.94025064" lon="120.18079975">
        <time>2019-08-28T13:32:40.988000Z</time>
      </trkpt>
      <trkpt lat="35.94033364" lon="120.18089439">
        <time>2019-08-28T13:32:44.988000Z</time>
      </trkpt>
      <trkpt lat="35.94043393" lon="120.18096722">
        <time>2019-08-28T13:32:48.985000Z</time>
      </trkpt>
      <trkpt lat="35.94054858" lon="120.18098848">
        <time>2019-08-28T13:32:53.012000Z</time>
      </trkpt>
      <trkpt lat="35.94065578" lon="120.18099353">
        <time>2019-08-28T13:32:56.992000Z</time>
      </trkpt>
      <trkpt lat="35.94076032" lon="120.18103852">
        <time>2019-08-28T13:33:00.992000Z</time>
      </trkpt>
      <trkpt lat="35.94084903" lon="120.1811075">
        <time>2019-08-28T13:33:04.992000Z</time>
      </trkpt>
      <trkpt lat="35.94091491" lon="120.18121256">
        <time>2019-08-28T13:33:08.992000Z</time>
      </trkpt>
      <trkpt lat="35.94099799" lon="120.18131132">
        <time>2019-08-28T13:33:13.048000Z</time>
      </trkpt>
      <trkpt lat="35.94106136" lon="120.18139544">
        <time>2019-08-28T13:33:15.990000Z</time>
      </trkpt>
      <trkpt lat="35.94112247" lon="120.18147918">
        <time>2019-08-28T13:33:18.991000Z</time>
      </trkpt>
      <trkpt lat="35.94121725" lon="120.181568">
        <time>2019-08-28T13:33:22.987000Z</time>
      </trkpt>
      <trkpt lat="35.94131694" lon="120.18163838">
        <time>2019-08-28T13:33:27.005000Z</time>
      </trkpt>
      <trkpt lat="35.94139665" lon="120.18169561">
        <time>2019-08-28T13:33:30.006000Z</time>
      </trkpt>
      <trkpt lat="35.94147348" lon="120.18175882">
        <time>2019-08-28T13:33:32.993000Z</time>
      </trkpt>
      <trkpt lat="35.94147348" lon="120.18175882">
        <time>2019-08-28T13:33:36.015000Z</time>
      </trkpt>
      <trkpt lat="35.94155151" lon="120.18181553">
        <time>2019-08-28T13:33:39.012000Z</time>
      </trkpt>
      <trkpt lat="35.94162056" lon="120.18189558">
        <time>2019-08-28T13:33:47.014000Z</time>
      </trkpt>
      <trkpt lat="35.94162056" lon="120.18189558">
        <time>2019-08-28T13:34:05.007000Z</time>
      </trkpt>
      <trkpt lat="35.94175917" lon="120.18209303">
        <time>2019-08-28T13:34:05.013000Z</time>
      </trkpt>
      <trkpt lat="35.94180352" lon="120.18219638">
        <time>2019-08-28T13:34:09.982000Z</time>
      </trkpt>
      <trkpt lat="35.94180352" lon="120.18219638">
        <time>2019-08-28T13:34:14.005000Z</time>
      </trkpt>
      <trkpt lat="35.94184964" lon="120.18230139">
        <time>2019-08-28T13:34:14.011000Z</time>
      </trkpt>
      <trkpt lat="35.9418947" lon="120.18241463">
        <time>2019-08-28T13:34:18.007000Z</time>
      </trkpt>
      <trkpt lat="35.94196259" lon="120.1825142">
        <time>2019-08-28T13:34:21.986000Z</time>
      </trkpt>
      <trkpt lat="35.94200833" lon="120.18263085">
        <time>2019-08-28T13:34:26.003000Z</time>
      </trkpt>
      <trkpt lat="35.94205847" lon="120.18273663">
        <time>2019-08-28T13:34:30.015000Z</time>
      </trkpt>
      <trkpt lat="35.94212785" lon="120.1828299">
        <time>2019-08-28T13:34:34.010000Z</time>
      </trkpt>
      <trkpt lat="35.94216635" lon="120.18295811">
        <time>2019-08-28T13:34:37.983000Z</time>
      </trkpt>
      <trkpt lat="35.94222356" lon="120.18306519">
        <time>2019-08-28T13:34:42.006000Z</time>
      </trkpt>
      <trkpt lat="35.94229705" lon="120.18315681">
        <time>2019-08-28T13:34:46.009000Z</time>
      </trkpt>
      <trkpt lat="35.94234473" lon="120.18326611">
        <time>2019-08-28T13:34:49.991000Z</time>
      </trkpt>
      <trkpt lat="35.94232558" lon="120.18339788">
        <time>2019-08-28T13:34:53.988000Z</time>
      </trkpt>
      <trkpt lat="35.94233082" lon="120.18353258">
        <time>2019-08-28T13:34:57.986000Z</time>
      </trkpt>
      <trkpt lat="35.94238829" lon="120.18364589">
        <time>2019-08-28T13:35:01.988000Z</time>
      </trkpt>
      <trkpt lat="35.94249359" lon="120.18367379">
        <time>2019-08-28T13:35:06.004000Z</time>
      </trkpt>
      <trkpt lat="35.94259814" lon="120.18372464">
        <time>2019-08-28T13:35:10.007000Z</time>
      </trkpt>
      <trkpt lat="35.94268435" lon="120.18381105">
        <time>2019-08-28T13:35:14.025000Z</time>
      </trkpt>
      <trkpt lat="35.94272646" lon="120.18394821">
        <time>2019-08-28T13:35:18.005000Z</time>
      </trkpt>
      <trkpt lat="35.94275005" lon="120.18406353">
        <time>2019-08-28T13:35:21.007000Z</time>
      </trkpt>
      <trkpt lat="35.94279026" lon="120.18420241">
        <time>2019-08-28T13:35:25.007000Z</time>
      </trkpt>
      <trkpt lat="35.94284197" lon="120.18432821">
        <time>2019-08-28T13:35:28.989000Z</time>
      </trkpt>
      <trkpt lat="35.94288311" lon="120.1844525">
        <time>2019-08-28T13:35:33.008000Z</time>
      </trkpt>
      <trkpt lat="35.94292089" lon="120.18457031">
        <time>2019-08-28T13:35:37.007000Z</time>
      </trkpt>
      <trkpt lat="35.94297225" lon="120.18466676">
        <time>2019-08-28T13:35:41.013000Z</time>
      </trkpt>
      <trkpt lat="35.94302345" lon="120.18478307">
        <time>2019-08-28T13:35:45.008000Z</time>
      </trkpt>
      <trkpt lat="35.94306347" lon="120.18490256">
        <time>2019-08-28T13:35:49.016000Z</time>
      </trkpt>
      <trkpt lat="35.94310722" lon="120.18502411">
        <time>2019-08-28T13:35:53.005000Z</time>
      </trkpt>
      <trkpt lat="35.94316626" lon="120.1851467">
        <time>2019-08-28T13:35:56.985000Z</time>
      </trkpt>
      <trkpt lat="35.94321869" lon="120.18525582">
        <time>2019-08-28T13:36:03.005000Z</time>
      </trkpt>
      <trkpt lat="35.94321869" lon="120.18525582">
        <time>2019-08-28T13:36:06.682000Z</time>
      </trkpt>
      <trkpt lat="35.9432653" lon="120.18535737">
        <time>2019-08-28T13:36:10.007000Z</time>
      </trkpt>
      <trkpt lat="35.94331991" lon="120.18545867">
        <time>2019-08-28T13:36:19.002000Z</time>
      </trkpt>
      <trkpt lat="35.94336225" lon="120.18556635">
        <time>2019-08-28T13:36:26.004000Z</time>
      </trkpt>
      <trkpt lat="35.94338913" lon="120.18567946">
        <time>2019-08-28T13:36:33.003000Z</time>
      </trkpt>
      <trkpt lat="35.94342757" lon="120.18580129">
        <time>2019-08-28T13:36:39.017000Z</time>
      </trkpt>
      <trkpt lat="35.94342757" lon="120.18580129">
        <time>2019-08-28T13:36:40.997000Z</time>
      </trkpt>
      <trkpt lat="35.94347296" lon="120.18591639">
        <time>2019-08-28T13:36:43.019000Z</time>
      </trkpt>
      <trkpt lat="35.94351461" lon="120.18603529">
        <time>2019-08-28T13:36:47.027000Z</time>
      </trkpt>
      <trkpt lat="35.94354229" lon="120.1861582">
        <time>2019-08-28T13:36:51.020000Z</time>
      </trkpt>
      <trkpt lat="35.9435624" lon="120.18628807">
        <time>2019-08-28T13:36:55.006000Z</time>
      </trkpt>
      <trkpt lat="35.9435624" lon="120.18628807">
        <time>2019-08-28T13:36:56.354000Z</time>
      </trkpt>
      <trkpt lat="35.94359368" lon="120.18642003">
        <time>2019-08-28T13:36:58.987000Z</time>
      </trkpt>
      <trkpt lat="35.94363287" lon="120.18656017">
        <time>2019-08-28T13:37:03.004000Z</time>
      </trkpt>
      <trkpt lat="35.94366356" lon="120.18666472">
        <time>2019-08-28T13:37:05.989000Z</time>
      </trkpt>
      <trkpt lat="35.94366356" lon="120.18666472">
        <time>2019-08-28T13:37:07.004000Z</time>
      </trkpt>
      <trkpt lat="35.94370833" lon="120.18680311">
        <time>2019-08-28T13:37:10.012000Z</time>
      </trkpt>
      <trkpt lat="35.94374502" lon="120.18690819">
        <time>2019-08-28T13:37:13.009000Z</time>
      </trkpt>
      <trkpt lat="35.94378531" lon="120.18701197">
        <time>2019-08-28T13:37:16.009000Z</time>
      </trkpt>
      <trkpt lat="35.94381906" lon="120.18711525">
        <time>2019-08-28T13:37:19.008000Z</time>
      </trkpt>
      <trkpt lat="35.94385839" lon="120.18721978">
        <time>2019-08-28T13:37:21.996000Z</time>
      </trkpt>
      <trkpt lat="35.94390771" lon="120.18731312">
        <time>2019-08-28T13:37:25.020000Z</time>
      </trkpt>
      <trkpt lat="35.94396486" lon="120.1874336">
        <time>2019-08-28T13:37:29.009000Z</time>
      </trkpt>
      <trkpt lat="35.94401261" lon="120.18756649">
        <time>2019-08-28T13:37:33.053000Z</time>
      </trkpt>
      <trkpt lat="35.94404553" lon="120.18767068">
        <time>2019-08-28T13:37:35.993000Z</time>
      </trkpt>
      <trkpt lat="35.94408175" lon="120.18777256">
        <time>2019-08-28T13:37:39.007000Z</time>
      </trkpt>
      <trkpt lat="35.94413447" lon="120.18790185">
        <time>2019-08-28T13:37:42.998000Z</time>
      </trkpt>
      <trkpt lat="35.94418089" lon="120.18802664">
        <time>2019-08-28T13:37:46.999000Z</time>
      </trkpt>
      <trkpt lat="35.9442299" lon="120.18815301">
        <time>2019-08-28T13:37:50.998000Z</time>
      </trkpt>
      <trkpt lat="35.94425059" lon="120.18826322">
        <time>2019-08-28T13:37:54.016000Z</time>
      </trkpt>
      <trkpt lat="35.94427467" lon="120.1884064">
        <time>2019-08-28T13:37:58.007000Z</time>
      </trkpt>
      <trkpt lat="35.94423575" lon="120.1885407">
        <time>2019-08-28T13:38:01.993000Z</time>
      </trkpt>
      <trkpt lat="35.94420702" lon="120.18864935">
        <time>2019-08-28T13:38:05.038000Z</time>
      </trkpt>
      <trkpt lat="35.94419423" lon="120.18876187">
        <time>2019-08-28T13:38:08.006000Z</time>
      </trkpt>
      <trkpt lat="35.94419393" lon="120.18887659">
        <time>2019-08-28T13:38:11.002000Z</time>
      </trkpt>
      <trkpt lat="35.94421866" lon="120.18898421">
        <time>2019-08-28T13:38:14.007000Z</time>
      </trkpt>
      <trkpt lat="35.94425894" lon="120.18908554">
        <time>2019-08-28T13:38:17.013000Z</time>
      </trkpt>
      <trkpt lat="35.94433699" lon="120.1891972">
        <time>2019-08-28T13:38:21.009000Z</time>
      </trkpt>
      <trkpt lat="35.9444136" lon="120.18930636">
        <time>2019-08-28T13:38:24.998000Z</time>
      </trkpt>
      <trkpt lat="35.94451866" lon="120.18937605">
        <time>2019-08-28T13:38:29.003000Z</time>
      </trkpt>
      <trkpt lat="35.94460526" lon="120.18941126">
        <time>2019-08-28T13:38:32.016000Z</time>
      </trkpt>
      <trkpt lat="35.94469391" lon="120.18943757">
        <time>2019-08-28T13:38:36.006000Z</time>
      </trkpt>
      <trkpt lat="35.94469391" lon="120.18943757">
        <time>2019-08-28T13:38:42.802000Z</time>
      </trkpt>
      <trkpt lat="35.94476533" lon="120.18950893">
        <time>2019-08-28T13:38:45.029000Z</time>
      </trkpt>
      <trkpt lat="35.94480557" lon="120.18962621">
        <time>2019-08-28T13:38:52.001000Z</time>
      </trkpt>
      <trkpt lat="35.94480557" lon="120.18962621">
        <time>2019-08-28T13:38:54.391000Z</time>
      </trkpt>
      <trkpt lat="35.94490806" lon="120.18966769">
        <time>2019-08-28T13:38:55.994000Z</time>
      </trkpt>
      <trkpt lat="35.94497134" lon="120.18974914">
        <time>2019-08-28T13:39:00.986000Z</time>
      </trkpt>
      <trkpt lat="35.94497134" lon="120.18974914">
        <time>2019-08-28T13:39:04.828000Z</time>
      </trkpt>
      <trkpt lat="35.94501605" lon="120.18984689">
        <time>2019-08-28T13:39:07.985000Z</time>
      </trkpt>
      <trkpt lat="35.94505196" lon="120.1899549">
        <time>2019-08-28T13:39:11.997000Z</time>
      </trkpt>
      <trkpt lat="35.94505196" lon="120.1899549">
        <time>2019-08-28T13:39:14.839000Z</time>
      </trkpt>
      <trkpt lat="35.94511038" lon="120.19006324">
        <time>2019-08-28T13:39:16.012000Z</time>
      </trkpt>
      <trkpt lat="35.94517799" lon="120.19017033">
        <time>2019-08-28T13:39:20.011000Z</time>
      </trkpt>
      <trkpt lat="35.945241" lon="120.19028447">
        <time>2019-08-28T13:39:24.028000Z</time>
      </trkpt>
      <trkpt lat="35.94529345" lon="120.19038987">
        <time>2019-08-28T13:39:28.016000Z</time>
      </trkpt>
      <trkpt lat="35.9453318" lon="120.19051458">
        <time>2019-08-28T13:39:32.013000Z</time>
      </trkpt>
      <trkpt lat="35.94537289" lon="120.19063822">
        <time>2019-08-28T13:39:36.008000Z</time>
      </trkpt>
      <trkpt lat="35.94539433" lon="120.19076347">
        <time>2019-08-28T13:39:40.008000Z</time>
      </trkpt>
      <trkpt lat="35.9454575" lon="120.19088536">
        <time>2019-08-28T13:39:43.993000Z</time>
      </trkpt>
      <trkpt lat="35.94551769" lon="120.19097508">
        <time>2019-08-28T13:39:48.003000Z</time>
      </trkpt>
      <trkpt lat="35.94556998" lon="120.19108753">
        <time>2019-08-28T13:39:51.985000Z</time>
      </trkpt>
      <trkpt lat="35.94563285" lon="120.1912107">
        <time>2019-08-28T13:39:56.013000Z</time>
      </trkpt>
      <trkpt lat="35.94568957" lon="120.19133767">
        <time>2019-08-28T13:40:00.018000Z</time>
      </trkpt>
      <trkpt lat="35.94574009" lon="120.19146765">
        <time>2019-08-28T13:40:04.008000Z</time>
      </trkpt>
      <trkpt lat="35.94578328" lon="120.19160373">
        <time>2019-08-28T13:40:08.001000Z</time>
      </trkpt>
      <trkpt lat="35.94580321" lon="120.19174546">
        <time>2019-08-28T13:40:11.995000Z</time>
      </trkpt>
      <trkpt lat="35.94583935" lon="120.19187958">
        <time>2019-08-28T13:40:16.008000Z</time>
      </trkpt>
      <trkpt lat="35.94587355" lon="120.19198243">
        <time>2019-08-28T13:40:19.004000Z</time>
      </trkpt>
      <trkpt lat="35.94590054" lon="120.19209703">
        <time>2019-08-28T13:40:22.019000Z</time>
      </trkpt>
      <trkpt lat="35.94591028" lon="120.19222482">
        <time>2019-08-28T13:40:26.002000Z</time>
      </trkpt>
      <trkpt lat="35.94591028" lon="120.19222482">
        <time>2019-08-28T13:40:27.903000Z</time>
      </trkpt>
      <trkpt lat="35.94592647" lon="120.19236151">
        <time>2019-08-28T13:40:32.006000Z</time>
      </trkpt>
      <trkpt lat="35.94593749" lon="120.19249331">
        <time>2019-08-28T13:40:35.987000Z</time>
      </trkpt>
      <trkpt lat="35.94593749" lon="120.19249331">
        <time>2019-08-28T13:40:39.430000Z</time>
      </trkpt>
      <trkpt lat="35.94594209" lon="120.1926323">
        <time>2019-08-28T13:40:40.007000Z</time>
      </trkpt>
      <trkpt lat="35.94595769" lon="120.19276673">
        <time>2019-08-28T13:40:44.011000Z</time>
      </trkpt>
      <trkpt lat="35.94596634" lon="120.19289757">
        <time>2019-08-28T13:40:47.988000Z</time>
      </trkpt>
      <trkpt lat="35.94596532" lon="120.1930352">
        <time>2019-08-28T13:40:52.038000Z</time>
      </trkpt>
      <trkpt lat="35.945968" lon="120.19317402">
        <time>2019-08-28T13:40:56.024000Z</time>
      </trkpt>
      <trkpt lat="35.94597044" lon="120.1933146">
        <time>2019-08-28T13:40:59.983000Z</time>
      </trkpt>
      <trkpt lat="35.94598671" lon="120.19345339">
        <time>2019-08-28T13:41:04.002000Z</time>
      </trkpt>
      <trkpt lat="35.94599258" lon="120.193589">
        <time>2019-08-28T13:41:08.005000Z</time>
      </trkpt>
      <trkpt lat="35.94600428" lon="120.19372672">
        <time>2019-08-28T13:41:11.986000Z</time>
      </trkpt>
      <trkpt lat="35.94599559" lon="120.19386539">
        <time>2019-08-28T13:41:15.992000Z</time>
      </trkpt>
      <trkpt lat="35.94600723" lon="120.19399814">
        <time>2019-08-28T13:41:19.988000Z</time>
      </trkpt>
      <trkpt lat="35.94605566" lon="120.19412779">
        <time>2019-08-28T13:41:24.001000Z</time>
      </trkpt>
      <trkpt lat="35.94608376" lon="120.1942616">
        <time>2019-08-28T13:41:27.987000Z</time>
      </trkpt>
      <trkpt lat="35.94611876" lon="120.19439447">
        <time>2019-08-28T13:41:32.004000Z</time>
      </trkpt>
      <trkpt lat="35.94613716" lon="120.19450532">
        <time>2019-08-28T13:41:35.009000Z</time>
      </trkpt>
      <trkpt lat="35.9461666" lon="120.19461379">
        <time>2019-08-28T13:41:38.010000Z</time>
      </trkpt>
      <trkpt lat="35.94619341" lon="120.19472035">
        <time>2019-08-28T13:41:41.007000Z</time>
      </trkpt>
      <trkpt lat="35.9462254" lon="120.19483081">
        <time>2019-08-28T13:41:46.004000Z</time>
      </trkpt>
      <trkpt lat="35.9462254" lon="120.19483081">
        <time>2019-08-28T13:41:48.965000Z</time>
      </trkpt>
      <trkpt lat="35.94628234" lon="120.19492123">
        <time>2019-08-28T13:41:53.009000Z</time>
      </trkpt>
      <trkpt lat="35.94628234" lon="120.19492123">
        <time>2019-08-28T13:41:59.461000Z</time>
      </trkpt>
      <trkpt lat="35.94629209" lon="120.19504812">
        <time>2019-08-28T13:42:01.005000Z</time>
      </trkpt>
      <trkpt lat="35.94631804" lon="120.19516743">
        <time>2019-08-28T13:42:07.042000Z</time>
      </trkpt>
      <trkpt lat="35.94641083" lon="120.19519101">
        <time>2019-08-28T13:42:11.029000Z</time>
      </trkpt>
      <trkpt lat="35.94651435" lon="120.19515439">
        <time>2019-08-28T13:42:15.013000Z</time>
      </trkpt>
      <trkpt lat="35.94660942" lon="120.19510077">
        <time>2019-08-28T13:42:18.994000Z</time>
      </trkpt>
      <trkpt lat="35.94670188" lon="120.19503325">
        <time>2019-08-28T13:42:23.002000Z</time>
      </trkpt>
      <trkpt lat="35.94680724" lon="120.19497758">
        <time>2019-08-28T13:42:27.002000Z</time>
      </trkpt>
      <trkpt lat="35.94689727" lon="120.19494474">
        <time>2019-08-28T13:42:30Z</time>
      </trkpt>
      <trkpt lat="35.94699407" lon="120.19492071">
        <time>2019-08-28T13:42:33.012000Z</time>
      </trkpt>
      <trkpt lat="35.94708299" lon="120.19487646">
        <time>2019-08-28T13:42:36.002000Z</time>
      </trkpt>
      <trkpt lat="35.94717968" lon="120.19484268">
        <time>2019-08-28T13:42:38.988000Z</time>
      </trkpt>
      <trkpt lat="35.94729788" lon="120.19483936">
        <time>2019-08-28T13:42:43.004000Z</time>
      </trkpt>
      <trkpt lat="35.94737897" lon="120.19494843">
        <time>2019-08-28T13:42:47.007000Z</time>
      </trkpt>
      <trkpt lat="35.94743212" lon="120.19504847">
        <time>2019-08-28T13:42:50.008000Z</time>
      </trkpt>
      <trkpt lat="35.94747617" lon="120.19514885">
        <time>2019-08-28T13:42:53.048000Z</time>
      </trkpt>
      <trkpt lat="35.94751343" lon="120.19525226">
        <time>2019-08-28T13:42:55.995000Z</time>
      </trkpt>
      <trkpt lat="35.94754849" lon="120.19535558">
        <time>2019-08-28T13:42:59.010000Z</time>
      </trkpt>
      <trkpt lat="35.94757978" lon="120.19548109">
        <time>2019-08-28T13:43:05.006000Z</time>
      </trkpt>
      <trkpt lat="35.94757978" lon="120.19548109">
        <time>2019-08-28T13:43:08.013000Z</time>
      </trkpt>
      <trkpt lat="35.94766106" lon="120.19555761">
        <time>2019-08-28T13:43:11.006000Z</time>
      </trkpt>
      <trkpt lat="35.94774245" lon="120.19563207">
        <time>2019-08-28T13:43:17.990000Z</time>
      </trkpt>
      <trkpt lat="35.94774245" lon="120.19563207">
        <time>2019-08-28T13:43:23.005000Z</time>
      </trkpt>
      <trkpt lat="35.94784043" lon="120.19569151">
        <time>2019-08-28T13:43:23.992000Z</time>
      </trkpt>
      <trkpt lat="35.9479466" lon="120.19573165">
        <time>2019-08-28T13:43:27.989000Z</time>
      </trkpt>
      <trkpt lat="35.9480561" lon="120.19574876">
        <time>2019-08-28T13:43:31.995000Z</time>
      </trkpt>
      <trkpt lat="35.94814545" lon="120.19577398">
        <time>2019-08-28T13:43:36.010000Z</time>
      </trkpt>
      <trkpt lat="35.94816483" lon="120.19590655">
        <time>2019-08-28T13:43:39.992000Z</time>
      </trkpt>
      <trkpt lat="35.94817972" lon="120.19604296">
        <time>2019-08-28T13:43:44.003000Z</time>
      </trkpt>
      <trkpt lat="35.94821224" lon="120.19618466">
        <time>2019-08-28T13:43:48.003000Z</time>
      </trkpt>
      <trkpt lat="35.94823486" lon="120.19629637">
        <time>2019-08-28T13:43:50.989000Z</time>
      </trkpt>
      <trkpt lat="35.94826972" lon="120.19643771">
        <time>2019-08-28T13:43:55.004000Z</time>
      </trkpt>
      <trkpt lat="35.94829827" lon="120.19654366">
        <time>2019-08-28T13:43:58.007000Z</time>
      </trkpt>
      <trkpt lat="35.94833556" lon="120.19666548">
        <time>2019-08-28T13:44:02.004000Z</time>
      </trkpt>
      <trkpt lat="35.94838232" lon="120.19679517">
        <time>2019-08-28T13:44:06.006000Z</time>
      </trkpt>
      <trkpt lat="35.94840307" lon="120.19690659">
        <time>2019-08-28T13:44:09.008000Z</time>
      </trkpt>
      <trkpt lat="35.9484294" lon="120.19702054">
        <time>2019-08-28T13:44:12.012000Z</time>
      </trkpt>
      <trkpt lat="35.94845365" lon="120.19713166">
        <time>2019-08-28T13:44:15.003000Z</time>
      </trkpt>
      <trkpt lat="35.94849916" lon="120.19726678">
        <time>2019-08-28T13:44:18.994000Z</time>
      </trkpt>
      <trkpt lat="35.94855996" lon="120.19739233">
        <time>2019-08-28T13:44:23.027000Z</time>
      </trkpt>
      <trkpt lat="35.94859771" lon="120.19751111">
        <time>2019-08-28T13:44:27.006000Z</time>
      </trkpt>
      <trkpt lat="35.94862703" lon="120.19764167">
        <time>2019-08-28T13:44:31.005000Z</time>
      </trkpt>
      <trkpt lat="35.94864724" lon="120.19778293">
        <time>2019-08-28T13:44:35.005000Z</time>
      </trkpt>
      <trkpt lat="35.94864724" lon="120.19778293">
        <time>2019-08-28T13:48:46.224000Z</time>
      </trkpt>
      <trkpt lat="35.95065173" lon="120.20415163">
        <time>2019-08-28T13:48:54.001000Z</time>
      </trkpt>
      <trkpt lat="35.95076754" lon="120.20413558">
        <time>2019-08-28T13:48:58.006000Z</time>
      </trkpt>
      <trkpt lat="35.95086755" lon="120.20417777">
        <time>2019-08-28T13:49:03.007000Z</time>
      </trkpt>
      <trkpt lat="35.9509683" lon="120.20418042">
        <time>2019-08-28T13:49:07.009000Z</time>
      </trkpt>
      <trkpt lat="35.95106066" lon="120.20417115">
        <time>2019-08-28T13:49:10.014000Z</time>
      </trkpt>
      <trkpt lat="35.95117658" lon="120.2041603">
        <time>2019-08-28T13:49:13.988000Z</time>
      </trkpt>
      <trkpt lat="35.95129005" lon="120.2041461">
        <time>2019-08-28T13:49:18.008000Z</time>
      </trkpt>
      <trkpt lat="35.95139725" lon="120.20411926">
        <time>2019-08-28T13:49:21.986000Z</time>
      </trkpt>
      <trkpt lat="35.95151136" lon="120.20409861">
        <time>2019-08-28T13:49:25.983000Z</time>
      </trkpt>
      <trkpt lat="35.95161836" lon="120.2040888">
        <time>2019-08-28T13:49:29.992000Z</time>
      </trkpt>
      <trkpt lat="35.95171562" lon="120.20407589">
        <time>2019-08-28T13:49:34.009000Z</time>
      </trkpt>
      <trkpt lat="35.95181761" lon="120.20406405">
        <time>2019-08-28T13:49:38.025000Z</time>
      </trkpt>
      <trkpt lat="35.95191857" lon="120.20404944">
        <time>2019-08-28T13:49:41.999000Z</time>
      </trkpt>
      <trkpt lat="35.95201157" lon="120.20402095">
        <time>2019-08-28T13:49:44.985000Z</time>
      </trkpt>
      <trkpt lat="35.95210581" lon="120.20399866">
        <time>2019-08-28T13:49:48.005000Z</time>
      </trkpt>
      <trkpt lat="35.95219964" lon="120.20398615">
        <time>2019-08-28T13:49:51.009000Z</time>
      </trkpt>
      <trkpt lat="35.95229137" lon="120.20398102">
        <time>2019-08-28T13:49:56.006000Z</time>
      </trkpt>
      <trkpt lat="35.95229137" lon="120.20398102">
        <time>2019-08-28T13:49:56.994000Z</time>
      </trkpt>
      <trkpt lat="35.95238337" lon="120.2039722">
        <time>2019-08-28T13:50:03.006000Z</time>
      </trkpt>
      <trkpt lat="35.95248136" lon="120.20395196">
        <time>2019-08-28T13:50:11.022000Z</time>
      </trkpt>
      <trkpt lat="35.95258296" lon="120.20394201">
        <time>2019-08-28T13:50:19Z</time>
      </trkpt>
      <trkpt lat="35.95267288" lon="120.20392002">
        <time>2019-08-28T13:50:27.010000Z</time>
      </trkpt>
      <trkpt lat="35.95277101" lon="120.2039077">
        <time>2019-08-28T13:50:35.005000Z</time>
      </trkpt>
      <trkpt lat="35.95286526" lon="120.20387879">
        <time>2019-08-28T13:50:43.006000Z</time>
      </trkpt>
      <trkpt lat="35.95296063" lon="120.20386542">
        <time>2019-08-28T13:50:50.001000Z</time>
      </trkpt>
      <trkpt lat="35.95305011" lon="120.20385171">
        <time>2019-08-28T13:50:57.008000Z</time>
      </trkpt>
      <trkpt lat="35.9531433" lon="120.20383738">
        <time>2019-08-28T13:51:04.025000Z</time>
      </trkpt>
      <trkpt lat="35.95323948" lon="120.20382698">
        <time>2019-08-28T13:51:12.007000Z</time>
      </trkpt>
      <trkpt lat="35.95333057" lon="120.20380869">
        <time>2019-08-28T13:51:20.006000Z</time>
      </trkpt>
      <trkpt lat="35.95342944" lon="120.20379767">
        <time>2019-08-28T13:51:28.004000Z</time>
      </trkpt>
      <trkpt lat="35.95352151" lon="120.20379001">
        <time>2019-08-28T13:51:34.992000Z</time>
      </trkpt>
      <trkpt lat="35.95362142" lon="120.20377748">
        <time>2019-08-28T13:51:43.012000Z</time>
      </trkpt>
      <trkpt lat="35.95372143" lon="120.20374636">
        <time>2019-08-28T13:51:47.003000Z</time>
      </trkpt>
      <trkpt lat="35.95382822" lon="120.2037027">
        <time>2019-08-28T13:51:51.003000Z</time>
      </trkpt>
      <trkpt lat="35.95382822" lon="120.2037027">
        <time>2019-08-28T13:51:53.668000Z</time>
      </trkpt>
      <trkpt lat="35.95394645" lon="120.20368534">
        <time>2019-08-28T13:51:55.025000Z</time>
      </trkpt>
      <trkpt lat="35.9540388" lon="120.20368673">
        <time>2019-08-28T13:52:00.005000Z</time>
      </trkpt>
      <trkpt lat="35.9541501" lon="120.20367492">
        <time>2019-08-28T13:52:05.005000Z</time>
      </trkpt>
      <trkpt lat="35.95425836" lon="120.20365111">
        <time>2019-08-28T13:52:09.991000Z</time>
      </trkpt>
      <trkpt lat="35.95437256" lon="120.20363694">
        <time>2019-08-28T13:52:14.023000Z</time>
      </trkpt>
      <trkpt lat="35.95448553" lon="120.20362983">
        <time>2019-08-28T13:52:18.003000Z</time>
      </trkpt>
      <trkpt lat="35.95458001" lon="120.2036166">
        <time>2019-08-28T13:52:22.006000Z</time>
      </trkpt>
      <trkpt lat="35.95467958" lon="120.20363453">
        <time>2019-08-28T13:52:26.001000Z</time>
      </trkpt>
      <trkpt lat="35.95479267" lon="120.20360143">
        <time>2019-08-28T13:52:29.999000Z</time>
      </trkpt>
      <trkpt lat="35.95489334" lon="120.20356464">
        <time>2019-08-28T13:52:34.017000Z</time>
      </trkpt>
      <trkpt lat="35.95499054" lon="120.20353152">
        <time>2019-08-28T13:52:38.001000Z</time>
      </trkpt>
      <trkpt lat="35.9550889" lon="120.20350575">
        <time>2019-08-28T13:52:42.989000Z</time>
      </trkpt>
      <trkpt lat="35.95519049" lon="120.20348887">
        <time>2019-08-28T13:52:46.995000Z</time>
      </trkpt>
      <trkpt lat="35.95519049" lon="120.20348887">
        <time>2019-08-28T13:52:51.690000Z</time>
      </trkpt>
      <trkpt lat="35.95526865" lon="120.20354797">
        <time>2019-08-28T13:52:53.987000Z</time>
      </trkpt>
      <trkpt lat="35.95530381" lon="120.20366443">
        <time>2019-08-28T13:52:59.010000Z</time>
      </trkpt>
      <trkpt lat="35.95530381" lon="120.20366443">
        <time>2019-08-28T13:53:01.004000Z</time>
      </trkpt>
      <trkpt lat="35.95533958" lon="120.20378362">
        <time>2019-08-28T13:53:03.006000Z</time>
      </trkpt>
      <trkpt lat="35.95535233" lon="120.20391749">
        <time>2019-08-28T13:53:06.991000Z</time>
      </trkpt>
      <trkpt lat="35.95533878" lon="120.20406379">
        <time>2019-08-28T13:53:11Z</time>
      </trkpt>
      <trkpt lat="35.95531584" lon="120.20420274">
        <time>2019-08-28T13:53:15.007000Z</time>
      </trkpt>
      <trkpt lat="35.95532196" lon="120.20433328">
        <time>2019-08-28T13:53:18.990000Z</time>
      </trkpt>
      <trkpt lat="35.95534894" lon="120.20447692">
        <time>2019-08-28T13:53:23.009000Z</time>
      </trkpt>
      <trkpt lat="35.95536901" lon="120.20458529">
        <time>2019-08-28T13:53:26.015000Z</time>
      </trkpt>
      <trkpt lat="35.95541128" lon="120.20471574">
        <time>2019-08-28T13:53:29.990000Z</time>
      </trkpt>
      <trkpt lat="35.95542936" lon="120.20484993">
        <time>2019-08-28T13:53:34.018000Z</time>
      </trkpt>
      <trkpt lat="35.95544999" lon="120.20498984">
        <time>2019-08-28T13:53:37.998000Z</time>
      </trkpt>
      <trkpt lat="35.95549545" lon="120.20511277">
        <time>2019-08-28T13:53:42.016000Z</time>
      </trkpt>
      <trkpt lat="35.95553444" lon="120.20524836">
        <time>2019-08-28T13:53:45.985000Z</time>
      </trkpt>
      <trkpt lat="35.95553309" lon="120.20536429">
        <time>2019-08-28T13:53:48.986000Z</time>
      </trkpt>
      <trkpt lat="35.95553117" lon="120.20547597">
        <time>2019-08-28T13:53:52.009000Z</time>
      </trkpt>
      <trkpt lat="35.95555454" lon="120.20561579">
        <time>2019-08-28T13:53:55.993000Z</time>
      </trkpt>
      <trkpt lat="35.95557555" lon="120.20575811">
        <time>2019-08-28T13:53:59.989000Z</time>
      </trkpt>
      <trkpt lat="35.95560226" lon="120.2058863">
        <time>2019-08-28T13:54:04.004000Z</time>
      </trkpt>
      <trkpt lat="35.95562292" lon="120.20602763">
        <time>2019-08-28T13:54:07.998000Z</time>
      </trkpt>
      <trkpt lat="35.95564907" lon="120.20614055">
        <time>2019-08-28T13:54:10.996000Z</time>
      </trkpt>
      <trkpt lat="35.95567007" lon="120.20626469">
        <time>2019-08-28T13:54:13.991000Z</time>
      </trkpt>
      <trkpt lat="35.95569887" lon="120.20638638">
        <time>2019-08-28T13:54:17.016000Z</time>
      </trkpt>
      <trkpt lat="35.9557208" lon="120.20649481">
        <time>2019-08-28T13:54:19.988000Z</time>
      </trkpt>
      <trkpt lat="35.95572431" lon="120.2066075">
        <time>2019-08-28T13:54:23.006000Z</time>
      </trkpt>
      <trkpt lat="35.95571811" lon="120.20672945">
        <time>2019-08-28T13:54:25.990000Z</time>
      </trkpt>
      <trkpt lat="35.95571261" lon="120.20684141">
        <time>2019-08-28T13:54:29.017000Z</time>
      </trkpt>
      <trkpt lat="35.95575544" lon="120.20744581">
        <time>2019-08-28T13:54:50.005000Z</time>
      </trkpt>
      <trkpt lat="35.95575361" lon="120.2075651">
        <time>2019-08-28T13:54:52.979000Z</time>
      </trkpt>
      <trkpt lat="35.95583862" lon="120.20763019">
        <time>2019-08-28T13:54:58.003000Z</time>
      </trkpt>
      <trkpt lat="35.95595014" lon="120.20762109">
        <time>2019-08-28T13:55:01.995000Z</time>
      </trkpt>
      <trkpt lat="35.95603547" lon="120.20767724">
        <time>2019-08-28T13:55:05.995000Z</time>
      </trkpt>
      <trkpt lat="35.95614433" lon="120.20765911">
        <time>2019-08-28T13:55:10.016000Z</time>
      </trkpt>
      <trkpt lat="35.95625282" lon="120.20762655">
        <time>2019-08-28T13:55:14.004000Z</time>
      </trkpt>
      <trkpt lat="35.95636216" lon="120.20759546">
        <time>2019-08-28T13:55:17.990000Z</time>
      </trkpt>
      <trkpt lat="35.95646547" lon="120.20755585">
        <time>2019-08-28T13:55:21.998000Z</time>
      </trkpt>
      <trkpt lat="35.95655912" lon="120.20753405">
        <time>2019-08-28T13:55:27Z</time>
      </trkpt>
      <trkpt lat="35.9565527" lon="120.20767077">
        <time>2019-08-28T13:55:30.986000Z</time>
      </trkpt>
      <trkpt lat="35.95654544" lon="120.20781278">
        <time>2019-08-28T13:55:34.994000Z</time>
      </trkpt>
      <trkpt lat="35.95657673" lon="120.2079341">
        <time>2019-08-28T13:55:38.997000Z</time>
      </trkpt>
      <trkpt lat="35.95660089" lon="120.20804319">
        <time>2019-08-28T13:55:41.989000Z</time>
      </trkpt>
      <trkpt lat="35.95661898" lon="120.20817857">
        <time>2019-08-28T13:55:44.984000Z</time>
      </trkpt>
      <trkpt lat="35.95664536" lon="120.20830782">
        <time>2019-08-28T13:55:47.986000Z</time>
      </trkpt>
      <trkpt lat="35.95665167" lon="120.20844558">
        <time>2019-08-28T13:55:50.992000Z</time>
      </trkpt>
      <trkpt lat="35.95664989" lon="120.20853926">
        <time>2019-08-28T13:55:53.773000Z</time>
      </trkpt>
    </trkseg>
  </trk>
</gpx>