<?xml version="1.0" encoding="UTF-8"?>
<gpx xmlns="http://www.topografix.com/GPX/1/1" xmlns:gpxtpx="http://www.garmin.com/xmlschemas/TrackPointExtension/v1" xmlns:xsi="http://www.w3.org/2001/XMLSchema-instance" xsi:schemaLocation="http://www.topografix.com/GPX/1/1 http://www.topografix.com/GPX/1/1/gpx.xsd" version="1.1" creator="gpx.py -- https://github.com/tkrajina/gpxpy">
  <trk>
    <name>星期六 早晨跑步</name>
    <trkseg>
      <trkpt lat="35.95684521" lon="120.20994455">
        <time>2020-01-10T22:03:05.841000Z</time>
      </trkpt>
      <trkpt lat="35.95684775" lon="120.2099319">
        <time>2020-01-10T22:03:06.110000Z</time>
      </trkpt>
      <trkpt lat="35.95694753" lon="120.20989759">
        <time>2020-01-10T22:03:12.134000Z</time>
      </trkpt>
      <trkpt lat="35.95704038" lon="120.20987936">
        <time>2020-01-10T22:03:15.136000Z</time>
      </trkpt>
      <trkpt lat="35.95713173" lon="120.20984707">
        <time>2020-01-10T22:03:18.167000Z</time>
      </trkpt>
      <trkpt lat="35.95721728" lon="120.20978265">
        <time>2020-01-10T22:03:21.145000Z</time>
      </trkpt>
      <trkpt lat="35.95732515" lon="120.2097711">
        <time>2020-01-10T22:03:24.174000Z</time>
      </trkpt>
      <trkpt lat="35.95742397" lon="120.20976388">
        <time>2020-01-10T22:03:27.145000Z</time>
      </trkpt>
      <trkpt lat="35.95751759" lon="120.20975319">
        <time>2020-01-10T22:03:30.137000Z</time>
      </trkpt>
      <trkpt lat="35.95762217" lon="120.2097314">
        <time>2020-01-10T22:03:33.145000Z</time>
      </trkpt>
      <trkpt lat="35.95771392" lon="120.20970424">
        <time>2020-01-10T22:03:36.155000Z</time>
      </trkpt>
      <trkpt lat="35.95781224" lon="120.20973298">
        <time>2020-01-10T22:03:40.145000Z</time>
      </trkpt>
      <trkpt lat="35.95782969" lon="120.20986172">
        <time>2020-01-10T22:03:43.139000Z</time>
      </trkpt>
      <trkpt lat="35.95783806" lon="120.20999198">
        <time>2020-01-10T22:03:46.145000Z</time>
      </trkpt>
      <trkpt lat="35.95783557" lon="120.21011359">
        <time>2020-01-10T22:03:49.140000Z</time>
      </trkpt>
      <trkpt lat="35.95783277" lon="120.21022886">
        <time>2020-01-10T22:03:52.140000Z</time>
      </trkpt>
      <trkpt lat="35.95784634" lon="120.21034963">
        <time>2020-01-10T22:03:55.141000Z</time>
      </trkpt>
      <trkpt lat="35.95785535" lon="120.21048064">
        <time>2020-01-10T22:03:58.142000Z</time>
      </trkpt>
      <trkpt lat="35.95786741" lon="120.21060803">
        <time>2020-01-10T22:04:01.117000Z</time>
      </trkpt>
      <trkpt lat="35.95783713" lon="120.21073089">
        <time>2020-01-10T22:04:05.140000Z</time>
      </trkpt>
      <trkpt lat="35.9577241" lon="120.21076023">
        <time>2020-01-10T22:04:09.150000Z</time>
      </trkpt>
      <trkpt lat="35.95763429" lon="120.21077098">
        <time>2020-01-10T22:04:12.136000Z</time>
      </trkpt>
      <trkpt lat="35.95754334" lon="120.21077259">
        <time>2020-01-10T22:04:15.137000Z</time>
      </trkpt>
      <trkpt lat="35.95744954" lon="120.21079694">
        <time>2020-01-10T22:04:18.124000Z</time>
      </trkpt>
      <trkpt lat="35.95735502" lon="120.21082088">
        <time>2020-01-10T22:04:21.146000Z</time>
      </trkpt>
      <trkpt lat="35.9572472" lon="120.21084921">
        <time>2020-01-10T22:04:24.152000Z</time>
      </trkpt>
      <trkpt lat="35.95713692" lon="120.21086943">
        <time>2020-01-10T22:04:27.135000Z</time>
      </trkpt>
      <trkpt lat="35.95703474" lon="120.21089199">
        <time>2020-01-10T22:04:30.116000Z</time>
      </trkpt>
      <trkpt lat="35.9569222" lon="120.21093497">
        <time>2020-01-10T22:04:34.137000Z</time>
      </trkpt>
      <trkpt lat="35.95683487" lon="120.21098013">
        <time>2020-01-10T22:04:37.120000Z</time>
      </trkpt>
      <trkpt lat="35.95671497" lon="120.21097416">
        <time>2020-01-10T22:04:41.164000Z</time>
      </trkpt>
      <trkpt lat="35.95661426" lon="120.21098334">
        <time>2020-01-10T22:04:44.143000Z</time>
      </trkpt>
      <trkpt lat="35.95651425" lon="120.21098461">
        <time>2020-01-10T22:04:47.179000Z</time>
      </trkpt>
      <trkpt lat="35.9564134" lon="120.2109905">
        <time>2020-01-10T22:04:50.134000Z</time>
      </trkpt>
      <trkpt lat="35.95631689" lon="120.21101038">
        <time>2020-01-10T22:04:53.142000Z</time>
      </trkpt>
      <trkpt lat="35.95622729" lon="120.21102562">
        <time>2020-01-10T22:04:56.139000Z</time>
      </trkpt>
      <trkpt lat="35.95612478" lon="120.21102836">
        <time>2020-01-10T22:04:59.148000Z</time>
      </trkpt>
      <trkpt lat="35.95602445" lon="120.21103261">
        <time>2020-01-10T22:05:02.144000Z</time>
      </trkpt>
      <trkpt lat="35.95592597" lon="120.21105237">
        <time>2020-01-10T22:05:05.140000Z</time>
      </trkpt>
      <trkpt lat="35.95583075" lon="120.21107599">
        <time>2020-01-10T22:05:08.139000Z</time>
      </trkpt>
      <trkpt lat="35.9557352" lon="120.2110903">
        <time>2020-01-10T22:05:11.130000Z</time>
      </trkpt>
      <trkpt lat="35.95566369" lon="120.21101675">
        <time>2020-01-10T22:05:14.138000Z</time>
      </trkpt>
      <trkpt lat="35.95566369" lon="120.21101675">
        <time>2020-01-10T22:05:22.123000Z</time>
      </trkpt>
      <trkpt lat="35.95556706" lon="120.21096731">
        <time>2020-01-10T22:05:24.125000Z</time>
      </trkpt>
      <trkpt lat="35.95549263" lon="120.21103351">
        <time>2020-01-10T22:05:29.132000Z</time>
      </trkpt>
      <trkpt lat="35.95550283" lon="120.21114724">
        <time>2020-01-10T22:05:32.140000Z</time>
      </trkpt>
      <trkpt lat="35.95550283" lon="120.21114724">
        <time>2020-01-10T22:05:32.639000Z</time>
      </trkpt>
      <trkpt lat="35.95550845" lon="120.21125835">
        <time>2020-01-10T22:05:35.144000Z</time>
      </trkpt>
      <trkpt lat="35.95551124" lon="120.21140693">
        <time>2020-01-10T22:05:39.120000Z</time>
      </trkpt>
      <trkpt lat="35.95552888" lon="120.2115523">
        <time>2020-01-10T22:05:43.163000Z</time>
      </trkpt>
      <trkpt lat="35.9555563" lon="120.21168973">
        <time>2020-01-10T22:05:47.152000Z</time>
      </trkpt>
      <trkpt lat="35.95559245" lon="120.21182946">
        <time>2020-01-10T22:05:51.136000Z</time>
      </trkpt>
      <trkpt lat="35.95562024" lon="120.21197176">
        <time>2020-01-10T22:05:55.125000Z</time>
      </trkpt>
      <trkpt lat="35.95563543" lon="120.21208831">
        <time>2020-01-10T22:05:58.124000Z</time>
      </trkpt>
      <trkpt lat="35.95566002" lon="120.21220241">
        <time>2020-01-10T22:06:01.129000Z</time>
      </trkpt>
      <trkpt lat="35.95568464" lon="120.21231982">
        <time>2020-01-10T22:06:04.156000Z</time>
      </trkpt>
      <trkpt lat="35.95570455" lon="120.21242977">
        <time>2020-01-10T22:06:07.149000Z</time>
      </trkpt>
      <trkpt lat="35.9557295" lon="120.21255438">
        <time>2020-01-10T22:06:11.139000Z</time>
      </trkpt>
      <trkpt lat="35.95577665" lon="120.21265058">
        <time>2020-01-10T22:06:15.123000Z</time>
      </trkpt>
      <trkpt lat="35.95580998" lon="120.21275948">
        <time>2020-01-10T22:06:18.146000Z</time>
      </trkpt>
      <trkpt lat="35.95585491" lon="120.21289218">
        <time>2020-01-10T22:06:22.117000Z</time>
      </trkpt>
      <trkpt lat="35.95589452" lon="120.21299595">
        <time>2020-01-10T22:06:25.138000Z</time>
      </trkpt>
      <trkpt lat="35.95591846" lon="120.21310905">
        <time>2020-01-10T22:06:28.139000Z</time>
      </trkpt>
      <trkpt lat="35.95591769" lon="120.21322457">
        <time>2020-01-10T22:06:31.151000Z</time>
      </trkpt>
      <trkpt lat="35.9558817" lon="120.21333002">
        <time>2020-01-10T22:06:34.136000Z</time>
      </trkpt>
      <trkpt lat="35.95582889" lon="120.21341992">
        <time>2020-01-10T22:06:37.131000Z</time>
      </trkpt>
      <trkpt lat="35.95574231" lon="120.21347559">
        <time>2020-01-10T22:06:40.133000Z</time>
      </trkpt>
      <trkpt lat="35.95564897" lon="120.21348641">
        <time>2020-01-10T22:06:43.123000Z</time>
      </trkpt>
      <trkpt lat="35.95555812" lon="120.21349913">
        <time>2020-01-10T22:06:46.128000Z</time>
      </trkpt>
      <trkpt lat="35.95544877" lon="120.21351031">
        <time>2020-01-10T22:06:50.150000Z</time>
      </trkpt>
      <trkpt lat="35.95534112" lon="120.21353763">
        <time>2020-01-10T22:06:54.137000Z</time>
      </trkpt>
      <trkpt lat="35.95525513" lon="120.21358316">
        <time>2020-01-10T22:06:57.145000Z</time>
      </trkpt>
      <trkpt lat="35.95516363" lon="120.21362793">
        <time>2020-01-10T22:07:00.143000Z</time>
      </trkpt>
      <trkpt lat="35.95507289" lon="120.21365095">
        <time>2020-01-10T22:07:03.139000Z</time>
      </trkpt>
      <trkpt lat="35.9549587" lon="120.21366625">
        <time>2020-01-10T22:07:07.140000Z</time>
      </trkpt>
      <trkpt lat="35.95487129" lon="120.21369841">
        <time>2020-01-10T22:07:10.358000Z</time>
      </trkpt>
      <trkpt lat="35.95476186" lon="120.21372944">
        <time>2020-01-10T22:07:14.151000Z</time>
      </trkpt>
      <trkpt lat="35.9546583" lon="120.21375216">
        <time>2020-01-10T22:07:18.148000Z</time>
      </trkpt>
      <trkpt lat="35.95455528" lon="120.21377289">
        <time>2020-01-10T22:07:21.134000Z</time>
      </trkpt>
      <trkpt lat="35.95445415" lon="120.21379249">
        <time>2020-01-10T22:07:24.151000Z</time>
      </trkpt>
      <trkpt lat="35.9543663" lon="120.21382749">
        <time>2020-01-10T22:07:27.135000Z</time>
      </trkpt>
      <trkpt lat="35.95425151" lon="120.21384796">
        <time>2020-01-10T22:07:31.142000Z</time>
      </trkpt>
      <trkpt lat="35.95413482" lon="120.21386903">
        <time>2020-01-10T22:07:35.144000Z</time>
      </trkpt>
      <trkpt lat="35.95403746" lon="120.21387934">
        <time>2020-01-10T22:07:39.133000Z</time>
      </trkpt>
      <trkpt lat="35.95391704" lon="120.21389954">
        <time>2020-01-10T22:07:42.140000Z</time>
      </trkpt>
      <trkpt lat="35.95380184" lon="120.21391816">
        <time>2020-01-10T22:07:46.135000Z</time>
      </trkpt>
      <trkpt lat="35.95368952" lon="120.21393644">
        <time>2020-01-10T22:07:50.138000Z</time>
      </trkpt>
      <trkpt lat="35.95359511" lon="120.21395236">
        <time>2020-01-10T22:07:53.134000Z</time>
      </trkpt>
      <trkpt lat="35.95348667" lon="120.2139815">
        <time>2020-01-10T22:07:57.147000Z</time>
      </trkpt>
      <trkpt lat="35.95337858" lon="120.21403198">
        <time>2020-01-10T22:08:01.134000Z</time>
      </trkpt>
      <trkpt lat="35.9532881" lon="120.21405479">
        <time>2020-01-10T22:08:04.135000Z</time>
      </trkpt>
      <trkpt lat="35.95319824" lon="120.21402915">
        <time>2020-01-10T22:08:07.138000Z</time>
      </trkpt>
      <trkpt lat="35.95311826" lon="120.21397347">
        <time>2020-01-10T22:08:10.139000Z</time>
      </trkpt>
      <trkpt lat="35.95301483" lon="120.21390245">
        <time>2020-01-10T22:08:14.156000Z</time>
      </trkpt>
      <trkpt lat="35.95291809" lon="120.21382622">
        <time>2020-01-10T22:08:18.149000Z</time>
      </trkpt>
      <trkpt lat="35.95283525" lon="120.21372541">
        <time>2020-01-10T22:08:22.142000Z</time>
      </trkpt>
      <trkpt lat="35.95279315" lon="120.21359582">
        <time>2020-01-10T22:08:26.138000Z</time>
      </trkpt>
      <trkpt lat="35.95276901" lon="120.21345267">
        <time>2020-01-10T22:08:30.174000Z</time>
      </trkpt>
      <trkpt lat="35.95273167" lon="120.21331573">
        <time>2020-01-10T22:08:34.136000Z</time>
      </trkpt>
      <trkpt lat="35.95270584" lon="120.21318171">
        <time>2020-01-10T22:08:38.134000Z</time>
      </trkpt>
      <trkpt lat="35.95268408" lon="120.21304731">
        <time>2020-01-10T22:08:42.142000Z</time>
      </trkpt>
      <trkpt lat="35.95265687" lon="120.21291069">
        <time>2020-01-10T22:08:46.142000Z</time>
      </trkpt>
      <trkpt lat="35.95261425" lon="120.21277752">
        <time>2020-01-10T22:08:50.147000Z</time>
      </trkpt>
      <trkpt lat="35.95258997" lon="120.21263805">
        <time>2020-01-10T22:08:54.127000Z</time>
      </trkpt>
      <trkpt lat="35.95256854" lon="120.21249658">
        <time>2020-01-10T22:08:58.118000Z</time>
      </trkpt>
      <trkpt lat="35.95255021" lon="120.21236831">
        <time>2020-01-10T22:09:02.115000Z</time>
      </trkpt>
      <trkpt lat="35.95252359" lon="120.21223246">
        <time>2020-01-10T22:09:06.117000Z</time>
      </trkpt>
      <trkpt lat="35.95249822" lon="120.21210068">
        <time>2020-01-10T22:09:10.155000Z</time>
      </trkpt>
      <trkpt lat="35.95247344" lon="120.21197926">
        <time>2020-01-10T22:09:14.131000Z</time>
      </trkpt>
      <trkpt lat="35.95243686" lon="120.21185607">
        <time>2020-01-10T22:09:18.133000Z</time>
      </trkpt>
      <trkpt lat="35.95240079" lon="120.21175256">
        <time>2020-01-10T22:09:22.141000Z</time>
      </trkpt>
      <trkpt lat="35.95236103" lon="120.21162601">
        <time>2020-01-10T22:09:26.127000Z</time>
      </trkpt>
      <trkpt lat="35.95232563" lon="120.21148504">
        <time>2020-01-10T22:09:30.139000Z</time>
      </trkpt>
      <trkpt lat="35.95229487" lon="120.21134146">
        <time>2020-01-10T22:09:34.146000Z</time>
      </trkpt>
      <trkpt lat="35.95226291" lon="120.21123305">
        <time>2020-01-10T22:09:37.142000Z</time>
      </trkpt>
      <trkpt lat="35.95223438" lon="120.21111756">
        <time>2020-01-10T22:09:40.156000Z</time>
      </trkpt>
      <trkpt lat="35.95221481" lon="120.21100829">
        <time>2020-01-10T22:09:43.132000Z</time>
      </trkpt>
      <trkpt lat="35.95218806" lon="120.21086943">
        <time>2020-01-10T22:09:47.131000Z</time>
      </trkpt>
      <trkpt lat="35.95216601" lon="120.21073602">
        <time>2020-01-10T22:09:51.134000Z</time>
      </trkpt>
      <trkpt lat="35.95214492" lon="120.21060368">
        <time>2020-01-10T22:09:55.142000Z</time>
      </trkpt>
      <trkpt lat="35.95210773" lon="120.21047954">
        <time>2020-01-10T22:09:59.174000Z</time>
      </trkpt>
      <trkpt lat="35.95207416" lon="120.21037542">
        <time>2020-01-10T22:10:04.132000Z</time>
      </trkpt>
      <trkpt lat="35.95207416" lon="120.21037542">
        <time>2020-01-10T22:10:04.532000Z</time>
      </trkpt>
      <trkpt lat="35.95207416" lon="120.21037542">
        <time>2020-01-10T22:10:24.139000Z</time>
      </trkpt>
      <trkpt lat="35.9519231" lon="120.21042722">
        <time>2020-01-10T22:10:24.151000Z</time>
      </trkpt>
      <trkpt lat="35.95183386" lon="120.21046714">
        <time>2020-01-10T22:10:27.132000Z</time>
      </trkpt>
      <trkpt lat="35.95172928" lon="120.21051549">
        <time>2020-01-10T22:10:31.135000Z</time>
      </trkpt>
      <trkpt lat="35.95162401" lon="120.2105573">
        <time>2020-01-10T22:10:35.138000Z</time>
      </trkpt>
      <trkpt lat="35.9515345" lon="120.21056786">
        <time>2020-01-10T22:10:38.139000Z</time>
      </trkpt>
      <trkpt lat="35.95142958" lon="120.21058608">
        <time>2020-01-10T22:10:41.160000Z</time>
      </trkpt>
      <trkpt lat="35.95132241" lon="120.21062045">
        <time>2020-01-10T22:10:44.144000Z</time>
      </trkpt>
      <trkpt lat="35.95121549" lon="120.21064666">
        <time>2020-01-10T22:10:47.143000Z</time>
      </trkpt>
      <trkpt lat="35.9511051" lon="120.2106697">
        <time>2020-01-10T22:10:50.144000Z</time>
      </trkpt>
      <trkpt lat="35.95099346" lon="120.21070467">
        <time>2020-01-10T22:10:53.127000Z</time>
      </trkpt>
      <trkpt lat="35.95088798" lon="120.21074502">
        <time>2020-01-10T22:10:56.124000Z</time>
      </trkpt>
      <trkpt lat="35.9507946" lon="120.21077338">
        <time>2020-01-10T22:10:59.119000Z</time>
      </trkpt>
      <trkpt lat="35.9506829" lon="120.21079561">
        <time>2020-01-10T22:11:03.143000Z</time>
      </trkpt>
      <trkpt lat="35.95057731" lon="120.21081885">
        <time>2020-01-10T22:11:07.141000Z</time>
      </trkpt>
      <trkpt lat="35.95047829" lon="120.21084374">
        <time>2020-01-10T22:11:10.130000Z</time>
      </trkpt>
      <trkpt lat="35.95036791" lon="120.21087043">
        <time>2020-01-10T22:11:13.145000Z</time>
      </trkpt>
      <trkpt lat="35.95026356" lon="120.21088064">
        <time>2020-01-10T22:11:16.143000Z</time>
      </trkpt>
      <trkpt lat="35.95016519" lon="120.21086662">
        <time>2020-01-10T22:11:19.151000Z</time>
      </trkpt>
      <trkpt lat="35.95004991" lon="120.21089362">
        <time>2020-01-10T22:11:22.143000Z</time>
      </trkpt>
      <trkpt lat="35.94995216" lon="120.2109349">
        <time>2020-01-10T22:11:25.172000Z</time>
      </trkpt>
      <trkpt lat="35.94986203" lon="120.21097491">
        <time>2020-01-10T22:11:28.142000Z</time>
      </trkpt>
      <trkpt lat="35.94978071" lon="120.21103293">
        <time>2020-01-10T22:11:32.152000Z</time>
      </trkpt>
      <trkpt lat="35.94968953" lon="120.21105438">
        <time>2020-01-10T22:11:35.132000Z</time>
      </trkpt>
      <trkpt lat="35.94958486" lon="120.21105975">
        <time>2020-01-10T22:11:38.161000Z</time>
      </trkpt>
      <trkpt lat="35.94947965" lon="120.21109401">
        <time>2020-01-10T22:11:42.124000Z</time>
      </trkpt>
      <trkpt lat="35.94938745" lon="120.21113349">
        <time>2020-01-10T22:11:45.134000Z</time>
      </trkpt>
      <trkpt lat="35.94927821" lon="120.21114137">
        <time>2020-01-10T22:11:48.143000Z</time>
      </trkpt>
      <trkpt lat="35.94918906" lon="120.21116852">
        <time>2020-01-10T22:11:51.153000Z</time>
      </trkpt>
      <trkpt lat="35.94907561" lon="120.21120055">
        <time>2020-01-10T22:11:55.147000Z</time>
      </trkpt>
      <trkpt lat="35.94896547" lon="120.21122864">
        <time>2020-01-10T22:11:59.140000Z</time>
      </trkpt>
      <trkpt lat="35.94886587" lon="120.21126925">
        <time>2020-01-10T22:12:03.138000Z</time>
      </trkpt>
      <trkpt lat="35.94876374" lon="120.21128741">
        <time>2020-01-10T22:12:07.124000Z</time>
      </trkpt>
      <trkpt lat="35.94867126" lon="120.21130015">
        <time>2020-01-10T22:12:10.163000Z</time>
      </trkpt>
      <trkpt lat="35.9485671" lon="120.21133136">
        <time>2020-01-10T22:12:14.139000Z</time>
      </trkpt>
      <trkpt lat="35.94845318" lon="120.21135628">
        <time>2020-01-10T22:12:18.151000Z</time>
      </trkpt>
      <trkpt lat="35.94834047" lon="120.21137232">
        <time>2020-01-10T22:12:22.144000Z</time>
      </trkpt>
      <trkpt lat="35.94823554" lon="120.21139534">
        <time>2020-01-10T22:12:26.143000Z</time>
      </trkpt>
      <trkpt lat="35.94812097" lon="120.21140846">
        <time>2020-01-10T22:12:30.133000Z</time>
      </trkpt>
      <trkpt lat="35.94801574" lon="120.21142952">
        <time>2020-01-10T22:12:34.135000Z</time>
      </trkpt>
      <trkpt lat="35.94791163" lon="120.21144224">
        <time>2020-01-10T22:12:38.176000Z</time>
      </trkpt>
      <trkpt lat="35.94781054" lon="120.21146598">
        <time>2020-01-10T22:12:42.143000Z</time>
      </trkpt>
      <trkpt lat="35.94769687" lon="120.21149245">
        <time>2020-01-10T22:12:46.141000Z</time>
      </trkpt>
      <trkpt lat="35.94760775" lon="120.21151642">
        <time>2020-01-10T22:12:49.162000Z</time>
      </trkpt>
      <trkpt lat="35.94751391" lon="120.2115449">
        <time>2020-01-10T22:12:52.145000Z</time>
      </trkpt>
      <trkpt lat="35.94741303" lon="120.21157251">
        <time>2020-01-10T22:12:55.136000Z</time>
      </trkpt>
      <trkpt lat="35.94731386" lon="120.21160028">
        <time>2020-01-10T22:12:58.157000Z</time>
      </trkpt>
      <trkpt lat="35.94719819" lon="120.21162783">
        <time>2020-01-10T22:13:02.119000Z</time>
      </trkpt>
      <trkpt lat="35.94710899" lon="120.21164983">
        <time>2020-01-10T22:13:05.139000Z</time>
      </trkpt>
      <trkpt lat="35.94701795" lon="120.21167764">
        <time>2020-01-10T22:13:08.142000Z</time>
      </trkpt>
      <trkpt lat="35.94692669" lon="120.2117046">
        <time>2020-01-10T22:13:11.147000Z</time>
      </trkpt>
      <trkpt lat="35.94683611" lon="120.21173415">
        <time>2020-01-10T22:13:14.126000Z</time>
      </trkpt>
      <trkpt lat="35.94674751" lon="120.21175884">
        <time>2020-01-10T22:13:17.140000Z</time>
      </trkpt>
      <trkpt lat="35.94665945" lon="120.2117982">
        <time>2020-01-10T22:13:20.137000Z</time>
      </trkpt>
      <trkpt lat="35.94655109" lon="120.21184048">
        <time>2020-01-10T22:13:24.146000Z</time>
      </trkpt>
      <trkpt lat="35.94646089" lon="120.21186225">
        <time>2020-01-10T22:13:27.144000Z</time>
      </trkpt>
      <trkpt lat="35.94637132" lon="120.21187711">
        <time>2020-01-10T22:13:30.140000Z</time>
      </trkpt>
      <trkpt lat="35.9462579" lon="120.2119047">
        <time>2020-01-10T22:13:34.158000Z</time>
      </trkpt>
      <trkpt lat="35.9461405" lon="120.21193633">
        <time>2020-01-10T22:13:38.153000Z</time>
      </trkpt>
      <trkpt lat="35.94603731" lon="120.21198457">
        <time>2020-01-10T22:13:42.123000Z</time>
      </trkpt>
      <trkpt lat="35.94592951" lon="120.21202615">
        <time>2020-01-10T22:13:46.142000Z</time>
      </trkpt>
      <trkpt lat="35.94582044" lon="120.21206151">
        <time>2020-01-10T22:13:50.138000Z</time>
      </trkpt>
      <trkpt lat="35.94571134" lon="120.21210363">
        <time>2020-01-10T22:13:54.137000Z</time>
      </trkpt>
      <trkpt lat="35.94562352" lon="120.21214338">
        <time>2020-01-10T22:13:57.149000Z</time>
      </trkpt>
      <trkpt lat="35.94553785" lon="120.21219326">
        <time>2020-01-10T22:14:00.143000Z</time>
      </trkpt>
      <trkpt lat="35.94542976" lon="120.21223794">
        <time>2020-01-10T22:14:04.124000Z</time>
      </trkpt>
      <trkpt lat="35.94532066" lon="120.21225767">
        <time>2020-01-10T22:14:08.135000Z</time>
      </trkpt>
      <trkpt lat="35.94522504" lon="120.21231453">
        <time>2020-01-10T22:14:12.142000Z</time>
      </trkpt>
      <trkpt lat="35.94514322" lon="120.2123621">
        <time>2020-01-10T22:14:15.121000Z</time>
      </trkpt>
      <trkpt lat="35.94503433" lon="120.21240672">
        <time>2020-01-10T22:14:19.152000Z</time>
      </trkpt>
      <trkpt lat="35.94492512" lon="120.21245275">
        <time>2020-01-10T22:14:23.135000Z</time>
      </trkpt>
      <trkpt lat="35.94482784" lon="120.21251297">
        <time>2020-01-10T22:14:27.124000Z</time>
      </trkpt>
      <trkpt lat="35.94472681" lon="120.21256755">
        <time>2020-01-10T22:14:31.143000Z</time>
      </trkpt>
      <trkpt lat="35.94462408" lon="120.21262695">
        <time>2020-01-10T22:14:35.124000Z</time>
      </trkpt>
      <trkpt lat="35.94451676" lon="120.21268007">
        <time>2020-01-10T22:14:39.133000Z</time>
      </trkpt>
      <trkpt lat="35.94442104" lon="120.21274085">
        <time>2020-01-10T22:14:43.147000Z</time>
      </trkpt>
      <trkpt lat="35.94431827" lon="120.21280176">
        <time>2020-01-10T22:14:47.153000Z</time>
      </trkpt>
      <trkpt lat="35.944233" lon="120.21284514">
        <time>2020-01-10T22:14:50.153000Z</time>
      </trkpt>
      <trkpt lat="35.94414552" lon="120.21288474">
        <time>2020-01-10T22:14:53.139000Z</time>
      </trkpt>
      <trkpt lat="35.94404332" lon="120.21293936">
        <time>2020-01-10T22:14:57.129000Z</time>
      </trkpt>
      <trkpt lat="35.94393978" lon="120.21299556">
        <time>2020-01-10T22:15:01.141000Z</time>
      </trkpt>
      <trkpt lat="35.94384475" lon="120.21305873">
        <time>2020-01-10T22:15:05.142000Z</time>
      </trkpt>
      <trkpt lat="35.94375113" lon="120.21304617">
        <time>2020-01-10T22:15:09.146000Z</time>
      </trkpt>
      <trkpt lat="35.94369027" lon="120.21295915">
        <time>2020-01-10T22:15:12.139000Z</time>
      </trkpt>
      <trkpt lat="35.94362632" lon="120.21284657">
        <time>2020-01-10T22:15:16.153000Z</time>
      </trkpt>
      <trkpt lat="35.94357473" lon="120.21272028">
        <time>2020-01-10T22:15:20.142000Z</time>
      </trkpt>
      <trkpt lat="35.94352998" lon="120.21262269">
        <time>2020-01-10T22:15:23.170000Z</time>
      </trkpt>
      <trkpt lat="35.94349597" lon="120.2125109">
        <time>2020-01-10T22:15:26.122000Z</time>
      </trkpt>
      <trkpt lat="35.94342869" lon="120.21240678">
        <time>2020-01-10T22:15:30.152000Z</time>
      </trkpt>
      <trkpt lat="35.94335049" lon="120.21231465">
        <time>2020-01-10T22:15:34.145000Z</time>
      </trkpt>
      <trkpt lat="35.94328643" lon="120.2122017">
        <time>2020-01-10T22:15:38.143000Z</time>
      </trkpt>
      <trkpt lat="35.94321808" lon="120.21208298">
        <time>2020-01-10T22:15:42.145000Z</time>
      </trkpt>
      <trkpt lat="35.94316312" lon="120.21196629">
        <time>2020-01-10T22:15:46.143000Z</time>
      </trkpt>
      <trkpt lat="35.9431049" lon="120.21186312">
        <time>2020-01-10T22:15:50.143000Z</time>
      </trkpt>
      <trkpt lat="35.9430417" lon="120.21174735">
        <time>2020-01-10T22:15:54.171000Z</time>
      </trkpt>
      <trkpt lat="35.9429855" lon="120.2116525">
        <time>2020-01-10T22:15:57.145000Z</time>
      </trkpt>
      <trkpt lat="35.94293141" lon="120.21156324">
        <time>2020-01-10T22:16:00.433000Z</time>
      </trkpt>
      <trkpt lat="35.94286343" lon="120.21145318">
        <time>2020-01-10T22:16:04.153000Z</time>
      </trkpt>
      <trkpt lat="35.94279954" lon="120.21133928">
        <time>2020-01-10T22:16:08.149000Z</time>
      </trkpt>
      <trkpt lat="35.94273583" lon="120.21122951">
        <time>2020-01-10T22:16:12.139000Z</time>
      </trkpt>
      <trkpt lat="35.94267286" lon="120.21110908">
        <time>2020-01-10T22:16:16.132000Z</time>
      </trkpt>
      <trkpt lat="35.94260814" lon="120.21100994">
        <time>2020-01-10T22:16:19.140000Z</time>
      </trkpt>
      <trkpt lat="35.94256024" lon="120.21090055">
        <time>2020-01-10T22:16:22.138000Z</time>
      </trkpt>
      <trkpt lat="35.94250533" lon="120.21078869">
        <time>2020-01-10T22:16:25.142000Z</time>
      </trkpt>
      <trkpt lat="35.94244758" lon="120.21069063">
        <time>2020-01-10T22:16:28.128000Z</time>
      </trkpt>
      <trkpt lat="35.94238833" lon="120.2105636">
        <time>2020-01-10T22:16:32.145000Z</time>
      </trkpt>
      <trkpt lat="35.94233039" lon="120.21045401">
        <time>2020-01-10T22:16:36.140000Z</time>
      </trkpt>
      <trkpt lat="35.94226501" lon="120.21035198">
        <time>2020-01-10T22:16:40.130000Z</time>
      </trkpt>
      <trkpt lat="35.94219136" lon="120.21025028">
        <time>2020-01-10T22:16:44.140000Z</time>
      </trkpt>
      <trkpt lat="35.94211389" lon="120.21015906">
        <time>2020-01-10T22:16:48.141000Z</time>
      </trkpt>
      <trkpt lat="35.94205069" lon="120.21004007">
        <time>2020-01-10T22:16:52.146000Z</time>
      </trkpt>
      <trkpt lat="35.94198609" lon="120.20992702">
        <time>2020-01-10T22:16:56.128000Z</time>
      </trkpt>
      <trkpt lat="35.94192638" lon="120.20981665">
        <time>2020-01-10T22:17:00.139000Z</time>
      </trkpt>
      <trkpt lat="35.94184494" lon="120.20970314">
        <time>2020-01-10T22:17:04.158000Z</time>
      </trkpt>
      <trkpt lat="35.94176291" lon="120.20959897">
        <time>2020-01-10T22:17:08.145000Z</time>
      </trkpt>
      <trkpt lat="35.94171979" lon="120.20949035">
        <time>2020-01-10T22:17:11.147000Z</time>
      </trkpt>
      <trkpt lat="35.94169229" lon="120.20937794">
        <time>2020-01-10T22:17:14.138000Z</time>
      </trkpt>
      <trkpt lat="35.9417547" lon="120.20928366">
        <time>2020-01-10T22:17:18.121000Z</time>
      </trkpt>
      <trkpt lat="35.9417547" lon="120.20928366">
        <time>2020-01-10T22:17:20.140000Z</time>
      </trkpt>
      <trkpt lat="35.9418767" lon="120.20927247">
        <time>2020-01-10T22:17:22.144000Z</time>
      </trkpt>
      <trkpt lat="35.94199383" lon="120.20927765">
        <time>2020-01-10T22:17:25.146000Z</time>
      </trkpt>
      <trkpt lat="35.94210397" lon="120.20925662">
        <time>2020-01-10T22:17:28.144000Z</time>
      </trkpt>
      <trkpt lat="35.94210397" lon="120.20925662">
        <time>2020-01-10T22:17:30.141000Z</time>
      </trkpt>
      <trkpt lat="35.94220414" lon="120.20922608">
        <time>2020-01-10T22:17:31.124000Z</time>
      </trkpt>
      <trkpt lat="35.9422922" lon="120.20919701">
        <time>2020-01-10T22:17:34.125000Z</time>
      </trkpt>
      <trkpt lat="35.94240055" lon="120.20914721">
        <time>2020-01-10T22:17:38.136000Z</time>
      </trkpt>
      <trkpt lat="35.94248311" lon="120.20909771">
        <time>2020-01-10T22:17:41.143000Z</time>
      </trkpt>
      <trkpt lat="35.9425785" lon="120.20902165">
        <time>2020-01-10T22:17:45.147000Z</time>
      </trkpt>
      <trkpt lat="35.94267462" lon="120.20896584">
        <time>2020-01-10T22:17:49.143000Z</time>
      </trkpt>
      <trkpt lat="35.94278047" lon="120.20892805">
        <time>2020-01-10T22:17:53.138000Z</time>
      </trkpt>
      <trkpt lat="35.94289023" lon="120.20891681">
        <time>2020-01-10T22:17:57.139000Z</time>
      </trkpt>
      <trkpt lat="35.9430036" lon="120.2089085">
        <time>2020-01-10T22:18:01.143000Z</time>
      </trkpt>
      <trkpt lat="35.94311735" lon="120.20889608">
        <time>2020-01-10T22:18:05.138000Z</time>
      </trkpt>
      <trkpt lat="35.94322621" lon="120.20887943">
        <time>2020-01-10T22:18:09.140000Z</time>
      </trkpt>
      <trkpt lat="35.94333066" lon="120.20884725">
        <time>2020-01-10T22:18:13.150000Z</time>
      </trkpt>
      <trkpt lat="35.94342709" lon="120.2087954">
        <time>2020-01-10T22:18:17.146000Z</time>
      </trkpt>
      <trkpt lat="35.94352862" lon="120.20875291">
        <time>2020-01-10T22:18:21.145000Z</time>
      </trkpt>
      <trkpt lat="35.94363221" lon="120.20872033">
        <time>2020-01-10T22:18:25.140000Z</time>
      </trkpt>
      <trkpt lat="35.94374384" lon="120.20871205">
        <time>2020-01-10T22:18:29.120000Z</time>
      </trkpt>
      <trkpt lat="35.94385472" lon="120.20873003">
        <time>2020-01-10T22:18:33.176000Z</time>
      </trkpt>
      <trkpt lat="35.94396491" lon="120.20877963">
        <time>2020-01-10T22:18:37.155000Z</time>
      </trkpt>
      <trkpt lat="35.94406816" lon="120.20883653">
        <time>2020-01-10T22:18:41.143000Z</time>
      </trkpt>
      <trkpt lat="35.94417641" lon="120.20888582">
        <time>2020-01-10T22:18:45.139000Z</time>
      </trkpt>
      <trkpt lat="35.94426489" lon="120.20890535">
        <time>2020-01-10T22:18:48.137000Z</time>
      </trkpt>
      <trkpt lat="35.94436419" lon="120.2089119">
        <time>2020-01-10T22:18:51.146000Z</time>
      </trkpt>
      <trkpt lat="35.94445845" lon="120.20890035">
        <time>2020-01-10T22:18:54.139000Z</time>
      </trkpt>
      <trkpt lat="35.94455181" lon="120.20887931">
        <time>2020-01-10T22:18:57.142000Z</time>
      </trkpt>
      <trkpt lat="35.94464287" lon="120.20885537">
        <time>2020-01-10T22:19:00.137000Z</time>
      </trkpt>
      <trkpt lat="35.94474017" lon="120.20884049">
        <time>2020-01-10T22:19:03.142000Z</time>
      </trkpt>
      <trkpt lat="35.94483721" lon="120.20882766">
        <time>2020-01-10T22:19:06.140000Z</time>
      </trkpt>
      <trkpt lat="35.94492949" lon="120.20881678">
        <time>2020-01-10T22:19:09.140000Z</time>
      </trkpt>
      <trkpt lat="35.94501905" lon="120.20880686">
        <time>2020-01-10T22:19:12.138000Z</time>
      </trkpt>
      <trkpt lat="35.94510985" lon="120.20879493">
        <time>2020-01-10T22:19:15.132000Z</time>
      </trkpt>
      <trkpt lat="35.94520481" lon="120.20878841">
        <time>2020-01-10T22:19:18.127000Z</time>
      </trkpt>
      <trkpt lat="35.94532274" lon="120.20877252">
        <time>2020-01-10T22:19:22.127000Z</time>
      </trkpt>
      <trkpt lat="35.94544093" lon="120.20875917">
        <time>2020-01-10T22:19:26.140000Z</time>
      </trkpt>
      <trkpt lat="35.94556081" lon="120.20874961">
        <time>2020-01-10T22:19:30.143000Z</time>
      </trkpt>
      <trkpt lat="35.94565277" lon="120.20873362">
        <time>2020-01-10T22:19:33.138000Z</time>
      </trkpt>
      <trkpt lat="35.94576798" lon="120.20870827">
        <time>2020-01-10T22:19:37.121000Z</time>
      </trkpt>
      <trkpt lat="35.94587975" lon="120.20868426">
        <time>2020-01-10T22:19:41.131000Z</time>
      </trkpt>
      <trkpt lat="35.94597015" lon="120.2086726">
        <time>2020-01-10T22:19:44.157000Z</time>
      </trkpt>
      <trkpt lat="35.94608386" lon="120.20866217">
        <time>2020-01-10T22:19:48.145000Z</time>
      </trkpt>
      <trkpt lat="35.94619686" lon="120.20865666">
        <time>2020-01-10T22:19:52.138000Z</time>
      </trkpt>
      <trkpt lat="35.94628767" lon="120.20864964">
        <time>2020-01-10T22:19:55.146000Z</time>
      </trkpt>
      <trkpt lat="35.94640625" lon="120.20864351">
        <time>2020-01-10T22:19:59.144000Z</time>
      </trkpt>
      <trkpt lat="35.94649595" lon="120.20862983">
        <time>2020-01-10T22:20:02.133000Z</time>
      </trkpt>
      <trkpt lat="35.94658826" lon="120.20861405">
        <time>2020-01-10T22:20:05.122000Z</time>
      </trkpt>
      <trkpt lat="35.94668081" lon="120.20859823">
        <time>2020-01-10T22:20:08.141000Z</time>
      </trkpt>
      <trkpt lat="35.94677318" lon="120.20858437">
        <time>2020-01-10T22:20:11.137000Z</time>
      </trkpt>
      <trkpt lat="35.94688895" lon="120.20856364">
        <time>2020-01-10T22:20:15.137000Z</time>
      </trkpt>
      <trkpt lat="35.94700289" lon="120.20854245">
        <time>2020-01-10T22:20:19.145000Z</time>
      </trkpt>
      <trkpt lat="35.94708637" lon="120.20849311">
        <time>2020-01-10T22:20:23.139000Z</time>
      </trkpt>
      <trkpt lat="35.94707953" lon="120.20835921">
        <time>2020-01-10T22:20:27.129000Z</time>
      </trkpt>
      <trkpt lat="35.94705611" lon="120.20823265">
        <time>2020-01-10T22:20:31.148000Z</time>
      </trkpt>
      <trkpt lat="35.94703408" lon="120.20810271">
        <time>2020-01-10T22:20:35.142000Z</time>
      </trkpt>
      <trkpt lat="35.94701879" lon="120.20798323">
        <time>2020-01-10T22:20:39.142000Z</time>
      </trkpt>
      <trkpt lat="35.94699759" lon="120.20785888">
        <time>2020-01-10T22:20:43.141000Z</time>
      </trkpt>
      <trkpt lat="35.94697949" lon="120.20772531">
        <time>2020-01-10T22:20:47.143000Z</time>
      </trkpt>
      <trkpt lat="35.94696394" lon="120.20758299">
        <time>2020-01-10T22:20:51.147000Z</time>
      </trkpt>
      <trkpt lat="35.94696063" lon="120.20746869">
        <time>2020-01-10T22:20:54.147000Z</time>
      </trkpt>
      <trkpt lat="35.94695263" lon="120.20735798">
        <time>2020-01-10T22:20:57.146000Z</time>
      </trkpt>
      <trkpt lat="35.94695303" lon="120.20724559">
        <time>2020-01-10T22:21:00.164000Z</time>
      </trkpt>
      <trkpt lat="35.94699553" lon="120.20712959">
        <time>2020-01-10T22:21:03.146000Z</time>
      </trkpt>
      <trkpt lat="35.94703685" lon="120.20701403">
        <time>2020-01-10T22:21:06.139000Z</time>
      </trkpt>
      <trkpt lat="35.94708453" lon="120.20690958">
        <time>2020-01-10T22:21:09.146000Z</time>
      </trkpt>
      <trkpt lat="35.94713707" lon="120.20678712">
        <time>2020-01-10T22:21:13.142000Z</time>
      </trkpt>
      <trkpt lat="35.94718275" lon="120.20666263">
        <time>2020-01-10T22:21:17.166000Z</time>
      </trkpt>
      <trkpt lat="35.94723368" lon="120.20653703">
        <time>2020-01-10T22:21:21.141000Z</time>
      </trkpt>
      <trkpt lat="35.94728361" lon="120.20641625">
        <time>2020-01-10T22:21:25.142000Z</time>
      </trkpt>
      <trkpt lat="35.94732596" lon="120.20629809">
        <time>2020-01-10T22:21:29.141000Z</time>
      </trkpt>
      <trkpt lat="35.94737385" lon="120.20617394">
        <time>2020-01-10T22:21:33.137000Z</time>
      </trkpt>
      <trkpt lat="35.94742149" lon="120.20607292">
        <time>2020-01-10T22:21:36.121000Z</time>
      </trkpt>
      <trkpt lat="35.94746918" lon="120.20597557">
        <time>2020-01-10T22:21:39.128000Z</time>
      </trkpt>
      <trkpt lat="35.94752354" lon="120.20585088">
        <time>2020-01-10T22:21:43.173000Z</time>
      </trkpt>
      <trkpt lat="35.94755903" lon="120.2057448">
        <time>2020-01-10T22:21:46.135000Z</time>
      </trkpt>
      <trkpt lat="35.9476159" lon="120.20562081">
        <time>2020-01-10T22:21:50.140000Z</time>
      </trkpt>
      <trkpt lat="35.94766914" lon="120.2054977">
        <time>2020-01-10T22:21:54.146000Z</time>
      </trkpt>
      <trkpt lat="35.94770182" lon="120.20539304">
        <time>2020-01-10T22:21:57.134000Z</time>
      </trkpt>
      <trkpt lat="35.94773913" lon="120.20528777">
        <time>2020-01-10T22:22:01.140000Z</time>
      </trkpt>
      <trkpt lat="35.94778537" lon="120.20518638">
        <time>2020-01-10T22:22:04.141000Z</time>
      </trkpt>
      <trkpt lat="35.94782741" lon="120.20507167">
        <time>2020-01-10T22:22:07.166000Z</time>
      </trkpt>
      <trkpt lat="35.94786628" lon="120.20496371">
        <time>2020-01-10T22:22:10.127000Z</time>
      </trkpt>
      <trkpt lat="35.94789514" lon="120.20485202">
        <time>2020-01-10T22:22:13.140000Z</time>
      </trkpt>
      <trkpt lat="35.94790402" lon="120.20472147">
        <time>2020-01-10T22:22:17.145000Z</time>
      </trkpt>
      <trkpt lat="35.94790608" lon="120.20460894">
        <time>2020-01-10T22:22:21.153000Z</time>
      </trkpt>
      <trkpt lat="35.94790438" lon="120.20447962">
        <time>2020-01-10T22:22:25.143000Z</time>
      </trkpt>
      <trkpt lat="35.94789505" lon="120.20435562">
        <time>2020-01-10T22:22:29.154000Z</time>
      </trkpt>
      <trkpt lat="35.94787431" lon="120.2042421">
        <time>2020-01-10T22:22:33.142000Z</time>
      </trkpt>
      <trkpt lat="35.94798338" lon="120.20422319">
        <time>2020-01-10T22:22:38.147000Z</time>
      </trkpt>
      <trkpt lat="35.94806604" lon="120.20427862">
        <time>2020-01-10T22:22:41.139000Z</time>
      </trkpt>
      <trkpt lat="35.94816116" lon="120.20435471">
        <time>2020-01-10T22:22:45.148000Z</time>
      </trkpt>
      <trkpt lat="35.94826132" lon="120.20443372">
        <time>2020-01-10T22:22:49.201000Z</time>
      </trkpt>
      <trkpt lat="35.94833842" lon="120.20449983">
        <time>2020-01-10T22:22:52.143000Z</time>
      </trkpt>
      <trkpt lat="35.94841608" lon="120.20456605">
        <time>2020-01-10T22:22:55.143000Z</time>
      </trkpt>
      <trkpt lat="35.94850699" lon="120.20465928">
        <time>2020-01-10T22:22:59.136000Z</time>
      </trkpt>
      <trkpt lat="35.94859616" lon="120.20475772">
        <time>2020-01-10T22:23:03.146000Z</time>
      </trkpt>
      <trkpt lat="35.94866491" lon="120.20483426">
        <time>2020-01-10T22:23:06.143000Z</time>
      </trkpt>
      <trkpt lat="35.94873743" lon="120.20490639">
        <time>2020-01-10T22:23:09.142000Z</time>
      </trkpt>
      <trkpt lat="35.94882132" lon="120.20499516">
        <time>2020-01-10T22:23:13.162000Z</time>
      </trkpt>
      <trkpt lat="35.94888734" lon="120.2050732">
        <time>2020-01-10T22:23:16.138000Z</time>
      </trkpt>
      <trkpt lat="35.94897111" lon="120.20516833">
        <time>2020-01-10T22:23:20.130000Z</time>
      </trkpt>
      <trkpt lat="35.94904752" lon="120.20526088">
        <time>2020-01-10T22:23:24.136000Z</time>
      </trkpt>
      <trkpt lat="35.94912068" lon="120.2053496">
        <time>2020-01-10T22:23:28.139000Z</time>
      </trkpt>
      <trkpt lat="35.94919128" lon="120.20542179">
        <time>2020-01-10T22:23:31.117000Z</time>
      </trkpt>
      <trkpt lat="35.94927592" lon="120.20551424">
        <time>2020-01-10T22:23:35.140000Z</time>
      </trkpt>
      <trkpt lat="35.94936359" lon="120.20561253">
        <time>2020-01-10T22:23:39.138000Z</time>
      </trkpt>
      <trkpt lat="35.94945012" lon="120.2057092">
        <time>2020-01-10T22:23:43.121000Z</time>
      </trkpt>
      <trkpt lat="35.94951936" lon="120.20578242">
        <time>2020-01-10T22:23:46.149000Z</time>
      </trkpt>
      <trkpt lat="35.94959376" lon="120.20584805">
        <time>2020-01-10T22:23:49.142000Z</time>
      </trkpt>
      <trkpt lat="35.94968551" lon="120.20592914">
        <time>2020-01-10T22:23:53.134000Z</time>
      </trkpt>
      <trkpt lat="35.94977967" lon="120.20600598">
        <time>2020-01-10T22:23:57.136000Z</time>
      </trkpt>
      <trkpt lat="35.94989592" lon="120.20599045">
        <time>2020-01-10T22:24:01.163000Z</time>
      </trkpt>
      <trkpt lat="35.94999556" lon="120.20592773">
        <time>2020-01-10T22:24:05.150000Z</time>
      </trkpt>
      <trkpt lat="35.95009298" lon="120.20587647">
        <time>2020-01-10T22:24:09.155000Z</time>
      </trkpt>
      <trkpt lat="35.95018742" lon="120.20583407">
        <time>2020-01-10T22:24:13.146000Z</time>
      </trkpt>
      <trkpt lat="35.95028701" lon="120.20578854">
        <time>2020-01-10T22:24:17.139000Z</time>
      </trkpt>
      <trkpt lat="35.95037525" lon="120.20575686">
        <time>2020-01-10T22:24:20.148000Z</time>
      </trkpt>
      <trkpt lat="35.95046581" lon="120.20573269">
        <time>2020-01-10T22:24:23.134000Z</time>
      </trkpt>
      <trkpt lat="35.95057916" lon="120.20569256">
        <time>2020-01-10T22:24:27.146000Z</time>
      </trkpt>
      <trkpt lat="35.95067299" lon="120.20561462">
        <time>2020-01-10T22:24:31.148000Z</time>
      </trkpt>
      <trkpt lat="35.95068726" lon="120.20548842">
        <time>2020-01-10T22:24:35.156000Z</time>
      </trkpt>
      <trkpt lat="35.95065515" lon="120.20536539">
        <time>2020-01-10T22:24:39.145000Z</time>
      </trkpt>
      <trkpt lat="35.95062873" lon="120.20523174">
        <time>2020-01-10T22:24:43.127000Z</time>
      </trkpt>
      <trkpt lat="35.9506086" lon="120.20511096">
        <time>2020-01-10T22:24:46.149000Z</time>
      </trkpt>
      <trkpt lat="35.95058389" lon="120.20499014">
        <time>2020-01-10T22:24:49.146000Z</time>
      </trkpt>
      <trkpt lat="35.95062524" lon="120.20485526">
        <time>2020-01-10T22:24:53.135000Z</time>
      </trkpt>
      <trkpt lat="35.95072061" lon="120.20482068">
        <time>2020-01-10T22:24:56.154000Z</time>
      </trkpt>
      <trkpt lat="35.9508068" lon="120.20477574">
        <time>2020-01-10T22:24:59.155000Z</time>
      </trkpt>
      <trkpt lat="35.95087317" lon="120.20469098">
        <time>2020-01-10T22:25:02.143000Z</time>
      </trkpt>
      <trkpt lat="35.95094392" lon="120.20462224">
        <time>2020-01-10T22:25:05.122000Z</time>
      </trkpt>
      <trkpt lat="35.95094392" lon="120.20462224">
        <time>2020-01-10T22:25:09.155000Z</time>
      </trkpt>
      <trkpt lat="35.95103991" lon="120.204571">
        <time>2020-01-10T22:25:09.164000Z</time>
      </trkpt>
      <trkpt lat="35.95114643" lon="120.2045549">
        <time>2020-01-10T22:25:13.134000Z</time>
      </trkpt>
      <trkpt lat="35.95126861" lon="120.20454555">
        <time>2020-01-10T22:25:17.139000Z</time>
      </trkpt>
      <trkpt lat="35.95126861" lon="120.20454555">
        <time>2020-01-10T22:25:19.142000Z</time>
      </trkpt>
      <trkpt lat="35.95136457" lon="120.20451834">
        <time>2020-01-10T22:25:20.141000Z</time>
      </trkpt>
      <trkpt lat="35.95146608" lon="120.20449518">
        <time>2020-01-10T22:25:23.140000Z</time>
      </trkpt>
      <trkpt lat="35.95156919" lon="120.20448093">
        <time>2020-01-10T22:25:26.142000Z</time>
      </trkpt>
      <trkpt lat="35.95167339" lon="120.20446575">
        <time>2020-01-10T22:25:29.145000Z</time>
      </trkpt>
      <trkpt lat="35.95178436" lon="120.20444648">
        <time>2020-01-10T22:25:32.154000Z</time>
      </trkpt>
      <trkpt lat="35.95190269" lon="120.20441771">
        <time>2020-01-10T22:25:35.143000Z</time>
      </trkpt>
      <trkpt lat="35.9520184" lon="120.20438808">
        <time>2020-01-10T22:25:38.145000Z</time>
      </trkpt>
      <trkpt lat="35.95212743" lon="120.20436532">
        <time>2020-01-10T22:25:41.143000Z</time>
      </trkpt>
      <trkpt lat="35.9522273" lon="120.20434068">
        <time>2020-01-10T22:25:44.149000Z</time>
      </trkpt>
      <trkpt lat="35.95233246" lon="120.20433544">
        <time>2020-01-10T22:25:47.127000Z</time>
      </trkpt>
      <trkpt lat="35.95242714" lon="120.2043178">
        <time>2020-01-10T22:25:50.149000Z</time>
      </trkpt>
      <trkpt lat="35.95253432" lon="120.20431277">
        <time>2020-01-10T22:25:53.144000Z</time>
      </trkpt>
      <trkpt lat="35.95262818" lon="120.20430188">
        <time>2020-01-10T22:25:56.132000Z</time>
      </trkpt>
      <trkpt lat="35.95271877" lon="120.20427202">
        <time>2020-01-10T22:25:59.123000Z</time>
      </trkpt>
      <trkpt lat="35.9528344" lon="120.20424407">
        <time>2020-01-10T22:26:03.153000Z</time>
      </trkpt>
      <trkpt lat="35.95294847" lon="120.20423895">
        <time>2020-01-10T22:26:07.144000Z</time>
      </trkpt>
      <trkpt lat="35.95306481" lon="120.20423979">
        <time>2020-01-10T22:26:11.145000Z</time>
      </trkpt>
      <trkpt lat="35.95316403" lon="120.20423106">
        <time>2020-01-10T22:26:14.136000Z</time>
      </trkpt>
      <trkpt lat="35.95326209" lon="120.20421463">
        <time>2020-01-10T22:26:17.141000Z</time>
      </trkpt>
      <trkpt lat="35.95335276" lon="120.20420824">
        <time>2020-01-10T22:26:20.137000Z</time>
      </trkpt>
      <trkpt lat="35.95346531" lon="120.20418547">
        <time>2020-01-10T22:26:24.142000Z</time>
      </trkpt>
      <trkpt lat="35.95355541" lon="120.2041607">
        <time>2020-01-10T22:26:27.146000Z</time>
      </trkpt>
      <trkpt lat="35.95364784" lon="120.20414941">
        <time>2020-01-10T22:26:30.142000Z</time>
      </trkpt>
      <trkpt lat="35.95364784" lon="120.20414941">
        <time>2020-01-10T22:26:35.139000Z</time>
      </trkpt>
      <trkpt lat="35.95376766" lon="120.20414373">
        <time>2020-01-10T22:26:35.145000Z</time>
      </trkpt>
      <trkpt lat="35.95388309" lon="120.20412463">
        <time>2020-01-10T22:26:38.130000Z</time>
      </trkpt>
      <trkpt lat="35.95398993" lon="120.20410022">
        <time>2020-01-10T22:26:41.164000Z</time>
      </trkpt>
      <trkpt lat="35.95408717" lon="120.20407882">
        <time>2020-01-10T22:26:44.140000Z</time>
      </trkpt>
      <trkpt lat="35.95408717" lon="120.20407882">
        <time>2020-01-10T22:26:45.139000Z</time>
      </trkpt>
      <trkpt lat="35.95420688" lon="120.20406041">
        <time>2020-01-10T22:26:48.143000Z</time>
      </trkpt>
      <trkpt lat="35.95429855" lon="120.20405168">
        <time>2020-01-10T22:26:51.141000Z</time>
      </trkpt>
      <trkpt lat="35.95439171" lon="120.20403992">
        <time>2020-01-10T22:26:54.139000Z</time>
      </trkpt>
      <trkpt lat="35.95449083" lon="120.20402964">
        <time>2020-01-10T22:26:57.148000Z</time>
      </trkpt>
      <trkpt lat="35.95459302" lon="120.20400772">
        <time>2020-01-10T22:27:01.140000Z</time>
      </trkpt>
      <trkpt lat="35.95470311" lon="120.2039844">
        <time>2020-01-10T22:27:05.134000Z</time>
      </trkpt>
      <trkpt lat="35.95480855" lon="120.20396965">
        <time>2020-01-10T22:27:09.141000Z</time>
      </trkpt>
      <trkpt lat="35.95492545" lon="120.20396771">
        <time>2020-01-10T22:27:13.141000Z</time>
      </trkpt>
      <trkpt lat="35.95503604" lon="120.20399672">
        <time>2020-01-10T22:27:17.135000Z</time>
      </trkpt>
      <trkpt lat="35.95513329" lon="120.20403401">
        <time>2020-01-10T22:27:21.141000Z</time>
      </trkpt>
      <trkpt lat="35.95524599" lon="120.20404066">
        <time>2020-01-10T22:27:25.138000Z</time>
      </trkpt>
      <trkpt lat="35.95532709" lon="120.2041338">
        <time>2020-01-10T22:27:29.137000Z</time>
      </trkpt>
      <trkpt lat="35.95534992" lon="120.20427379">
        <time>2020-01-10T22:27:33.127000Z</time>
      </trkpt>
      <trkpt lat="35.95537602" lon="120.20441833">
        <time>2020-01-10T22:27:37.141000Z</time>
      </trkpt>
      <trkpt lat="35.95540103" lon="120.20455354">
        <time>2020-01-10T22:27:41.136000Z</time>
      </trkpt>
      <trkpt lat="35.95543862" lon="120.20467272">
        <time>2020-01-10T22:27:45.138000Z</time>
      </trkpt>
      <trkpt lat="35.95545162" lon="120.20478739">
        <time>2020-01-10T22:27:48.145000Z</time>
      </trkpt>
      <trkpt lat="35.95546827" lon="120.20493052">
        <time>2020-01-10T22:27:52.143000Z</time>
      </trkpt>
      <trkpt lat="35.95548642" lon="120.20504218">
        <time>2020-01-10T22:27:55.140000Z</time>
      </trkpt>
      <trkpt lat="35.95550592" lon="120.20515143">
        <time>2020-01-10T22:27:58.131000Z</time>
      </trkpt>
      <trkpt lat="35.95552133" lon="120.20529947">
        <time>2020-01-10T22:28:02.145000Z</time>
      </trkpt>
      <trkpt lat="35.95552615" lon="120.20541774">
        <time>2020-01-10T22:28:05.128000Z</time>
      </trkpt>
      <trkpt lat="35.95552496" lon="120.20552889">
        <time>2020-01-10T22:28:08.156000Z</time>
      </trkpt>
      <trkpt lat="35.95555132" lon="120.20566025">
        <time>2020-01-10T22:28:12.146000Z</time>
      </trkpt>
      <trkpt lat="35.95558775" lon="120.20577961">
        <time>2020-01-10T22:28:16.144000Z</time>
      </trkpt>
      <trkpt lat="35.95561344" lon="120.20590512">
        <time>2020-01-10T22:28:20.141000Z</time>
      </trkpt>
      <trkpt lat="35.95569252" lon="120.2060061">
        <time>2020-01-10T22:28:24.146000Z</time>
      </trkpt>
      <trkpt lat="35.95571848" lon="120.20615097">
        <time>2020-01-10T22:28:28.145000Z</time>
      </trkpt>
      <trkpt lat="35.95573008" lon="120.20626522">
        <time>2020-01-10T22:28:31.150000Z</time>
      </trkpt>
      <trkpt lat="35.9557408" lon="120.2063897">
        <time>2020-01-10T22:28:34.144000Z</time>
      </trkpt>
      <trkpt lat="35.95574925" lon="120.20651213">
        <time>2020-01-10T22:28:37.142000Z</time>
      </trkpt>
      <trkpt lat="35.95575628" lon="120.20663226">
        <time>2020-01-10T22:28:40.144000Z</time>
      </trkpt>
      <trkpt lat="35.95574903" lon="120.20675279">
        <time>2020-01-10T22:28:43.129000Z</time>
      </trkpt>
      <trkpt lat="35.9557398" lon="120.20686588">
        <time>2020-01-10T22:28:46.145000Z</time>
      </trkpt>
      <trkpt lat="35.95573831" lon="120.20698227">
        <time>2020-01-10T22:28:49.140000Z</time>
      </trkpt>
      <trkpt lat="35.95574221" lon="120.20709607">
        <time>2020-01-10T22:28:52.145000Z</time>
      </trkpt>
      <trkpt lat="35.95574342" lon="120.20721312">
        <time>2020-01-10T22:28:55.143000Z</time>
      </trkpt>
      <trkpt lat="35.95574552" lon="120.20733174">
        <time>2020-01-10T22:28:58.140000Z</time>
      </trkpt>
      <trkpt lat="35.95574386" lon="120.20746608">
        <time>2020-01-10T22:29:02.124000Z</time>
      </trkpt>
    </trkseg>
  </trk>
</gpx>