<?xml version="1.0" encoding="UTF-8"?>
<gpx xmlns="http://www.topografix.com/GPX/1/1" xmlns:gpxtpx="http://www.garmin.com/xmlschemas/TrackPointExtension/v1" xmlns:xsi="http://www.w3.org/2001/XMLSchema-instance" xsi:schemaLocation="http://www.topografix.com/GPX/1/1 http://www.topografix.com/GPX/1/1/gpx.xsd" version="1.1" creator="gpx.py -- https://github.com/tkrajina/gpxpy">
  <trk>
    <name>Thursday Evening Run</name>
    <trkseg>
      <trkpt lat="35.93370936" lon="120.20275943">
        <time>2020-06-11T12:28:34.023000Z</time>
      </trkpt>
      <trkpt lat="35.93376146" lon="120.20286409">
        <time>2020-06-11T12:28:37.019000Z</time>
      </trkpt>
      <trkpt lat="35.9338131" lon="120.20297173">
        <time>2020-06-11T12:28:40.008000Z</time>
      </trkpt>
      <trkpt lat="35.93385197" lon="120.20308001">
        <time>2020-06-11T12:28:43.022000Z</time>
      </trkpt>
      <trkpt lat="35.93388537" lon="120.203219">
        <time>2020-06-11T12:28:46.997000Z</time>
      </trkpt>
      <trkpt lat="35.93392064" lon="120.20335355">
        <time>2020-06-11T12:28:51.019000Z</time>
      </trkpt>
      <trkpt lat="35.93391708" lon="120.20350101">
        <time>2020-06-11T12:28:55.017000Z</time>
      </trkpt>
      <trkpt lat="35.93393091" lon="120.20364682">
        <time>2020-06-11T12:28:59.012000Z</time>
      </trkpt>
      <trkpt lat="35.93392952" lon="120.20380696">
        <time>2020-06-11T12:29:02.003000Z</time>
      </trkpt>
      <trkpt lat="35.93394924" lon="120.2039463">
        <time>2020-06-11T12:29:05Z</time>
      </trkpt>
      <trkpt lat="35.93398782" lon="120.20407534">
        <time>2020-06-11T12:29:08.027000Z</time>
      </trkpt>
      <trkpt lat="35.93401901" lon="120.204208">
        <time>2020-06-11T12:29:11.005000Z</time>
      </trkpt>
      <trkpt lat="35.9340448" lon="120.20432628">
        <time>2020-06-11T12:29:14.017000Z</time>
      </trkpt>
      <trkpt lat="35.93408857" lon="120.2044305">
        <time>2020-06-11T12:29:17.010000Z</time>
      </trkpt>
      <trkpt lat="35.93414373" lon="120.20455693">
        <time>2020-06-11T12:29:21.007000Z</time>
      </trkpt>
      <trkpt lat="35.93418195" lon="120.20465819">
        <time>2020-06-11T12:29:23.998000Z</time>
      </trkpt>
      <trkpt lat="35.93422886" lon="120.20475568">
        <time>2020-06-11T12:29:27.015000Z</time>
      </trkpt>
      <trkpt lat="35.93426359" lon="120.2048609">
        <time>2020-06-11T12:29:30.013000Z</time>
      </trkpt>
      <trkpt lat="35.93432544" lon="120.20497494">
        <time>2020-06-11T12:29:34.019000Z</time>
      </trkpt>
      <trkpt lat="35.93439167" lon="120.20509038">
        <time>2020-06-11T12:29:38.031000Z</time>
      </trkpt>
      <trkpt lat="35.93443971" lon="120.20522223">
        <time>2020-06-11T12:29:42.006000Z</time>
      </trkpt>
      <trkpt lat="35.93450753" lon="120.2053233">
        <time>2020-06-11T12:29:46.024000Z</time>
      </trkpt>
      <trkpt lat="35.93454797" lon="120.2054504">
        <time>2020-06-11T12:29:50.031000Z</time>
      </trkpt>
      <trkpt lat="35.93458397" lon="120.20555351">
        <time>2020-06-11T12:29:53.004000Z</time>
      </trkpt>
      <trkpt lat="35.93465726" lon="120.20566973">
        <time>2020-06-11T12:29:57.008000Z</time>
      </trkpt>
      <trkpt lat="35.93470295" lon="120.20577011">
        <time>2020-06-11T12:30:00.005000Z</time>
      </trkpt>
      <trkpt lat="35.93473315" lon="120.2058762">
        <time>2020-06-11T12:30:03.027000Z</time>
      </trkpt>
      <trkpt lat="35.93477849" lon="120.20600875">
        <time>2020-06-11T12:30:07.038000Z</time>
      </trkpt>
      <trkpt lat="35.9348374" lon="120.20612185">
        <time>2020-06-11T12:30:11.004000Z</time>
      </trkpt>
      <trkpt lat="35.93491664" lon="120.20622611">
        <time>2020-06-11T12:30:15.021000Z</time>
      </trkpt>
      <trkpt lat="35.93496959" lon="120.2063483">
        <time>2020-06-11T12:30:19Z</time>
      </trkpt>
      <trkpt lat="35.93502324" lon="120.20647408">
        <time>2020-06-11T12:30:23.051000Z</time>
      </trkpt>
      <trkpt lat="35.93508225" lon="120.20658789">
        <time>2020-06-11T12:30:27.018000Z</time>
      </trkpt>
      <trkpt lat="35.93513399" lon="120.20667859">
        <time>2020-06-11T12:30:29.999000Z</time>
      </trkpt>
      <trkpt lat="35.93520061" lon="120.20679858">
        <time>2020-06-11T12:30:34.026000Z</time>
      </trkpt>
      <trkpt lat="35.93524107" lon="120.20693178">
        <time>2020-06-11T12:30:38.034000Z</time>
      </trkpt>
      <trkpt lat="35.93528823" lon="120.20705886">
        <time>2020-06-11T12:30:42.002000Z</time>
      </trkpt>
      <trkpt lat="35.93536953" lon="120.20714702">
        <time>2020-06-11T12:30:46.020000Z</time>
      </trkpt>
      <trkpt lat="35.93543868" lon="120.20724876">
        <time>2020-06-11T12:30:50.020000Z</time>
      </trkpt>
      <trkpt lat="35.9355048" lon="120.20735183">
        <time>2020-06-11T12:30:54.025000Z</time>
      </trkpt>
      <trkpt lat="35.93558297" lon="120.20744819">
        <time>2020-06-11T12:30:58.024000Z</time>
      </trkpt>
      <trkpt lat="35.93565498" lon="120.20755302">
        <time>2020-06-11T12:31:02.012000Z</time>
      </trkpt>
      <trkpt lat="35.93570074" lon="120.20766882">
        <time>2020-06-11T12:31:06.002000Z</time>
      </trkpt>
      <trkpt lat="35.93575895" lon="120.20777407">
        <time>2020-06-11T12:31:10.022000Z</time>
      </trkpt>
      <trkpt lat="35.93583271" lon="120.20786408">
        <time>2020-06-11T12:31:14.017000Z</time>
      </trkpt>
      <trkpt lat="35.93590096" lon="120.20796106">
        <time>2020-06-11T12:31:18.016000Z</time>
      </trkpt>
      <trkpt lat="35.93596217" lon="120.20806389">
        <time>2020-06-11T12:31:22.018000Z</time>
      </trkpt>
      <trkpt lat="35.93602924" lon="120.20816808">
        <time>2020-06-11T12:31:26.009000Z</time>
      </trkpt>
      <trkpt lat="35.93610248" lon="120.2082444">
        <time>2020-06-11T12:31:29.026000Z</time>
      </trkpt>
      <trkpt lat="35.93617698" lon="120.20832554">
        <time>2020-06-11T12:31:32.021000Z</time>
      </trkpt>
      <trkpt lat="35.93624796" lon="120.20839904">
        <time>2020-06-11T12:31:35.020000Z</time>
      </trkpt>
      <trkpt lat="35.93631806" lon="120.20847301">
        <time>2020-06-11T12:31:38.008000Z</time>
      </trkpt>
      <trkpt lat="35.93639984" lon="120.20856934">
        <time>2020-06-11T12:31:42.024000Z</time>
      </trkpt>
      <trkpt lat="35.93647121" lon="120.20863759">
        <time>2020-06-11T12:31:45.018000Z</time>
      </trkpt>
      <trkpt lat="35.93655209" lon="120.20869916">
        <time>2020-06-11T12:31:48.014000Z</time>
      </trkpt>
      <trkpt lat="35.9366349" lon="120.20876088">
        <time>2020-06-11T12:31:51.001000Z</time>
      </trkpt>
      <trkpt lat="35.93672785" lon="120.20884223">
        <time>2020-06-11T12:31:55.009000Z</time>
      </trkpt>
      <trkpt lat="35.93680118" lon="120.20890658">
        <time>2020-06-11T12:31:58.016000Z</time>
      </trkpt>
      <trkpt lat="35.93687855" lon="120.20896505">
        <time>2020-06-11T12:32:01.009000Z</time>
      </trkpt>
      <trkpt lat="35.93695154" lon="120.20903116">
        <time>2020-06-11T12:32:04.012000Z</time>
      </trkpt>
      <trkpt lat="35.93703574" lon="120.20912142">
        <time>2020-06-11T12:32:08.040000Z</time>
      </trkpt>
      <trkpt lat="35.93711273" lon="120.20921104">
        <time>2020-06-11T12:32:12.007000Z</time>
      </trkpt>
      <trkpt lat="35.93718578" lon="120.20930388">
        <time>2020-06-11T12:32:17.011000Z</time>
      </trkpt>
      <trkpt lat="35.93727067" lon="120.20937857">
        <time>2020-06-11T12:32:22.024000Z</time>
      </trkpt>
      <trkpt lat="35.93735897" lon="120.20945177">
        <time>2020-06-11T12:32:26.032000Z</time>
      </trkpt>
      <trkpt lat="35.93744773" lon="120.20952504">
        <time>2020-06-11T12:32:30.011000Z</time>
      </trkpt>
      <trkpt lat="35.93752364" lon="120.20960685">
        <time>2020-06-11T12:32:34.008000Z</time>
      </trkpt>
      <trkpt lat="35.93761012" lon="120.20966936">
        <time>2020-06-11T12:32:38.018000Z</time>
      </trkpt>
      <trkpt lat="35.93770805" lon="120.20973076">
        <time>2020-06-11T12:32:43.021000Z</time>
      </trkpt>
      <trkpt lat="35.93779706" lon="120.20979757">
        <time>2020-06-11T12:32:47.011000Z</time>
      </trkpt>
      <trkpt lat="35.93788251" lon="120.20986104">
        <time>2020-06-11T12:32:51.037000Z</time>
      </trkpt>
      <trkpt lat="35.93797117" lon="120.20991726">
        <time>2020-06-11T12:32:55.018000Z</time>
      </trkpt>
      <trkpt lat="35.93806344" lon="120.2099581">
        <time>2020-06-11T12:32:59.003000Z</time>
      </trkpt>
      <trkpt lat="35.93816094" lon="120.21000195">
        <time>2020-06-11T12:33:03.997000Z</time>
      </trkpt>
      <trkpt lat="35.93825519" lon="120.21001174">
        <time>2020-06-11T12:33:10.001000Z</time>
      </trkpt>
      <trkpt lat="35.93837624" lon="120.21003976">
        <time>2020-06-11T12:33:14.010000Z</time>
      </trkpt>
      <trkpt lat="35.93849486" lon="120.2100438">
        <time>2020-06-11T12:33:17.002000Z</time>
      </trkpt>
      <trkpt lat="35.93858745" lon="120.21004383">
        <time>2020-06-11T12:33:20.018000Z</time>
      </trkpt>
      <trkpt lat="35.93867973" lon="120.21004262">
        <time>2020-06-11T12:33:23.015000Z</time>
      </trkpt>
      <trkpt lat="35.93879712" lon="120.21003295">
        <time>2020-06-11T12:33:27Z</time>
      </trkpt>
      <trkpt lat="35.93890951" lon="120.21000798">
        <time>2020-06-11T12:33:31.001000Z</time>
      </trkpt>
      <trkpt lat="35.93901841" lon="120.20996694">
        <time>2020-06-11T12:33:35.007000Z</time>
      </trkpt>
      <trkpt lat="35.93910825" lon="120.20993768">
        <time>2020-06-11T12:33:38.006000Z</time>
      </trkpt>
      <trkpt lat="35.93922906" lon="120.20991614">
        <time>2020-06-11T12:33:42.008000Z</time>
      </trkpt>
      <trkpt lat="35.93931802" lon="120.20988469">
        <time>2020-06-11T12:33:45.009000Z</time>
      </trkpt>
      <trkpt lat="35.93942743" lon="120.20984455">
        <time>2020-06-11T12:33:49.003000Z</time>
      </trkpt>
      <trkpt lat="35.93951748" lon="120.20981378">
        <time>2020-06-11T12:33:52.012000Z</time>
      </trkpt>
      <trkpt lat="35.939619" lon="120.2097831">
        <time>2020-06-11T12:33:55.008000Z</time>
      </trkpt>
      <trkpt lat="35.9397101" lon="120.20975848">
        <time>2020-06-11T12:33:58.001000Z</time>
      </trkpt>
      <trkpt lat="35.93982065" lon="120.20972636">
        <time>2020-06-11T12:34:02.010000Z</time>
      </trkpt>
      <trkpt lat="35.93991513" lon="120.20970104">
        <time>2020-06-11T12:34:05.021000Z</time>
      </trkpt>
      <trkpt lat="35.94002838" lon="120.20966294">
        <time>2020-06-11T12:34:09.011000Z</time>
      </trkpt>
      <trkpt lat="35.94014092" lon="120.20962209">
        <time>2020-06-11T12:34:13.012000Z</time>
      </trkpt>
      <trkpt lat="35.94024877" lon="120.20957034">
        <time>2020-06-11T12:34:17.003000Z</time>
      </trkpt>
      <trkpt lat="35.94029741" lon="120.20947678">
        <time>2020-06-11T12:34:20.035000Z</time>
      </trkpt>
      <trkpt lat="35.94033302" lon="120.20936181">
        <time>2020-06-11T12:34:23.011000Z</time>
      </trkpt>
      <trkpt lat="35.94037021" lon="120.20924998">
        <time>2020-06-11T12:34:26.016000Z</time>
      </trkpt>
      <trkpt lat="35.94041441" lon="120.20914696">
        <time>2020-06-11T12:34:29.021000Z</time>
      </trkpt>
      <trkpt lat="35.94046407" lon="120.20904433">
        <time>2020-06-11T12:34:32.016000Z</time>
      </trkpt>
      <trkpt lat="35.94053912" lon="120.20897585">
        <time>2020-06-11T12:34:35.009000Z</time>
      </trkpt>
      <trkpt lat="35.94061319" lon="120.20891283">
        <time>2020-06-11T12:34:38.012000Z</time>
      </trkpt>
      <trkpt lat="35.94070523" lon="120.20889889">
        <time>2020-06-11T12:34:41.016000Z</time>
      </trkpt>
      <trkpt lat="35.94079793" lon="120.20888713">
        <time>2020-06-11T12:34:44.017000Z</time>
      </trkpt>
      <trkpt lat="35.94089194" lon="120.2088843">
        <time>2020-06-11T12:34:47.043000Z</time>
      </trkpt>
      <trkpt lat="35.94098537" lon="120.2088936">
        <time>2020-06-11T12:34:50.012000Z</time>
      </trkpt>
      <trkpt lat="35.94110056" lon="120.20892924">
        <time>2020-06-11T12:34:54.031000Z</time>
      </trkpt>
      <trkpt lat="35.94118383" lon="120.20898252">
        <time>2020-06-11T12:34:57.003000Z</time>
      </trkpt>
      <trkpt lat="35.94125415" lon="120.20906143">
        <time>2020-06-11T12:35:00.006000Z</time>
      </trkpt>
      <trkpt lat="35.9413048" lon="120.20919376">
        <time>2020-06-11T12:35:04.027000Z</time>
      </trkpt>
      <trkpt lat="35.94134613" lon="120.20929509">
        <time>2020-06-11T12:35:07.024000Z</time>
      </trkpt>
      <trkpt lat="35.94143993" lon="120.20936565">
        <time>2020-06-11T12:35:11.033000Z</time>
      </trkpt>
      <trkpt lat="35.94155393" lon="120.20938309">
        <time>2020-06-11T12:35:15.004000Z</time>
      </trkpt>
      <trkpt lat="35.94165976" lon="120.20936213">
        <time>2020-06-11T12:35:19.013000Z</time>
      </trkpt>
      <trkpt lat="35.94177613" lon="120.20934869">
        <time>2020-06-11T12:35:23.002000Z</time>
      </trkpt>
      <trkpt lat="35.94188238" lon="120.20932591">
        <time>2020-06-11T12:35:27.036000Z</time>
      </trkpt>
      <trkpt lat="35.94197538" lon="120.20930444">
        <time>2020-06-11T12:35:30.022000Z</time>
      </trkpt>
      <trkpt lat="35.94207229" lon="120.20928923">
        <time>2020-06-11T12:35:33.022000Z</time>
      </trkpt>
      <trkpt lat="35.94217315" lon="120.20927812">
        <time>2020-06-11T12:35:36.068000Z</time>
      </trkpt>
      <trkpt lat="35.94226449" lon="120.209243">
        <time>2020-06-11T12:35:39.029000Z</time>
      </trkpt>
      <trkpt lat="35.94235288" lon="120.20919021">
        <time>2020-06-11T12:35:42.011000Z</time>
      </trkpt>
      <trkpt lat="35.9424356" lon="120.20913808">
        <time>2020-06-11T12:35:45.009000Z</time>
      </trkpt>
      <trkpt lat="35.94251936" lon="120.20908739">
        <time>2020-06-11T12:35:48.015000Z</time>
      </trkpt>
      <trkpt lat="35.94260631" lon="120.20904748">
        <time>2020-06-11T12:35:51.019000Z</time>
      </trkpt>
      <trkpt lat="35.94269442" lon="120.20902001">
        <time>2020-06-11T12:35:54.026000Z</time>
      </trkpt>
      <trkpt lat="35.94278865" lon="120.20900211">
        <time>2020-06-11T12:35:57.042000Z</time>
      </trkpt>
      <trkpt lat="35.94290124" lon="120.20898715">
        <time>2020-06-11T12:36:00.997000Z</time>
      </trkpt>
      <trkpt lat="35.94301247" lon="120.20896879">
        <time>2020-06-11T12:36:05.019000Z</time>
      </trkpt>
      <trkpt lat="35.94310534" lon="120.20895794">
        <time>2020-06-11T12:36:08.007000Z</time>
      </trkpt>
      <trkpt lat="35.94321895" lon="120.20893939">
        <time>2020-06-11T12:36:12.015000Z</time>
      </trkpt>
      <trkpt lat="35.94332349" lon="120.20890188">
        <time>2020-06-11T12:36:16.008000Z</time>
      </trkpt>
      <trkpt lat="35.9434356" lon="120.20884573">
        <time>2020-06-11T12:36:20.009000Z</time>
      </trkpt>
      <trkpt lat="35.94352497" lon="120.20880622">
        <time>2020-06-11T12:36:23.026000Z</time>
      </trkpt>
      <trkpt lat="35.94361923" lon="120.20877775">
        <time>2020-06-11T12:36:26.016000Z</time>
      </trkpt>
      <trkpt lat="35.94371393" lon="120.20876775">
        <time>2020-06-11T12:36:29.025000Z</time>
      </trkpt>
      <trkpt lat="35.94381022" lon="120.20876975">
        <time>2020-06-11T12:36:32.022000Z</time>
      </trkpt>
      <trkpt lat="35.94389955" lon="120.20879778">
        <time>2020-06-11T12:36:35.017000Z</time>
      </trkpt>
      <trkpt lat="35.94399048" lon="120.20884546">
        <time>2020-06-11T12:36:38.017000Z</time>
      </trkpt>
      <trkpt lat="35.94407471" lon="120.20888787">
        <time>2020-06-11T12:36:41.006000Z</time>
      </trkpt>
      <trkpt lat="35.94416451" lon="120.20893237">
        <time>2020-06-11T12:36:44.012000Z</time>
      </trkpt>
      <trkpt lat="35.9442599" lon="120.20895943">
        <time>2020-06-11T12:36:47.008000Z</time>
      </trkpt>
      <trkpt lat="35.94435994" lon="120.20896472">
        <time>2020-06-11T12:36:50.051000Z</time>
      </trkpt>
      <trkpt lat="35.94445767" lon="120.2089391">
        <time>2020-06-11T12:36:53.025000Z</time>
      </trkpt>
      <trkpt lat="35.94455047" lon="120.20890079">
        <time>2020-06-11T12:36:56.012000Z</time>
      </trkpt>
      <trkpt lat="35.94465042" lon="120.20887547">
        <time>2020-06-11T12:36:59.011000Z</time>
      </trkpt>
      <trkpt lat="35.94474423" lon="120.20885796">
        <time>2020-06-11T12:37:02.016000Z</time>
      </trkpt>
      <trkpt lat="35.94485968" lon="120.20883901">
        <time>2020-06-11T12:37:06.034000Z</time>
      </trkpt>
      <trkpt lat="35.94495133" lon="120.20882491">
        <time>2020-06-11T12:37:09.018000Z</time>
      </trkpt>
      <trkpt lat="35.94504642" lon="120.20881123">
        <time>2020-06-11T12:37:12.008000Z</time>
      </trkpt>
      <trkpt lat="35.94514893" lon="120.20880392">
        <time>2020-06-11T12:37:15.020000Z</time>
      </trkpt>
      <trkpt lat="35.94524378" lon="120.20879348">
        <time>2020-06-11T12:37:18.012000Z</time>
      </trkpt>
      <trkpt lat="35.94535553" lon="120.20875023">
        <time>2020-06-11T12:37:22.025000Z</time>
      </trkpt>
      <trkpt lat="35.94545229" lon="120.2087398">
        <time>2020-06-11T12:37:26.021000Z</time>
      </trkpt>
      <trkpt lat="35.94555798" lon="120.20874346">
        <time>2020-06-11T12:37:29.997000Z</time>
      </trkpt>
      <trkpt lat="35.94567255" lon="120.20873616">
        <time>2020-06-11T12:37:34.015000Z</time>
      </trkpt>
      <trkpt lat="35.94577981" lon="120.20871523">
        <time>2020-06-11T12:37:38.049000Z</time>
      </trkpt>
      <trkpt lat="35.94589885" lon="120.20870712">
        <time>2020-06-11T12:37:42.033000Z</time>
      </trkpt>
      <trkpt lat="35.94599065" lon="120.20869774">
        <time>2020-06-11T12:37:45.001000Z</time>
      </trkpt>
      <trkpt lat="35.94608335" lon="120.20869208">
        <time>2020-06-11T12:37:48.011000Z</time>
      </trkpt>
      <trkpt lat="35.94617479" lon="120.20868566">
        <time>2020-06-11T12:37:50.997000Z</time>
      </trkpt>
      <trkpt lat="35.94628967" lon="120.20866896">
        <time>2020-06-11T12:37:54.997000Z</time>
      </trkpt>
      <trkpt lat="35.94639822" lon="120.20864557">
        <time>2020-06-11T12:37:59.026000Z</time>
      </trkpt>
      <trkpt lat="35.94648938" lon="120.20864074">
        <time>2020-06-11T12:38:02.011000Z</time>
      </trkpt>
      <trkpt lat="35.9465835" lon="120.20863762">
        <time>2020-06-11T12:38:05.044000Z</time>
      </trkpt>
      <trkpt lat="35.94669233" lon="120.20862842">
        <time>2020-06-11T12:38:09.002000Z</time>
      </trkpt>
      <trkpt lat="35.94678395" lon="120.20860744">
        <time>2020-06-11T12:38:13.026000Z</time>
      </trkpt>
      <trkpt lat="35.94689077" lon="120.2085924">
        <time>2020-06-11T12:38:16.995000Z</time>
      </trkpt>
      <trkpt lat="35.94698091" lon="120.2085148">
        <time>2020-06-11T12:38:21.009000Z</time>
      </trkpt>
      <trkpt lat="35.94699239" lon="120.20839743">
        <time>2020-06-11T12:38:24.017000Z</time>
      </trkpt>
      <trkpt lat="35.9469887" lon="120.20827942">
        <time>2020-06-11T12:38:27.013000Z</time>
      </trkpt>
      <trkpt lat="35.94699364" lon="120.20816767">
        <time>2020-06-11T12:38:30.011000Z</time>
      </trkpt>
      <trkpt lat="35.94699237" lon="120.20804785">
        <time>2020-06-11T12:38:33Z</time>
      </trkpt>
      <trkpt lat="35.94698203" lon="120.20792894">
        <time>2020-06-11T12:38:36.013000Z</time>
      </trkpt>
      <trkpt lat="35.9469661" lon="120.20778846">
        <time>2020-06-11T12:38:40.001000Z</time>
      </trkpt>
      <trkpt lat="35.94696044" lon="120.20765148">
        <time>2020-06-11T12:38:44.014000Z</time>
      </trkpt>
      <trkpt lat="35.94695931" lon="120.20751156">
        <time>2020-06-11T12:38:47.998000Z</time>
      </trkpt>
      <trkpt lat="35.94694355" lon="120.20737741">
        <time>2020-06-11T12:38:52.017000Z</time>
      </trkpt>
      <trkpt lat="35.94693427" lon="120.20723225">
        <time>2020-06-11T12:38:56.009000Z</time>
      </trkpt>
      <trkpt lat="35.94695417" lon="120.20712307">
        <time>2020-06-11T12:38:59.004000Z</time>
      </trkpt>
      <trkpt lat="35.94699223" lon="120.20701785">
        <time>2020-06-11T12:39:02.054000Z</time>
      </trkpt>
      <trkpt lat="35.9470282" lon="120.20690846">
        <time>2020-06-11T12:39:05.021000Z</time>
      </trkpt>
      <trkpt lat="35.94707596" lon="120.20681062">
        <time>2020-06-11T12:39:08.021000Z</time>
      </trkpt>
      <trkpt lat="35.94711867" lon="120.20670498">
        <time>2020-06-11T12:39:11.008000Z</time>
      </trkpt>
      <trkpt lat="35.94716141" lon="120.2066009">
        <time>2020-06-11T12:39:14.008000Z</time>
      </trkpt>
      <trkpt lat="35.9472226" lon="120.20647438">
        <time>2020-06-11T12:39:18.019000Z</time>
      </trkpt>
      <trkpt lat="35.94726921" lon="120.2063732">
        <time>2020-06-11T12:39:21.011000Z</time>
      </trkpt>
      <trkpt lat="35.94730824" lon="120.20626985">
        <time>2020-06-11T12:39:24.020000Z</time>
      </trkpt>
      <trkpt lat="35.9473476" lon="120.20616687">
        <time>2020-06-11T12:39:27.010000Z</time>
      </trkpt>
      <trkpt lat="35.94739291" lon="120.20603606">
        <time>2020-06-11T12:39:31.009000Z</time>
      </trkpt>
      <trkpt lat="35.94744193" lon="120.2059125">
        <time>2020-06-11T12:39:35.025000Z</time>
      </trkpt>
      <trkpt lat="35.94749685" lon="120.20579106">
        <time>2020-06-11T12:39:39.022000Z</time>
      </trkpt>
      <trkpt lat="35.94755177" lon="120.205667">
        <time>2020-06-11T12:39:43.034000Z</time>
      </trkpt>
      <trkpt lat="35.94760274" lon="120.20554884">
        <time>2020-06-11T12:39:47.008000Z</time>
      </trkpt>
      <trkpt lat="35.94765274" lon="120.20541786">
        <time>2020-06-11T12:39:51.011000Z</time>
      </trkpt>
      <trkpt lat="35.94771462" lon="120.2053004">
        <time>2020-06-11T12:39:55.019000Z</time>
      </trkpt>
      <trkpt lat="35.94776415" lon="120.20516757">
        <time>2020-06-11T12:39:59.013000Z</time>
      </trkpt>
      <trkpt lat="35.94780971" lon="120.20506157">
        <time>2020-06-11T12:40:02.019000Z</time>
      </trkpt>
      <trkpt lat="35.94784608" lon="120.20494294">
        <time>2020-06-11T12:40:05.020000Z</time>
      </trkpt>
      <trkpt lat="35.94787096" lon="120.2048119">
        <time>2020-06-11T12:40:09.001000Z</time>
      </trkpt>
      <trkpt lat="35.94787719" lon="120.20467389">
        <time>2020-06-11T12:40:13.025000Z</time>
      </trkpt>
      <trkpt lat="35.94787725" lon="120.20453245">
        <time>2020-06-11T12:40:17.022000Z</time>
      </trkpt>
      <trkpt lat="35.94787442" lon="120.20442094">
        <time>2020-06-11T12:40:20.010000Z</time>
      </trkpt>
      <trkpt lat="35.94785946" lon="120.20430489">
        <time>2020-06-11T12:40:23.018000Z</time>
      </trkpt>
      <trkpt lat="35.94785256" lon="120.20417159">
        <time>2020-06-11T12:40:27.011000Z</time>
      </trkpt>
      <trkpt lat="35.94794557" lon="120.20419103">
        <time>2020-06-11T12:40:30.008000Z</time>
      </trkpt>
      <trkpt lat="35.94802939" lon="120.20427045">
        <time>2020-06-11T12:40:33.012000Z</time>
      </trkpt>
      <trkpt lat="35.94811461" lon="120.20434244">
        <time>2020-06-11T12:40:36.023000Z</time>
      </trkpt>
      <trkpt lat="35.94819903" lon="120.20441499">
        <time>2020-06-11T12:40:39.019000Z</time>
      </trkpt>
      <trkpt lat="35.9482681" lon="120.20451001">
        <time>2020-06-11T12:40:42.019000Z</time>
      </trkpt>
      <trkpt lat="35.94834093" lon="120.20458729">
        <time>2020-06-11T12:40:45.029000Z</time>
      </trkpt>
      <trkpt lat="35.94841195" lon="120.204657">
        <time>2020-06-11T12:40:48.008000Z</time>
      </trkpt>
      <trkpt lat="35.94850539" lon="120.2047462">
        <time>2020-06-11T12:40:52.004000Z</time>
      </trkpt>
      <trkpt lat="35.94860348" lon="120.20483029">
        <time>2020-06-11T12:40:56.017000Z</time>
      </trkpt>
      <trkpt lat="35.94867304" lon="120.20490551">
        <time>2020-06-11T12:40:59.015000Z</time>
      </trkpt>
      <trkpt lat="35.94875667" lon="120.20500191">
        <time>2020-06-11T12:41:03.008000Z</time>
      </trkpt>
      <trkpt lat="35.94882896" lon="120.20508569">
        <time>2020-06-11T12:41:07.011000Z</time>
      </trkpt>
      <trkpt lat="35.94891667" lon="120.20517815">
        <time>2020-06-11T12:41:11.021000Z</time>
      </trkpt>
      <trkpt lat="35.94898774" lon="120.20524865">
        <time>2020-06-11T12:41:14.018000Z</time>
      </trkpt>
      <trkpt lat="35.94907846" lon="120.20534004">
        <time>2020-06-11T12:41:18.040000Z</time>
      </trkpt>
      <trkpt lat="35.94913719" lon="120.20542692">
        <time>2020-06-11T12:41:21.003000Z</time>
      </trkpt>
      <trkpt lat="35.94920199" lon="120.20550427">
        <time>2020-06-11T12:41:24.011000Z</time>
      </trkpt>
      <trkpt lat="35.94927777" lon="120.20557932">
        <time>2020-06-11T12:41:27Z</time>
      </trkpt>
      <trkpt lat="35.9493533" lon="120.20564633">
        <time>2020-06-11T12:41:30Z</time>
      </trkpt>
      <trkpt lat="35.94943016" lon="120.205719">
        <time>2020-06-11T12:41:33.020000Z</time>
      </trkpt>
      <trkpt lat="35.94949957" lon="120.20579173">
        <time>2020-06-11T12:41:36.013000Z</time>
      </trkpt>
      <trkpt lat="35.94958323" lon="120.2058808">
        <time>2020-06-11T12:41:40.015000Z</time>
      </trkpt>
      <trkpt lat="35.94966443" lon="120.20593657">
        <time>2020-06-11T12:41:43.044000Z</time>
      </trkpt>
      <trkpt lat="35.94975597" lon="120.20602131">
        <time>2020-06-11T12:41:47.003000Z</time>
      </trkpt>
      <trkpt lat="35.94986382" lon="120.20599603">
        <time>2020-06-11T12:41:51.005000Z</time>
      </trkpt>
      <trkpt lat="35.94994398" lon="120.20593782">
        <time>2020-06-11T12:41:54.008000Z</time>
      </trkpt>
      <trkpt lat="35.95002412" lon="120.20588298">
        <time>2020-06-11T12:41:57.007000Z</time>
      </trkpt>
      <trkpt lat="35.95011097" lon="120.2058419">
        <time>2020-06-11T12:42:00.010000Z</time>
      </trkpt>
      <trkpt lat="35.9502125" lon="120.20578842">
        <time>2020-06-11T12:42:04Z</time>
      </trkpt>
      <trkpt lat="35.9503022" lon="120.20575704">
        <time>2020-06-11T12:42:07.011000Z</time>
      </trkpt>
      <trkpt lat="35.95039469" lon="120.20572387">
        <time>2020-06-11T12:42:10.007000Z</time>
      </trkpt>
      <trkpt lat="35.95050089" lon="120.20568109">
        <time>2020-06-11T12:42:14.025000Z</time>
      </trkpt>
      <trkpt lat="35.95058595" lon="120.20563286">
        <time>2020-06-11T12:42:17.018000Z</time>
      </trkpt>
      <trkpt lat="35.95065565" lon="120.20552195">
        <time>2020-06-11T12:42:21.024000Z</time>
      </trkpt>
      <trkpt lat="35.95067061" lon="120.20540767">
        <time>2020-06-11T12:42:24.017000Z</time>
      </trkpt>
      <trkpt lat="35.95065365" lon="120.20529817">
        <time>2020-06-11T12:42:27.014000Z</time>
      </trkpt>
      <trkpt lat="35.95062016" lon="120.20516474">
        <time>2020-06-11T12:42:31.037000Z</time>
      </trkpt>
      <trkpt lat="35.95058134" lon="120.20502868">
        <time>2020-06-11T12:42:35.012000Z</time>
      </trkpt>
      <trkpt lat="35.950547" lon="120.20489662">
        <time>2020-06-11T12:42:39.024000Z</time>
      </trkpt>
      <trkpt lat="35.95062002" lon="120.2048046">
        <time>2020-06-11T12:42:43.002000Z</time>
      </trkpt>
      <trkpt lat="35.95070004" lon="120.20475042">
        <time>2020-06-11T12:42:45.997000Z</time>
      </trkpt>
      <trkpt lat="35.95080128" lon="120.20470234">
        <time>2020-06-11T12:42:50.015000Z</time>
      </trkpt>
      <trkpt lat="35.95080128" lon="120.20470234">
        <time>2020-06-11T12:42:55.011000Z</time>
      </trkpt>
      <trkpt lat="35.95090637" lon="120.20464654">
        <time>2020-06-11T12:43:04.023000Z</time>
      </trkpt>
      <trkpt lat="35.95090637" lon="120.20464654">
        <time>2020-06-11T12:43:05.018000Z</time>
      </trkpt>
      <trkpt lat="35.95101231" lon="120.20458818">
        <time>2020-06-11T12:43:08.032000Z</time>
      </trkpt>
      <trkpt lat="35.95112891" lon="120.20458848">
        <time>2020-06-11T12:43:12.029000Z</time>
      </trkpt>
      <trkpt lat="35.95124445" lon="120.20456327">
        <time>2020-06-11T12:43:16.023000Z</time>
      </trkpt>
      <trkpt lat="35.95134147" lon="120.20454008">
        <time>2020-06-11T12:43:19.012000Z</time>
      </trkpt>
      <trkpt lat="35.951441" lon="120.20451315">
        <time>2020-06-11T12:43:22.007000Z</time>
      </trkpt>
      <trkpt lat="35.95154647" lon="120.2044845">
        <time>2020-06-11T12:43:25.015000Z</time>
      </trkpt>
      <trkpt lat="35.95164616" lon="120.20446155">
        <time>2020-06-11T12:43:28.017000Z</time>
      </trkpt>
      <trkpt lat="35.95173728" lon="120.20444505">
        <time>2020-06-11T12:43:31.022000Z</time>
      </trkpt>
      <trkpt lat="35.95183697" lon="120.20443848">
        <time>2020-06-11T12:43:34.008000Z</time>
      </trkpt>
      <trkpt lat="35.9519287" lon="120.20443141">
        <time>2020-06-11T12:43:37.010000Z</time>
      </trkpt>
      <trkpt lat="35.95202282" lon="120.20441749">
        <time>2020-06-11T12:43:40.024000Z</time>
      </trkpt>
      <trkpt lat="35.95212799" lon="120.20438261">
        <time>2020-06-11T12:43:43.019000Z</time>
      </trkpt>
      <trkpt lat="35.95222441" lon="120.20437164">
        <time>2020-06-11T12:43:46.001000Z</time>
      </trkpt>
      <trkpt lat="35.95231529" lon="120.20435809">
        <time>2020-06-11T12:43:49.005000Z</time>
      </trkpt>
      <trkpt lat="35.95241944" lon="120.20434892">
        <time>2020-06-11T12:43:52.004000Z</time>
      </trkpt>
      <trkpt lat="35.95252584" lon="120.20433432">
        <time>2020-06-11T12:43:54.999000Z</time>
      </trkpt>
      <trkpt lat="35.95262623" lon="120.20432078">
        <time>2020-06-11T12:43:58.005000Z</time>
      </trkpt>
      <trkpt lat="35.95271624" lon="120.20430306">
        <time>2020-06-11T12:44:01.005000Z</time>
      </trkpt>
      <trkpt lat="35.95283249" lon="120.20427801">
        <time>2020-06-11T12:44:05.005000Z</time>
      </trkpt>
      <trkpt lat="35.95292171" lon="120.20426377">
        <time>2020-06-11T12:44:08.021000Z</time>
      </trkpt>
      <trkpt lat="35.95303953" lon="120.20423945">
        <time>2020-06-11T12:44:12.032000Z</time>
      </trkpt>
      <trkpt lat="35.95315" lon="120.2042125">
        <time>2020-06-11T12:44:16.011000Z</time>
      </trkpt>
      <trkpt lat="35.95326706" lon="120.20419497">
        <time>2020-06-11T12:44:20.014000Z</time>
      </trkpt>
      <trkpt lat="35.95337567" lon="120.20421398">
        <time>2020-06-11T12:44:23.006000Z</time>
      </trkpt>
      <trkpt lat="35.95347588" lon="120.2042004">
        <time>2020-06-11T12:44:26.004000Z</time>
      </trkpt>
      <trkpt lat="35.95357231" lon="120.20416287">
        <time>2020-06-11T12:44:28.997000Z</time>
      </trkpt>
      <trkpt lat="35.9536707" lon="120.20413714">
        <time>2020-06-11T12:44:32Z</time>
      </trkpt>
      <trkpt lat="35.95377376" lon="120.20412964">
        <time>2020-06-11T12:44:35.053000Z</time>
      </trkpt>
      <trkpt lat="35.95388418" lon="120.20411826">
        <time>2020-06-11T12:44:38.003000Z</time>
      </trkpt>
      <trkpt lat="35.95398916" lon="120.20409571">
        <time>2020-06-11T12:44:41.001000Z</time>
      </trkpt>
      <trkpt lat="35.95408705" lon="120.20407652">
        <time>2020-06-11T12:44:44.023000Z</time>
      </trkpt>
      <trkpt lat="35.95417529" lon="120.20405368">
        <time>2020-06-11T12:44:47.040000Z</time>
      </trkpt>
      <trkpt lat="35.95429485" lon="120.2040343">
        <time>2020-06-11T12:44:51.009000Z</time>
      </trkpt>
      <trkpt lat="35.95438568" lon="120.20400884">
        <time>2020-06-11T12:44:53.999000Z</time>
      </trkpt>
      <trkpt lat="35.95448053" lon="120.20400207">
        <time>2020-06-11T12:44:56.997000Z</time>
      </trkpt>
      <trkpt lat="35.95457737" lon="120.20400191">
        <time>2020-06-11T12:45:00.016000Z</time>
      </trkpt>
      <trkpt lat="35.95468524" lon="120.20397747">
        <time>2020-06-11T12:45:04.019000Z</time>
      </trkpt>
      <trkpt lat="35.95478911" lon="120.20396141">
        <time>2020-06-11T12:45:08Z</time>
      </trkpt>
      <trkpt lat="35.95489141" lon="120.20395841">
        <time>2020-06-11T12:45:12.015000Z</time>
      </trkpt>
      <trkpt lat="35.95498857" lon="120.20400162">
        <time>2020-06-11T12:45:16.013000Z</time>
      </trkpt>
      <trkpt lat="35.95509587" lon="120.20403925">
        <time>2020-06-11T12:45:22.022000Z</time>
      </trkpt>
      <trkpt lat="35.95519909" lon="120.20404159">
        <time>2020-06-11T12:45:26.018000Z</time>
      </trkpt>
      <trkpt lat="35.95529323" lon="120.20411713">
        <time>2020-06-11T12:45:30.018000Z</time>
      </trkpt>
      <trkpt lat="35.95531646" lon="120.2042464">
        <time>2020-06-11T12:45:34.021000Z</time>
      </trkpt>
      <trkpt lat="35.95530607" lon="120.20439106">
        <time>2020-06-11T12:45:38.009000Z</time>
      </trkpt>
      <trkpt lat="35.95531962" lon="120.20451709">
        <time>2020-06-11T12:45:42.001000Z</time>
      </trkpt>
      <trkpt lat="35.95534707" lon="120.20464452">
        <time>2020-06-11T12:45:46.006000Z</time>
      </trkpt>
      <trkpt lat="35.9553788" lon="120.20476619">
        <time>2020-06-11T12:45:50.013000Z</time>
      </trkpt>
      <trkpt lat="35.95539564" lon="120.20487666">
        <time>2020-06-11T12:45:52.998000Z</time>
      </trkpt>
      <trkpt lat="35.95541412" lon="120.2050046">
        <time>2020-06-11T12:45:57.020000Z</time>
      </trkpt>
      <trkpt lat="35.95543231" lon="120.20512617">
        <time>2020-06-11T12:46:01.003000Z</time>
      </trkpt>
      <trkpt lat="35.95544951" lon="120.20526611">
        <time>2020-06-11T12:46:05.013000Z</time>
      </trkpt>
      <trkpt lat="35.95547889" lon="120.20540079">
        <time>2020-06-11T12:46:09Z</time>
      </trkpt>
      <trkpt lat="35.95549572" lon="120.20553347">
        <time>2020-06-11T12:46:13.019000Z</time>
      </trkpt>
      <trkpt lat="35.95552826" lon="120.20565661">
        <time>2020-06-11T12:46:17.008000Z</time>
      </trkpt>
      <trkpt lat="35.95552549" lon="120.20577995">
        <time>2020-06-11T12:46:23.011000Z</time>
      </trkpt>
      <trkpt lat="35.95552549" lon="120.20577995">
        <time>2020-06-11T12:46:26Z</time>
      </trkpt>
      <trkpt lat="35.95551132" lon="120.2058964">
        <time>2020-06-11T12:46:33.995000Z</time>
      </trkpt>
      <trkpt lat="35.95551132" lon="120.2058964">
        <time>2020-06-11T12:46:42.018000Z</time>
      </trkpt>
      <trkpt lat="35.95557771" lon="120.20599415">
        <time>2020-06-11T12:46:42.029000Z</time>
      </trkpt>
      <trkpt lat="35.95559461" lon="120.20612634">
        <time>2020-06-11T12:46:46.021000Z</time>
      </trkpt>
      <trkpt lat="35.95562849" lon="120.20624566">
        <time>2020-06-11T12:46:50.003000Z</time>
      </trkpt>
      <trkpt lat="35.95565618" lon="120.20635127">
        <time>2020-06-11T12:46:54.022000Z</time>
      </trkpt>
      <trkpt lat="35.95568154" lon="120.20649026">
        <time>2020-06-11T12:46:58.015000Z</time>
      </trkpt>
      <trkpt lat="35.95570412" lon="120.20662445">
        <time>2020-06-11T12:47:02.029000Z</time>
      </trkpt>
      <trkpt lat="35.95570136" lon="120.20673698">
        <time>2020-06-11T12:47:05.019000Z</time>
      </trkpt>
      <trkpt lat="35.95569509" lon="120.20687003">
        <time>2020-06-11T12:47:08.010000Z</time>
      </trkpt>
      <trkpt lat="35.95570775" lon="120.20701955">
        <time>2020-06-11T12:47:11.006000Z</time>
      </trkpt>
      <trkpt lat="35.95571965" lon="120.20717433">
        <time>2020-06-11T12:47:14.013000Z</time>
      </trkpt>
      <trkpt lat="35.9557247" lon="120.20732225">
        <time>2020-06-11T12:47:17.001000Z</time>
      </trkpt>
      <trkpt lat="35.95572707" lon="120.20745334">
        <time>2020-06-11T12:47:20.019000Z</time>
      </trkpt>
      <trkpt lat="35.9557206" lon="120.20758011">
        <time>2020-06-11T12:47:23.011000Z</time>
      </trkpt>
      <trkpt lat="35.95573781" lon="120.20770068">
        <time>2020-06-11T12:47:26.017000Z</time>
      </trkpt>
      <trkpt lat="35.95583357" lon="120.20772742">
        <time>2020-06-11T12:47:32.079000Z</time>
      </trkpt>
      <trkpt lat="35.95583357" lon="120.20772742">
        <time>2020-06-11T12:47:33.012000Z</time>
      </trkpt>
      <trkpt lat="35.95592949" lon="120.20769566">
        <time>2020-06-11T12:47:42.009000Z</time>
      </trkpt>
      <trkpt lat="35.95602036" lon="120.20766973">
        <time>2020-06-11T12:47:49.031000Z</time>
      </trkpt>
      <trkpt lat="35.95602036" lon="120.20766973">
        <time>2020-06-11T12:47:50.039000Z</time>
      </trkpt>
      <trkpt lat="35.95612224" lon="120.20763941">
        <time>2020-06-11T12:47:53.013000Z</time>
      </trkpt>
      <trkpt lat="35.95623377" lon="120.20760602">
        <time>2020-06-11T12:47:57Z</time>
      </trkpt>
      <trkpt lat="35.95633646" lon="120.20757699">
        <time>2020-06-11T12:48:01.019000Z</time>
      </trkpt>
      <trkpt lat="35.95644073" lon="120.20755582">
        <time>2020-06-11T12:48:06.005000Z</time>
      </trkpt>
      <trkpt lat="35.95650151" lon="120.20764543">
        <time>2020-06-11T12:48:16.999000Z</time>
      </trkpt>
      <trkpt lat="35.95652096" lon="120.20777485">
        <time>2020-06-11T12:48:21.006000Z</time>
      </trkpt>
      <trkpt lat="35.95654151" lon="120.2079113">
        <time>2020-06-11T12:48:25.009000Z</time>
      </trkpt>
      <trkpt lat="35.956568" lon="120.20805212">
        <time>2020-06-11T12:48:29.020000Z</time>
      </trkpt>
      <trkpt lat="35.95657997" lon="120.2081683">
        <time>2020-06-11T12:48:32.026000Z</time>
      </trkpt>
      <trkpt lat="35.95658156" lon="120.20828993">
        <time>2020-06-11T12:48:35.027000Z</time>
      </trkpt>
      <trkpt lat="35.95661363" lon="120.20842794">
        <time>2020-06-11T12:48:39.014000Z</time>
      </trkpt>
      <trkpt lat="35.95661997" lon="120.20855747">
        <time>2020-06-11T12:48:43.016000Z</time>
      </trkpt>
      <trkpt lat="35.95661367" lon="120.20867894">
        <time>2020-06-11T12:48:47.076000Z</time>
      </trkpt>
      <trkpt lat="35.95665286" lon="120.20878787">
        <time>2020-06-11T12:48:51.002000Z</time>
      </trkpt>
      <trkpt lat="35.95665523" lon="120.20890705">
        <time>2020-06-11T12:48:55.019000Z</time>
      </trkpt>
      <trkpt lat="35.9566628" lon="120.209031">
        <time>2020-06-11T12:48:59.009000Z</time>
      </trkpt>
      <trkpt lat="35.95669571" lon="120.20915551">
        <time>2020-06-11T12:49:03.015000Z</time>
      </trkpt>
      <trkpt lat="35.95671162" lon="120.20929128">
        <time>2020-06-11T12:49:07.015000Z</time>
      </trkpt>
      <trkpt lat="35.9566989" lon="120.20942555">
        <time>2020-06-11T12:49:11.016000Z</time>
      </trkpt>
      <trkpt lat="35.95669713" lon="120.20955966">
        <time>2020-06-11T12:49:15.030000Z</time>
      </trkpt>
      <trkpt lat="35.95671184" lon="120.20969594">
        <time>2020-06-11T12:49:19.016000Z</time>
      </trkpt>
      <trkpt lat="35.95673154" lon="120.20982323">
        <time>2020-06-11T12:49:23.009000Z</time>
      </trkpt>
      <trkpt lat="35.95673154" lon="120.20982323">
        <time>2020-06-11T12:49:27.575000Z</time>
      </trkpt>
      <trkpt lat="35.95673879" lon="120.20994313">
        <time>2020-06-11T12:49:28.024000Z</time>
      </trkpt>
      <trkpt lat="35.95675382" lon="120.21005383">
        <time>2020-06-11T12:49:32.016000Z</time>
      </trkpt>
      <trkpt lat="35.9567822" lon="120.21017417">
        <time>2020-06-11T12:49:36.019000Z</time>
      </trkpt>
      <trkpt lat="35.9567822" lon="120.21017417">
        <time>2020-06-11T12:49:37.594000Z</time>
      </trkpt>
      <trkpt lat="35.95680335" lon="120.21029629">
        <time>2020-06-11T12:49:40.005000Z</time>
      </trkpt>
      <trkpt lat="35.95683663" lon="120.21042777">
        <time>2020-06-11T12:49:44.018000Z</time>
      </trkpt>
      <trkpt lat="35.9568542" lon="120.21055414">
        <time>2020-06-11T12:49:48.019000Z</time>
      </trkpt>
      <trkpt lat="35.95686" lon="120.21069222">
        <time>2020-06-11T12:49:51.996000Z</time>
      </trkpt>
      <trkpt lat="35.95692564" lon="120.21078736">
        <time>2020-06-11T12:49:55.995000Z</time>
      </trkpt>
      <trkpt lat="35.95703042" lon="120.21074586">
        <time>2020-06-11T12:49:58.995000Z</time>
      </trkpt>
      <trkpt lat="35.95711087" lon="120.2106672">
        <time>2020-06-11T12:50:02.010000Z</time>
      </trkpt>
      <trkpt lat="35.9571306" lon="120.21055026">
        <time>2020-06-11T12:50:06.999000Z</time>
      </trkpt>
      <trkpt lat="35.95713851" lon="120.21043705">
        <time>2020-06-11T12:50:10.004000Z</time>
      </trkpt>
      <trkpt lat="35.95718567" lon="120.21034254">
        <time>2020-06-11T12:50:13.006000Z</time>
      </trkpt>
      <trkpt lat="35.95719401" lon="120.21019828">
        <time>2020-06-11T12:50:17.031000Z</time>
      </trkpt>
      <trkpt lat="35.95713949" lon="120.2100929">
        <time>2020-06-11T12:50:20.009000Z</time>
      </trkpt>
      <trkpt lat="35.95702908" lon="120.21005237">
        <time>2020-06-11T12:50:23.012000Z</time>
      </trkpt>
      <trkpt lat="35.95691349" lon="120.2100634">
        <time>2020-06-11T12:50:26.016000Z</time>
      </trkpt>
      <trkpt lat="35.95682192" lon="120.21010376">
        <time>2020-06-11T12:50:29.008000Z</time>
      </trkpt>
      <trkpt lat="35.95676533" lon="120.21019549">
        <time>2020-06-11T12:50:33.023000Z</time>
      </trkpt>
      <trkpt lat="35.95675988" lon="120.21032537">
        <time>2020-06-11T12:50:37.009000Z</time>
      </trkpt>
      <trkpt lat="35.95679596" lon="120.21046435">
        <time>2020-06-11T12:50:41.021000Z</time>
      </trkpt>
      <trkpt lat="35.95684919" lon="120.21059203">
        <time>2020-06-11T12:50:45.037000Z</time>
      </trkpt>
      <trkpt lat="35.95685473" lon="120.21073171">
        <time>2020-06-11T12:50:49.031000Z</time>
      </trkpt>
      <trkpt lat="35.95693905" lon="120.21078137">
        <time>2020-06-11T12:50:53.005000Z</time>
      </trkpt>
      <trkpt lat="35.95703068" lon="120.21073465">
        <time>2020-06-11T12:50:56.012000Z</time>
      </trkpt>
      <trkpt lat="35.95712069" lon="120.21068587">
        <time>2020-06-11T12:50:59.013000Z</time>
      </trkpt>
      <trkpt lat="35.95715578" lon="120.2105782">
        <time>2020-06-11T12:51:02.009000Z</time>
      </trkpt>
      <trkpt lat="35.95717031" lon="120.21045582">
        <time>2020-06-11T12:51:06.001000Z</time>
      </trkpt>
      <trkpt lat="35.95719871" lon="120.21034368">
        <time>2020-06-11T12:51:10.002000Z</time>
      </trkpt>
      <trkpt lat="35.95718078" lon="120.21022136">
        <time>2020-06-11T12:51:13.029000Z</time>
      </trkpt>
      <trkpt lat="35.9571719" lon="120.21009806">
        <time>2020-06-11T12:51:16.002000Z</time>
      </trkpt>
      <trkpt lat="35.95708901" lon="120.21000366">
        <time>2020-06-11T12:51:20.006000Z</time>
      </trkpt>
      <trkpt lat="35.95699734" lon="120.21000686">
        <time>2020-06-11T12:51:23.013000Z</time>
      </trkpt>
      <trkpt lat="35.95691575" lon="120.21008303">
        <time>2020-06-11T12:51:26.004000Z</time>
      </trkpt>
      <trkpt lat="35.95685455" lon="120.2101804">
        <time>2020-06-11T12:51:29.999000Z</time>
      </trkpt>
      <trkpt lat="35.95682735" lon="120.21022977">
        <time>2020-06-11T12:51:36.870000Z</time>
      </trkpt>
    </trkseg>
  </trk>
</gpx>