<?xml version="1.0" encoding="UTF-8"?>
<gpx xmlns="http://www.topografix.com/GPX/1/1" xmlns:gpxtpx="http://www.garmin.com/xmlschemas/TrackPointExtension/v1" xmlns:xsi="http://www.w3.org/2001/XMLSchema-instance" xsi:schemaLocation="http://www.topografix.com/GPX/1/1 http://www.topografix.com/GPX/1/1/gpx.xsd" version="1.1" creator="gpx.py -- https://github.com/tkrajina/gpxpy">
  <trk>
    <name>Sunday Night Run</name>
    <trkseg>
      <trkpt lat="35.95677985" lon="120.21002454">
        <time>2020-06-14T13:31:32.991000Z</time>
      </trkpt>
      <trkpt lat="35.95677985" lon="120.21002454">
        <time>2020-06-14T13:31:38.001000Z</time>
      </trkpt>
      <trkpt lat="35.95688522" lon="120.20998303">
        <time>2020-06-14T13:31:38.015000Z</time>
      </trkpt>
      <trkpt lat="35.95697598" lon="120.20997487">
        <time>2020-06-14T13:31:43.041000Z</time>
      </trkpt>
      <trkpt lat="35.95708416" lon="120.20993974">
        <time>2020-06-14T13:31:48.005000Z</time>
      </trkpt>
      <trkpt lat="35.9571823" lon="120.20990975">
        <time>2020-06-14T13:31:52.004000Z</time>
      </trkpt>
      <trkpt lat="35.95728001" lon="120.20987447">
        <time>2020-06-14T13:31:56Z</time>
      </trkpt>
      <trkpt lat="35.9573961" lon="120.20984216">
        <time>2020-06-14T13:32:00.004000Z</time>
      </trkpt>
      <trkpt lat="35.95751011" lon="120.20981616">
        <time>2020-06-14T13:32:04.002000Z</time>
      </trkpt>
      <trkpt lat="35.95762606" lon="120.20980876">
        <time>2020-06-14T13:32:08.005000Z</time>
      </trkpt>
      <trkpt lat="35.95773329" lon="120.20980032">
        <time>2020-06-14T13:32:12.001000Z</time>
      </trkpt>
      <trkpt lat="35.95777789" lon="120.20990931">
        <time>2020-06-14T13:32:16.035000Z</time>
      </trkpt>
      <trkpt lat="35.95780362" lon="120.21002354">
        <time>2020-06-14T13:32:19.994000Z</time>
      </trkpt>
      <trkpt lat="35.95782935" lon="120.21014715">
        <time>2020-06-14T13:32:24.003000Z</time>
      </trkpt>
      <trkpt lat="35.95785108" lon="120.21026547">
        <time>2020-06-14T13:32:28.002000Z</time>
      </trkpt>
      <trkpt lat="35.95789" lon="120.2103869">
        <time>2020-06-14T13:32:32.021000Z</time>
      </trkpt>
      <trkpt lat="35.957918" lon="120.2105083">
        <time>2020-06-14T13:32:36.002000Z</time>
      </trkpt>
      <trkpt lat="35.95791615" lon="120.21062663">
        <time>2020-06-14T13:32:40.008000Z</time>
      </trkpt>
      <trkpt lat="35.95786953" lon="120.21073478">
        <time>2020-06-14T13:32:44.009000Z</time>
      </trkpt>
      <trkpt lat="35.95775882" lon="120.21078202">
        <time>2020-06-14T13:32:48.008000Z</time>
      </trkpt>
      <trkpt lat="35.95766533" lon="120.21077513">
        <time>2020-06-14T13:32:51.004000Z</time>
      </trkpt>
      <trkpt lat="35.95757213" lon="120.21075783">
        <time>2020-06-14T13:32:54.002000Z</time>
      </trkpt>
      <trkpt lat="35.9574786" lon="120.21078595">
        <time>2020-06-14T13:32:57.010000Z</time>
      </trkpt>
      <trkpt lat="35.9573869" lon="120.21081601">
        <time>2020-06-14T13:33:00.011000Z</time>
      </trkpt>
      <trkpt lat="35.95729767" lon="120.21084235">
        <time>2020-06-14T13:33:03.004000Z</time>
      </trkpt>
      <trkpt lat="35.95720868" lon="120.21086011">
        <time>2020-06-14T13:33:06.002000Z</time>
      </trkpt>
      <trkpt lat="35.95709117" lon="120.21088331">
        <time>2020-06-14T13:33:10.001000Z</time>
      </trkpt>
      <trkpt lat="35.95697909" lon="120.21088684">
        <time>2020-06-14T13:33:13.987000Z</time>
      </trkpt>
      <trkpt lat="35.95686937" lon="120.21090547">
        <time>2020-06-14T13:33:19.003000Z</time>
      </trkpt>
      <trkpt lat="35.95677961" lon="120.21093796">
        <time>2020-06-14T13:33:21.995000Z</time>
      </trkpt>
      <trkpt lat="35.95669441" lon="120.21098073">
        <time>2020-06-14T13:33:25.041000Z</time>
      </trkpt>
      <trkpt lat="35.95658529" lon="120.2110057">
        <time>2020-06-14T13:33:29.001000Z</time>
      </trkpt>
      <trkpt lat="35.95647775" lon="120.21102547">
        <time>2020-06-14T13:33:33.010000Z</time>
      </trkpt>
      <trkpt lat="35.95636348" lon="120.21104887">
        <time>2020-06-14T13:33:37.005000Z</time>
      </trkpt>
      <trkpt lat="35.95625806" lon="120.21106866">
        <time>2020-06-14T13:33:41.009000Z</time>
      </trkpt>
      <trkpt lat="35.95615691" lon="120.2110918">
        <time>2020-06-14T13:33:45.002000Z</time>
      </trkpt>
      <trkpt lat="35.95606113" lon="120.21110912">
        <time>2020-06-14T13:33:49.013000Z</time>
      </trkpt>
      <trkpt lat="35.9559598" lon="120.21114247">
        <time>2020-06-14T13:33:53.003000Z</time>
      </trkpt>
      <trkpt lat="35.95585651" lon="120.21114395">
        <time>2020-06-14T13:33:57.013000Z</time>
      </trkpt>
      <trkpt lat="35.95576573" lon="120.21118417">
        <time>2020-06-14T13:34:01.011000Z</time>
      </trkpt>
      <trkpt lat="35.9557087" lon="120.2112988">
        <time>2020-06-14T13:34:06.003000Z</time>
      </trkpt>
      <trkpt lat="35.95563867" lon="120.2114093">
        <time>2020-06-14T13:34:10.001000Z</time>
      </trkpt>
      <trkpt lat="35.95555343" lon="120.21150407">
        <time>2020-06-14T13:34:14.017000Z</time>
      </trkpt>
      <trkpt lat="35.95553617" lon="120.21163603">
        <time>2020-06-14T13:34:18.009000Z</time>
      </trkpt>
      <trkpt lat="35.95556853" lon="120.21175757">
        <time>2020-06-14T13:34:22.004000Z</time>
      </trkpt>
      <trkpt lat="35.95560233" lon="120.211882">
        <time>2020-06-14T13:34:26.002000Z</time>
      </trkpt>
      <trkpt lat="35.95563015" lon="120.21201274">
        <time>2020-06-14T13:34:30.008000Z</time>
      </trkpt>
      <trkpt lat="35.9556718" lon="120.21213273">
        <time>2020-06-14T13:34:34.001000Z</time>
      </trkpt>
      <trkpt lat="35.95571284" lon="120.2122481">
        <time>2020-06-14T13:34:38.002000Z</time>
      </trkpt>
      <trkpt lat="35.95573921" lon="120.21237099">
        <time>2020-06-14T13:34:42.014000Z</time>
      </trkpt>
      <trkpt lat="35.95577097" lon="120.21249909">
        <time>2020-06-14T13:34:46.002000Z</time>
      </trkpt>
      <trkpt lat="35.95580557" lon="120.21261363">
        <time>2020-06-14T13:34:50Z</time>
      </trkpt>
      <trkpt lat="35.95582239" lon="120.2127271">
        <time>2020-06-14T13:34:54.009000Z</time>
      </trkpt>
      <trkpt lat="35.95585178" lon="120.21283733">
        <time>2020-06-14T13:34:58.003000Z</time>
      </trkpt>
      <trkpt lat="35.95588171" lon="120.21295303">
        <time>2020-06-14T13:35:02.007000Z</time>
      </trkpt>
      <trkpt lat="35.95589865" lon="120.21307111">
        <time>2020-06-14T13:35:06.005000Z</time>
      </trkpt>
      <trkpt lat="35.9559154" lon="120.2131951">
        <time>2020-06-14T13:35:10.005000Z</time>
      </trkpt>
      <trkpt lat="35.95586913" lon="120.21331777">
        <time>2020-06-14T13:35:14.023000Z</time>
      </trkpt>
      <trkpt lat="35.9558032" lon="120.21343644">
        <time>2020-06-14T13:35:17.995000Z</time>
      </trkpt>
      <trkpt lat="35.9557046" lon="120.213513">
        <time>2020-06-14T13:35:22.007000Z</time>
      </trkpt>
      <trkpt lat="35.95559935" lon="120.21351213">
        <time>2020-06-14T13:35:25.993000Z</time>
      </trkpt>
      <trkpt lat="35.95548834" lon="120.21354105">
        <time>2020-06-14T13:35:30.036000Z</time>
      </trkpt>
      <trkpt lat="35.95538132" lon="120.21356729">
        <time>2020-06-14T13:35:33.998000Z</time>
      </trkpt>
      <trkpt lat="35.95526664" lon="120.21359908">
        <time>2020-06-14T13:35:38.010000Z</time>
      </trkpt>
      <trkpt lat="35.95517792" lon="120.21364436">
        <time>2020-06-14T13:35:41.010000Z</time>
      </trkpt>
      <trkpt lat="35.9550733" lon="120.21368093">
        <time>2020-06-14T13:35:44.999000Z</time>
      </trkpt>
      <trkpt lat="35.95496485" lon="120.21370961">
        <time>2020-06-14T13:35:49.005000Z</time>
      </trkpt>
      <trkpt lat="35.95485488" lon="120.2137349">
        <time>2020-06-14T13:35:53.018000Z</time>
      </trkpt>
      <trkpt lat="35.95474402" lon="120.21374831">
        <time>2020-06-14T13:35:57.011000Z</time>
      </trkpt>
      <trkpt lat="35.95464063" lon="120.21377341">
        <time>2020-06-14T13:36:01.005000Z</time>
      </trkpt>
      <trkpt lat="35.95452963" lon="120.21379988">
        <time>2020-06-14T13:36:05.001000Z</time>
      </trkpt>
      <trkpt lat="35.95441628" lon="120.21383114">
        <time>2020-06-14T13:36:09.010000Z</time>
      </trkpt>
      <trkpt lat="35.95431073" lon="120.21385314">
        <time>2020-06-14T13:36:12.999000Z</time>
      </trkpt>
      <trkpt lat="35.95420282" lon="120.21387196">
        <time>2020-06-14T13:36:17.003000Z</time>
      </trkpt>
      <trkpt lat="35.9541001" lon="120.21388811">
        <time>2020-06-14T13:36:21.004000Z</time>
      </trkpt>
      <trkpt lat="35.9539977" lon="120.21390666">
        <time>2020-06-14T13:36:25.002000Z</time>
      </trkpt>
      <trkpt lat="35.95388886" lon="120.21391808">
        <time>2020-06-14T13:36:29.001000Z</time>
      </trkpt>
      <trkpt lat="35.95379981" lon="120.21394042">
        <time>2020-06-14T13:36:31.989000Z</time>
      </trkpt>
      <trkpt lat="35.95370537" lon="120.21396188">
        <time>2020-06-14T13:36:36.005000Z</time>
      </trkpt>
      <trkpt lat="35.9536034" lon="120.21398157">
        <time>2020-06-14T13:36:40.002000Z</time>
      </trkpt>
      <trkpt lat="35.95349624" lon="120.21403305">
        <time>2020-06-14T13:36:44.001000Z</time>
      </trkpt>
      <trkpt lat="35.95338268" lon="120.21406827">
        <time>2020-06-14T13:36:47.994000Z</time>
      </trkpt>
      <trkpt lat="35.9532703" lon="120.21406552">
        <time>2020-06-14T13:36:52Z</time>
      </trkpt>
      <trkpt lat="35.95317136" lon="120.21401746">
        <time>2020-06-14T13:36:56Z</time>
      </trkpt>
      <trkpt lat="35.95306643" lon="120.21397509">
        <time>2020-06-14T13:37:00Z</time>
      </trkpt>
      <trkpt lat="35.95296817" lon="120.21389879">
        <time>2020-06-14T13:37:04.029000Z</time>
      </trkpt>
      <trkpt lat="35.95287216" lon="120.21384612">
        <time>2020-06-14T13:37:08.006000Z</time>
      </trkpt>
      <trkpt lat="35.95278698" lon="120.2137715">
        <time>2020-06-14T13:37:11.995000Z</time>
      </trkpt>
      <trkpt lat="35.95276461" lon="120.213653">
        <time>2020-06-14T13:37:16.009000Z</time>
      </trkpt>
      <trkpt lat="35.95274771" lon="120.21352194">
        <time>2020-06-14T13:37:20.002000Z</time>
      </trkpt>
      <trkpt lat="35.95272052" lon="120.21341425">
        <time>2020-06-14T13:37:23.004000Z</time>
      </trkpt>
      <trkpt lat="35.95269025" lon="120.21330232">
        <time>2020-06-14T13:37:26.003000Z</time>
      </trkpt>
      <trkpt lat="35.95265247" lon="120.21316606">
        <time>2020-06-14T13:37:30.008000Z</time>
      </trkpt>
      <trkpt lat="35.95262419" lon="120.21302803">
        <time>2020-06-14T13:37:34Z</time>
      </trkpt>
      <trkpt lat="35.95260046" lon="120.2128949">
        <time>2020-06-14T13:37:38.007000Z</time>
      </trkpt>
      <trkpt lat="35.95258262" lon="120.21277411">
        <time>2020-06-14T13:37:42.007000Z</time>
      </trkpt>
      <trkpt lat="35.95257238" lon="120.21265547">
        <time>2020-06-14T13:37:46.008000Z</time>
      </trkpt>
      <trkpt lat="35.9525503" lon="120.21253188">
        <time>2020-06-14T13:37:49.994000Z</time>
      </trkpt>
      <trkpt lat="35.95251486" lon="120.21240545">
        <time>2020-06-14T13:37:54.008000Z</time>
      </trkpt>
      <trkpt lat="35.9524901" lon="120.21228097">
        <time>2020-06-14T13:37:58.023000Z</time>
      </trkpt>
      <trkpt lat="35.95245933" lon="120.21216799">
        <time>2020-06-14T13:38:02.010000Z</time>
      </trkpt>
      <trkpt lat="35.95242019" lon="120.21205218">
        <time>2020-06-14T13:38:06.001000Z</time>
      </trkpt>
      <trkpt lat="35.95237196" lon="120.21192732">
        <time>2020-06-14T13:38:09.985000Z</time>
      </trkpt>
      <trkpt lat="35.95233972" lon="120.21182263">
        <time>2020-06-14T13:38:13.005000Z</time>
      </trkpt>
      <trkpt lat="35.95231434" lon="120.21169284">
        <time>2020-06-14T13:38:17.005000Z</time>
      </trkpt>
      <trkpt lat="35.95231133" lon="120.21155934">
        <time>2020-06-14T13:38:21.009000Z</time>
      </trkpt>
      <trkpt lat="35.95228802" lon="120.2114221">
        <time>2020-06-14T13:38:25Z</time>
      </trkpt>
      <trkpt lat="35.95226914" lon="120.21127929">
        <time>2020-06-14T13:38:29.004000Z</time>
      </trkpt>
      <trkpt lat="35.95224907" lon="120.2111698">
        <time>2020-06-14T13:38:32.002000Z</time>
      </trkpt>
      <trkpt lat="35.95223096" lon="120.21103522">
        <time>2020-06-14T13:38:36.009000Z</time>
      </trkpt>
      <trkpt lat="35.95219314" lon="120.2109093">
        <time>2020-06-14T13:38:40.006000Z</time>
      </trkpt>
      <trkpt lat="35.95217774" lon="120.21077387">
        <time>2020-06-14T13:38:44.011000Z</time>
      </trkpt>
      <trkpt lat="35.95214792" lon="120.21065073">
        <time>2020-06-14T13:38:48.002000Z</time>
      </trkpt>
      <trkpt lat="35.95210403" lon="120.21052061">
        <time>2020-06-14T13:38:52.004000Z</time>
      </trkpt>
      <trkpt lat="35.95207817" lon="120.21040504">
        <time>2020-06-14T13:38:56.015000Z</time>
      </trkpt>
      <trkpt lat="35.95207817" lon="120.21040504">
        <time>2020-06-14T13:38:59.003000Z</time>
      </trkpt>
      <trkpt lat="35.95207817" lon="120.21040504">
        <time>2020-06-14T13:39:26.998000Z</time>
      </trkpt>
      <trkpt lat="35.95198079" lon="120.21041683">
        <time>2020-06-14T13:39:27.004000Z</time>
      </trkpt>
      <trkpt lat="35.95187876" lon="120.21044628">
        <time>2020-06-14T13:39:31.006000Z</time>
      </trkpt>
      <trkpt lat="35.95178786" lon="120.21048673">
        <time>2020-06-14T13:39:36.001000Z</time>
      </trkpt>
      <trkpt lat="35.9516918" lon="120.21056377">
        <time>2020-06-14T13:39:41.007000Z</time>
      </trkpt>
      <trkpt lat="35.95160739" lon="120.21065201">
        <time>2020-06-14T13:39:45.003000Z</time>
      </trkpt>
      <trkpt lat="35.9515129" lon="120.210691">
        <time>2020-06-14T13:39:49.042000Z</time>
      </trkpt>
      <trkpt lat="35.95141244" lon="120.21071704">
        <time>2020-06-14T13:39:53.002000Z</time>
      </trkpt>
      <trkpt lat="35.95130511" lon="120.21075334">
        <time>2020-06-14T13:39:57.006000Z</time>
      </trkpt>
      <trkpt lat="35.95121599" lon="120.21077574">
        <time>2020-06-14T13:40:00.029000Z</time>
      </trkpt>
      <trkpt lat="35.95112162" lon="120.21080317">
        <time>2020-06-14T13:40:03.001000Z</time>
      </trkpt>
      <trkpt lat="35.9510328" lon="120.21082126">
        <time>2020-06-14T13:40:06.001000Z</time>
      </trkpt>
      <trkpt lat="35.95091755" lon="120.21085056">
        <time>2020-06-14T13:40:09.989000Z</time>
      </trkpt>
      <trkpt lat="35.95081708" lon="120.21090583">
        <time>2020-06-14T13:40:14.005000Z</time>
      </trkpt>
      <trkpt lat="35.95070992" lon="120.21092929">
        <time>2020-06-14T13:40:18.006000Z</time>
      </trkpt>
      <trkpt lat="35.95060284" lon="120.21091984">
        <time>2020-06-14T13:40:22.043000Z</time>
      </trkpt>
      <trkpt lat="35.95050496" lon="120.21096147">
        <time>2020-06-14T13:40:26.008000Z</time>
      </trkpt>
      <trkpt lat="35.95039356" lon="120.21098626">
        <time>2020-06-14T13:40:30.010000Z</time>
      </trkpt>
      <trkpt lat="35.95029071" lon="120.21098327">
        <time>2020-06-14T13:40:34.002000Z</time>
      </trkpt>
      <trkpt lat="35.95019481" lon="120.21100414">
        <time>2020-06-14T13:40:38.003000Z</time>
      </trkpt>
      <trkpt lat="35.95009268" lon="120.21102336">
        <time>2020-06-14T13:40:42.003000Z</time>
      </trkpt>
      <trkpt lat="35.94998402" lon="120.21107342">
        <time>2020-06-14T13:40:46.012000Z</time>
      </trkpt>
      <trkpt lat="35.9498767" lon="120.21109778">
        <time>2020-06-14T13:40:50.003000Z</time>
      </trkpt>
      <trkpt lat="35.94976594" lon="120.21113164">
        <time>2020-06-14T13:40:54.033000Z</time>
      </trkpt>
      <trkpt lat="35.94966287" lon="120.2111501">
        <time>2020-06-14T13:40:59.010000Z</time>
      </trkpt>
      <trkpt lat="35.94955657" lon="120.21118804">
        <time>2020-06-14T13:41:03.001000Z</time>
      </trkpt>
      <trkpt lat="35.94944389" lon="120.21122571">
        <time>2020-06-14T13:41:07Z</time>
      </trkpt>
      <trkpt lat="35.94933091" lon="120.21124522">
        <time>2020-06-14T13:41:11.010000Z</time>
      </trkpt>
      <trkpt lat="35.94924064" lon="120.21128502">
        <time>2020-06-14T13:41:14.006000Z</time>
      </trkpt>
      <trkpt lat="35.94914541" lon="120.21132363">
        <time>2020-06-14T13:41:17.013000Z</time>
      </trkpt>
      <trkpt lat="35.94905231" lon="120.21138749">
        <time>2020-06-14T13:41:20.009000Z</time>
      </trkpt>
      <trkpt lat="35.94894752" lon="120.2114172">
        <time>2020-06-14T13:41:23.023000Z</time>
      </trkpt>
      <trkpt lat="35.948841" lon="120.21143952">
        <time>2020-06-14T13:41:26.001000Z</time>
      </trkpt>
      <trkpt lat="35.94873389" lon="120.2114614">
        <time>2020-06-14T13:41:29.006000Z</time>
      </trkpt>
      <trkpt lat="35.94861427" lon="120.21147005">
        <time>2020-06-14T13:41:33.003000Z</time>
      </trkpt>
      <trkpt lat="35.94849694" lon="120.21148596">
        <time>2020-06-14T13:41:37.007000Z</time>
      </trkpt>
      <trkpt lat="35.94839894" lon="120.21149022">
        <time>2020-06-14T13:41:40.007000Z</time>
      </trkpt>
      <trkpt lat="35.94828396" lon="120.21148947">
        <time>2020-06-14T13:41:44.002000Z</time>
      </trkpt>
      <trkpt lat="35.94818425" lon="120.21151958">
        <time>2020-06-14T13:41:48Z</time>
      </trkpt>
      <trkpt lat="35.94807974" lon="120.21156259">
        <time>2020-06-14T13:41:52.001000Z</time>
      </trkpt>
      <trkpt lat="35.94797907" lon="120.21158289">
        <time>2020-06-14T13:41:56.014000Z</time>
      </trkpt>
      <trkpt lat="35.94786363" lon="120.21159819">
        <time>2020-06-14T13:42:00.015000Z</time>
      </trkpt>
      <trkpt lat="35.94775364" lon="120.21162275">
        <time>2020-06-14T13:42:03.987000Z</time>
      </trkpt>
      <trkpt lat="35.9476448" lon="120.21164775">
        <time>2020-06-14T13:42:07.988000Z</time>
      </trkpt>
      <trkpt lat="35.94753493" lon="120.21165929">
        <time>2020-06-14T13:42:12.005000Z</time>
      </trkpt>
      <trkpt lat="35.9474292" lon="120.21167958">
        <time>2020-06-14T13:42:16.036000Z</time>
      </trkpt>
      <trkpt lat="35.94731585" lon="120.21169626">
        <time>2020-06-14T13:42:20Z</time>
      </trkpt>
      <trkpt lat="35.94720759" lon="120.21171702">
        <time>2020-06-14T13:42:24.018000Z</time>
      </trkpt>
      <trkpt lat="35.94709629" lon="120.211738">
        <time>2020-06-14T13:42:28.002000Z</time>
      </trkpt>
      <trkpt lat="35.94700816" lon="120.21176293">
        <time>2020-06-14T13:42:31.007000Z</time>
      </trkpt>
      <trkpt lat="35.94691608" lon="120.21177674">
        <time>2020-06-14T13:42:34.004000Z</time>
      </trkpt>
      <trkpt lat="35.94680055" lon="120.2118013">
        <time>2020-06-14T13:42:37.995000Z</time>
      </trkpt>
      <trkpt lat="35.94669544" lon="120.21183675">
        <time>2020-06-14T13:42:42.001000Z</time>
      </trkpt>
      <trkpt lat="35.94658479" lon="120.2118836">
        <time>2020-06-14T13:42:46Z</time>
      </trkpt>
      <trkpt lat="35.94650003" lon="120.21192249">
        <time>2020-06-14T13:42:49.005000Z</time>
      </trkpt>
      <trkpt lat="35.94638967" lon="120.21196468">
        <time>2020-06-14T13:42:53Z</time>
      </trkpt>
      <trkpt lat="35.94628763" lon="120.21202191">
        <time>2020-06-14T13:42:57.012000Z</time>
      </trkpt>
      <trkpt lat="35.94617642" lon="120.21205608">
        <time>2020-06-14T13:43:01.003000Z</time>
      </trkpt>
      <trkpt lat="35.94607281" lon="120.21208589">
        <time>2020-06-14T13:43:05.034000Z</time>
      </trkpt>
      <trkpt lat="35.94596262" lon="120.21211453">
        <time>2020-06-14T13:43:09.005000Z</time>
      </trkpt>
      <trkpt lat="35.94586368" lon="120.21215999">
        <time>2020-06-14T13:43:13.005000Z</time>
      </trkpt>
      <trkpt lat="35.94576293" lon="120.21218059">
        <time>2020-06-14T13:43:17.002000Z</time>
      </trkpt>
      <trkpt lat="35.9456572" lon="120.21221191">
        <time>2020-06-14T13:43:21.007000Z</time>
      </trkpt>
      <trkpt lat="35.94555018" lon="120.21225084">
        <time>2020-06-14T13:43:25.003000Z</time>
      </trkpt>
      <trkpt lat="35.945453" lon="120.21231888">
        <time>2020-06-14T13:43:29.016000Z</time>
      </trkpt>
      <trkpt lat="35.94536356" lon="120.21235411">
        <time>2020-06-14T13:43:33.010000Z</time>
      </trkpt>
      <trkpt lat="35.94526397" lon="120.21240916">
        <time>2020-06-14T13:43:37Z</time>
      </trkpt>
      <trkpt lat="35.94516236" lon="120.21245841">
        <time>2020-06-14T13:43:41.007000Z</time>
      </trkpt>
      <trkpt lat="35.94505155" lon="120.21250858">
        <time>2020-06-14T13:43:45.007000Z</time>
      </trkpt>
      <trkpt lat="35.94495725" lon="120.21256029">
        <time>2020-06-14T13:43:48.989000Z</time>
      </trkpt>
      <trkpt lat="35.94486539" lon="120.21259841">
        <time>2020-06-14T13:43:53.003000Z</time>
      </trkpt>
      <trkpt lat="35.94475939" lon="120.21263956">
        <time>2020-06-14T13:43:56.985000Z</time>
      </trkpt>
      <trkpt lat="35.94465835" lon="120.21268529">
        <time>2020-06-14T13:44:01.009000Z</time>
      </trkpt>
      <trkpt lat="35.94455211" lon="120.21272876">
        <time>2020-06-14T13:44:05.017000Z</time>
      </trkpt>
      <trkpt lat="35.94444846" lon="120.21279799">
        <time>2020-06-14T13:44:09.018000Z</time>
      </trkpt>
      <trkpt lat="35.94435198" lon="120.21285038">
        <time>2020-06-14T13:44:13.006000Z</time>
      </trkpt>
      <trkpt lat="35.94426683" lon="120.212894">
        <time>2020-06-14T13:44:16.006000Z</time>
      </trkpt>
      <trkpt lat="35.94416495" lon="120.21293652">
        <time>2020-06-14T13:44:20.008000Z</time>
      </trkpt>
      <trkpt lat="35.94407472" lon="120.21299967">
        <time>2020-06-14T13:44:24.002000Z</time>
      </trkpt>
      <trkpt lat="35.94398577" lon="120.2130691">
        <time>2020-06-14T13:44:28.004000Z</time>
      </trkpt>
      <trkpt lat="35.94388936" lon="120.21311858">
        <time>2020-06-14T13:44:31.988000Z</time>
      </trkpt>
      <trkpt lat="35.9437953" lon="120.21310089">
        <time>2020-06-14T13:44:36.002000Z</time>
      </trkpt>
      <trkpt lat="35.94373775" lon="120.21299793">
        <time>2020-06-14T13:44:40.001000Z</time>
      </trkpt>
      <trkpt lat="35.9436793" lon="120.21287677">
        <time>2020-06-14T13:44:44.010000Z</time>
      </trkpt>
      <trkpt lat="35.94362307" lon="120.21275239">
        <time>2020-06-14T13:44:48.003000Z</time>
      </trkpt>
      <trkpt lat="35.9435547" lon="120.21264049">
        <time>2020-06-14T13:44:52.006000Z</time>
      </trkpt>
      <trkpt lat="35.94347426" lon="120.2125359">
        <time>2020-06-14T13:44:56.006000Z</time>
      </trkpt>
      <trkpt lat="35.94337146" lon="120.21246475">
        <time>2020-06-14T13:45:00.010000Z</time>
      </trkpt>
      <trkpt lat="35.9433223" lon="120.21235143">
        <time>2020-06-14T13:45:03.989000Z</time>
      </trkpt>
      <trkpt lat="35.94329236" lon="120.21224533">
        <time>2020-06-14T13:45:07.002000Z</time>
      </trkpt>
      <trkpt lat="35.94324619" lon="120.21212022">
        <time>2020-06-14T13:45:11.990000Z</time>
      </trkpt>
      <trkpt lat="35.94319697" lon="120.21201871">
        <time>2020-06-14T13:45:15.995000Z</time>
      </trkpt>
      <trkpt lat="35.94312706" lon="120.21191412">
        <time>2020-06-14T13:45:19.989000Z</time>
      </trkpt>
      <trkpt lat="35.94306771" lon="120.21179563">
        <time>2020-06-14T13:45:23.989000Z</time>
      </trkpt>
      <trkpt lat="35.94302017" lon="120.21169546">
        <time>2020-06-14T13:45:27.006000Z</time>
      </trkpt>
      <trkpt lat="35.94296996" lon="120.21160178">
        <time>2020-06-14T13:45:30.003000Z</time>
      </trkpt>
      <trkpt lat="35.94290083" lon="120.2115024">
        <time>2020-06-14T13:45:33.999000Z</time>
      </trkpt>
      <trkpt lat="35.942837" lon="120.21140599">
        <time>2020-06-14T13:45:38.001000Z</time>
      </trkpt>
      <trkpt lat="35.94275055" lon="120.21131229">
        <time>2020-06-14T13:45:42.001000Z</time>
      </trkpt>
      <trkpt lat="35.9426964" lon="120.21119028">
        <time>2020-06-14T13:45:46.004000Z</time>
      </trkpt>
      <trkpt lat="35.94264548" lon="120.21106401">
        <time>2020-06-14T13:45:50.004000Z</time>
      </trkpt>
      <trkpt lat="35.94257229" lon="120.21095964">
        <time>2020-06-14T13:45:53.985000Z</time>
      </trkpt>
      <trkpt lat="35.94251408" lon="120.21085873">
        <time>2020-06-14T13:45:58.005000Z</time>
      </trkpt>
      <trkpt lat="35.94245856" lon="120.21074202">
        <time>2020-06-14T13:46:02.004000Z</time>
      </trkpt>
      <trkpt lat="35.94238512" lon="120.21063528">
        <time>2020-06-14T13:46:05.986000Z</time>
      </trkpt>
      <trkpt lat="35.94232669" lon="120.21052201">
        <time>2020-06-14T13:46:10.003000Z</time>
      </trkpt>
      <trkpt lat="35.94225812" lon="120.21041323">
        <time>2020-06-14T13:46:14.005000Z</time>
      </trkpt>
      <trkpt lat="35.94220003" lon="120.21029664">
        <time>2020-06-14T13:46:18.010000Z</time>
      </trkpt>
      <trkpt lat="35.94214115" lon="120.21018738">
        <time>2020-06-14T13:46:22.001000Z</time>
      </trkpt>
      <trkpt lat="35.94207659" lon="120.21008547">
        <time>2020-06-14T13:46:26.001000Z</time>
      </trkpt>
      <trkpt lat="35.94201071" lon="120.20998259">
        <time>2020-06-14T13:46:30.006000Z</time>
      </trkpt>
      <trkpt lat="35.94194761" lon="120.20988272">
        <time>2020-06-14T13:46:33.987000Z</time>
      </trkpt>
      <trkpt lat="35.94188557" lon="120.20977423">
        <time>2020-06-14T13:46:37.993000Z</time>
      </trkpt>
      <trkpt lat="35.94182419" lon="120.2096608">
        <time>2020-06-14T13:46:42.018000Z</time>
      </trkpt>
      <trkpt lat="35.94175529" lon="120.2095505">
        <time>2020-06-14T13:46:46.001000Z</time>
      </trkpt>
      <trkpt lat="35.94171739" lon="120.20941532">
        <time>2020-06-14T13:46:49.994000Z</time>
      </trkpt>
      <trkpt lat="35.94176622" lon="120.20929726">
        <time>2020-06-14T13:46:54.004000Z</time>
      </trkpt>
      <trkpt lat="35.94185849" lon="120.20925935">
        <time>2020-06-14T13:46:57.006000Z</time>
      </trkpt>
      <trkpt lat="35.94195152" lon="120.2092489">
        <time>2020-06-14T13:46:59.999000Z</time>
      </trkpt>
      <trkpt lat="35.94206544" lon="120.20922864">
        <time>2020-06-14T13:47:04.040000Z</time>
      </trkpt>
      <trkpt lat="35.94216686" lon="120.20920279">
        <time>2020-06-14T13:47:08.005000Z</time>
      </trkpt>
      <trkpt lat="35.94226844" lon="120.20916233">
        <time>2020-06-14T13:47:12.002000Z</time>
      </trkpt>
      <trkpt lat="35.94237114" lon="120.2091261">
        <time>2020-06-14T13:47:16.005000Z</time>
      </trkpt>
      <trkpt lat="35.94246404" lon="120.20905482">
        <time>2020-06-14T13:47:20.001000Z</time>
      </trkpt>
      <trkpt lat="35.94256454" lon="120.20901293">
        <time>2020-06-14T13:47:24.007000Z</time>
      </trkpt>
      <trkpt lat="35.94266754" lon="120.20896504">
        <time>2020-06-14T13:47:28.011000Z</time>
      </trkpt>
      <trkpt lat="35.94277778" lon="120.20893688">
        <time>2020-06-14T13:47:32Z</time>
      </trkpt>
      <trkpt lat="35.94288456" lon="120.20892765">
        <time>2020-06-14T13:47:36.007000Z</time>
      </trkpt>
      <trkpt lat="35.9429904" lon="120.20891823">
        <time>2020-06-14T13:47:40.004000Z</time>
      </trkpt>
      <trkpt lat="35.94309068" lon="120.20890535">
        <time>2020-06-14T13:47:44.006000Z</time>
      </trkpt>
      <trkpt lat="35.94319594" lon="120.20888977">
        <time>2020-06-14T13:47:48.012000Z</time>
      </trkpt>
      <trkpt lat="35.9433024" lon="120.20886307">
        <time>2020-06-14T13:47:52.007000Z</time>
      </trkpt>
      <trkpt lat="35.94340393" lon="120.20883029">
        <time>2020-06-14T13:47:56.005000Z</time>
      </trkpt>
      <trkpt lat="35.94350495" lon="120.20878472">
        <time>2020-06-14T13:48:00Z</time>
      </trkpt>
      <trkpt lat="35.94360309" lon="120.20875294">
        <time>2020-06-14T13:48:04.003000Z</time>
      </trkpt>
      <trkpt lat="35.94370903" lon="120.20871749">
        <time>2020-06-14T13:48:08.006000Z</time>
      </trkpt>
      <trkpt lat="35.94381502" lon="120.20871621">
        <time>2020-06-14T13:48:11.999000Z</time>
      </trkpt>
      <trkpt lat="35.94391416" lon="120.20873952">
        <time>2020-06-14T13:48:16.008000Z</time>
      </trkpt>
      <trkpt lat="35.94400471" lon="120.2087945">
        <time>2020-06-14T13:48:20.044000Z</time>
      </trkpt>
      <trkpt lat="35.94409591" lon="120.20885408">
        <time>2020-06-14T13:48:24.004000Z</time>
      </trkpt>
      <trkpt lat="35.94419023" lon="120.20890316">
        <time>2020-06-14T13:48:27.984000Z</time>
      </trkpt>
      <trkpt lat="35.94428364" lon="120.20892593">
        <time>2020-06-14T13:48:32.001000Z</time>
      </trkpt>
      <trkpt lat="35.94440165" lon="120.20891323">
        <time>2020-06-14T13:48:36.005000Z</time>
      </trkpt>
      <trkpt lat="35.94449403" lon="120.20889929">
        <time>2020-06-14T13:48:39.027000Z</time>
      </trkpt>
      <trkpt lat="35.94458569" lon="120.20888357">
        <time>2020-06-14T13:48:42.001000Z</time>
      </trkpt>
      <trkpt lat="35.94469269" lon="120.20885143">
        <time>2020-06-14T13:48:46.007000Z</time>
      </trkpt>
      <trkpt lat="35.94480112" lon="120.20881802">
        <time>2020-06-14T13:48:50.026000Z</time>
      </trkpt>
      <trkpt lat="35.9449094" lon="120.2087957">
        <time>2020-06-14T13:48:54Z</time>
      </trkpt>
      <trkpt lat="35.94500742" lon="120.20877736">
        <time>2020-06-14T13:48:58.003000Z</time>
      </trkpt>
      <trkpt lat="35.94510571" lon="120.20876476">
        <time>2020-06-14T13:49:02.002000Z</time>
      </trkpt>
      <trkpt lat="35.94519576" lon="120.20875603">
        <time>2020-06-14T13:49:06.010000Z</time>
      </trkpt>
      <trkpt lat="35.94529623" lon="120.20874597">
        <time>2020-06-14T13:49:10.001000Z</time>
      </trkpt>
      <trkpt lat="35.9453985" lon="120.20873301">
        <time>2020-06-14T13:49:14.008000Z</time>
      </trkpt>
      <trkpt lat="35.94549964" lon="120.20872777">
        <time>2020-06-14T13:49:18.004000Z</time>
      </trkpt>
      <trkpt lat="35.94560664" lon="120.20872878">
        <time>2020-06-14T13:49:22.007000Z</time>
      </trkpt>
      <trkpt lat="35.94571523" lon="120.2087275">
        <time>2020-06-14T13:49:26.019000Z</time>
      </trkpt>
      <trkpt lat="35.94582335" lon="120.2087055">
        <time>2020-06-14T13:49:29.991000Z</time>
      </trkpt>
      <trkpt lat="35.94593117" lon="120.20869921">
        <time>2020-06-14T13:49:34.018000Z</time>
      </trkpt>
      <trkpt lat="35.94603992" lon="120.20869418">
        <time>2020-06-14T13:49:38.003000Z</time>
      </trkpt>
      <trkpt lat="35.94614377" lon="120.20867521">
        <time>2020-06-14T13:49:41.993000Z</time>
      </trkpt>
      <trkpt lat="35.9462527" lon="120.208662">
        <time>2020-06-14T13:49:46.008000Z</time>
      </trkpt>
      <trkpt lat="35.94636174" lon="120.20863827">
        <time>2020-06-14T13:49:50.004000Z</time>
      </trkpt>
      <trkpt lat="35.94646492" lon="120.20862326">
        <time>2020-06-14T13:49:54.002000Z</time>
      </trkpt>
      <trkpt lat="35.94657184" lon="120.20860792">
        <time>2020-06-14T13:49:58.008000Z</time>
      </trkpt>
      <trkpt lat="35.94668278" lon="120.20859597">
        <time>2020-06-14T13:50:01.992000Z</time>
      </trkpt>
      <trkpt lat="35.94679171" lon="120.20858408">
        <time>2020-06-14T13:50:06.005000Z</time>
      </trkpt>
      <trkpt lat="35.94689521" lon="120.20856916">
        <time>2020-06-14T13:50:10.014000Z</time>
      </trkpt>
      <trkpt lat="35.94700529" lon="120.20855631">
        <time>2020-06-14T13:50:14.006000Z</time>
      </trkpt>
      <trkpt lat="35.94705685" lon="120.20843119">
        <time>2020-06-14T13:50:19.008000Z</time>
      </trkpt>
      <trkpt lat="35.94705268" lon="120.20830806">
        <time>2020-06-14T13:50:23.007000Z</time>
      </trkpt>
      <trkpt lat="35.94704287" lon="120.20819057">
        <time>2020-06-14T13:50:27.989000Z</time>
      </trkpt>
      <trkpt lat="35.94702949" lon="120.20807103">
        <time>2020-06-14T13:50:32.003000Z</time>
      </trkpt>
      <trkpt lat="35.94701434" lon="120.2079401">
        <time>2020-06-14T13:50:36.005000Z</time>
      </trkpt>
      <trkpt lat="35.94701002" lon="120.20781538">
        <time>2020-06-14T13:50:40.007000Z</time>
      </trkpt>
      <trkpt lat="35.94699981" lon="120.2076846">
        <time>2020-06-14T13:50:44.013000Z</time>
      </trkpt>
      <trkpt lat="35.94698989" lon="120.20755514">
        <time>2020-06-14T13:50:48.007000Z</time>
      </trkpt>
      <trkpt lat="35.94696355" lon="120.20741871">
        <time>2020-06-14T13:50:52.004000Z</time>
      </trkpt>
      <trkpt lat="35.9469454" lon="120.20728418">
        <time>2020-06-14T13:50:56.010000Z</time>
      </trkpt>
      <trkpt lat="35.94694935" lon="120.20715042">
        <time>2020-06-14T13:51:00.007000Z</time>
      </trkpt>
      <trkpt lat="35.94699724" lon="120.20702754">
        <time>2020-06-14T13:51:04.012000Z</time>
      </trkpt>
      <trkpt lat="35.94705136" lon="120.2069157">
        <time>2020-06-14T13:51:08.008000Z</time>
      </trkpt>
      <trkpt lat="35.94710619" lon="120.20680554">
        <time>2020-06-14T13:51:12.007000Z</time>
      </trkpt>
      <trkpt lat="35.94714705" lon="120.20669268">
        <time>2020-06-14T13:51:16.007000Z</time>
      </trkpt>
      <trkpt lat="35.94719001" lon="120.20657185">
        <time>2020-06-14T13:51:20.005000Z</time>
      </trkpt>
      <trkpt lat="35.94723154" lon="120.20645792">
        <time>2020-06-14T13:51:24.006000Z</time>
      </trkpt>
      <trkpt lat="35.94729186" lon="120.20635472">
        <time>2020-06-14T13:51:27.989000Z</time>
      </trkpt>
      <trkpt lat="35.94734674" lon="120.2062446">
        <time>2020-06-14T13:51:32.013000Z</time>
      </trkpt>
      <trkpt lat="35.94739491" lon="120.2061334">
        <time>2020-06-14T13:51:36.001000Z</time>
      </trkpt>
      <trkpt lat="35.94743689" lon="120.2060227">
        <time>2020-06-14T13:51:39.998000Z</time>
      </trkpt>
      <trkpt lat="35.94748017" lon="120.20591263">
        <time>2020-06-14T13:51:44.004000Z</time>
      </trkpt>
      <trkpt lat="35.94752458" lon="120.20579992">
        <time>2020-06-14T13:51:48.023000Z</time>
      </trkpt>
      <trkpt lat="35.94756994" lon="120.20568643">
        <time>2020-06-14T13:51:52.010000Z</time>
      </trkpt>
      <trkpt lat="35.94762029" lon="120.20556801">
        <time>2020-06-14T13:51:56.003000Z</time>
      </trkpt>
      <trkpt lat="35.94767053" lon="120.20544249">
        <time>2020-06-14T13:51:59.994000Z</time>
      </trkpt>
      <trkpt lat="35.94770279" lon="120.20531316">
        <time>2020-06-14T13:52:04.011000Z</time>
      </trkpt>
      <trkpt lat="35.94775118" lon="120.20519351">
        <time>2020-06-14T13:52:08.016000Z</time>
      </trkpt>
      <trkpt lat="35.94780483" lon="120.20507913">
        <time>2020-06-14T13:52:11.996000Z</time>
      </trkpt>
      <trkpt lat="35.94785704" lon="120.20496459">
        <time>2020-06-14T13:52:16.004000Z</time>
      </trkpt>
      <trkpt lat="35.94788103" lon="120.20483672">
        <time>2020-06-14T13:52:20.012000Z</time>
      </trkpt>
      <trkpt lat="35.94787898" lon="120.20470355">
        <time>2020-06-14T13:52:24.006000Z</time>
      </trkpt>
      <trkpt lat="35.94789011" lon="120.20457399">
        <time>2020-06-14T13:52:28.008000Z</time>
      </trkpt>
      <trkpt lat="35.94788468" lon="120.20444761">
        <time>2020-06-14T13:52:31.998000Z</time>
      </trkpt>
      <trkpt lat="35.94787163" lon="120.20431857">
        <time>2020-06-14T13:52:36.002000Z</time>
      </trkpt>
      <trkpt lat="35.94786833" lon="120.20419703">
        <time>2020-06-14T13:52:40.008000Z</time>
      </trkpt>
      <trkpt lat="35.94797068" lon="120.20420347">
        <time>2020-06-14T13:52:44.005000Z</time>
      </trkpt>
      <trkpt lat="35.94805787" lon="120.20426369">
        <time>2020-06-14T13:52:47.003000Z</time>
      </trkpt>
      <trkpt lat="35.9481514" lon="120.20434854">
        <time>2020-06-14T13:52:51.001000Z</time>
      </trkpt>
      <trkpt lat="35.94823963" lon="120.20442608">
        <time>2020-06-14T13:52:55.002000Z</time>
      </trkpt>
      <trkpt lat="35.94832345" lon="120.20450339">
        <time>2020-06-14T13:52:59.006000Z</time>
      </trkpt>
      <trkpt lat="35.94839866" lon="120.20458674">
        <time>2020-06-14T13:53:03.010000Z</time>
      </trkpt>
      <trkpt lat="35.94847991" lon="120.20466973">
        <time>2020-06-14T13:53:07.003000Z</time>
      </trkpt>
      <trkpt lat="35.94856517" lon="120.20475323">
        <time>2020-06-14T13:53:10.995000Z</time>
      </trkpt>
      <trkpt lat="35.94864741" lon="120.20483099">
        <time>2020-06-14T13:53:15.028000Z</time>
      </trkpt>
      <trkpt lat="35.94872417" lon="120.20491832">
        <time>2020-06-14T13:53:19.001000Z</time>
      </trkpt>
      <trkpt lat="35.94879449" lon="120.20500118">
        <time>2020-06-14T13:53:23.002000Z</time>
      </trkpt>
      <trkpt lat="35.94887253" lon="120.20508012">
        <time>2020-06-14T13:53:27.001000Z</time>
      </trkpt>
      <trkpt lat="35.94895227" lon="120.20516232">
        <time>2020-06-14T13:53:30.995000Z</time>
      </trkpt>
      <trkpt lat="35.9490273" lon="120.20525227">
        <time>2020-06-14T13:53:35.014000Z</time>
      </trkpt>
      <trkpt lat="35.94910641" lon="120.20535127">
        <time>2020-06-14T13:53:39.008000Z</time>
      </trkpt>
      <trkpt lat="35.94918004" lon="120.20544454">
        <time>2020-06-14T13:53:43.011000Z</time>
      </trkpt>
      <trkpt lat="35.94925694" lon="120.20552778">
        <time>2020-06-14T13:53:47.012000Z</time>
      </trkpt>
      <trkpt lat="35.94932859" lon="120.20560893">
        <time>2020-06-14T13:53:51.008000Z</time>
      </trkpt>
      <trkpt lat="35.94941647" lon="120.20569948">
        <time>2020-06-14T13:53:56.001000Z</time>
      </trkpt>
      <trkpt lat="35.94949385" lon="120.20578828">
        <time>2020-06-14T13:54:00.003000Z</time>
      </trkpt>
      <trkpt lat="35.94957859" lon="120.20586851">
        <time>2020-06-14T13:54:04.004000Z</time>
      </trkpt>
      <trkpt lat="35.94966389" lon="120.20595719">
        <time>2020-06-14T13:54:08.005000Z</time>
      </trkpt>
      <trkpt lat="35.94975362" lon="120.20602207">
        <time>2020-06-14T13:54:11.989000Z</time>
      </trkpt>
      <trkpt lat="35.94984507" lon="120.20599097">
        <time>2020-06-14T13:54:16.006000Z</time>
      </trkpt>
      <trkpt lat="35.94994426" lon="120.20592751">
        <time>2020-06-14T13:54:20.005000Z</time>
      </trkpt>
      <trkpt lat="35.95004756" lon="120.20586789">
        <time>2020-06-14T13:54:24.005000Z</time>
      </trkpt>
      <trkpt lat="35.95015058" lon="120.20582167">
        <time>2020-06-14T13:54:28Z</time>
      </trkpt>
      <trkpt lat="35.95025048" lon="120.20576749">
        <time>2020-06-14T13:54:32.048000Z</time>
      </trkpt>
      <trkpt lat="35.95035908" lon="120.20572507">
        <time>2020-06-14T13:54:36Z</time>
      </trkpt>
      <trkpt lat="35.95046993" lon="120.20568967">
        <time>2020-06-14T13:54:40.007000Z</time>
      </trkpt>
      <trkpt lat="35.95055536" lon="120.20565365">
        <time>2020-06-14T13:54:43.036000Z</time>
      </trkpt>
      <trkpt lat="35.9506426" lon="120.20556898">
        <time>2020-06-14T13:54:47.012000Z</time>
      </trkpt>
      <trkpt lat="35.95066002" lon="120.20543833">
        <time>2020-06-14T13:54:51.008000Z</time>
      </trkpt>
      <trkpt lat="35.95064516" lon="120.20531554">
        <time>2020-06-14T13:54:55.010000Z</time>
      </trkpt>
      <trkpt lat="35.95062981" lon="120.20517798">
        <time>2020-06-14T13:54:59.007000Z</time>
      </trkpt>
      <trkpt lat="35.95060715" lon="120.20504301">
        <time>2020-06-14T13:55:03.004000Z</time>
      </trkpt>
      <trkpt lat="35.95057111" lon="120.20492899">
        <time>2020-06-14T13:55:07.002000Z</time>
      </trkpt>
      <trkpt lat="35.95057111" lon="120.20492899">
        <time>2020-06-14T13:55:12.003000Z</time>
      </trkpt>
      <trkpt lat="35.95057111" lon="120.20492899">
        <time>2020-06-14T13:55:58.003000Z</time>
      </trkpt>
      <trkpt lat="35.95057111" lon="120.20492899">
        <time>2020-06-14T13:55:58.016000Z</time>
      </trkpt>
      <trkpt lat="35.95067738" lon="120.20483011">
        <time>2020-06-14T13:56:00.003000Z</time>
      </trkpt>
      <trkpt lat="35.95075238" lon="120.2047644">
        <time>2020-06-14T13:56:04.013000Z</time>
      </trkpt>
      <trkpt lat="35.95075238" lon="120.2047644">
        <time>2020-06-14T13:56:07.986000Z</time>
      </trkpt>
      <trkpt lat="35.9508325" lon="120.20470485">
        <time>2020-06-14T13:56:09.987000Z</time>
      </trkpt>
      <trkpt lat="35.95091825" lon="120.20462993">
        <time>2020-06-14T13:56:18.036000Z</time>
      </trkpt>
      <trkpt lat="35.95091825" lon="120.20462993">
        <time>2020-06-14T13:56:20.193000Z</time>
      </trkpt>
      <trkpt lat="35.95101974" lon="120.20458357">
        <time>2020-06-14T13:56:21.997000Z</time>
      </trkpt>
      <trkpt lat="35.95112584" lon="120.20456248">
        <time>2020-06-14T13:56:26.045000Z</time>
      </trkpt>
      <trkpt lat="35.95123157" lon="120.20454746">
        <time>2020-06-14T13:56:30.002000Z</time>
      </trkpt>
      <trkpt lat="35.95134016" lon="120.20452724">
        <time>2020-06-14T13:56:34.010000Z</time>
      </trkpt>
      <trkpt lat="35.95145119" lon="120.2044889">
        <time>2020-06-14T13:56:38.008000Z</time>
      </trkpt>
      <trkpt lat="35.95156107" lon="120.20447975">
        <time>2020-06-14T13:56:42Z</time>
      </trkpt>
      <trkpt lat="35.95166537" lon="120.20445576">
        <time>2020-06-14T13:56:46.007000Z</time>
      </trkpt>
      <trkpt lat="35.95176883" lon="120.20443397">
        <time>2020-06-14T13:56:50.005000Z</time>
      </trkpt>
      <trkpt lat="35.95187158" lon="120.20441108">
        <time>2020-06-14T13:56:54.006000Z</time>
      </trkpt>
      <trkpt lat="35.9519692" lon="120.20438742">
        <time>2020-06-14T13:56:58.007000Z</time>
      </trkpt>
      <trkpt lat="35.95206485" lon="120.20437169">
        <time>2020-06-14T13:57:02.006000Z</time>
      </trkpt>
      <trkpt lat="35.95215761" lon="120.20435295">
        <time>2020-06-14T13:57:06.006000Z</time>
      </trkpt>
      <trkpt lat="35.95224904" lon="120.20436265">
        <time>2020-06-14T13:57:10.020000Z</time>
      </trkpt>
      <trkpt lat="35.95234098" lon="120.20432835">
        <time>2020-06-14T13:57:13.990000Z</time>
      </trkpt>
      <trkpt lat="35.95244383" lon="120.20430921">
        <time>2020-06-14T13:57:18.022000Z</time>
      </trkpt>
      <trkpt lat="35.9525332" lon="120.2042843">
        <time>2020-06-14T13:57:22.002000Z</time>
      </trkpt>
      <trkpt lat="35.95262144" lon="120.2042534">
        <time>2020-06-14T13:57:26.009000Z</time>
      </trkpt>
      <trkpt lat="35.9527156" lon="120.20424842">
        <time>2020-06-14T13:57:29.995000Z</time>
      </trkpt>
      <trkpt lat="35.9528167" lon="120.20426">
        <time>2020-06-14T13:57:34.025000Z</time>
      </trkpt>
      <trkpt lat="35.95292035" lon="120.20425702">
        <time>2020-06-14T13:57:38.010000Z</time>
      </trkpt>
      <trkpt lat="35.9530363" lon="120.20424914">
        <time>2020-06-14T13:57:42.010000Z</time>
      </trkpt>
      <trkpt lat="35.95314819" lon="120.20423392">
        <time>2020-06-14T13:57:46.008000Z</time>
      </trkpt>
      <trkpt lat="35.95325757" lon="120.20421835">
        <time>2020-06-14T13:57:50.005000Z</time>
      </trkpt>
      <trkpt lat="35.95336034" lon="120.2042059">
        <time>2020-06-14T13:57:54.002000Z</time>
      </trkpt>
      <trkpt lat="35.95345372" lon="120.20419259">
        <time>2020-06-14T13:57:58.013000Z</time>
      </trkpt>
      <trkpt lat="35.95355978" lon="120.20417786">
        <time>2020-06-14T13:58:02.002000Z</time>
      </trkpt>
      <trkpt lat="35.95366059" lon="120.20416518">
        <time>2020-06-14T13:58:06.024000Z</time>
      </trkpt>
      <trkpt lat="35.95366059" lon="120.20416518">
        <time>2020-06-14T13:58:08.999000Z</time>
      </trkpt>
      <trkpt lat="35.95376071" lon="120.20414189">
        <time>2020-06-14T13:58:12.016000Z</time>
      </trkpt>
      <trkpt lat="35.95385664" lon="120.20411992">
        <time>2020-06-14T13:58:18.002000Z</time>
      </trkpt>
      <trkpt lat="35.95385664" lon="120.20411992">
        <time>2020-06-14T13:58:19.291000Z</time>
      </trkpt>
      <trkpt lat="35.95395896" lon="120.20412325">
        <time>2020-06-14T13:58:22.013000Z</time>
      </trkpt>
      <trkpt lat="35.9540601" lon="120.20409634">
        <time>2020-06-14T13:58:26.018000Z</time>
      </trkpt>
      <trkpt lat="35.95416025" lon="120.20406971">
        <time>2020-06-14T13:58:29.999000Z</time>
      </trkpt>
      <trkpt lat="35.95425787" lon="120.20404773">
        <time>2020-06-14T13:58:34.006000Z</time>
      </trkpt>
      <trkpt lat="35.95435047" lon="120.20403917">
        <time>2020-06-14T13:58:38.010000Z</time>
      </trkpt>
      <trkpt lat="35.95444702" lon="120.20402491">
        <time>2020-06-14T13:58:42.049000Z</time>
      </trkpt>
      <trkpt lat="35.95453887" lon="120.20400304">
        <time>2020-06-14T13:58:46.020000Z</time>
      </trkpt>
      <trkpt lat="35.95464985" lon="120.20398114">
        <time>2020-06-14T13:58:51.021000Z</time>
      </trkpt>
      <trkpt lat="35.95474166" lon="120.20396496">
        <time>2020-06-14T13:58:55.008000Z</time>
      </trkpt>
      <trkpt lat="35.95483371" lon="120.20396271">
        <time>2020-06-14T13:58:59.012000Z</time>
      </trkpt>
      <trkpt lat="35.95492423" lon="120.20396635">
        <time>2020-06-14T13:59:02.997000Z</time>
      </trkpt>
      <trkpt lat="35.95503477" lon="120.20397976">
        <time>2020-06-14T13:59:08.001000Z</time>
      </trkpt>
      <trkpt lat="35.95513561" lon="120.20397896">
        <time>2020-06-14T13:59:12.005000Z</time>
      </trkpt>
      <trkpt lat="35.95523831" lon="120.20396415">
        <time>2020-06-14T13:59:16.006000Z</time>
      </trkpt>
      <trkpt lat="35.95533795" lon="120.20393136">
        <time>2020-06-14T13:59:20.006000Z</time>
      </trkpt>
      <trkpt lat="35.95543179" lon="120.20388419">
        <time>2020-06-14T13:59:24.010000Z</time>
      </trkpt>
      <trkpt lat="35.95553088" lon="120.20386241">
        <time>2020-06-14T13:59:28.001000Z</time>
      </trkpt>
      <trkpt lat="35.95561647" lon="120.20377212">
        <time>2020-06-14T13:59:33.005000Z</time>
      </trkpt>
      <trkpt lat="35.95572333" lon="120.20376385">
        <time>2020-06-14T13:59:37.006000Z</time>
      </trkpt>
      <trkpt lat="35.95583148" lon="120.20378706">
        <time>2020-06-14T13:59:41.021000Z</time>
      </trkpt>
      <trkpt lat="35.95593239" lon="120.20378956">
        <time>2020-06-14T13:59:45.007000Z</time>
      </trkpt>
      <trkpt lat="35.95603067" lon="120.20373977">
        <time>2020-06-14T13:59:50.003000Z</time>
      </trkpt>
      <trkpt lat="35.95612682" lon="120.20376577">
        <time>2020-06-14T13:59:56.018000Z</time>
      </trkpt>
      <trkpt lat="35.95612682" lon="120.20376577">
        <time>2020-06-14T14:00:00.009000Z</time>
      </trkpt>
      <trkpt lat="35.95621273" lon="120.20372713">
        <time>2020-06-14T14:00:02.009000Z</time>
      </trkpt>
      <trkpt lat="35.95632247" lon="120.20370423">
        <time>2020-06-14T14:00:07.002000Z</time>
      </trkpt>
      <trkpt lat="35.95632247" lon="120.20370423">
        <time>2020-06-14T14:00:10.002000Z</time>
      </trkpt>
      <trkpt lat="35.95642273" lon="120.20369687">
        <time>2020-06-14T14:00:11.007000Z</time>
      </trkpt>
      <trkpt lat="35.95653098" lon="120.2036886">
        <time>2020-06-14T14:00:15.010000Z</time>
      </trkpt>
      <trkpt lat="35.95663316" lon="120.20366805">
        <time>2020-06-14T14:00:19.008000Z</time>
      </trkpt>
    </trkseg>
  </trk>
</gpx>