<?xml version="1.0" encoding="UTF-8"?>
<gpx xmlns="http://www.topografix.com/GPX/1/1" xmlns:gpxtpx="http://www.garmin.com/xmlschemas/TrackPointExtension/v1" xmlns:xsi="http://www.w3.org/2001/XMLSchema-instance" xsi:schemaLocation="http://www.topografix.com/GPX/1/1 http://www.topografix.com/GPX/1/1/gpx.xsd" version="1.1" creator="gpx.py -- https://github.com/tkrajina/gpxpy">
  <trk>
    <name>Saturday Night Run</name>
    <trkseg>
      <trkpt lat="35.95687354" lon="120.20994869">
        <time>2020-06-27T13:04:40.783000Z</time>
      </trkpt>
      <trkpt lat="35.95688229" lon="120.20994748">
        <time>2020-06-27T13:04:40.838000Z</time>
      </trkpt>
      <trkpt lat="35.95697088" lon="120.2099249">
        <time>2020-06-27T13:04:48.822000Z</time>
      </trkpt>
      <trkpt lat="35.95707511" lon="120.20991875">
        <time>2020-06-27T13:04:54.837000Z</time>
      </trkpt>
      <trkpt lat="35.95707511" lon="120.20991875">
        <time>2020-06-27T13:04:57.775000Z</time>
      </trkpt>
      <trkpt lat="35.95718945" lon="120.20992024">
        <time>2020-06-27T13:04:59.828000Z</time>
      </trkpt>
      <trkpt lat="35.95728701" lon="120.20987136">
        <time>2020-06-27T13:05:03.846000Z</time>
      </trkpt>
      <trkpt lat="35.9573895" lon="120.20985454">
        <time>2020-06-27T13:05:07.843000Z</time>
      </trkpt>
      <trkpt lat="35.95749109" lon="120.20983085">
        <time>2020-06-27T13:05:12.842000Z</time>
      </trkpt>
      <trkpt lat="35.95759319" lon="120.20981242">
        <time>2020-06-27T13:05:16.844000Z</time>
      </trkpt>
      <trkpt lat="35.9576833" lon="120.20978179">
        <time>2020-06-27T13:05:20.853000Z</time>
      </trkpt>
      <trkpt lat="35.95775992" lon="120.20986032">
        <time>2020-06-27T13:05:25.877000Z</time>
      </trkpt>
      <trkpt lat="35.95778167" lon="120.20999153">
        <time>2020-06-27T13:05:29.846000Z</time>
      </trkpt>
      <trkpt lat="35.95784127" lon="120.2100775">
        <time>2020-06-27T13:05:33.829000Z</time>
      </trkpt>
      <trkpt lat="35.95784127" lon="120.2100775">
        <time>2020-06-27T13:05:35.543000Z</time>
      </trkpt>
      <trkpt lat="35.95786296" lon="120.21020105">
        <time>2020-06-27T13:05:40.829000Z</time>
      </trkpt>
      <trkpt lat="35.95788826" lon="120.21032004">
        <time>2020-06-27T13:05:47.843000Z</time>
      </trkpt>
      <trkpt lat="35.9579129" lon="120.21042899">
        <time>2020-06-27T13:05:55.817000Z</time>
      </trkpt>
      <trkpt lat="35.95792201" lon="120.21054627">
        <time>2020-06-27T13:06:00.845000Z</time>
      </trkpt>
      <trkpt lat="35.95793205" lon="120.21067731">
        <time>2020-06-27T13:06:04.843000Z</time>
      </trkpt>
      <trkpt lat="35.95793205" lon="120.21067731">
        <time>2020-06-27T13:06:05.580000Z</time>
      </trkpt>
      <trkpt lat="35.95786813" lon="120.21076773">
        <time>2020-06-27T13:06:08.842000Z</time>
      </trkpt>
      <trkpt lat="35.95775041" lon="120.21078644">
        <time>2020-06-27T13:06:12.841000Z</time>
      </trkpt>
      <trkpt lat="35.9576527" lon="120.21079811">
        <time>2020-06-27T13:06:15.845000Z</time>
      </trkpt>
      <trkpt lat="35.95756738" lon="120.21083874">
        <time>2020-06-27T13:06:18.855000Z</time>
      </trkpt>
      <trkpt lat="35.95744753" lon="120.21086638">
        <time>2020-06-27T13:06:22.832000Z</time>
      </trkpt>
      <trkpt lat="35.95735332" lon="120.21087142">
        <time>2020-06-27T13:06:25.845000Z</time>
      </trkpt>
      <trkpt lat="35.95726342" lon="120.21086737">
        <time>2020-06-27T13:06:28.847000Z</time>
      </trkpt>
      <trkpt lat="35.95717083" lon="120.21085633">
        <time>2020-06-27T13:06:31.849000Z</time>
      </trkpt>
      <trkpt lat="35.95706341" lon="120.21086489">
        <time>2020-06-27T13:06:35.834000Z</time>
      </trkpt>
      <trkpt lat="35.95696655" lon="120.210888">
        <time>2020-06-27T13:06:39.825000Z</time>
      </trkpt>
      <trkpt lat="35.95688128" lon="120.21095639">
        <time>2020-06-27T13:06:43.844000Z</time>
      </trkpt>
      <trkpt lat="35.95677152" lon="120.2109898">
        <time>2020-06-27T13:06:47.840000Z</time>
      </trkpt>
      <trkpt lat="35.95666893" lon="120.21103074">
        <time>2020-06-27T13:06:51.842000Z</time>
      </trkpt>
      <trkpt lat="35.95655855" lon="120.21105524">
        <time>2020-06-27T13:06:55.826000Z</time>
      </trkpt>
      <trkpt lat="35.95644871" lon="120.21106749">
        <time>2020-06-27T13:06:59.833000Z</time>
      </trkpt>
      <trkpt lat="35.9563574" lon="120.21106596">
        <time>2020-06-27T13:07:02.837000Z</time>
      </trkpt>
      <trkpt lat="35.95625158" lon="120.2110947">
        <time>2020-06-27T13:07:06.846000Z</time>
      </trkpt>
      <trkpt lat="35.95615724" lon="120.21111459">
        <time>2020-06-27T13:07:10.839000Z</time>
      </trkpt>
      <trkpt lat="35.95606955" lon="120.21115027">
        <time>2020-06-27T13:07:14.857000Z</time>
      </trkpt>
      <trkpt lat="35.95597362" lon="120.21114185">
        <time>2020-06-27T13:07:18.842000Z</time>
      </trkpt>
      <trkpt lat="35.9558772" lon="120.21112412">
        <time>2020-06-27T13:07:22.827000Z</time>
      </trkpt>
      <trkpt lat="35.95577658" lon="120.21108697">
        <time>2020-06-27T13:07:26.842000Z</time>
      </trkpt>
      <trkpt lat="35.95577658" lon="120.21108697">
        <time>2020-06-27T13:07:31.873000Z</time>
      </trkpt>
      <trkpt lat="35.95573697" lon="120.21119407">
        <time>2020-06-27T13:07:33.855000Z</time>
      </trkpt>
      <trkpt lat="35.95566014" lon="120.21126136">
        <time>2020-06-27T13:07:37.851000Z</time>
      </trkpt>
      <trkpt lat="35.95566014" lon="120.21126136">
        <time>2020-06-27T13:07:41.851000Z</time>
      </trkpt>
      <trkpt lat="35.95555918" lon="120.21127325">
        <time>2020-06-27T13:07:41.868000Z</time>
      </trkpt>
      <trkpt lat="35.9554971" lon="120.21137342">
        <time>2020-06-27T13:07:46.846000Z</time>
      </trkpt>
      <trkpt lat="35.95553456" lon="120.21150075">
        <time>2020-06-27T13:07:50.835000Z</time>
      </trkpt>
      <trkpt lat="35.95554141" lon="120.21162868">
        <time>2020-06-27T13:07:54.849000Z</time>
      </trkpt>
      <trkpt lat="35.95555213" lon="120.2117465">
        <time>2020-06-27T13:07:58.848000Z</time>
      </trkpt>
      <trkpt lat="35.95555607" lon="120.21187605">
        <time>2020-06-27T13:08:02.832000Z</time>
      </trkpt>
      <trkpt lat="35.95558513" lon="120.21199723">
        <time>2020-06-27T13:08:06.841000Z</time>
      </trkpt>
      <trkpt lat="35.95561923" lon="120.2121199">
        <time>2020-06-27T13:08:10.851000Z</time>
      </trkpt>
      <trkpt lat="35.95564505" lon="120.21224224">
        <time>2020-06-27T13:08:14.848000Z</time>
      </trkpt>
      <trkpt lat="35.95568134" lon="120.21236178">
        <time>2020-06-27T13:08:18.841000Z</time>
      </trkpt>
      <trkpt lat="35.95571537" lon="120.21248525">
        <time>2020-06-27T13:08:22.843000Z</time>
      </trkpt>
      <trkpt lat="35.95574549" lon="120.21260617">
        <time>2020-06-27T13:08:26.837000Z</time>
      </trkpt>
      <trkpt lat="35.95578095" lon="120.2127111">
        <time>2020-06-27T13:08:30.842000Z</time>
      </trkpt>
      <trkpt lat="35.95580628" lon="120.21282817">
        <time>2020-06-27T13:08:34.847000Z</time>
      </trkpt>
      <trkpt lat="35.95584668" lon="120.21294004">
        <time>2020-06-27T13:08:38.850000Z</time>
      </trkpt>
      <trkpt lat="35.95589136" lon="120.21305316">
        <time>2020-06-27T13:08:42.822000Z</time>
      </trkpt>
      <trkpt lat="35.9559368" lon="120.21315087">
        <time>2020-06-27T13:08:46.847000Z</time>
      </trkpt>
      <trkpt lat="35.95592854" lon="120.21327172">
        <time>2020-06-27T13:08:50.847000Z</time>
      </trkpt>
      <trkpt lat="35.95588366" lon="120.21338368">
        <time>2020-06-27T13:08:54.850000Z</time>
      </trkpt>
      <trkpt lat="35.9558109" lon="120.21347304">
        <time>2020-06-27T13:08:58.841000Z</time>
      </trkpt>
      <trkpt lat="35.95571565" lon="120.21351009">
        <time>2020-06-27T13:09:02.841000Z</time>
      </trkpt>
      <trkpt lat="35.95562043" lon="120.21353392">
        <time>2020-06-27T13:09:06.838000Z</time>
      </trkpt>
      <trkpt lat="35.95552089" lon="120.21355331">
        <time>2020-06-27T13:09:10.856000Z</time>
      </trkpt>
      <trkpt lat="35.95542364" lon="120.21359342">
        <time>2020-06-27T13:09:14.832000Z</time>
      </trkpt>
      <trkpt lat="35.95532704" lon="120.21363222">
        <time>2020-06-27T13:09:18.850000Z</time>
      </trkpt>
      <trkpt lat="35.95521645" lon="120.21365787">
        <time>2020-06-27T13:09:22.890000Z</time>
      </trkpt>
      <trkpt lat="35.95510448" lon="120.21366426">
        <time>2020-06-27T13:09:26.877000Z</time>
      </trkpt>
      <trkpt lat="35.95500072" lon="120.21368349">
        <time>2020-06-27T13:09:30.841000Z</time>
      </trkpt>
      <trkpt lat="35.95500072" lon="120.21368349">
        <time>2020-06-27T13:13:01.857000Z</time>
      </trkpt>
      <trkpt lat="35.95081844" lon="120.21085147">
        <time>2020-06-27T13:13:12.839000Z</time>
      </trkpt>
      <trkpt lat="35.95071681" lon="120.21088756">
        <time>2020-06-27T13:13:16.857000Z</time>
      </trkpt>
      <trkpt lat="35.95063586" lon="120.2109359">
        <time>2020-06-27T13:13:19.847000Z</time>
      </trkpt>
      <trkpt lat="35.95053845" lon="120.21094426">
        <time>2020-06-27T13:13:22.826000Z</time>
      </trkpt>
      <trkpt lat="35.9504266" lon="120.21095757">
        <time>2020-06-27T13:13:26.842000Z</time>
      </trkpt>
      <trkpt lat="35.95031344" lon="120.21095378">
        <time>2020-06-27T13:13:30.846000Z</time>
      </trkpt>
      <trkpt lat="35.95020384" lon="120.21096744">
        <time>2020-06-27T13:13:35.847000Z</time>
      </trkpt>
      <trkpt lat="35.9500999" lon="120.21100287">
        <time>2020-06-27T13:13:39.847000Z</time>
      </trkpt>
      <trkpt lat="35.9499867" lon="120.21102118">
        <time>2020-06-27T13:13:43.889000Z</time>
      </trkpt>
      <trkpt lat="35.94988697" lon="120.21105202">
        <time>2020-06-27T13:13:47.842000Z</time>
      </trkpt>
      <trkpt lat="35.94979407" lon="120.21109889">
        <time>2020-06-27T13:13:51.833000Z</time>
      </trkpt>
      <trkpt lat="35.94968333" lon="120.2111391">
        <time>2020-06-27T13:13:55.843000Z</time>
      </trkpt>
      <trkpt lat="35.94959534" lon="120.21117715">
        <time>2020-06-27T13:13:58.848000Z</time>
      </trkpt>
      <trkpt lat="35.94949185" lon="120.21121856">
        <time>2020-06-27T13:14:02.832000Z</time>
      </trkpt>
      <trkpt lat="35.94937874" lon="120.21121699">
        <time>2020-06-27T13:14:06.848000Z</time>
      </trkpt>
      <trkpt lat="35.94927765" lon="120.21127931">
        <time>2020-06-27T13:14:10.840000Z</time>
      </trkpt>
      <trkpt lat="35.94920213" lon="120.21134519">
        <time>2020-06-27T13:14:14.844000Z</time>
      </trkpt>
      <trkpt lat="35.94908718" lon="120.21137159">
        <time>2020-06-27T13:14:18.841000Z</time>
      </trkpt>
      <trkpt lat="35.94897542" lon="120.2113566">
        <time>2020-06-27T13:14:22.833000Z</time>
      </trkpt>
      <trkpt lat="35.94888276" lon="120.21137093">
        <time>2020-06-27T13:14:25.840000Z</time>
      </trkpt>
      <trkpt lat="35.94879137" lon="120.21140279">
        <time>2020-06-27T13:14:28.840000Z</time>
      </trkpt>
      <trkpt lat="35.94870113" lon="120.21147605">
        <time>2020-06-27T13:14:32.843000Z</time>
      </trkpt>
      <trkpt lat="35.94860939" lon="120.2114881">
        <time>2020-06-27T13:14:35.841000Z</time>
      </trkpt>
      <trkpt lat="35.94851321" lon="120.21149694">
        <time>2020-06-27T13:14:38.841000Z</time>
      </trkpt>
      <trkpt lat="35.94841847" lon="120.211481">
        <time>2020-06-27T13:14:41.839000Z</time>
      </trkpt>
      <trkpt lat="35.9483024" lon="120.21148135">
        <time>2020-06-27T13:14:45.843000Z</time>
      </trkpt>
      <trkpt lat="35.94820184" lon="120.21150902">
        <time>2020-06-27T13:14:49.840000Z</time>
      </trkpt>
      <trkpt lat="35.94810228" lon="120.21153595">
        <time>2020-06-27T13:14:53.840000Z</time>
      </trkpt>
      <trkpt lat="35.94800953" lon="120.21157251">
        <time>2020-06-27T13:14:57.821000Z</time>
      </trkpt>
      <trkpt lat="35.94791584" lon="120.21159337">
        <time>2020-06-27T13:15:01.817000Z</time>
      </trkpt>
      <trkpt lat="35.94781446" lon="120.21160174">
        <time>2020-06-27T13:15:05.841000Z</time>
      </trkpt>
      <trkpt lat="35.94770465" lon="120.21163491">
        <time>2020-06-27T13:15:09.853000Z</time>
      </trkpt>
      <trkpt lat="35.94759221" lon="120.21166053">
        <time>2020-06-27T13:15:13.843000Z</time>
      </trkpt>
      <trkpt lat="35.94747756" lon="120.21168202">
        <time>2020-06-27T13:15:17.842000Z</time>
      </trkpt>
      <trkpt lat="35.94737182" lon="120.21171859">
        <time>2020-06-27T13:15:21.840000Z</time>
      </trkpt>
      <trkpt lat="35.94725885" lon="120.2117555">
        <time>2020-06-27T13:15:25.831000Z</time>
      </trkpt>
      <trkpt lat="35.94714291" lon="120.2117951">
        <time>2020-06-27T13:15:29.834000Z</time>
      </trkpt>
      <trkpt lat="35.94702888" lon="120.21181753">
        <time>2020-06-27T13:15:33.834000Z</time>
      </trkpt>
      <trkpt lat="35.94691066" lon="120.21182607">
        <time>2020-06-27T13:15:37.840000Z</time>
      </trkpt>
      <trkpt lat="35.94682025" lon="120.21183421">
        <time>2020-06-27T13:15:40.841000Z</time>
      </trkpt>
      <trkpt lat="35.94670952" lon="120.21186111">
        <time>2020-06-27T13:15:44.826000Z</time>
      </trkpt>
      <trkpt lat="35.9465982" lon="120.21189465">
        <time>2020-06-27T13:15:48.841000Z</time>
      </trkpt>
      <trkpt lat="35.94649157" lon="120.21193092">
        <time>2020-06-27T13:15:52.824000Z</time>
      </trkpt>
      <trkpt lat="35.94638038" lon="120.21196754">
        <time>2020-06-27T13:15:56.839000Z</time>
      </trkpt>
      <trkpt lat="35.94627213" lon="120.21200006">
        <time>2020-06-27T13:16:00.851000Z</time>
      </trkpt>
      <trkpt lat="35.94615812" lon="120.21203023">
        <time>2020-06-27T13:16:04.831000Z</time>
      </trkpt>
      <trkpt lat="35.94605036" lon="120.21206398">
        <time>2020-06-27T13:16:08.841000Z</time>
      </trkpt>
      <trkpt lat="35.94596152" lon="120.21208574">
        <time>2020-06-27T13:16:11.842000Z</time>
      </trkpt>
      <trkpt lat="35.94584782" lon="120.21212952">
        <time>2020-06-27T13:16:15.845000Z</time>
      </trkpt>
      <trkpt lat="35.94576074" lon="120.21217043">
        <time>2020-06-27T13:16:18.822000Z</time>
      </trkpt>
      <trkpt lat="35.94567298" lon="120.21222341">
        <time>2020-06-27T13:16:21.824000Z</time>
      </trkpt>
      <trkpt lat="35.94556215" lon="120.21226014">
        <time>2020-06-27T13:16:25.847000Z</time>
      </trkpt>
      <trkpt lat="35.94545318" lon="120.21230011">
        <time>2020-06-27T13:16:29.840000Z</time>
      </trkpt>
      <trkpt lat="35.94534176" lon="120.21234125">
        <time>2020-06-27T13:16:33.881000Z</time>
      </trkpt>
      <trkpt lat="35.94523057" lon="120.2123931">
        <time>2020-06-27T13:16:37.842000Z</time>
      </trkpt>
      <trkpt lat="35.94513058" lon="120.21246931">
        <time>2020-06-27T13:16:41.848000Z</time>
      </trkpt>
      <trkpt lat="35.94502275" lon="120.21251498">
        <time>2020-06-27T13:16:45.818000Z</time>
      </trkpt>
      <trkpt lat="35.94493565" lon="120.21256625">
        <time>2020-06-27T13:16:49.818000Z</time>
      </trkpt>
      <trkpt lat="35.94484054" lon="120.21262209">
        <time>2020-06-27T13:16:53.838000Z</time>
      </trkpt>
      <trkpt lat="35.94473682" lon="120.21269012">
        <time>2020-06-27T13:16:57.830000Z</time>
      </trkpt>
      <trkpt lat="35.94465032" lon="120.21272444">
        <time>2020-06-27T13:17:00.840000Z</time>
      </trkpt>
      <trkpt lat="35.94456168" lon="120.21275483">
        <time>2020-06-27T13:17:03.830000Z</time>
      </trkpt>
      <trkpt lat="35.94446886" lon="120.21280659">
        <time>2020-06-27T13:17:07.840000Z</time>
      </trkpt>
      <trkpt lat="35.94436438" lon="120.21284924">
        <time>2020-06-27T13:17:11.841000Z</time>
      </trkpt>
      <trkpt lat="35.9442797" lon="120.21288844">
        <time>2020-06-27T13:17:14.847000Z</time>
      </trkpt>
      <trkpt lat="35.94417719" lon="120.212954">
        <time>2020-06-27T13:17:18.837000Z</time>
      </trkpt>
      <trkpt lat="35.9440871" lon="120.21302592">
        <time>2020-06-27T13:17:23.831000Z</time>
      </trkpt>
      <trkpt lat="35.94397821" lon="120.21308808">
        <time>2020-06-27T13:17:27.841000Z</time>
      </trkpt>
      <trkpt lat="35.94388081" lon="120.21309324">
        <time>2020-06-27T13:17:32.879000Z</time>
      </trkpt>
      <trkpt lat="35.94379393" lon="120.21299721">
        <time>2020-06-27T13:17:36.841000Z</time>
      </trkpt>
      <trkpt lat="35.94371813" lon="120.21288327">
        <time>2020-06-27T13:17:40.849000Z</time>
      </trkpt>
      <trkpt lat="35.94364159" lon="120.2127825">
        <time>2020-06-27T13:17:44.842000Z</time>
      </trkpt>
      <trkpt lat="35.94356101" lon="120.21269357">
        <time>2020-06-27T13:17:48.824000Z</time>
      </trkpt>
      <trkpt lat="35.94349851" lon="120.21258305">
        <time>2020-06-27T13:17:52.836000Z</time>
      </trkpt>
      <trkpt lat="35.94342509" lon="120.21249396">
        <time>2020-06-27T13:17:56.831000Z</time>
      </trkpt>
      <trkpt lat="35.94335445" lon="120.2123836">
        <time>2020-06-27T13:18:00.850000Z</time>
      </trkpt>
      <trkpt lat="35.94330984" lon="120.21225127">
        <time>2020-06-27T13:18:04.856000Z</time>
      </trkpt>
      <trkpt lat="35.94325575" lon="120.21212205">
        <time>2020-06-27T13:18:08.821000Z</time>
      </trkpt>
      <trkpt lat="35.94320252" lon="120.21201363">
        <time>2020-06-27T13:18:12.838000Z</time>
      </trkpt>
      <trkpt lat="35.94312483" lon="120.21192276">
        <time>2020-06-27T13:18:16.875000Z</time>
      </trkpt>
      <trkpt lat="35.94307844" lon="120.211808">
        <time>2020-06-27T13:18:20.836000Z</time>
      </trkpt>
      <trkpt lat="35.9430161" lon="120.21170127">
        <time>2020-06-27T13:18:25.846000Z</time>
      </trkpt>
      <trkpt lat="35.94296251" lon="120.21160049">
        <time>2020-06-27T13:18:29.829000Z</time>
      </trkpt>
      <trkpt lat="35.94289776" lon="120.21150568">
        <time>2020-06-27T13:18:33.823000Z</time>
      </trkpt>
      <trkpt lat="35.9428423" lon="120.21139284">
        <time>2020-06-27T13:18:37.870000Z</time>
      </trkpt>
      <trkpt lat="35.94277716" lon="120.2112786">
        <time>2020-06-27T13:18:41.840000Z</time>
      </trkpt>
      <trkpt lat="35.94270459" lon="120.21117239">
        <time>2020-06-27T13:18:45.866000Z</time>
      </trkpt>
      <trkpt lat="35.94263651" lon="120.21106269">
        <time>2020-06-27T13:18:49.852000Z</time>
      </trkpt>
      <trkpt lat="35.9425751" lon="120.21096357">
        <time>2020-06-27T13:18:53.846000Z</time>
      </trkpt>
      <trkpt lat="35.94252968" lon="120.21085451">
        <time>2020-06-27T13:18:57.849000Z</time>
      </trkpt>
      <trkpt lat="35.94246265" lon="120.21075259">
        <time>2020-06-27T13:19:01.832000Z</time>
      </trkpt>
      <trkpt lat="35.94241691" lon="120.2106353">
        <time>2020-06-27T13:19:05.840000Z</time>
      </trkpt>
      <trkpt lat="35.94234663" lon="120.21053526">
        <time>2020-06-27T13:19:09.847000Z</time>
      </trkpt>
      <trkpt lat="35.94228307" lon="120.21043103">
        <time>2020-06-27T13:19:13.844000Z</time>
      </trkpt>
      <trkpt lat="35.94221675" lon="120.21033166">
        <time>2020-06-27T13:19:17.837000Z</time>
      </trkpt>
      <trkpt lat="35.94215865" lon="120.21021439">
        <time>2020-06-27T13:19:21.835000Z</time>
      </trkpt>
      <trkpt lat="35.94210472" lon="120.21009679">
        <time>2020-06-27T13:19:25.838000Z</time>
      </trkpt>
      <trkpt lat="35.94203446" lon="120.20999479">
        <time>2020-06-27T13:19:29.830000Z</time>
      </trkpt>
      <trkpt lat="35.94196891" lon="120.20988179">
        <time>2020-06-27T13:19:33.836000Z</time>
      </trkpt>
      <trkpt lat="35.9418866" lon="120.20977864">
        <time>2020-06-27T13:19:37.832000Z</time>
      </trkpt>
      <trkpt lat="35.94181794" lon="120.20967458">
        <time>2020-06-27T13:19:41.842000Z</time>
      </trkpt>
      <trkpt lat="35.94177227" lon="120.20955296">
        <time>2020-06-27T13:19:45.827000Z</time>
      </trkpt>
      <trkpt lat="35.94173509" lon="120.20942724">
        <time>2020-06-27T13:19:49.841000Z</time>
      </trkpt>
      <trkpt lat="35.94179579" lon="120.20931253">
        <time>2020-06-27T13:19:54.840000Z</time>
      </trkpt>
      <trkpt lat="35.9419114" lon="120.20929798">
        <time>2020-06-27T13:19:58.840000Z</time>
      </trkpt>
      <trkpt lat="35.94201736" lon="120.20928034">
        <time>2020-06-27T13:20:02.839000Z</time>
      </trkpt>
      <trkpt lat="35.94212299" lon="120.20924679">
        <time>2020-06-27T13:20:06.837000Z</time>
      </trkpt>
      <trkpt lat="35.94221281" lon="120.20921842">
        <time>2020-06-27T13:20:09.838000Z</time>
      </trkpt>
      <trkpt lat="35.94230355" lon="120.20918683">
        <time>2020-06-27T13:20:12.838000Z</time>
      </trkpt>
      <trkpt lat="35.94238779" lon="120.2091429">
        <time>2020-06-27T13:20:15.850000Z</time>
      </trkpt>
      <trkpt lat="35.94248535" lon="120.20907809">
        <time>2020-06-27T13:20:19.841000Z</time>
      </trkpt>
      <trkpt lat="35.94258235" lon="120.20901819">
        <time>2020-06-27T13:20:23.843000Z</time>
      </trkpt>
      <trkpt lat="35.94267698" lon="120.20897105">
        <time>2020-06-27T13:20:27.837000Z</time>
      </trkpt>
      <trkpt lat="35.9427799" lon="120.20894474">
        <time>2020-06-27T13:20:31.841000Z</time>
      </trkpt>
      <trkpt lat="35.94288287" lon="120.20894397">
        <time>2020-06-27T13:20:35.830000Z</time>
      </trkpt>
      <trkpt lat="35.94298839" lon="120.20893985">
        <time>2020-06-27T13:20:39.838000Z</time>
      </trkpt>
      <trkpt lat="35.9431001" lon="120.2089299">
        <time>2020-06-27T13:20:43.845000Z</time>
      </trkpt>
      <trkpt lat="35.94320947" lon="120.20892127">
        <time>2020-06-27T13:20:47.842000Z</time>
      </trkpt>
      <trkpt lat="35.94331218" lon="120.20889408">
        <time>2020-06-27T13:20:51.825000Z</time>
      </trkpt>
      <trkpt lat="35.94341496" lon="120.20885382">
        <time>2020-06-27T13:20:55.842000Z</time>
      </trkpt>
      <trkpt lat="35.94351088" lon="120.20880889">
        <time>2020-06-27T13:20:59.849000Z</time>
      </trkpt>
      <trkpt lat="35.94361262" lon="120.2087655">
        <time>2020-06-27T13:21:03.839000Z</time>
      </trkpt>
      <trkpt lat="35.94372568" lon="120.20874094">
        <time>2020-06-27T13:21:07.848000Z</time>
      </trkpt>
      <trkpt lat="35.94383655" lon="120.20874975">
        <time>2020-06-27T13:21:11.845000Z</time>
      </trkpt>
      <trkpt lat="35.94393973" lon="120.20878293">
        <time>2020-06-27T13:21:15.824000Z</time>
      </trkpt>
      <trkpt lat="35.94403341" lon="120.2088391">
        <time>2020-06-27T13:21:19.840000Z</time>
      </trkpt>
      <trkpt lat="35.94413253" lon="120.20888716">
        <time>2020-06-27T13:21:23.844000Z</time>
      </trkpt>
      <trkpt lat="35.94423886" lon="120.20891278">
        <time>2020-06-27T13:21:27.829000Z</time>
      </trkpt>
      <trkpt lat="35.94434323" lon="120.20893615">
        <time>2020-06-27T13:21:31.847000Z</time>
      </trkpt>
      <trkpt lat="35.94445326" lon="120.20891473">
        <time>2020-06-27T13:21:35.835000Z</time>
      </trkpt>
      <trkpt lat="35.94456435" lon="120.20888925">
        <time>2020-06-27T13:21:39.842000Z</time>
      </trkpt>
      <trkpt lat="35.94467353" lon="120.20887025">
        <time>2020-06-27T13:21:43.848000Z</time>
      </trkpt>
      <trkpt lat="35.94477209" lon="120.20884669">
        <time>2020-06-27T13:21:47.838000Z</time>
      </trkpt>
      <trkpt lat="35.94487266" lon="120.20883471">
        <time>2020-06-27T13:21:51.824000Z</time>
      </trkpt>
      <trkpt lat="35.94497526" lon="120.20882396">
        <time>2020-06-27T13:21:55.850000Z</time>
      </trkpt>
      <trkpt lat="35.94507695" lon="120.20881146">
        <time>2020-06-27T13:21:59.827000Z</time>
      </trkpt>
      <trkpt lat="35.94518283" lon="120.20880155">
        <time>2020-06-27T13:22:03.819000Z</time>
      </trkpt>
      <trkpt lat="35.94528883" lon="120.20879287">
        <time>2020-06-27T13:22:07.841000Z</time>
      </trkpt>
      <trkpt lat="35.9453882" lon="120.20879215">
        <time>2020-06-27T13:22:11.854000Z</time>
      </trkpt>
      <trkpt lat="35.94549006" lon="120.20879217">
        <time>2020-06-27T13:22:15.841000Z</time>
      </trkpt>
      <trkpt lat="35.94558885" lon="120.20878687">
        <time>2020-06-27T13:22:19.843000Z</time>
      </trkpt>
      <trkpt lat="35.94568352" lon="120.20877681">
        <time>2020-06-27T13:22:23.852000Z</time>
      </trkpt>
      <trkpt lat="35.9457758" lon="120.2087605">
        <time>2020-06-27T13:22:27.838000Z</time>
      </trkpt>
      <trkpt lat="35.94586705" lon="120.2087416">
        <time>2020-06-27T13:22:31.839000Z</time>
      </trkpt>
      <trkpt lat="35.94596685" lon="120.20873076">
        <time>2020-06-27T13:22:35.840000Z</time>
      </trkpt>
      <trkpt lat="35.9460743" lon="120.20871512">
        <time>2020-06-27T13:22:39.855000Z</time>
      </trkpt>
      <trkpt lat="35.9461805" lon="120.20870067">
        <time>2020-06-27T13:22:43.858000Z</time>
      </trkpt>
      <trkpt lat="35.9462891" lon="120.20867785">
        <time>2020-06-27T13:22:47.841000Z</time>
      </trkpt>
      <trkpt lat="35.94639867" lon="120.20866232">
        <time>2020-06-27T13:22:51.856000Z</time>
      </trkpt>
      <trkpt lat="35.94650442" lon="120.20865463">
        <time>2020-06-27T13:22:55.854000Z</time>
      </trkpt>
      <trkpt lat="35.94660932" lon="120.20864365">
        <time>2020-06-27T13:22:59.858000Z</time>
      </trkpt>
      <trkpt lat="35.94671708" lon="120.20863532">
        <time>2020-06-27T13:23:03.832000Z</time>
      </trkpt>
      <trkpt lat="35.94682239" lon="120.20862813">
        <time>2020-06-27T13:23:07.848000Z</time>
      </trkpt>
      <trkpt lat="35.94692527" lon="120.20861021">
        <time>2020-06-27T13:23:11.868000Z</time>
      </trkpt>
      <trkpt lat="35.94702243" lon="120.2085973">
        <time>2020-06-27T13:23:15.852000Z</time>
      </trkpt>
      <trkpt lat="35.94705183" lon="120.20847234">
        <time>2020-06-27T13:23:19.843000Z</time>
      </trkpt>
      <trkpt lat="35.94701747" lon="120.20836808">
        <time>2020-06-27T13:23:22.859000Z</time>
      </trkpt>
      <trkpt lat="35.94700303" lon="120.20823504">
        <time>2020-06-27T13:23:26.839000Z</time>
      </trkpt>
      <trkpt lat="35.94698956" lon="120.20810268">
        <time>2020-06-27T13:23:30.841000Z</time>
      </trkpt>
      <trkpt lat="35.94698557" lon="120.20797026">
        <time>2020-06-27T13:23:34.829000Z</time>
      </trkpt>
      <trkpt lat="35.94699011" lon="120.20784582">
        <time>2020-06-27T13:23:38.848000Z</time>
      </trkpt>
      <trkpt lat="35.94698091" lon="120.20772195">
        <time>2020-06-27T13:23:42.819000Z</time>
      </trkpt>
      <trkpt lat="35.94697595" lon="120.20760609">
        <time>2020-06-27T13:23:46.828000Z</time>
      </trkpt>
      <trkpt lat="35.94696849" lon="120.20748974">
        <time>2020-06-27T13:23:50.829000Z</time>
      </trkpt>
      <trkpt lat="35.94696295" lon="120.2073558">
        <time>2020-06-27T13:23:54.824000Z</time>
      </trkpt>
      <trkpt lat="35.94696546" lon="120.20721609">
        <time>2020-06-27T13:23:58.860000Z</time>
      </trkpt>
      <trkpt lat="35.94701026" lon="120.20710185">
        <time>2020-06-27T13:24:02.828000Z</time>
      </trkpt>
      <trkpt lat="35.94706524" lon="120.20699138">
        <time>2020-06-27T13:24:06.845000Z</time>
      </trkpt>
      <trkpt lat="35.94713526" lon="120.20690002">
        <time>2020-06-27T13:24:10.859000Z</time>
      </trkpt>
      <trkpt lat="35.94720951" lon="120.20680649">
        <time>2020-06-27T13:24:14.826000Z</time>
      </trkpt>
      <trkpt lat="35.94723166" lon="120.2066763">
        <time>2020-06-27T13:24:18.843000Z</time>
      </trkpt>
      <trkpt lat="35.94727192" lon="120.20655268">
        <time>2020-06-27T13:24:22.837000Z</time>
      </trkpt>
      <trkpt lat="35.94733266" lon="120.20645044">
        <time>2020-06-27T13:24:26.839000Z</time>
      </trkpt>
      <trkpt lat="35.9473802" lon="120.20633995">
        <time>2020-06-27T13:24:30.842000Z</time>
      </trkpt>
      <trkpt lat="35.94741053" lon="120.20621854">
        <time>2020-06-27T13:24:34.840000Z</time>
      </trkpt>
      <trkpt lat="35.94740189" lon="120.20608342">
        <time>2020-06-27T13:24:38.843000Z</time>
      </trkpt>
      <trkpt lat="35.9474111" lon="120.2059584">
        <time>2020-06-27T13:24:42.844000Z</time>
      </trkpt>
      <trkpt lat="35.94745175" lon="120.20584473">
        <time>2020-06-27T13:24:46.844000Z</time>
      </trkpt>
      <trkpt lat="35.94752168" lon="120.20574194">
        <time>2020-06-27T13:24:50.853000Z</time>
      </trkpt>
      <trkpt lat="35.94757448" lon="120.20562506">
        <time>2020-06-27T13:24:54.848000Z</time>
      </trkpt>
      <trkpt lat="35.94761417" lon="120.20550052">
        <time>2020-06-27T13:24:58.841000Z</time>
      </trkpt>
      <trkpt lat="35.94762038" lon="120.20537391">
        <time>2020-06-27T13:25:02.843000Z</time>
      </trkpt>
      <trkpt lat="35.94768753" lon="120.20528872">
        <time>2020-06-27T13:25:05.842000Z</time>
      </trkpt>
      <trkpt lat="35.94774779" lon="120.20516889">
        <time>2020-06-27T13:25:09.839000Z</time>
      </trkpt>
      <trkpt lat="35.94781499" lon="120.20509418">
        <time>2020-06-27T13:25:12.842000Z</time>
      </trkpt>
      <trkpt lat="35.94787534" lon="120.20498071">
        <time>2020-06-27T13:25:16.842000Z</time>
      </trkpt>
      <trkpt lat="35.94789948" lon="120.20484773">
        <time>2020-06-27T13:25:20.827000Z</time>
      </trkpt>
      <trkpt lat="35.94789425" lon="120.20470973">
        <time>2020-06-27T13:25:24.863000Z</time>
      </trkpt>
      <trkpt lat="35.94788521" lon="120.2045798">
        <time>2020-06-27T13:25:28.840000Z</time>
      </trkpt>
      <trkpt lat="35.94786073" lon="120.20444485">
        <time>2020-06-27T13:25:33.848000Z</time>
      </trkpt>
      <trkpt lat="35.94783775" lon="120.2043143">
        <time>2020-06-27T13:25:37.843000Z</time>
      </trkpt>
      <trkpt lat="35.94788349" lon="120.2042114">
        <time>2020-06-27T13:25:41.838000Z</time>
      </trkpt>
      <trkpt lat="35.94798902" lon="120.20426034">
        <time>2020-06-27T13:25:45.839000Z</time>
      </trkpt>
      <trkpt lat="35.9480841" lon="120.20434129">
        <time>2020-06-27T13:25:49.828000Z</time>
      </trkpt>
      <trkpt lat="35.94817611" lon="120.20441173">
        <time>2020-06-27T13:25:53.841000Z</time>
      </trkpt>
      <trkpt lat="35.94826918" lon="120.20448351">
        <time>2020-06-27T13:25:57.829000Z</time>
      </trkpt>
      <trkpt lat="35.94835864" lon="120.20454935">
        <time>2020-06-27T13:26:01.839000Z</time>
      </trkpt>
      <trkpt lat="35.9484438" lon="120.20462326">
        <time>2020-06-27T13:26:05.842000Z</time>
      </trkpt>
      <trkpt lat="35.94852898" lon="120.20470799">
        <time>2020-06-27T13:26:09.859000Z</time>
      </trkpt>
      <trkpt lat="35.94861412" lon="120.20480894">
        <time>2020-06-27T13:26:13.843000Z</time>
      </trkpt>
      <trkpt lat="35.94869185" lon="120.20490558">
        <time>2020-06-27T13:26:17.830000Z</time>
      </trkpt>
      <trkpt lat="35.94877361" lon="120.20499729">
        <time>2020-06-27T13:26:21.842000Z</time>
      </trkpt>
      <trkpt lat="35.94884678" lon="120.20508793">
        <time>2020-06-27T13:26:25.839000Z</time>
      </trkpt>
      <trkpt lat="35.94892118" lon="120.20517193">
        <time>2020-06-27T13:26:29.888000Z</time>
      </trkpt>
      <trkpt lat="35.94899085" lon="120.20525459">
        <time>2020-06-27T13:26:33.843000Z</time>
      </trkpt>
      <trkpt lat="35.94906888" lon="120.20533641">
        <time>2020-06-27T13:26:37.829000Z</time>
      </trkpt>
      <trkpt lat="35.94914308" lon="120.20542459">
        <time>2020-06-27T13:26:41.848000Z</time>
      </trkpt>
      <trkpt lat="35.94922322" lon="120.20550735">
        <time>2020-06-27T13:26:45.847000Z</time>
      </trkpt>
      <trkpt lat="35.94931447" lon="120.20558836">
        <time>2020-06-27T13:26:49.831000Z</time>
      </trkpt>
      <trkpt lat="35.94938941" lon="120.20565464">
        <time>2020-06-27T13:26:52.840000Z</time>
      </trkpt>
      <trkpt lat="35.94945953" lon="120.20572699">
        <time>2020-06-27T13:26:55.847000Z</time>
      </trkpt>
      <trkpt lat="35.94954717" lon="120.20581776">
        <time>2020-06-27T13:26:59.847000Z</time>
      </trkpt>
      <trkpt lat="35.94962786" lon="120.20591912">
        <time>2020-06-27T13:27:03.852000Z</time>
      </trkpt>
      <trkpt lat="35.94970672" lon="120.20601511">
        <time>2020-06-27T13:27:07.833000Z</time>
      </trkpt>
      <trkpt lat="35.94979799" lon="120.20604219">
        <time>2020-06-27T13:27:11.826000Z</time>
      </trkpt>
      <trkpt lat="35.94989575" lon="120.20597469">
        <time>2020-06-27T13:27:15.839000Z</time>
      </trkpt>
      <trkpt lat="35.94999369" lon="120.20591243">
        <time>2020-06-27T13:27:19.840000Z</time>
      </trkpt>
      <trkpt lat="35.95009942" lon="120.20586446">
        <time>2020-06-27T13:27:23.835000Z</time>
      </trkpt>
      <trkpt lat="35.95021351" lon="120.20582632">
        <time>2020-06-27T13:27:27.841000Z</time>
      </trkpt>
      <trkpt lat="35.95031776" lon="120.20577049">
        <time>2020-06-27T13:27:31.840000Z</time>
      </trkpt>
      <trkpt lat="35.95043073" lon="120.20574257">
        <time>2020-06-27T13:27:35.869000Z</time>
      </trkpt>
      <trkpt lat="35.95054095" lon="120.20571643">
        <time>2020-06-27T13:27:39.872000Z</time>
      </trkpt>
      <trkpt lat="35.9506388" lon="120.20565986">
        <time>2020-06-27T13:27:43.844000Z</time>
      </trkpt>
      <trkpt lat="35.95069415" lon="120.20556214">
        <time>2020-06-27T13:27:47.849000Z</time>
      </trkpt>
      <trkpt lat="35.95068531" lon="120.20543349">
        <time>2020-06-27T13:27:51.842000Z</time>
      </trkpt>
      <trkpt lat="35.95065864" lon="120.20530526">
        <time>2020-06-27T13:27:55.839000Z</time>
      </trkpt>
      <trkpt lat="35.95063688" lon="120.20517431">
        <time>2020-06-27T13:27:59.836000Z</time>
      </trkpt>
      <trkpt lat="35.95061126" lon="120.20504069">
        <time>2020-06-27T13:28:03.849000Z</time>
      </trkpt>
      <trkpt lat="35.95058753" lon="120.20491922">
        <time>2020-06-27T13:28:07.840000Z</time>
      </trkpt>
      <trkpt lat="35.95058753" lon="120.20491922">
        <time>2020-06-27T13:28:32.846000Z</time>
      </trkpt>
      <trkpt lat="35.95067148" lon="120.20481583">
        <time>2020-06-27T13:28:32.858000Z</time>
      </trkpt>
      <trkpt lat="35.95075335" lon="120.20476836">
        <time>2020-06-27T13:28:35.842000Z</time>
      </trkpt>
      <trkpt lat="35.95084918" lon="120.20470159">
        <time>2020-06-27T13:28:39.833000Z</time>
      </trkpt>
      <trkpt lat="35.95095239" lon="120.20464614">
        <time>2020-06-27T13:28:43.841000Z</time>
      </trkpt>
      <trkpt lat="35.95106285" lon="120.2046057">
        <time>2020-06-27T13:28:47.847000Z</time>
      </trkpt>
      <trkpt lat="35.9511664" lon="120.20456612">
        <time>2020-06-27T13:28:51.830000Z</time>
      </trkpt>
      <trkpt lat="35.95126584" lon="120.20455361">
        <time>2020-06-27T13:28:55.825000Z</time>
      </trkpt>
      <trkpt lat="35.95136699" lon="120.20453353">
        <time>2020-06-27T13:28:59.843000Z</time>
      </trkpt>
      <trkpt lat="35.95147644" lon="120.20454033">
        <time>2020-06-27T13:29:03.846000Z</time>
      </trkpt>
      <trkpt lat="35.9515819" lon="120.20451769">
        <time>2020-06-27T13:29:07.838000Z</time>
      </trkpt>
      <trkpt lat="35.95168945" lon="120.2045089">
        <time>2020-06-27T13:29:11.844000Z</time>
      </trkpt>
      <trkpt lat="35.95179181" lon="120.20447326">
        <time>2020-06-27T13:29:15.842000Z</time>
      </trkpt>
      <trkpt lat="35.95189697" lon="120.2044426">
        <time>2020-06-27T13:29:19.837000Z</time>
      </trkpt>
      <trkpt lat="35.95201183" lon="120.20443641">
        <time>2020-06-27T13:29:23.850000Z</time>
      </trkpt>
      <trkpt lat="35.95211414" lon="120.20440802">
        <time>2020-06-27T13:29:27.838000Z</time>
      </trkpt>
      <trkpt lat="35.95222214" lon="120.20438442">
        <time>2020-06-27T13:29:31.842000Z</time>
      </trkpt>
      <trkpt lat="35.95233685" lon="120.20436917">
        <time>2020-06-27T13:29:35.842000Z</time>
      </trkpt>
      <trkpt lat="35.95243689" lon="120.20434982">
        <time>2020-06-27T13:29:39.820000Z</time>
      </trkpt>
      <trkpt lat="35.95253609" lon="120.2043262">
        <time>2020-06-27T13:29:43.843000Z</time>
      </trkpt>
      <trkpt lat="35.95264149" lon="120.20431287">
        <time>2020-06-27T13:29:47.841000Z</time>
      </trkpt>
      <trkpt lat="35.95274115" lon="120.20431774">
        <time>2020-06-27T13:29:51.842000Z</time>
      </trkpt>
      <trkpt lat="35.95284003" lon="120.20429211">
        <time>2020-06-27T13:29:55.826000Z</time>
      </trkpt>
      <trkpt lat="35.95294505" lon="120.20427842">
        <time>2020-06-27T13:29:59.841000Z</time>
      </trkpt>
      <trkpt lat="35.95305449" lon="120.2042628">
        <time>2020-06-27T13:30:03.845000Z</time>
      </trkpt>
      <trkpt lat="35.95315789" lon="120.20424923">
        <time>2020-06-27T13:30:07.847000Z</time>
      </trkpt>
      <trkpt lat="35.95326387" lon="120.20422369">
        <time>2020-06-27T13:30:12.838000Z</time>
      </trkpt>
      <trkpt lat="35.95337643" lon="120.20419721">
        <time>2020-06-27T13:30:16.841000Z</time>
      </trkpt>
      <trkpt lat="35.95348678" lon="120.20419891">
        <time>2020-06-27T13:30:20.845000Z</time>
      </trkpt>
      <trkpt lat="35.95359182" lon="120.20419373">
        <time>2020-06-27T13:30:24.866000Z</time>
      </trkpt>
      <trkpt lat="35.95369831" lon="120.2041736">
        <time>2020-06-27T13:30:28.839000Z</time>
      </trkpt>
      <trkpt lat="35.95380815" lon="120.20415002">
        <time>2020-06-27T13:30:32.847000Z</time>
      </trkpt>
      <trkpt lat="35.95391004" lon="120.20413626">
        <time>2020-06-27T13:30:36.834000Z</time>
      </trkpt>
      <trkpt lat="35.95400522" lon="120.20413136">
        <time>2020-06-27T13:30:40.840000Z</time>
      </trkpt>
      <trkpt lat="35.95410342" lon="120.20410552">
        <time>2020-06-27T13:30:44.829000Z</time>
      </trkpt>
      <trkpt lat="35.95420101" lon="120.20406097">
        <time>2020-06-27T13:30:48.884000Z</time>
      </trkpt>
      <trkpt lat="35.9543025" lon="120.20404906">
        <time>2020-06-27T13:30:52.862000Z</time>
      </trkpt>
      <trkpt lat="35.95441165" lon="120.20404153">
        <time>2020-06-27T13:30:56.841000Z</time>
      </trkpt>
      <trkpt lat="35.95452174" lon="120.20402075">
        <time>2020-06-27T13:31:00.849000Z</time>
      </trkpt>
      <trkpt lat="35.95462392" lon="120.20398982">
        <time>2020-06-27T13:31:04.845000Z</time>
      </trkpt>
      <trkpt lat="35.954717" lon="120.20396325">
        <time>2020-06-27T13:31:08.845000Z</time>
      </trkpt>
      <trkpt lat="35.954815" lon="120.20397821">
        <time>2020-06-27T13:31:14.828000Z</time>
      </trkpt>
      <trkpt lat="35.954815" lon="120.20397821">
        <time>2020-06-27T13:31:16.822000Z</time>
      </trkpt>
      <trkpt lat="35.95490523" lon="120.20399239">
        <time>2020-06-27T13:31:20.840000Z</time>
      </trkpt>
      <trkpt lat="35.95498933" lon="120.20403742">
        <time>2020-06-27T13:31:27.839000Z</time>
      </trkpt>
      <trkpt lat="35.9550731" lon="120.2040823">
        <time>2020-06-27T13:31:47.855000Z</time>
      </trkpt>
      <trkpt lat="35.95515632" lon="120.2040253">
        <time>2020-06-27T13:31:52.840000Z</time>
      </trkpt>
      <trkpt lat="35.95515632" lon="120.2040253">
        <time>2020-06-27T13:31:53.268000Z</time>
      </trkpt>
      <trkpt lat="35.95524312" lon="120.20397638">
        <time>2020-06-27T13:31:56.837000Z</time>
      </trkpt>
      <trkpt lat="35.9553276" lon="120.20392296">
        <time>2020-06-27T13:32:01.841000Z</time>
      </trkpt>
      <trkpt lat="35.95543108" lon="120.20389362">
        <time>2020-06-27T13:32:05.836000Z</time>
      </trkpt>
      <trkpt lat="35.95553777" lon="120.20387924">
        <time>2020-06-27T13:32:09.848000Z</time>
      </trkpt>
      <trkpt lat="35.95564036" lon="120.20386739">
        <time>2020-06-27T13:32:13.838000Z</time>
      </trkpt>
      <trkpt lat="35.95575166" lon="120.20384314">
        <time>2020-06-27T13:32:17.843000Z</time>
      </trkpt>
      <trkpt lat="35.95584817" lon="120.20384133">
        <time>2020-06-27T13:32:22.843000Z</time>
      </trkpt>
      <trkpt lat="35.95596013" lon="120.20382559">
        <time>2020-06-27T13:32:26.831000Z</time>
      </trkpt>
      <trkpt lat="35.95605109" lon="120.20384322">
        <time>2020-06-27T13:32:29.845000Z</time>
      </trkpt>
      <trkpt lat="35.95615936" lon="120.20381885">
        <time>2020-06-27T13:32:33.830000Z</time>
      </trkpt>
      <trkpt lat="35.95626295" lon="120.20378936">
        <time>2020-06-27T13:32:37.824000Z</time>
      </trkpt>
      <trkpt lat="35.95636839" lon="120.20377197">
        <time>2020-06-27T13:32:41.843000Z</time>
      </trkpt>
      <trkpt lat="35.95646611" lon="120.2037391">
        <time>2020-06-27T13:32:46.869000Z</time>
      </trkpt>
      <trkpt lat="35.95657544" lon="120.20371479">
        <time>2020-06-27T13:32:50.842000Z</time>
      </trkpt>
      <trkpt lat="35.95666542" lon="120.20368995">
        <time>2020-06-27T13:32:54.823000Z</time>
      </trkpt>
      <trkpt lat="35.95677119" lon="120.20368143">
        <time>2020-06-27T13:32:58.820000Z</time>
      </trkpt>
      <trkpt lat="35.95686199" lon="120.2036718">
        <time>2020-06-27T13:33:02.846000Z</time>
      </trkpt>
      <trkpt lat="35.95695834" lon="120.203655">
        <time>2020-06-27T13:33:06.842000Z</time>
      </trkpt>
      <trkpt lat="35.95705892" lon="120.20362973">
        <time>2020-06-27T13:33:10.838000Z</time>
      </trkpt>
      <trkpt lat="35.95716327" lon="120.20361829">
        <time>2020-06-27T13:33:14.859000Z</time>
      </trkpt>
      <trkpt lat="35.95727232" lon="120.2036108">
        <time>2020-06-27T13:33:19.839000Z</time>
      </trkpt>
      <trkpt lat="35.95736528" lon="120.20359562">
        <time>2020-06-27T13:33:23.846000Z</time>
      </trkpt>
      <trkpt lat="35.95736528" lon="120.20359562">
        <time>2020-06-27T13:33:27.844000Z</time>
      </trkpt>
      <trkpt lat="35.95746429" lon="120.2035912">
        <time>2020-06-27T13:33:27.857000Z</time>
      </trkpt>
      <trkpt lat="35.95755597" lon="120.20356438">
        <time>2020-06-27T13:33:32.830000Z</time>
      </trkpt>
      <trkpt lat="35.95764449" lon="120.20353701">
        <time>2020-06-27T13:33:36.837000Z</time>
      </trkpt>
      <trkpt lat="35.95764449" lon="120.20353701">
        <time>2020-06-27T13:33:37.845000Z</time>
      </trkpt>
      <trkpt lat="35.95774677" lon="120.20352296">
        <time>2020-06-27T13:33:40.834000Z</time>
      </trkpt>
      <trkpt lat="35.95784526" lon="120.20350152">
        <time>2020-06-27T13:33:44.842000Z</time>
      </trkpt>
      <trkpt lat="35.95794769" lon="120.20348571">
        <time>2020-06-27T13:33:48.824000Z</time>
      </trkpt>
      <trkpt lat="35.95804389" lon="120.20344517">
        <time>2020-06-27T13:33:52.840000Z</time>
      </trkpt>
      <trkpt lat="35.95813864" lon="120.20343553">
        <time>2020-06-27T13:33:56.830000Z</time>
      </trkpt>
      <trkpt lat="35.95823372" lon="120.20344791">
        <time>2020-06-27T13:34:00.859000Z</time>
      </trkpt>
      <trkpt lat="35.95832561" lon="120.20344802">
        <time>2020-06-27T13:34:04.844000Z</time>
      </trkpt>
      <trkpt lat="35.9584266" lon="120.20343761">
        <time>2020-06-27T13:34:08.843000Z</time>
      </trkpt>
      <trkpt lat="35.95853943" lon="120.20342054">
        <time>2020-06-27T13:34:12.833000Z</time>
      </trkpt>
      <trkpt lat="35.95864823" lon="120.20338067">
        <time>2020-06-27T13:34:16.837000Z</time>
      </trkpt>
      <trkpt lat="35.95875864" lon="120.20336531">
        <time>2020-06-27T13:34:20.841000Z</time>
      </trkpt>
      <trkpt lat="35.95886814" lon="120.20334195">
        <time>2020-06-27T13:34:24.841000Z</time>
      </trkpt>
      <trkpt lat="35.958973" lon="120.2033265">
        <time>2020-06-27T13:34:28.816000Z</time>
      </trkpt>
      <trkpt lat="35.95907401" lon="120.20330955">
        <time>2020-06-27T13:34:32.831000Z</time>
      </trkpt>
      <trkpt lat="35.95917428" lon="120.20334766">
        <time>2020-06-27T13:34:36.867000Z</time>
      </trkpt>
      <trkpt lat="35.95923653" lon="120.20346606">
        <time>2020-06-27T13:34:41.838000Z</time>
      </trkpt>
      <trkpt lat="35.95924671" lon="120.20359759">
        <time>2020-06-27T13:34:45.844000Z</time>
      </trkpt>
      <trkpt lat="35.9592454" lon="120.20371833">
        <time>2020-06-27T13:34:49.839000Z</time>
      </trkpt>
      <trkpt lat="35.95927898" lon="120.20383745">
        <time>2020-06-27T13:34:53.850000Z</time>
      </trkpt>
      <trkpt lat="35.95934395" lon="120.20393699">
        <time>2020-06-27T13:34:57.840000Z</time>
      </trkpt>
      <trkpt lat="35.95938753" lon="120.20405354">
        <time>2020-06-27T13:35:01.850000Z</time>
      </trkpt>
      <trkpt lat="35.95933936" lon="120.20416627">
        <time>2020-06-27T13:35:06.838000Z</time>
      </trkpt>
      <trkpt lat="35.95932419" lon="120.20429146">
        <time>2020-06-27T13:35:10.836000Z</time>
      </trkpt>
      <trkpt lat="35.95935983" lon="120.20442061">
        <time>2020-06-27T13:35:14.862000Z</time>
      </trkpt>
      <trkpt lat="35.9593818" lon="120.20455677">
        <time>2020-06-27T13:35:18.824000Z</time>
      </trkpt>
      <trkpt lat="35.95938706" lon="120.20469453">
        <time>2020-06-27T13:35:22.842000Z</time>
      </trkpt>
      <trkpt lat="35.95940013" lon="120.2048195">
        <time>2020-06-27T13:35:26.847000Z</time>
      </trkpt>
      <trkpt lat="35.95940172" lon="120.20494503">
        <time>2020-06-27T13:35:30.852000Z</time>
      </trkpt>
      <trkpt lat="35.95939383" lon="120.20508505">
        <time>2020-06-27T13:35:34.842000Z</time>
      </trkpt>
      <trkpt lat="35.9594012" lon="120.20522192">
        <time>2020-06-27T13:35:38.842000Z</time>
      </trkpt>
      <trkpt lat="35.95941823" lon="120.2053637">
        <time>2020-06-27T13:35:42.829000Z</time>
      </trkpt>
      <trkpt lat="35.95943743" lon="120.20550023">
        <time>2020-06-27T13:35:46.828000Z</time>
      </trkpt>
      <trkpt lat="35.95945947" lon="120.20562874">
        <time>2020-06-27T13:35:50.829000Z</time>
      </trkpt>
      <trkpt lat="35.9594486" lon="120.20575232">
        <time>2020-06-27T13:35:54.826000Z</time>
      </trkpt>
      <trkpt lat="35.95949748" lon="120.20585711">
        <time>2020-06-27T13:35:59.839000Z</time>
      </trkpt>
      <trkpt lat="35.95952359" lon="120.2059734">
        <time>2020-06-27T13:36:05.840000Z</time>
      </trkpt>
      <trkpt lat="35.95954772" lon="120.20609876">
        <time>2020-06-27T13:36:09.846000Z</time>
      </trkpt>
      <trkpt lat="35.95957636" lon="120.20620894">
        <time>2020-06-27T13:36:12.838000Z</time>
      </trkpt>
      <trkpt lat="35.95959288" lon="120.20633065">
        <time>2020-06-27T13:36:15.829000Z</time>
      </trkpt>
      <trkpt lat="35.95961759" lon="120.206444">
        <time>2020-06-27T13:36:18.843000Z</time>
      </trkpt>
      <trkpt lat="35.95965782" lon="120.20654753">
        <time>2020-06-27T13:36:21.827000Z</time>
      </trkpt>
      <trkpt lat="35.95971728" lon="120.20664817">
        <time>2020-06-27T13:36:25.840000Z</time>
      </trkpt>
      <trkpt lat="35.95974839" lon="120.20677957">
        <time>2020-06-27T13:36:29.838000Z</time>
      </trkpt>
      <trkpt lat="35.95982628" lon="120.20687897">
        <time>2020-06-27T13:36:33.841000Z</time>
      </trkpt>
      <trkpt lat="35.95983278" lon="120.2070361">
        <time>2020-06-27T13:36:37.830000Z</time>
      </trkpt>
      <trkpt lat="35.95984038" lon="120.2071555">
        <time>2020-06-27T13:36:40.842000Z</time>
      </trkpt>
      <trkpt lat="35.95987764" lon="120.20728556">
        <time>2020-06-27T13:36:44.838000Z</time>
      </trkpt>
      <trkpt lat="35.95990841" lon="120.20740944">
        <time>2020-06-27T13:36:48.851000Z</time>
      </trkpt>
      <trkpt lat="35.95990924" lon="120.20754595">
        <time>2020-06-27T13:36:52.827000Z</time>
      </trkpt>
      <trkpt lat="35.95990866" lon="120.20767472">
        <time>2020-06-27T13:36:56.839000Z</time>
      </trkpt>
      <trkpt lat="35.95989178" lon="120.20779533">
        <time>2020-06-27T13:37:00.831000Z</time>
      </trkpt>
      <trkpt lat="35.95988613" lon="120.20792843">
        <time>2020-06-27T13:37:04.849000Z</time>
      </trkpt>
      <trkpt lat="35.95990845" lon="120.20804384">
        <time>2020-06-27T13:37:08.838000Z</time>
      </trkpt>
      <trkpt lat="35.95993692" lon="120.20817155">
        <time>2020-06-27T13:37:12.843000Z</time>
      </trkpt>
      <trkpt lat="35.95996443" lon="120.20830195">
        <time>2020-06-27T13:37:16.832000Z</time>
      </trkpt>
      <trkpt lat="35.96001049" lon="120.20842945">
        <time>2020-06-27T13:37:20.830000Z</time>
      </trkpt>
      <trkpt lat="35.96005634" lon="120.20856224">
        <time>2020-06-27T13:37:24.828000Z</time>
      </trkpt>
      <trkpt lat="35.9601033" lon="120.20868886">
        <time>2020-06-27T13:37:28.839000Z</time>
      </trkpt>
      <trkpt lat="35.96013559" lon="120.20881902">
        <time>2020-06-27T13:37:32.841000Z</time>
      </trkpt>
      <trkpt lat="35.96015872" lon="120.20896285">
        <time>2020-06-27T13:37:36.831000Z</time>
      </trkpt>
      <trkpt lat="35.96018517" lon="120.20907591">
        <time>2020-06-27T13:37:39.842000Z</time>
      </trkpt>
      <trkpt lat="35.96021566" lon="120.20920328">
        <time>2020-06-27T13:37:43.825000Z</time>
      </trkpt>
      <trkpt lat="35.96025455" lon="120.2093427">
        <time>2020-06-27T13:37:47.828000Z</time>
      </trkpt>
      <trkpt lat="35.9602905" lon="120.20947971">
        <time>2020-06-27T13:37:51.830000Z</time>
      </trkpt>
      <trkpt lat="35.96032412" lon="120.20958441">
        <time>2020-06-27T13:37:54.824000Z</time>
      </trkpt>
      <trkpt lat="35.9603532" lon="120.20969307">
        <time>2020-06-27T13:37:57.823000Z</time>
      </trkpt>
      <trkpt lat="35.96037719" lon="120.2098139">
        <time>2020-06-27T13:38:00.840000Z</time>
      </trkpt>
      <trkpt lat="35.96040478" lon="120.20993084">
        <time>2020-06-27T13:38:03.819000Z</time>
      </trkpt>
      <trkpt lat="35.96043133" lon="120.21003843">
        <time>2020-06-27T13:38:06.857000Z</time>
      </trkpt>
      <trkpt lat="35.96041774" lon="120.21016361">
        <time>2020-06-27T13:38:10.824000Z</time>
      </trkpt>
      <trkpt lat="35.96032518" lon="120.21024145">
        <time>2020-06-27T13:38:16.857000Z</time>
      </trkpt>
      <trkpt lat="35.96021521" lon="120.21023396">
        <time>2020-06-27T13:38:21.841000Z</time>
      </trkpt>
      <trkpt lat="35.96012584" lon="120.21025258">
        <time>2020-06-27T13:38:25.828000Z</time>
      </trkpt>
      <trkpt lat="35.96002513" lon="120.21028772">
        <time>2020-06-27T13:38:30.839000Z</time>
      </trkpt>
      <trkpt lat="35.95993207" lon="120.21035391">
        <time>2020-06-27T13:38:34.839000Z</time>
      </trkpt>
      <trkpt lat="35.95984235" lon="120.21034787">
        <time>2020-06-27T13:38:37.822000Z</time>
      </trkpt>
      <trkpt lat="35.95975066" lon="120.21032383">
        <time>2020-06-27T13:38:40.838000Z</time>
      </trkpt>
      <trkpt lat="35.95963784" lon="120.21033962">
        <time>2020-06-27T13:38:44.830000Z</time>
      </trkpt>
      <trkpt lat="35.95952149" lon="120.21034724">
        <time>2020-06-27T13:38:48.848000Z</time>
      </trkpt>
      <trkpt lat="35.95942887" lon="120.21036187">
        <time>2020-06-27T13:38:51.840000Z</time>
      </trkpt>
      <trkpt lat="35.9593293" lon="120.21035943">
        <time>2020-06-27T13:38:54.837000Z</time>
      </trkpt>
      <trkpt lat="35.95923232" lon="120.21038879">
        <time>2020-06-27T13:38:58.873000Z</time>
      </trkpt>
      <trkpt lat="35.95914725" lon="120.21045205">
        <time>2020-06-27T13:39:03.839000Z</time>
      </trkpt>
      <trkpt lat="35.95904703" lon="120.21048987">
        <time>2020-06-27T13:39:07.843000Z</time>
      </trkpt>
      <trkpt lat="35.95896992" lon="120.2105475">
        <time>2020-06-27T13:39:10.847000Z</time>
      </trkpt>
      <trkpt lat="35.95887811" lon="120.21056838">
        <time>2020-06-27T13:39:13.853000Z</time>
      </trkpt>
      <trkpt lat="35.95877924" lon="120.21059213">
        <time>2020-06-27T13:39:16.838000Z</time>
      </trkpt>
      <trkpt lat="35.95868346" lon="120.21060724">
        <time>2020-06-27T13:39:19.841000Z</time>
      </trkpt>
      <trkpt lat="35.95859799" lon="120.210645">
        <time>2020-06-27T13:39:22.847000Z</time>
      </trkpt>
      <trkpt lat="35.95850453" lon="120.21066165">
        <time>2020-06-27T13:39:25.849000Z</time>
      </trkpt>
      <trkpt lat="35.95838852" lon="120.21068018">
        <time>2020-06-27T13:39:29.871000Z</time>
      </trkpt>
      <trkpt lat="35.95827978" lon="120.21070009">
        <time>2020-06-27T13:39:33.840000Z</time>
      </trkpt>
      <trkpt lat="35.95816867" lon="120.21071109">
        <time>2020-06-27T13:39:37.830000Z</time>
      </trkpt>
      <trkpt lat="35.9580573" lon="120.21068227">
        <time>2020-06-27T13:39:41.847000Z</time>
      </trkpt>
      <trkpt lat="35.95794789" lon="120.21064782">
        <time>2020-06-27T13:39:45.843000Z</time>
      </trkpt>
      <trkpt lat="35.957899" lon="120.2105424">
        <time>2020-06-27T13:39:50.847000Z</time>
      </trkpt>
      <trkpt lat="35.95788218" lon="120.21041272">
        <time>2020-06-27T13:39:54.840000Z</time>
      </trkpt>
      <trkpt lat="35.95789655" lon="120.21027736">
        <time>2020-06-27T13:39:58.856000Z</time>
      </trkpt>
      <trkpt lat="35.95788776" lon="120.21013991">
        <time>2020-06-27T13:40:02.840000Z</time>
      </trkpt>
      <trkpt lat="35.95786226" lon="120.21000873">
        <time>2020-06-27T13:40:06.846000Z</time>
      </trkpt>
      <trkpt lat="35.95781841" lon="120.20988376">
        <time>2020-06-27T13:40:10.836000Z</time>
      </trkpt>
      <trkpt lat="35.95775268" lon="120.20978952">
        <time>2020-06-27T13:40:14.881000Z</time>
      </trkpt>
      <trkpt lat="35.95765878" lon="120.20981552">
        <time>2020-06-27T13:40:18.849000Z</time>
      </trkpt>
      <trkpt lat="35.95754394" lon="120.20983046">
        <time>2020-06-27T13:40:22.848000Z</time>
      </trkpt>
      <trkpt lat="35.95744147" lon="120.20983747">
        <time>2020-06-27T13:40:25.822000Z</time>
      </trkpt>
      <trkpt lat="35.95735205" lon="120.20985396">
        <time>2020-06-27T13:40:28.840000Z</time>
      </trkpt>
      <trkpt lat="35.95723894" lon="120.20986403">
        <time>2020-06-27T13:40:32.839000Z</time>
      </trkpt>
      <trkpt lat="35.95713974" lon="120.20989833">
        <time>2020-06-27T13:40:36.825000Z</time>
      </trkpt>
      <trkpt lat="35.9570411" lon="120.20993276">
        <time>2020-06-27T13:40:41.828000Z</time>
      </trkpt>
      <trkpt lat="35.9570411" lon="120.20993276">
        <time>2020-06-27T13:40:44.661000Z</time>
      </trkpt>
      <trkpt lat="35.95695041" lon="120.20996351">
        <time>2020-06-27T13:40:50.837000Z</time>
      </trkpt>
    </trkseg>
  </trk>
</gpx>