<?xml version="1.0" encoding="UTF-8"?>
<gpx xmlns="http://www.topografix.com/GPX/1/1" xmlns:gpxtpx="http://www.garmin.com/xmlschemas/TrackPointExtension/v1" xmlns:xsi="http://www.w3.org/2001/XMLSchema-instance" xsi:schemaLocation="http://www.topografix.com/GPX/1/1 http://www.topografix.com/GPX/1/1/gpx.xsd" version="1.1" creator="gpx.py -- https://github.com/tkrajina/gpxpy">
  <trk>
    <name>Tuesday Evening Run</name>
    <trkseg>
      <trkpt lat="35.93277599" lon="120.20187315">
        <time>2020-06-30T12:49:08.827000Z</time>
      </trkpt>
      <trkpt lat="35.93281609" lon="120.20199585">
        <time>2020-06-30T12:49:13.862000Z</time>
      </trkpt>
      <trkpt lat="35.93281609" lon="120.20199585">
        <time>2020-06-30T12:49:14.775000Z</time>
      </trkpt>
      <trkpt lat="35.93290377" lon="120.20205708">
        <time>2020-06-30T12:49:17.898000Z</time>
      </trkpt>
      <trkpt lat="35.93295372" lon="120.20217686">
        <time>2020-06-30T12:49:21.825000Z</time>
      </trkpt>
      <trkpt lat="35.93299963" lon="120.20228312">
        <time>2020-06-30T12:49:24.847000Z</time>
      </trkpt>
      <trkpt lat="35.93305421" lon="120.20237786">
        <time>2020-06-30T12:49:27.858000Z</time>
      </trkpt>
      <trkpt lat="35.9331331" lon="120.20247984">
        <time>2020-06-30T12:49:31.852000Z</time>
      </trkpt>
      <trkpt lat="35.93317179" lon="120.20258493">
        <time>2020-06-30T12:49:34.856000Z</time>
      </trkpt>
      <trkpt lat="35.93318557" lon="120.20270666">
        <time>2020-06-30T12:49:37.849000Z</time>
      </trkpt>
      <trkpt lat="35.93320125" lon="120.20284396">
        <time>2020-06-30T12:49:41.867000Z</time>
      </trkpt>
      <trkpt lat="35.9332039" lon="120.20295865">
        <time>2020-06-30T12:49:44.850000Z</time>
      </trkpt>
      <trkpt lat="35.93321609" lon="120.20310006">
        <time>2020-06-30T12:49:48.846000Z</time>
      </trkpt>
      <trkpt lat="35.93320579" lon="120.20323584">
        <time>2020-06-30T12:49:52.858000Z</time>
      </trkpt>
      <trkpt lat="35.93321274" lon="120.20337925">
        <time>2020-06-30T12:49:56.848000Z</time>
      </trkpt>
      <trkpt lat="35.933249" lon="120.2035094">
        <time>2020-06-30T12:50:00.848000Z</time>
      </trkpt>
      <trkpt lat="35.93331242" lon="120.20361365">
        <time>2020-06-30T12:50:04.905000Z</time>
      </trkpt>
      <trkpt lat="35.93337594" lon="120.20373362">
        <time>2020-06-30T12:50:08.827000Z</time>
      </trkpt>
      <trkpt lat="35.93345281" lon="120.20384175">
        <time>2020-06-30T12:50:12.853000Z</time>
      </trkpt>
      <trkpt lat="35.93349702" lon="120.20394036">
        <time>2020-06-30T12:50:15.838000Z</time>
      </trkpt>
      <trkpt lat="35.93354685" lon="120.20406796">
        <time>2020-06-30T12:50:19.855000Z</time>
      </trkpt>
      <trkpt lat="35.93357604" lon="120.20420129">
        <time>2020-06-30T12:50:23.841000Z</time>
      </trkpt>
      <trkpt lat="35.93356187" lon="120.2043451">
        <time>2020-06-30T12:50:27.831000Z</time>
      </trkpt>
      <trkpt lat="35.93354222" lon="120.20449113">
        <time>2020-06-30T12:50:31.820000Z</time>
      </trkpt>
      <trkpt lat="35.9335251" lon="120.20460264">
        <time>2020-06-30T12:50:34.846000Z</time>
      </trkpt>
      <trkpt lat="35.93350941" lon="120.20474699">
        <time>2020-06-30T12:50:38.903000Z</time>
      </trkpt>
      <trkpt lat="35.93354298" lon="120.20487633">
        <time>2020-06-30T12:50:42.848000Z</time>
      </trkpt>
      <trkpt lat="35.93361375" lon="120.20498675">
        <time>2020-06-30T12:50:46.844000Z</time>
      </trkpt>
      <trkpt lat="35.93366902" lon="120.20510269">
        <time>2020-06-30T12:50:50.837000Z</time>
      </trkpt>
      <trkpt lat="35.93374337" lon="120.20519724">
        <time>2020-06-30T12:50:54.864000Z</time>
      </trkpt>
      <trkpt lat="35.93382537" lon="120.20530326">
        <time>2020-06-30T12:50:58.837000Z</time>
      </trkpt>
      <trkpt lat="35.9338807" lon="120.20539167">
        <time>2020-06-30T12:51:01.836000Z</time>
      </trkpt>
      <trkpt lat="35.933954" lon="120.20550062">
        <time>2020-06-30T12:51:05.840000Z</time>
      </trkpt>
      <trkpt lat="35.9339853" lon="120.20561901">
        <time>2020-06-30T12:51:08.817000Z</time>
      </trkpt>
      <trkpt lat="35.93400513" lon="120.20576446">
        <time>2020-06-30T12:51:12.831000Z</time>
      </trkpt>
      <trkpt lat="35.93401374" lon="120.20588655">
        <time>2020-06-30T12:51:15.839000Z</time>
      </trkpt>
      <trkpt lat="35.9340321" lon="120.20600605">
        <time>2020-06-30T12:51:18.845000Z</time>
      </trkpt>
      <trkpt lat="35.9340493" lon="120.2061191">
        <time>2020-06-30T12:51:21.834000Z</time>
      </trkpt>
      <trkpt lat="35.93409133" lon="120.20622736">
        <time>2020-06-30T12:51:24.844000Z</time>
      </trkpt>
      <trkpt lat="35.93415238" lon="120.2063149">
        <time>2020-06-30T12:51:27.849000Z</time>
      </trkpt>
      <trkpt lat="35.9342137" lon="120.20639831">
        <time>2020-06-30T12:51:30.851000Z</time>
      </trkpt>
      <trkpt lat="35.93428709" lon="120.20647686">
        <time>2020-06-30T12:51:33.860000Z</time>
      </trkpt>
      <trkpt lat="35.93435822" lon="120.20655495">
        <time>2020-06-30T12:51:36.840000Z</time>
      </trkpt>
      <trkpt lat="35.93443018" lon="120.20666549">
        <time>2020-06-30T12:51:40.830000Z</time>
      </trkpt>
      <trkpt lat="35.93451087" lon="120.20676791">
        <time>2020-06-30T12:51:44.829000Z</time>
      </trkpt>
      <trkpt lat="35.93457501" lon="120.20688534">
        <time>2020-06-30T12:51:48.846000Z</time>
      </trkpt>
      <trkpt lat="35.93463808" lon="120.20700777">
        <time>2020-06-30T12:51:52.843000Z</time>
      </trkpt>
      <trkpt lat="35.934685" lon="120.20710655">
        <time>2020-06-30T12:51:55.826000Z</time>
      </trkpt>
      <trkpt lat="35.93469288" lon="120.20722207">
        <time>2020-06-30T12:51:58.828000Z</time>
      </trkpt>
      <trkpt lat="35.93472105" lon="120.20732998">
        <time>2020-06-30T12:52:01.870000Z</time>
      </trkpt>
      <trkpt lat="35.93475838" lon="120.20746552">
        <time>2020-06-30T12:52:05.838000Z</time>
      </trkpt>
      <trkpt lat="35.93478166" lon="120.20759522">
        <time>2020-06-30T12:52:09.847000Z</time>
      </trkpt>
      <trkpt lat="35.93487489" lon="120.20767669">
        <time>2020-06-30T12:52:13.852000Z</time>
      </trkpt>
      <trkpt lat="35.93497066" lon="120.20775321">
        <time>2020-06-30T12:52:17.846000Z</time>
      </trkpt>
      <trkpt lat="35.93504141" lon="120.20785122">
        <time>2020-06-30T12:52:21.833000Z</time>
      </trkpt>
      <trkpt lat="35.93510307" lon="120.20796902">
        <time>2020-06-30T12:52:25.855000Z</time>
      </trkpt>
      <trkpt lat="35.93515607" lon="120.2080796">
        <time>2020-06-30T12:52:29.837000Z</time>
      </trkpt>
      <trkpt lat="35.93523448" lon="120.20817911">
        <time>2020-06-30T12:52:32.847000Z</time>
      </trkpt>
      <trkpt lat="35.93530924" lon="120.20825478">
        <time>2020-06-30T12:52:35.826000Z</time>
      </trkpt>
      <trkpt lat="35.9353926" lon="120.20832038">
        <time>2020-06-30T12:52:38.845000Z</time>
      </trkpt>
      <trkpt lat="35.93549034" lon="120.20834646">
        <time>2020-06-30T12:52:41.818000Z</time>
      </trkpt>
      <trkpt lat="35.93557844" lon="120.20840081">
        <time>2020-06-30T12:52:44.846000Z</time>
      </trkpt>
      <trkpt lat="35.93569143" lon="120.20845165">
        <time>2020-06-30T12:52:48.828000Z</time>
      </trkpt>
      <trkpt lat="35.93576522" lon="120.20851869">
        <time>2020-06-30T12:52:51.850000Z</time>
      </trkpt>
      <trkpt lat="35.93584545" lon="120.20859104">
        <time>2020-06-30T12:52:54.864000Z</time>
      </trkpt>
      <trkpt lat="35.93591506" lon="120.2086696">
        <time>2020-06-30T12:52:57.842000Z</time>
      </trkpt>
      <trkpt lat="35.93598676" lon="120.20875568">
        <time>2020-06-30T12:53:00.828000Z</time>
      </trkpt>
      <trkpt lat="35.93605284" lon="120.20884587">
        <time>2020-06-30T12:53:03.825000Z</time>
      </trkpt>
      <trkpt lat="35.93611984" lon="120.20893463">
        <time>2020-06-30T12:53:06.829000Z</time>
      </trkpt>
      <trkpt lat="35.93616204" lon="120.20904331">
        <time>2020-06-30T12:53:09.847000Z</time>
      </trkpt>
      <trkpt lat="35.93623474" lon="120.20912977">
        <time>2020-06-30T12:53:12.848000Z</time>
      </trkpt>
      <trkpt lat="35.93631966" lon="120.20919923">
        <time>2020-06-30T12:53:15.846000Z</time>
      </trkpt>
      <trkpt lat="35.93639862" lon="120.20926944">
        <time>2020-06-30T12:53:18.844000Z</time>
      </trkpt>
      <trkpt lat="35.93647885" lon="120.20932929">
        <time>2020-06-30T12:53:21.831000Z</time>
      </trkpt>
      <trkpt lat="35.93657502" lon="120.20938337">
        <time>2020-06-30T12:53:24.842000Z</time>
      </trkpt>
      <trkpt lat="35.93665926" lon="120.20945406">
        <time>2020-06-30T12:53:27.864000Z</time>
      </trkpt>
      <trkpt lat="35.93673101" lon="120.20954977">
        <time>2020-06-30T12:53:30.854000Z</time>
      </trkpt>
      <trkpt lat="35.9367897" lon="120.20965055">
        <time>2020-06-30T12:53:33.849000Z</time>
      </trkpt>
      <trkpt lat="35.93685406" lon="120.20974559">
        <time>2020-06-30T12:53:36.857000Z</time>
      </trkpt>
      <trkpt lat="35.93692232" lon="120.20982526">
        <time>2020-06-30T12:53:39.846000Z</time>
      </trkpt>
      <trkpt lat="35.9369882" lon="120.20990173">
        <time>2020-06-30T12:53:42.855000Z</time>
      </trkpt>
      <trkpt lat="35.93707799" lon="120.20997002">
        <time>2020-06-30T12:53:46.847000Z</time>
      </trkpt>
      <trkpt lat="35.93717021" lon="120.21002581">
        <time>2020-06-30T12:53:50.849000Z</time>
      </trkpt>
      <trkpt lat="35.93727362" lon="120.21004843">
        <time>2020-06-30T12:53:53.846000Z</time>
      </trkpt>
      <trkpt lat="35.93737106" lon="120.21007969">
        <time>2020-06-30T12:53:56.839000Z</time>
      </trkpt>
      <trkpt lat="35.93747174" lon="120.21011445">
        <time>2020-06-30T12:53:59.834000Z</time>
      </trkpt>
      <trkpt lat="35.93755733" lon="120.21015511">
        <time>2020-06-30T12:54:02.841000Z</time>
      </trkpt>
      <trkpt lat="35.93765831" lon="120.21020961">
        <time>2020-06-30T12:54:06.836000Z</time>
      </trkpt>
      <trkpt lat="35.93773683" lon="120.21029849">
        <time>2020-06-30T12:54:10.850000Z</time>
      </trkpt>
      <trkpt lat="35.93778504" lon="120.21042653">
        <time>2020-06-30T12:54:14.868000Z</time>
      </trkpt>
      <trkpt lat="35.93787966" lon="120.2105289">
        <time>2020-06-30T12:54:18.848000Z</time>
      </trkpt>
      <trkpt lat="35.9379936" lon="120.21056678">
        <time>2020-06-30T12:54:21.857000Z</time>
      </trkpt>
      <trkpt lat="35.93811169" lon="120.21058517">
        <time>2020-06-30T12:54:24.861000Z</time>
      </trkpt>
      <trkpt lat="35.9382183" lon="120.21061644">
        <time>2020-06-30T12:54:27.838000Z</time>
      </trkpt>
      <trkpt lat="35.93831984" lon="120.21064817">
        <time>2020-06-30T12:54:30.848000Z</time>
      </trkpt>
      <trkpt lat="35.93842472" lon="120.2106944">
        <time>2020-06-30T12:54:34.833000Z</time>
      </trkpt>
      <trkpt lat="35.93850497" lon="120.21074521">
        <time>2020-06-30T12:54:40.853000Z</time>
      </trkpt>
      <trkpt lat="35.93860058" lon="120.2107623">
        <time>2020-06-30T12:54:43.841000Z</time>
      </trkpt>
      <trkpt lat="35.93869895" lon="120.21078836">
        <time>2020-06-30T12:54:46.847000Z</time>
      </trkpt>
      <trkpt lat="35.93879644" lon="120.21078963">
        <time>2020-06-30T12:54:49.848000Z</time>
      </trkpt>
      <trkpt lat="35.93889" lon="120.21078971">
        <time>2020-06-30T12:54:52.851000Z</time>
      </trkpt>
      <trkpt lat="35.93897997" lon="120.2107545">
        <time>2020-06-30T12:54:55.842000Z</time>
      </trkpt>
      <trkpt lat="35.93906467" lon="120.21070462">
        <time>2020-06-30T12:54:58.850000Z</time>
      </trkpt>
      <trkpt lat="35.93915" lon="120.21063379">
        <time>2020-06-30T12:55:01.850000Z</time>
      </trkpt>
      <trkpt lat="35.93923948" lon="120.21059346">
        <time>2020-06-30T12:55:04.849000Z</time>
      </trkpt>
      <trkpt lat="35.93932628" lon="120.2105524">
        <time>2020-06-30T12:55:07.839000Z</time>
      </trkpt>
      <trkpt lat="35.93942252" lon="120.21053202">
        <time>2020-06-30T12:55:11.843000Z</time>
      </trkpt>
      <trkpt lat="35.93951303" lon="120.21050547">
        <time>2020-06-30T12:55:14.845000Z</time>
      </trkpt>
      <trkpt lat="35.93959872" lon="120.21046536">
        <time>2020-06-30T12:55:17.846000Z</time>
      </trkpt>
      <trkpt lat="35.93968617" lon="120.21042452">
        <time>2020-06-30T12:55:20.840000Z</time>
      </trkpt>
      <trkpt lat="35.9397914" lon="120.21035423">
        <time>2020-06-30T12:55:24.854000Z</time>
      </trkpt>
      <trkpt lat="35.93989984" lon="120.21030588">
        <time>2020-06-30T12:55:28.848000Z</time>
      </trkpt>
      <trkpt lat="35.93999955" lon="120.21029093">
        <time>2020-06-30T12:55:31.837000Z</time>
      </trkpt>
      <trkpt lat="35.94009953" lon="120.21026497">
        <time>2020-06-30T12:55:34.826000Z</time>
      </trkpt>
      <trkpt lat="35.94019343" lon="120.21023783">
        <time>2020-06-30T12:55:37.832000Z</time>
      </trkpt>
      <trkpt lat="35.94031192" lon="120.21026166">
        <time>2020-06-30T12:55:41.816000Z</time>
      </trkpt>
      <trkpt lat="35.94041491" lon="120.21030915">
        <time>2020-06-30T12:55:45.853000Z</time>
      </trkpt>
      <trkpt lat="35.94053751" lon="120.210322">
        <time>2020-06-30T12:55:49.831000Z</time>
      </trkpt>
      <trkpt lat="35.94063373" lon="120.21033385">
        <time>2020-06-30T12:55:52.833000Z</time>
      </trkpt>
      <trkpt lat="35.94073759" lon="120.21037295">
        <time>2020-06-30T12:55:55.827000Z</time>
      </trkpt>
      <trkpt lat="35.94082218" lon="120.21042213">
        <time>2020-06-30T12:55:58.823000Z</time>
      </trkpt>
      <trkpt lat="35.94092275" lon="120.21044214">
        <time>2020-06-30T12:56:01.828000Z</time>
      </trkpt>
      <trkpt lat="35.94102423" lon="120.21043759">
        <time>2020-06-30T12:56:04.830000Z</time>
      </trkpt>
      <trkpt lat="35.94114234" lon="120.21042072">
        <time>2020-06-30T12:56:08.832000Z</time>
      </trkpt>
      <trkpt lat="35.94123166" lon="120.2103864">
        <time>2020-06-30T12:56:11.847000Z</time>
      </trkpt>
      <trkpt lat="35.94131921" lon="120.21035398">
        <time>2020-06-30T12:56:14.820000Z</time>
      </trkpt>
      <trkpt lat="35.94140171" lon="120.21030497">
        <time>2020-06-30T12:56:17.844000Z</time>
      </trkpt>
      <trkpt lat="35.94147591" lon="120.21023442">
        <time>2020-06-30T12:56:20.845000Z</time>
      </trkpt>
      <trkpt lat="35.94155358" lon="120.21012226">
        <time>2020-06-30T12:56:24.821000Z</time>
      </trkpt>
      <trkpt lat="35.94160221" lon="120.20999061">
        <time>2020-06-30T12:56:28.852000Z</time>
      </trkpt>
      <trkpt lat="35.94165069" lon="120.2098597">
        <time>2020-06-30T12:56:32.817000Z</time>
      </trkpt>
      <trkpt lat="35.94172768" lon="120.20974406">
        <time>2020-06-30T12:56:36.845000Z</time>
      </trkpt>
      <trkpt lat="35.9417872" lon="120.20965618">
        <time>2020-06-30T12:56:39.838000Z</time>
      </trkpt>
      <trkpt lat="35.94175507" lon="120.20951764">
        <time>2020-06-30T12:56:43.871000Z</time>
      </trkpt>
      <trkpt lat="35.9417319" lon="120.20939373">
        <time>2020-06-30T12:56:47.852000Z</time>
      </trkpt>
      <trkpt lat="35.94181167" lon="120.20930969">
        <time>2020-06-30T12:56:51.836000Z</time>
      </trkpt>
      <trkpt lat="35.94190353" lon="120.20931774">
        <time>2020-06-30T12:56:54.852000Z</time>
      </trkpt>
      <trkpt lat="35.94201666" lon="120.20930515">
        <time>2020-06-30T12:56:58.836000Z</time>
      </trkpt>
      <trkpt lat="35.94212569" lon="120.20928482">
        <time>2020-06-30T12:57:02.823000Z</time>
      </trkpt>
      <trkpt lat="35.9422274" lon="120.20924801">
        <time>2020-06-30T12:57:06.838000Z</time>
      </trkpt>
      <trkpt lat="35.9423259" lon="120.20919795">
        <time>2020-06-30T12:57:10.852000Z</time>
      </trkpt>
      <trkpt lat="35.94241492" lon="120.20914922">
        <time>2020-06-30T12:57:14.857000Z</time>
      </trkpt>
      <trkpt lat="35.94251683" lon="120.20907627">
        <time>2020-06-30T12:57:18.828000Z</time>
      </trkpt>
      <trkpt lat="35.9426075" lon="120.20903408">
        <time>2020-06-30T12:57:21.857000Z</time>
      </trkpt>
      <trkpt lat="35.94270393" lon="120.20900625">
        <time>2020-06-30T12:57:24.839000Z</time>
      </trkpt>
      <trkpt lat="35.94282109" lon="120.20898981">
        <time>2020-06-30T12:57:28.846000Z</time>
      </trkpt>
      <trkpt lat="35.94291298" lon="120.20897548">
        <time>2020-06-30T12:57:31.874000Z</time>
      </trkpt>
      <trkpt lat="35.94301109" lon="120.20899214">
        <time>2020-06-30T12:57:35.832000Z</time>
      </trkpt>
      <trkpt lat="35.94310736" lon="120.20897252">
        <time>2020-06-30T12:57:39.849000Z</time>
      </trkpt>
      <trkpt lat="35.94319692" lon="120.20893571">
        <time>2020-06-30T12:57:43.847000Z</time>
      </trkpt>
      <trkpt lat="35.94328576" lon="120.20889792">
        <time>2020-06-30T12:57:46.829000Z</time>
      </trkpt>
      <trkpt lat="35.94339657" lon="120.20885503">
        <time>2020-06-30T12:57:50.844000Z</time>
      </trkpt>
      <trkpt lat="35.94350692" lon="120.20882036">
        <time>2020-06-30T12:57:54.836000Z</time>
      </trkpt>
      <trkpt lat="35.94359764" lon="120.20880747">
        <time>2020-06-30T12:57:57.837000Z</time>
      </trkpt>
      <trkpt lat="35.94369642" lon="120.20879875">
        <time>2020-06-30T12:58:00.834000Z</time>
      </trkpt>
      <trkpt lat="35.94379976" lon="120.20880602">
        <time>2020-06-30T12:58:03.828000Z</time>
      </trkpt>
      <trkpt lat="35.94389983" lon="120.20882581">
        <time>2020-06-30T12:58:06.826000Z</time>
      </trkpt>
      <trkpt lat="35.94399554" lon="120.20885396">
        <time>2020-06-30T12:58:09.843000Z</time>
      </trkpt>
      <trkpt lat="35.94408798" lon="120.20886666">
        <time>2020-06-30T12:58:12.844000Z</time>
      </trkpt>
      <trkpt lat="35.94418011" lon="120.2088817">
        <time>2020-06-30T12:58:15.850000Z</time>
      </trkpt>
      <trkpt lat="35.9442655" lon="120.20891643">
        <time>2020-06-30T12:58:18.839000Z</time>
      </trkpt>
      <trkpt lat="35.94437751" lon="120.20893111">
        <time>2020-06-30T12:58:22.839000Z</time>
      </trkpt>
      <trkpt lat="35.94449557" lon="120.20891421">
        <time>2020-06-30T12:58:26.840000Z</time>
      </trkpt>
      <trkpt lat="35.94460925" lon="120.20889649">
        <time>2020-06-30T12:58:30.856000Z</time>
      </trkpt>
      <trkpt lat="35.94472093" lon="120.20887982">
        <time>2020-06-30T12:58:34.838000Z</time>
      </trkpt>
      <trkpt lat="35.94483208" lon="120.20887442">
        <time>2020-06-30T12:58:38.831000Z</time>
      </trkpt>
      <trkpt lat="35.94493309" lon="120.20884939">
        <time>2020-06-30T12:58:42.853000Z</time>
      </trkpt>
      <trkpt lat="35.94504502" lon="120.2088408">
        <time>2020-06-30T12:58:46.843000Z</time>
      </trkpt>
      <trkpt lat="35.94516346" lon="120.20882383">
        <time>2020-06-30T12:58:50.828000Z</time>
      </trkpt>
      <trkpt lat="35.94525997" lon="120.20881026">
        <time>2020-06-30T12:58:53.843000Z</time>
      </trkpt>
      <trkpt lat="35.94534966" lon="120.20880033">
        <time>2020-06-30T12:58:56.840000Z</time>
      </trkpt>
      <trkpt lat="35.9454671" lon="120.20879156">
        <time>2020-06-30T12:59:00.825000Z</time>
      </trkpt>
      <trkpt lat="35.94555781" lon="120.20879293">
        <time>2020-06-30T12:59:03.836000Z</time>
      </trkpt>
      <trkpt lat="35.94567691" lon="120.20877922">
        <time>2020-06-30T12:59:07.842000Z</time>
      </trkpt>
      <trkpt lat="35.94579283" lon="120.20876545">
        <time>2020-06-30T12:59:11.860000Z</time>
      </trkpt>
      <trkpt lat="35.94591056" lon="120.20874228">
        <time>2020-06-30T12:59:15.848000Z</time>
      </trkpt>
      <trkpt lat="35.94601967" lon="120.20871675">
        <time>2020-06-30T12:59:19.839000Z</time>
      </trkpt>
      <trkpt lat="35.94610906" lon="120.20870526">
        <time>2020-06-30T12:59:22.851000Z</time>
      </trkpt>
      <trkpt lat="35.94621944" lon="120.20869213">
        <time>2020-06-30T12:59:26.833000Z</time>
      </trkpt>
      <trkpt lat="35.94632887" lon="120.20867486">
        <time>2020-06-30T12:59:30.828000Z</time>
      </trkpt>
      <trkpt lat="35.94643646" lon="120.20867443">
        <time>2020-06-30T12:59:34.818000Z</time>
      </trkpt>
      <trkpt lat="35.94655192" lon="120.20866864">
        <time>2020-06-30T12:59:38.833000Z</time>
      </trkpt>
      <trkpt lat="35.94664124" lon="120.20865006">
        <time>2020-06-30T12:59:41.842000Z</time>
      </trkpt>
      <trkpt lat="35.94672848" lon="120.20862125">
        <time>2020-06-30T12:59:44.855000Z</time>
      </trkpt>
      <trkpt lat="35.9468174" lon="120.20859665">
        <time>2020-06-30T12:59:47.844000Z</time>
      </trkpt>
      <trkpt lat="35.94692653" lon="120.20859676">
        <time>2020-06-30T12:59:52.839000Z</time>
      </trkpt>
      <trkpt lat="35.94703158" lon="120.20854813">
        <time>2020-06-30T12:59:56.840000Z</time>
      </trkpt>
      <trkpt lat="35.94705021" lon="120.20843687">
        <time>2020-06-30T12:59:59.851000Z</time>
      </trkpt>
      <trkpt lat="35.94703477" lon="120.20831722">
        <time>2020-06-30T13:00:02.848000Z</time>
      </trkpt>
      <trkpt lat="35.94701807" lon="120.20817198">
        <time>2020-06-30T13:00:06.828000Z</time>
      </trkpt>
      <trkpt lat="35.94700905" lon="120.20805782">
        <time>2020-06-30T13:00:09.853000Z</time>
      </trkpt>
      <trkpt lat="35.9469946" lon="120.20793041">
        <time>2020-06-30T13:00:13.837000Z</time>
      </trkpt>
      <trkpt lat="35.94699132" lon="120.20779606">
        <time>2020-06-30T13:00:17.836000Z</time>
      </trkpt>
      <trkpt lat="35.94697767" lon="120.20765333">
        <time>2020-06-30T13:00:21.841000Z</time>
      </trkpt>
      <trkpt lat="35.94695536" lon="120.20753069">
        <time>2020-06-30T13:00:25.832000Z</time>
      </trkpt>
      <trkpt lat="35.94693616" lon="120.20738666">
        <time>2020-06-30T13:00:29.839000Z</time>
      </trkpt>
      <trkpt lat="35.94692354" lon="120.20724152">
        <time>2020-06-30T13:00:33.835000Z</time>
      </trkpt>
      <trkpt lat="35.94696169" lon="120.20711593">
        <time>2020-06-30T13:00:37.843000Z</time>
      </trkpt>
      <trkpt lat="35.94702172" lon="120.20699349">
        <time>2020-06-30T13:00:41.859000Z</time>
      </trkpt>
      <trkpt lat="35.94706737" lon="120.20689088">
        <time>2020-06-30T13:00:44.853000Z</time>
      </trkpt>
      <trkpt lat="35.94712564" lon="120.20676947">
        <time>2020-06-30T13:00:48.842000Z</time>
      </trkpt>
      <trkpt lat="35.94718336" lon="120.20664162">
        <time>2020-06-30T13:00:52.863000Z</time>
      </trkpt>
      <trkpt lat="35.94723498" lon="120.20651121">
        <time>2020-06-30T13:00:56.826000Z</time>
      </trkpt>
      <trkpt lat="35.94727778" lon="120.20638183">
        <time>2020-06-30T13:01:00.829000Z</time>
      </trkpt>
      <trkpt lat="35.94731397" lon="120.2062671">
        <time>2020-06-30T13:01:03.847000Z</time>
      </trkpt>
      <trkpt lat="35.94737935" lon="120.20615998">
        <time>2020-06-30T13:01:07.820000Z</time>
      </trkpt>
      <trkpt lat="35.94741874" lon="120.20602248">
        <time>2020-06-30T13:01:11.831000Z</time>
      </trkpt>
      <trkpt lat="35.94746698" lon="120.205891">
        <time>2020-06-30T13:01:15.849000Z</time>
      </trkpt>
      <trkpt lat="35.94751032" lon="120.20579266">
        <time>2020-06-30T13:01:18.829000Z</time>
      </trkpt>
      <trkpt lat="35.94757724" lon="120.20567307">
        <time>2020-06-30T13:01:22.831000Z</time>
      </trkpt>
      <trkpt lat="35.9476258" lon="120.20554353">
        <time>2020-06-30T13:01:26.861000Z</time>
      </trkpt>
      <trkpt lat="35.94767949" lon="120.20541753">
        <time>2020-06-30T13:01:30.851000Z</time>
      </trkpt>
      <trkpt lat="35.94773527" lon="120.20530839">
        <time>2020-06-30T13:01:34.853000Z</time>
      </trkpt>
      <trkpt lat="35.94776759" lon="120.2051754">
        <time>2020-06-30T13:01:38.846000Z</time>
      </trkpt>
      <trkpt lat="35.9478136" lon="120.20503886">
        <time>2020-06-30T13:01:42.844000Z</time>
      </trkpt>
      <trkpt lat="35.94784415" lon="120.2049288">
        <time>2020-06-30T13:01:45.848000Z</time>
      </trkpt>
      <trkpt lat="35.94787032" lon="120.20479745">
        <time>2020-06-30T13:01:49.834000Z</time>
      </trkpt>
      <trkpt lat="35.94788637" lon="120.20465562">
        <time>2020-06-30T13:01:53.906000Z</time>
      </trkpt>
      <trkpt lat="35.94788089" lon="120.20453902">
        <time>2020-06-30T13:01:56.846000Z</time>
      </trkpt>
      <trkpt lat="35.94786986" lon="120.2044211">
        <time>2020-06-30T13:01:59.841000Z</time>
      </trkpt>
      <trkpt lat="35.94785534" lon="120.20427652">
        <time>2020-06-30T13:02:03.829000Z</time>
      </trkpt>
      <trkpt lat="35.94789637" lon="120.20417242">
        <time>2020-06-30T13:02:07.826000Z</time>
      </trkpt>
      <trkpt lat="35.94798421" lon="120.20422655">
        <time>2020-06-30T13:02:10.825000Z</time>
      </trkpt>
      <trkpt lat="35.94807188" lon="120.20432053">
        <time>2020-06-30T13:02:14.828000Z</time>
      </trkpt>
      <trkpt lat="35.94815823" lon="120.20442033">
        <time>2020-06-30T13:02:18.817000Z</time>
      </trkpt>
      <trkpt lat="35.94822939" lon="120.20449571">
        <time>2020-06-30T13:02:21.853000Z</time>
      </trkpt>
      <trkpt lat="35.94830696" lon="120.20456249">
        <time>2020-06-30T13:02:24.836000Z</time>
      </trkpt>
      <trkpt lat="35.94838088" lon="120.20462617">
        <time>2020-06-30T13:02:27.911000Z</time>
      </trkpt>
      <trkpt lat="35.94845726" lon="120.20470209">
        <time>2020-06-30T13:02:30.852000Z</time>
      </trkpt>
      <trkpt lat="35.94853143" lon="120.20476821">
        <time>2020-06-30T13:02:33.842000Z</time>
      </trkpt>
      <trkpt lat="35.94861373" lon="120.20483986">
        <time>2020-06-30T13:02:36.859000Z</time>
      </trkpt>
      <trkpt lat="35.94867655" lon="120.20492421">
        <time>2020-06-30T13:02:39.837000Z</time>
      </trkpt>
      <trkpt lat="35.94875934" lon="120.20501655">
        <time>2020-06-30T13:02:43.832000Z</time>
      </trkpt>
      <trkpt lat="35.94884905" lon="120.20511221">
        <time>2020-06-30T13:02:47.840000Z</time>
      </trkpt>
      <trkpt lat="35.9489158" lon="120.20520163">
        <time>2020-06-30T13:02:50.852000Z</time>
      </trkpt>
      <trkpt lat="35.94897968" lon="120.20528573">
        <time>2020-06-30T13:02:53.848000Z</time>
      </trkpt>
      <trkpt lat="35.94905667" lon="120.2053841">
        <time>2020-06-30T13:02:57.850000Z</time>
      </trkpt>
      <trkpt lat="35.94912887" lon="120.20546872">
        <time>2020-06-30T13:03:01.876000Z</time>
      </trkpt>
      <trkpt lat="35.94921167" lon="120.20555707">
        <time>2020-06-30T13:03:05.856000Z</time>
      </trkpt>
      <trkpt lat="35.94927965" lon="120.20563007">
        <time>2020-06-30T13:03:08.847000Z</time>
      </trkpt>
      <trkpt lat="35.94934893" lon="120.20570852">
        <time>2020-06-30T13:03:11.829000Z</time>
      </trkpt>
      <trkpt lat="35.94944155" lon="120.20580155">
        <time>2020-06-30T13:03:15.840000Z</time>
      </trkpt>
      <trkpt lat="35.94954438" lon="120.20588001">
        <time>2020-06-30T13:03:19.829000Z</time>
      </trkpt>
      <trkpt lat="35.949612" lon="120.20595955">
        <time>2020-06-30T13:03:22.833000Z</time>
      </trkpt>
      <trkpt lat="35.94969806" lon="120.20602057">
        <time>2020-06-30T13:03:25.839000Z</time>
      </trkpt>
      <trkpt lat="35.94980483" lon="120.20600357">
        <time>2020-06-30T13:03:28.838000Z</time>
      </trkpt>
      <trkpt lat="35.94988837" lon="120.20595872">
        <time>2020-06-30T13:03:31.842000Z</time>
      </trkpt>
      <trkpt lat="35.94996892" lon="120.20589744">
        <time>2020-06-30T13:03:34.842000Z</time>
      </trkpt>
      <trkpt lat="35.95007517" lon="120.20583334">
        <time>2020-06-30T13:03:38.847000Z</time>
      </trkpt>
      <trkpt lat="35.9501604" lon="120.20579516">
        <time>2020-06-30T13:03:41.832000Z</time>
      </trkpt>
      <trkpt lat="35.95027269" lon="120.205746">
        <time>2020-06-30T13:03:45.839000Z</time>
      </trkpt>
      <trkpt lat="35.95038811" lon="120.20571585">
        <time>2020-06-30T13:03:49.850000Z</time>
      </trkpt>
      <trkpt lat="35.95049909" lon="120.20568269">
        <time>2020-06-30T13:03:53.835000Z</time>
      </trkpt>
      <trkpt lat="35.95058352" lon="120.20563868">
        <time>2020-06-30T13:03:56.846000Z</time>
      </trkpt>
      <trkpt lat="35.95064118" lon="120.20554834">
        <time>2020-06-30T13:03:59.836000Z</time>
      </trkpt>
      <trkpt lat="35.95066348" lon="120.20543566">
        <time>2020-06-30T13:04:02.918000Z</time>
      </trkpt>
      <trkpt lat="35.95065392" lon="120.20531947">
        <time>2020-06-30T13:04:05.844000Z</time>
      </trkpt>
      <trkpt lat="35.95062235" lon="120.20520261">
        <time>2020-06-30T13:04:08.851000Z</time>
      </trkpt>
      <trkpt lat="35.95059416" lon="120.20508843">
        <time>2020-06-30T13:04:11.831000Z</time>
      </trkpt>
      <trkpt lat="35.95056448" lon="120.20495286">
        <time>2020-06-30T13:04:15.855000Z</time>
      </trkpt>
      <trkpt lat="35.95055802" lon="120.20482348">
        <time>2020-06-30T13:04:21.852000Z</time>
      </trkpt>
      <trkpt lat="35.95055802" lon="120.20482348">
        <time>2020-06-30T13:04:22.088000Z</time>
      </trkpt>
      <trkpt lat="35.95055802" lon="120.20482348">
        <time>2020-06-30T13:04:39.098000Z</time>
      </trkpt>
      <trkpt lat="35.95065726" lon="120.2048095">
        <time>2020-06-30T13:04:40.832000Z</time>
      </trkpt>
      <trkpt lat="35.95073994" lon="120.20474276">
        <time>2020-06-30T13:04:43.847000Z</time>
      </trkpt>
      <trkpt lat="35.9508211" lon="120.2046791">
        <time>2020-06-30T13:04:46.821000Z</time>
      </trkpt>
      <trkpt lat="35.95090226" lon="120.20462387">
        <time>2020-06-30T13:04:49.830000Z</time>
      </trkpt>
      <trkpt lat="35.95098651" lon="120.20458381">
        <time>2020-06-30T13:04:52.857000Z</time>
      </trkpt>
      <trkpt lat="35.9510794" lon="120.20456571">
        <time>2020-06-30T13:04:55.857000Z</time>
      </trkpt>
      <trkpt lat="35.95117435" lon="120.20455215">
        <time>2020-06-30T13:04:58.824000Z</time>
      </trkpt>
      <trkpt lat="35.95127288" lon="120.20453905">
        <time>2020-06-30T13:05:01.854000Z</time>
      </trkpt>
      <trkpt lat="35.95137419" lon="120.2045178">
        <time>2020-06-30T13:05:04.829000Z</time>
      </trkpt>
      <trkpt lat="35.95147605" lon="120.20449947">
        <time>2020-06-30T13:05:07.851000Z</time>
      </trkpt>
      <trkpt lat="35.9515743" lon="120.2044912">
        <time>2020-06-30T13:05:10.848000Z</time>
      </trkpt>
      <trkpt lat="35.95168861" lon="120.20447168">
        <time>2020-06-30T13:05:14.847000Z</time>
      </trkpt>
      <trkpt lat="35.95180395" lon="120.20443704">
        <time>2020-06-30T13:05:18.852000Z</time>
      </trkpt>
      <trkpt lat="35.95189864" lon="120.20439623">
        <time>2020-06-30T13:05:21.850000Z</time>
      </trkpt>
      <trkpt lat="35.95199027" lon="120.20434071">
        <time>2020-06-30T13:05:24.852000Z</time>
      </trkpt>
      <trkpt lat="35.95210689" lon="120.20433921">
        <time>2020-06-30T13:05:28.844000Z</time>
      </trkpt>
      <trkpt lat="35.9522242" lon="120.2043154">
        <time>2020-06-30T13:05:32.828000Z</time>
      </trkpt>
      <trkpt lat="35.95233984" lon="120.20430241">
        <time>2020-06-30T13:05:36.818000Z</time>
      </trkpt>
      <trkpt lat="35.95245698" lon="120.20433908">
        <time>2020-06-30T13:05:40.857000Z</time>
      </trkpt>
      <trkpt lat="35.95255278" lon="120.20433458">
        <time>2020-06-30T13:05:43.841000Z</time>
      </trkpt>
      <trkpt lat="35.9526422" lon="120.20430143">
        <time>2020-06-30T13:05:46.849000Z</time>
      </trkpt>
      <trkpt lat="35.952746" lon="120.20426433">
        <time>2020-06-30T13:05:50.852000Z</time>
      </trkpt>
      <trkpt lat="35.95285621" lon="120.20422788">
        <time>2020-06-30T13:05:54.840000Z</time>
      </trkpt>
      <trkpt lat="35.95296593" lon="120.20422414">
        <time>2020-06-30T13:05:58.838000Z</time>
      </trkpt>
      <trkpt lat="35.95306396" lon="120.20421841">
        <time>2020-06-30T13:06:03.859000Z</time>
      </trkpt>
      <trkpt lat="35.95317244" lon="120.20422394">
        <time>2020-06-30T13:06:07.851000Z</time>
      </trkpt>
      <trkpt lat="35.95327829" lon="120.20423415">
        <time>2020-06-30T13:06:11.845000Z</time>
      </trkpt>
      <trkpt lat="35.95339278" lon="120.20421301">
        <time>2020-06-30T13:06:15.818000Z</time>
      </trkpt>
      <trkpt lat="35.95350269" lon="120.20421191">
        <time>2020-06-30T13:06:19.830000Z</time>
      </trkpt>
      <trkpt lat="35.95359481" lon="120.20419504">
        <time>2020-06-30T13:06:22.864000Z</time>
      </trkpt>
      <trkpt lat="35.95371132" lon="120.2041691">
        <time>2020-06-30T13:06:26.841000Z</time>
      </trkpt>
      <trkpt lat="35.95382535" lon="120.20414509">
        <time>2020-06-30T13:06:30.854000Z</time>
      </trkpt>
      <trkpt lat="35.95393776" lon="120.20412696">
        <time>2020-06-30T13:06:34.844000Z</time>
      </trkpt>
      <trkpt lat="35.95405073" lon="120.20410089">
        <time>2020-06-30T13:06:38.845000Z</time>
      </trkpt>
      <trkpt lat="35.95415968" lon="120.20407668">
        <time>2020-06-30T13:06:42.834000Z</time>
      </trkpt>
      <trkpt lat="35.95427219" lon="120.20405606">
        <time>2020-06-30T13:06:46.821000Z</time>
      </trkpt>
      <trkpt lat="35.95437001" lon="120.20402891">
        <time>2020-06-30T13:06:50.850000Z</time>
      </trkpt>
      <trkpt lat="35.95446708" lon="120.20402277">
        <time>2020-06-30T13:06:54.848000Z</time>
      </trkpt>
      <trkpt lat="35.95456734" lon="120.20400477">
        <time>2020-06-30T13:06:58.848000Z</time>
      </trkpt>
      <trkpt lat="35.95466462" lon="120.20399248">
        <time>2020-06-30T13:07:02.849000Z</time>
      </trkpt>
      <trkpt lat="35.95476001" lon="120.20399389">
        <time>2020-06-30T13:07:09.903000Z</time>
      </trkpt>
      <trkpt lat="35.95476001" lon="120.20399389">
        <time>2020-06-30T13:07:14.175000Z</time>
      </trkpt>
      <trkpt lat="35.95485567" lon="120.20401167">
        <time>2020-06-30T13:07:16.847000Z</time>
      </trkpt>
      <trkpt lat="35.95494943" lon="120.20404123">
        <time>2020-06-30T13:07:25.848000Z</time>
      </trkpt>
      <trkpt lat="35.95504989" lon="120.20405394">
        <time>2020-06-30T13:07:50.841000Z</time>
      </trkpt>
      <trkpt lat="35.95504989" lon="120.20405394">
        <time>2020-06-30T13:07:51.842000Z</time>
      </trkpt>
      <trkpt lat="35.95516913" lon="120.20405021">
        <time>2020-06-30T13:07:54.857000Z</time>
      </trkpt>
      <trkpt lat="35.95525039" lon="120.20414042">
        <time>2020-06-30T13:07:58.825000Z</time>
      </trkpt>
      <trkpt lat="35.9552825" lon="120.2042734">
        <time>2020-06-30T13:08:02.841000Z</time>
      </trkpt>
      <trkpt lat="35.95530964" lon="120.20440312">
        <time>2020-06-30T13:08:05.852000Z</time>
      </trkpt>
      <trkpt lat="35.95533925" lon="120.20454318">
        <time>2020-06-30T13:08:09.855000Z</time>
      </trkpt>
      <trkpt lat="35.95536894" lon="120.20464938">
        <time>2020-06-30T13:08:12.827000Z</time>
      </trkpt>
      <trkpt lat="35.9554073" lon="120.20475689">
        <time>2020-06-30T13:08:15.861000Z</time>
      </trkpt>
      <trkpt lat="35.95544881" lon="120.20488173">
        <time>2020-06-30T13:08:19.846000Z</time>
      </trkpt>
      <trkpt lat="35.95546564" lon="120.20499693">
        <time>2020-06-30T13:08:22.825000Z</time>
      </trkpt>
      <trkpt lat="35.95547423" lon="120.20511249">
        <time>2020-06-30T13:08:25.856000Z</time>
      </trkpt>
      <trkpt lat="35.95548624" lon="120.20522571">
        <time>2020-06-30T13:08:28.846000Z</time>
      </trkpt>
      <trkpt lat="35.95550548" lon="120.20533586">
        <time>2020-06-30T13:08:31.842000Z</time>
      </trkpt>
      <trkpt lat="35.95552242" lon="120.20547228">
        <time>2020-06-30T13:08:35.838000Z</time>
      </trkpt>
      <trkpt lat="35.95553838" lon="120.20561082">
        <time>2020-06-30T13:08:39.848000Z</time>
      </trkpt>
      <trkpt lat="35.95554172" lon="120.2057244">
        <time>2020-06-30T13:08:42.844000Z</time>
      </trkpt>
      <trkpt lat="35.95555187" lon="120.20585403">
        <time>2020-06-30T13:08:45.853000Z</time>
      </trkpt>
      <trkpt lat="35.95557739" lon="120.20597255">
        <time>2020-06-30T13:08:49.838000Z</time>
      </trkpt>
      <trkpt lat="35.95561915" lon="120.20607839">
        <time>2020-06-30T13:08:52.847000Z</time>
      </trkpt>
      <trkpt lat="35.95564816" lon="120.20618728">
        <time>2020-06-30T13:08:55.849000Z</time>
      </trkpt>
      <trkpt lat="35.95567558" lon="120.20630343">
        <time>2020-06-30T13:08:58.843000Z</time>
      </trkpt>
      <trkpt lat="35.95569642" lon="120.20641279">
        <time>2020-06-30T13:09:01.834000Z</time>
      </trkpt>
      <trkpt lat="35.95569792" lon="120.20652617">
        <time>2020-06-30T13:09:04.841000Z</time>
      </trkpt>
      <trkpt lat="35.9557023" lon="120.20664396">
        <time>2020-06-30T13:09:07.830000Z</time>
      </trkpt>
      <trkpt lat="35.95570873" lon="120.20675971">
        <time>2020-06-30T13:09:10.855000Z</time>
      </trkpt>
      <trkpt lat="35.95570582" lon="120.20687972">
        <time>2020-06-30T13:09:13.826000Z</time>
      </trkpt>
      <trkpt lat="35.95571661" lon="120.2070209">
        <time>2020-06-30T13:09:17.837000Z</time>
      </trkpt>
      <trkpt lat="35.95573736" lon="120.20714113">
        <time>2020-06-30T13:09:21.841000Z</time>
      </trkpt>
      <trkpt lat="35.95574642" lon="120.2072704">
        <time>2020-06-30T13:09:25.844000Z</time>
      </trkpt>
      <trkpt lat="35.95573962" lon="120.20740989">
        <time>2020-06-30T13:09:29.838000Z</time>
      </trkpt>
      <trkpt lat="35.95573223" lon="120.20754929">
        <time>2020-06-30T13:09:33.834000Z</time>
      </trkpt>
      <trkpt lat="35.95573166" lon="120.20768286">
        <time>2020-06-30T13:09:37.841000Z</time>
      </trkpt>
      <trkpt lat="35.95581258" lon="120.20774088">
        <time>2020-06-30T13:09:41.837000Z</time>
      </trkpt>
      <trkpt lat="35.95590876" lon="120.20772409">
        <time>2020-06-30T13:09:45.846000Z</time>
      </trkpt>
      <trkpt lat="35.95600587" lon="120.20768159">
        <time>2020-06-30T13:09:49.842000Z</time>
      </trkpt>
      <trkpt lat="35.95611407" lon="120.2076483">
        <time>2020-06-30T13:09:53.864000Z</time>
      </trkpt>
      <trkpt lat="35.95620373" lon="120.20763634">
        <time>2020-06-30T13:09:56.846000Z</time>
      </trkpt>
      <trkpt lat="35.95631136" lon="120.20760888">
        <time>2020-06-30T13:10:00.841000Z</time>
      </trkpt>
      <trkpt lat="35.95639837" lon="120.20756622">
        <time>2020-06-30T13:10:03.844000Z</time>
      </trkpt>
      <trkpt lat="35.95651479" lon="120.20753174">
        <time>2020-06-30T13:10:07.850000Z</time>
      </trkpt>
      <trkpt lat="35.95658755" lon="120.20762228">
        <time>2020-06-30T13:10:11.855000Z</time>
      </trkpt>
      <trkpt lat="35.956578" lon="120.20775257">
        <time>2020-06-30T13:10:14.828000Z</time>
      </trkpt>
      <trkpt lat="35.95657732" lon="120.20787218">
        <time>2020-06-30T13:10:17.841000Z</time>
      </trkpt>
      <trkpt lat="35.95659539" lon="120.20800408">
        <time>2020-06-30T13:10:21.836000Z</time>
      </trkpt>
      <trkpt lat="35.95661423" lon="120.20812443">
        <time>2020-06-30T13:10:25.869000Z</time>
      </trkpt>
      <trkpt lat="35.95661174" lon="120.20826482">
        <time>2020-06-30T13:10:29.843000Z</time>
      </trkpt>
      <trkpt lat="35.95661541" lon="120.20840348">
        <time>2020-06-30T13:10:33.830000Z</time>
      </trkpt>
      <trkpt lat="35.95662349" lon="120.20851641">
        <time>2020-06-30T13:10:36.847000Z</time>
      </trkpt>
      <trkpt lat="35.95662933" lon="120.20863003">
        <time>2020-06-30T13:10:39.862000Z</time>
      </trkpt>
      <trkpt lat="35.95665414" lon="120.20877024">
        <time>2020-06-30T13:10:43.846000Z</time>
      </trkpt>
      <trkpt lat="35.9566835" lon="120.20890825">
        <time>2020-06-30T13:10:47.818000Z</time>
      </trkpt>
      <trkpt lat="35.95670341" lon="120.20903738">
        <time>2020-06-30T13:10:51.840000Z</time>
      </trkpt>
      <trkpt lat="35.95670341" lon="120.20903738">
        <time>2020-06-30T13:11:00.825000Z</time>
      </trkpt>
      <trkpt lat="35.95670963" lon="120.20892031">
        <time>2020-06-30T13:11:05.824000Z</time>
      </trkpt>
      <trkpt lat="35.95669846" lon="120.20904485">
        <time>2020-06-30T13:11:12.839000Z</time>
      </trkpt>
      <trkpt lat="35.95670381" lon="120.2091677">
        <time>2020-06-30T13:11:19.843000Z</time>
      </trkpt>
      <trkpt lat="35.95671436" lon="120.20928046">
        <time>2020-06-30T13:11:27.862000Z</time>
      </trkpt>
      <trkpt lat="35.95674213" lon="120.20939878">
        <time>2020-06-30T13:11:35.826000Z</time>
      </trkpt>
      <trkpt lat="35.95674213" lon="120.20939878">
        <time>2020-06-30T13:11:36.837000Z</time>
      </trkpt>
      <trkpt lat="35.95675361" lon="120.20952402">
        <time>2020-06-30T13:11:42.859000Z</time>
      </trkpt>
      <trkpt lat="35.9567591" lon="120.20954056">
        <time>2020-06-30T13:11:43.833000Z</time>
      </trkpt>
    </trkseg>
  </trk>
</gpx>