<?xml version="1.0" encoding="UTF-8"?>
<gpx xmlns="http://www.topografix.com/GPX/1/1" xmlns:gpxtpx="http://www.garmin.com/xmlschemas/TrackPointExtension/v1" xmlns:xsi="http://www.w3.org/2001/XMLSchema-instance" xsi:schemaLocation="http://www.topografix.com/GPX/1/1 http://www.topografix.com/GPX/1/1/gpx.xsd" version="1.1" creator="gpx.py -- https://github.com/tkrajina/gpxpy">
  <trk>
    <name>Saturday Evening Run</name>
    <trkseg>
      <trkpt lat="35.95692348" lon="120.20992659">
        <time>2020-07-04T12:21:15.092000Z</time>
      </trkpt>
      <trkpt lat="35.95702127" lon="120.20989806">
        <time>2020-07-04T12:21:19.064000Z</time>
      </trkpt>
      <trkpt lat="35.95711789" lon="120.20987343">
        <time>2020-07-04T12:21:23.083000Z</time>
      </trkpt>
      <trkpt lat="35.95720893" lon="120.20985096">
        <time>2020-07-04T12:21:27.072000Z</time>
      </trkpt>
      <trkpt lat="35.95732843" lon="120.20982894">
        <time>2020-07-04T12:21:31.070000Z</time>
      </trkpt>
      <trkpt lat="35.9574208" lon="120.2098145">
        <time>2020-07-04T12:21:34.085000Z</time>
      </trkpt>
      <trkpt lat="35.95752854" lon="120.20979095">
        <time>2020-07-04T12:21:38.063000Z</time>
      </trkpt>
      <trkpt lat="35.95762295" lon="120.20979723">
        <time>2020-07-04T12:21:41.086000Z</time>
      </trkpt>
      <trkpt lat="35.95771803" lon="120.2097943">
        <time>2020-07-04T12:21:44.082000Z</time>
      </trkpt>
      <trkpt lat="35.95780862" lon="120.20981669">
        <time>2020-07-04T12:21:47.081000Z</time>
      </trkpt>
      <trkpt lat="35.95786268" lon="120.20991588">
        <time>2020-07-04T12:21:51.069000Z</time>
      </trkpt>
      <trkpt lat="35.95796633" lon="120.20998173">
        <time>2020-07-04T12:21:55.096000Z</time>
      </trkpt>
      <trkpt lat="35.95800799" lon="120.21011848">
        <time>2020-07-04T12:21:59.082000Z</time>
      </trkpt>
      <trkpt lat="35.95803039" lon="120.21025339">
        <time>2020-07-04T12:22:02.087000Z</time>
      </trkpt>
      <trkpt lat="35.95800436" lon="120.21037966">
        <time>2020-07-04T12:22:05.081000Z</time>
      </trkpt>
      <trkpt lat="35.95797901" lon="120.21050226">
        <time>2020-07-04T12:22:08.087000Z</time>
      </trkpt>
      <trkpt lat="35.95797066" lon="120.210618">
        <time>2020-07-04T12:22:11.069000Z</time>
      </trkpt>
      <trkpt lat="35.95795086" lon="120.21075846">
        <time>2020-07-04T12:22:14.088000Z</time>
      </trkpt>
      <trkpt lat="35.95787531" lon="120.21083371">
        <time>2020-07-04T12:22:17.075000Z</time>
      </trkpt>
      <trkpt lat="35.95777548" lon="120.21086225">
        <time>2020-07-04T12:22:20.065000Z</time>
      </trkpt>
      <trkpt lat="35.95767283" lon="120.21087558">
        <time>2020-07-04T12:22:23.080000Z</time>
      </trkpt>
      <trkpt lat="35.95757258" lon="120.21085559">
        <time>2020-07-04T12:22:26.086000Z</time>
      </trkpt>
      <trkpt lat="35.95747766" lon="120.21084956">
        <time>2020-07-04T12:22:29.074000Z</time>
      </trkpt>
      <trkpt lat="35.95737696" lon="120.21088678">
        <time>2020-07-04T12:22:33.087000Z</time>
      </trkpt>
      <trkpt lat="35.95728355" lon="120.21088716">
        <time>2020-07-04T12:22:36.131000Z</time>
      </trkpt>
      <trkpt lat="35.95718918" lon="120.21087238">
        <time>2020-07-04T12:22:39.062000Z</time>
      </trkpt>
      <trkpt lat="35.95707354" lon="120.21085334">
        <time>2020-07-04T12:22:43.072000Z</time>
      </trkpt>
      <trkpt lat="35.95696165" lon="120.2108644">
        <time>2020-07-04T12:22:47.090000Z</time>
      </trkpt>
      <trkpt lat="35.9568582" lon="120.21087415">
        <time>2020-07-04T12:22:51.082000Z</time>
      </trkpt>
      <trkpt lat="35.9567808" lon="120.210932">
        <time>2020-07-04T12:22:54.085000Z</time>
      </trkpt>
      <trkpt lat="35.95670374" lon="120.21099082">
        <time>2020-07-04T12:22:57.082000Z</time>
      </trkpt>
      <trkpt lat="35.9565924" lon="120.21103792">
        <time>2020-07-04T12:23:01.083000Z</time>
      </trkpt>
      <trkpt lat="35.95649594" lon="120.21104881">
        <time>2020-07-04T12:23:04.084000Z</time>
      </trkpt>
      <trkpt lat="35.95641004" lon="120.21110315">
        <time>2020-07-04T12:23:07.083000Z</time>
      </trkpt>
      <trkpt lat="35.9563036" lon="120.21111634">
        <time>2020-07-04T12:23:11.080000Z</time>
      </trkpt>
      <trkpt lat="35.95618164" lon="120.2111186">
        <time>2020-07-04T12:23:15.083000Z</time>
      </trkpt>
      <trkpt lat="35.95609604" lon="120.21116057">
        <time>2020-07-04T12:23:18.075000Z</time>
      </trkpt>
      <trkpt lat="35.95600422" lon="120.21121337">
        <time>2020-07-04T12:23:22.083000Z</time>
      </trkpt>
      <trkpt lat="35.95588466" lon="120.21119776">
        <time>2020-07-04T12:23:26.087000Z</time>
      </trkpt>
      <trkpt lat="35.95579473" lon="120.21119739">
        <time>2020-07-04T12:23:29.082000Z</time>
      </trkpt>
      <trkpt lat="35.95571307" lon="120.21124604">
        <time>2020-07-04T12:23:33.078000Z</time>
      </trkpt>
      <trkpt lat="35.95567358" lon="120.21136046">
        <time>2020-07-04T12:23:37.091000Z</time>
      </trkpt>
      <trkpt lat="35.95560953" lon="120.21146783">
        <time>2020-07-04T12:23:44.074000Z</time>
      </trkpt>
      <trkpt lat="35.95551957" lon="120.21153633">
        <time>2020-07-04T12:23:48.083000Z</time>
      </trkpt>
      <trkpt lat="35.95552788" lon="120.21166568">
        <time>2020-07-04T12:23:52.077000Z</time>
      </trkpt>
      <trkpt lat="35.95556848" lon="120.21178557">
        <time>2020-07-04T12:23:56.081000Z</time>
      </trkpt>
      <trkpt lat="35.95559114" lon="120.21191537">
        <time>2020-07-04T12:24:00.071000Z</time>
      </trkpt>
      <trkpt lat="35.95562282" lon="120.21204626">
        <time>2020-07-04T12:24:04.084000Z</time>
      </trkpt>
      <trkpt lat="35.95564271" lon="120.21218436">
        <time>2020-07-04T12:24:08.093000Z</time>
      </trkpt>
      <trkpt lat="35.95567313" lon="120.21232112">
        <time>2020-07-04T12:24:12.077000Z</time>
      </trkpt>
      <trkpt lat="35.95571635" lon="120.21243096">
        <time>2020-07-04T12:24:16.070000Z</time>
      </trkpt>
      <trkpt lat="35.95575003" lon="120.2125522">
        <time>2020-07-04T12:24:20.084000Z</time>
      </trkpt>
      <trkpt lat="35.95575361" lon="120.21267522">
        <time>2020-07-04T12:24:24.084000Z</time>
      </trkpt>
      <trkpt lat="35.95578223" lon="120.2127833">
        <time>2020-07-04T12:24:27.082000Z</time>
      </trkpt>
      <trkpt lat="35.95581997" lon="120.21288528">
        <time>2020-07-04T12:24:30.084000Z</time>
      </trkpt>
      <trkpt lat="35.9558886" lon="120.21298537">
        <time>2020-07-04T12:24:34.080000Z</time>
      </trkpt>
      <trkpt lat="35.95591439" lon="120.21309836">
        <time>2020-07-04T12:24:38.078000Z</time>
      </trkpt>
      <trkpt lat="35.95589183" lon="120.21324107">
        <time>2020-07-04T12:24:42.096000Z</time>
      </trkpt>
      <trkpt lat="35.95583041" lon="120.21333631">
        <time>2020-07-04T12:24:45.081000Z</time>
      </trkpt>
      <trkpt lat="35.95577427" lon="120.21343425">
        <time>2020-07-04T12:24:48.086000Z</time>
      </trkpt>
      <trkpt lat="35.95566749" lon="120.21349401">
        <time>2020-07-04T12:24:52.082000Z</time>
      </trkpt>
      <trkpt lat="35.95555425" lon="120.21351822">
        <time>2020-07-04T12:24:56.085000Z</time>
      </trkpt>
      <trkpt lat="35.95544497" lon="120.2135343">
        <time>2020-07-04T12:25:00.081000Z</time>
      </trkpt>
      <trkpt lat="35.95533127" lon="120.21357149">
        <time>2020-07-04T12:25:04.103000Z</time>
      </trkpt>
      <trkpt lat="35.95522021" lon="120.2136036">
        <time>2020-07-04T12:25:08.079000Z</time>
      </trkpt>
      <trkpt lat="35.95514131" lon="120.21365674">
        <time>2020-07-04T12:25:11.072000Z</time>
      </trkpt>
      <trkpt lat="35.95505404" lon="120.21369891">
        <time>2020-07-04T12:25:14.084000Z</time>
      </trkpt>
      <trkpt lat="35.95495961" lon="120.21372701">
        <time>2020-07-04T12:25:17.085000Z</time>
      </trkpt>
      <trkpt lat="35.95486847" lon="120.21374907">
        <time>2020-07-04T12:25:20.083000Z</time>
      </trkpt>
      <trkpt lat="35.95477744" lon="120.2137629">
        <time>2020-07-04T12:25:23.085000Z</time>
      </trkpt>
      <trkpt lat="35.95468298" lon="120.21378814">
        <time>2020-07-04T12:25:26.084000Z</time>
      </trkpt>
      <trkpt lat="35.95459186" lon="120.21380497">
        <time>2020-07-04T12:25:29.082000Z</time>
      </trkpt>
      <trkpt lat="35.95449816" lon="120.21382319">
        <time>2020-07-04T12:25:32.082000Z</time>
      </trkpt>
      <trkpt lat="35.95440562" lon="120.21384548">
        <time>2020-07-04T12:25:35.082000Z</time>
      </trkpt>
      <trkpt lat="35.95429586" lon="120.21387908">
        <time>2020-07-04T12:25:39.077000Z</time>
      </trkpt>
      <trkpt lat="35.95418271" lon="120.2139045">
        <time>2020-07-04T12:25:43.085000Z</time>
      </trkpt>
      <trkpt lat="35.95409344" lon="120.21393413">
        <time>2020-07-04T12:25:46.082000Z</time>
      </trkpt>
      <trkpt lat="35.95400636" lon="120.21396502">
        <time>2020-07-04T12:25:49.077000Z</time>
      </trkpt>
      <trkpt lat="35.95389114" lon="120.21398554">
        <time>2020-07-04T12:25:53.085000Z</time>
      </trkpt>
      <trkpt lat="35.95380065" lon="120.21398282">
        <time>2020-07-04T12:25:56.080000Z</time>
      </trkpt>
      <trkpt lat="35.95368837" lon="120.21401549">
        <time>2020-07-04T12:26:00.099000Z</time>
      </trkpt>
      <trkpt lat="35.95359649" lon="120.21404741">
        <time>2020-07-04T12:26:03.068000Z</time>
      </trkpt>
      <trkpt lat="35.95350989" lon="120.21407855">
        <time>2020-07-04T12:26:06.075000Z</time>
      </trkpt>
      <trkpt lat="35.95341652" lon="120.21411038">
        <time>2020-07-04T12:26:09.085000Z</time>
      </trkpt>
      <trkpt lat="35.95331969" lon="120.21414379">
        <time>2020-07-04T12:26:12.087000Z</time>
      </trkpt>
      <trkpt lat="35.95321379" lon="120.21412116">
        <time>2020-07-04T12:26:16.080000Z</time>
      </trkpt>
      <trkpt lat="35.95311353" lon="120.21404712">
        <time>2020-07-04T12:26:20.087000Z</time>
      </trkpt>
      <trkpt lat="35.95301382" lon="120.21398561">
        <time>2020-07-04T12:26:24.078000Z</time>
      </trkpt>
      <trkpt lat="35.95292113" lon="120.21391187">
        <time>2020-07-04T12:26:28.084000Z</time>
      </trkpt>
      <trkpt lat="35.95283894" lon="120.21382756">
        <time>2020-07-04T12:26:32.079000Z</time>
      </trkpt>
      <trkpt lat="35.95277975" lon="120.21372549">
        <time>2020-07-04T12:26:36.084000Z</time>
      </trkpt>
      <trkpt lat="35.95276578" lon="120.21360666">
        <time>2020-07-04T12:26:40.082000Z</time>
      </trkpt>
      <trkpt lat="35.95274047" lon="120.21346771">
        <time>2020-07-04T12:26:44.086000Z</time>
      </trkpt>
      <trkpt lat="35.95270641" lon="120.21332849">
        <time>2020-07-04T12:26:48.072000Z</time>
      </trkpt>
      <trkpt lat="35.95269294" lon="120.21321213">
        <time>2020-07-04T12:26:51.096000Z</time>
      </trkpt>
      <trkpt lat="35.95267043" lon="120.21310281">
        <time>2020-07-04T12:26:54.083000Z</time>
      </trkpt>
      <trkpt lat="35.95264306" lon="120.21298802">
        <time>2020-07-04T12:26:57.084000Z</time>
      </trkpt>
      <trkpt lat="35.95261875" lon="120.21286486">
        <time>2020-07-04T12:27:00.081000Z</time>
      </trkpt>
      <trkpt lat="35.95259609" lon="120.21274543">
        <time>2020-07-04T12:27:03.085000Z</time>
      </trkpt>
      <trkpt lat="35.95257476" lon="120.21263275">
        <time>2020-07-04T12:27:06.084000Z</time>
      </trkpt>
      <trkpt lat="35.95254609" lon="120.21249321">
        <time>2020-07-04T12:27:10.080000Z</time>
      </trkpt>
      <trkpt lat="35.95252099" lon="120.2123581">
        <time>2020-07-04T12:27:14.066000Z</time>
      </trkpt>
      <trkpt lat="35.95249186" lon="120.2122234">
        <time>2020-07-04T12:27:18.067000Z</time>
      </trkpt>
      <trkpt lat="35.95246819" lon="120.21208275">
        <time>2020-07-04T12:27:22.084000Z</time>
      </trkpt>
      <trkpt lat="35.95242217" lon="120.21196234">
        <time>2020-07-04T12:27:26.085000Z</time>
      </trkpt>
      <trkpt lat="35.95237918" lon="120.2118472">
        <time>2020-07-04T12:27:30.082000Z</time>
      </trkpt>
      <trkpt lat="35.95235976" lon="120.21171735">
        <time>2020-07-04T12:27:34.087000Z</time>
      </trkpt>
      <trkpt lat="35.95233738" lon="120.21157918">
        <time>2020-07-04T12:27:38.070000Z</time>
      </trkpt>
      <trkpt lat="35.95231322" lon="120.21147041">
        <time>2020-07-04T12:27:41.079000Z</time>
      </trkpt>
      <trkpt lat="35.95228759" lon="120.21135765">
        <time>2020-07-04T12:27:44.082000Z</time>
      </trkpt>
      <trkpt lat="35.95226733" lon="120.21124427">
        <time>2020-07-04T12:27:47.089000Z</time>
      </trkpt>
      <trkpt lat="35.95224236" lon="120.21110388">
        <time>2020-07-04T12:27:51.077000Z</time>
      </trkpt>
      <trkpt lat="35.95221598" lon="120.21096987">
        <time>2020-07-04T12:27:55.085000Z</time>
      </trkpt>
      <trkpt lat="35.95219167" lon="120.21083788">
        <time>2020-07-04T12:27:59.086000Z</time>
      </trkpt>
      <trkpt lat="35.95214925" lon="120.21073889">
        <time>2020-07-04T12:28:03.084000Z</time>
      </trkpt>
      <trkpt lat="35.95205363" lon="120.21076152">
        <time>2020-07-04T12:28:07.081000Z</time>
      </trkpt>
      <trkpt lat="35.95194824" lon="120.21082561">
        <time>2020-07-04T12:28:11.079000Z</time>
      </trkpt>
      <trkpt lat="35.95184827" lon="120.21085742">
        <time>2020-07-04T12:28:15.086000Z</time>
      </trkpt>
      <trkpt lat="35.95184827" lon="120.21085742">
        <time>2020-07-04T12:28:20.077000Z</time>
      </trkpt>
      <trkpt lat="35.95177419" lon="120.21079281">
        <time>2020-07-04T12:28:31.068000Z</time>
      </trkpt>
      <trkpt lat="35.95177419" lon="120.21079281">
        <time>2020-07-04T12:28:34.696000Z</time>
      </trkpt>
      <trkpt lat="35.95175762" lon="120.2106697">
        <time>2020-07-04T12:28:35.069000Z</time>
      </trkpt>
      <trkpt lat="35.95170433" lon="120.21057097">
        <time>2020-07-04T12:28:40.068000Z</time>
      </trkpt>
      <trkpt lat="35.95160817" lon="120.21056916">
        <time>2020-07-04T12:28:44.078000Z</time>
      </trkpt>
      <trkpt lat="35.95149498" lon="120.21058318">
        <time>2020-07-04T12:28:48.081000Z</time>
      </trkpt>
      <trkpt lat="35.95140656" lon="120.21060543">
        <time>2020-07-04T12:28:51.072000Z</time>
      </trkpt>
      <trkpt lat="35.95131067" lon="120.2106569">
        <time>2020-07-04T12:28:55.066000Z</time>
      </trkpt>
      <trkpt lat="35.9512128" lon="120.21068059">
        <time>2020-07-04T12:28:59.072000Z</time>
      </trkpt>
      <trkpt lat="35.95111203" lon="120.21069817">
        <time>2020-07-04T12:29:03.073000Z</time>
      </trkpt>
      <trkpt lat="35.95101725" lon="120.21075412">
        <time>2020-07-04T12:29:07.084000Z</time>
      </trkpt>
      <trkpt lat="35.95092143" lon="120.21079998">
        <time>2020-07-04T12:29:11.079000Z</time>
      </trkpt>
      <trkpt lat="35.95081224" lon="120.21081028">
        <time>2020-07-04T12:29:15.079000Z</time>
      </trkpt>
      <trkpt lat="35.95070123" lon="120.21086777">
        <time>2020-07-04T12:29:19.080000Z</time>
      </trkpt>
      <trkpt lat="35.95061478" lon="120.21092045">
        <time>2020-07-04T12:29:22.082000Z</time>
      </trkpt>
      <trkpt lat="35.95052605" lon="120.21095007">
        <time>2020-07-04T12:29:25.081000Z</time>
      </trkpt>
      <trkpt lat="35.95040826" lon="120.21098989">
        <time>2020-07-04T12:29:29.091000Z</time>
      </trkpt>
      <trkpt lat="35.95030569" lon="120.21102523">
        <time>2020-07-04T12:29:32.090000Z</time>
      </trkpt>
      <trkpt lat="35.95019688" lon="120.21104028">
        <time>2020-07-04T12:29:35.068000Z</time>
      </trkpt>
      <trkpt lat="35.9500857" lon="120.21103253">
        <time>2020-07-04T12:29:39.086000Z</time>
      </trkpt>
      <trkpt lat="35.94998544" lon="120.21102457">
        <time>2020-07-04T12:29:42.079000Z</time>
      </trkpt>
      <trkpt lat="35.9498969" lon="120.21106785">
        <time>2020-07-04T12:29:46.119000Z</time>
      </trkpt>
      <trkpt lat="35.94979382" lon="120.21108327">
        <time>2020-07-04T12:29:52.094000Z</time>
      </trkpt>
      <trkpt lat="35.94970846" lon="120.21115067">
        <time>2020-07-04T12:29:56.064000Z</time>
      </trkpt>
      <trkpt lat="35.94962288" lon="120.21118966">
        <time>2020-07-04T12:29:59.082000Z</time>
      </trkpt>
      <trkpt lat="35.94953192" lon="120.21121996">
        <time>2020-07-04T12:30:02.078000Z</time>
      </trkpt>
      <trkpt lat="35.94945336" lon="120.21127415">
        <time>2020-07-04T12:30:05.069000Z</time>
      </trkpt>
      <trkpt lat="35.94934399" lon="120.21128535">
        <time>2020-07-04T12:30:08.068000Z</time>
      </trkpt>
      <trkpt lat="35.94922298" lon="120.21131725">
        <time>2020-07-04T12:30:11.113000Z</time>
      </trkpt>
      <trkpt lat="35.94911038" lon="120.21136335">
        <time>2020-07-04T12:30:14.080000Z</time>
      </trkpt>
      <trkpt lat="35.9490127" lon="120.21137482">
        <time>2020-07-04T12:30:17.075000Z</time>
      </trkpt>
      <trkpt lat="35.94888596" lon="120.21136819">
        <time>2020-07-04T12:30:21.085000Z</time>
      </trkpt>
      <trkpt lat="35.94877778" lon="120.21136404">
        <time>2020-07-04T12:30:24.066000Z</time>
      </trkpt>
      <trkpt lat="35.94867151" lon="120.21137344">
        <time>2020-07-04T12:30:28.083000Z</time>
      </trkpt>
      <trkpt lat="35.94856596" lon="120.21138477">
        <time>2020-07-04T12:30:32.070000Z</time>
      </trkpt>
      <trkpt lat="35.94846624" lon="120.21142498">
        <time>2020-07-04T12:30:35.079000Z</time>
      </trkpt>
      <trkpt lat="35.94837559" lon="120.21142138">
        <time>2020-07-04T12:30:38.086000Z</time>
      </trkpt>
      <trkpt lat="35.94828202" lon="120.21138134">
        <time>2020-07-04T12:30:42.064000Z</time>
      </trkpt>
      <trkpt lat="35.94817932" lon="120.21138832">
        <time>2020-07-04T12:30:46.065000Z</time>
      </trkpt>
      <trkpt lat="35.94807378" lon="120.21141073">
        <time>2020-07-04T12:30:50.078000Z</time>
      </trkpt>
      <trkpt lat="35.94796827" lon="120.2114437">
        <time>2020-07-04T12:30:54.065000Z</time>
      </trkpt>
      <trkpt lat="35.94786138" lon="120.21147684">
        <time>2020-07-04T12:30:58.064000Z</time>
      </trkpt>
      <trkpt lat="35.94775094" lon="120.21151238">
        <time>2020-07-04T12:31:02.071000Z</time>
      </trkpt>
      <trkpt lat="35.94765713" lon="120.21153567">
        <time>2020-07-04T12:31:05.100000Z</time>
      </trkpt>
      <trkpt lat="35.9475622" lon="120.21156081">
        <time>2020-07-04T12:31:08.078000Z</time>
      </trkpt>
      <trkpt lat="35.94746453" lon="120.21158711">
        <time>2020-07-04T12:31:12.066000Z</time>
      </trkpt>
      <trkpt lat="35.94736921" lon="120.21159772">
        <time>2020-07-04T12:31:16.068000Z</time>
      </trkpt>
      <trkpt lat="35.94728138" lon="120.2116245">
        <time>2020-07-04T12:31:19.082000Z</time>
      </trkpt>
      <trkpt lat="35.94718762" lon="120.21166121">
        <time>2020-07-04T12:31:22.081000Z</time>
      </trkpt>
      <trkpt lat="35.94709713" lon="120.21167945">
        <time>2020-07-04T12:31:25.096000Z</time>
      </trkpt>
      <trkpt lat="35.94700465" lon="120.21171094">
        <time>2020-07-04T12:31:28.064000Z</time>
      </trkpt>
      <trkpt lat="35.94691677" lon="120.21174171">
        <time>2020-07-04T12:31:31.082000Z</time>
      </trkpt>
      <trkpt lat="35.94682593" lon="120.21178103">
        <time>2020-07-04T12:31:34.082000Z</time>
      </trkpt>
      <trkpt lat="35.94673223" lon="120.21181009">
        <time>2020-07-04T12:31:37.085000Z</time>
      </trkpt>
      <trkpt lat="35.9466368" lon="120.21183171">
        <time>2020-07-04T12:31:40.083000Z</time>
      </trkpt>
      <trkpt lat="35.94654298" lon="120.21185255">
        <time>2020-07-04T12:31:43.082000Z</time>
      </trkpt>
      <trkpt lat="35.94643532" lon="120.21188692">
        <time>2020-07-04T12:31:47.079000Z</time>
      </trkpt>
      <trkpt lat="35.94632102" lon="120.21192804">
        <time>2020-07-04T12:31:51.065000Z</time>
      </trkpt>
      <trkpt lat="35.94620954" lon="120.2119568">
        <time>2020-07-04T12:31:55.083000Z</time>
      </trkpt>
      <trkpt lat="35.94610055" lon="120.21198514">
        <time>2020-07-04T12:31:59.088000Z</time>
      </trkpt>
      <trkpt lat="35.94601251" lon="120.21201595">
        <time>2020-07-04T12:32:02.080000Z</time>
      </trkpt>
      <trkpt lat="35.94591727" lon="120.21204623">
        <time>2020-07-04T12:32:06.083000Z</time>
      </trkpt>
      <trkpt lat="35.94582173" lon="120.21212128">
        <time>2020-07-04T12:32:11.083000Z</time>
      </trkpt>
      <trkpt lat="35.94571104" lon="120.21212342">
        <time>2020-07-04T12:32:17.087000Z</time>
      </trkpt>
      <trkpt lat="35.94562226" lon="120.21216983">
        <time>2020-07-04T12:32:20.083000Z</time>
      </trkpt>
      <trkpt lat="35.94553298" lon="120.2122144">
        <time>2020-07-04T12:32:23.084000Z</time>
      </trkpt>
      <trkpt lat="35.94544163" lon="120.21226119">
        <time>2020-07-04T12:32:27.085000Z</time>
      </trkpt>
      <trkpt lat="35.94534014" lon="120.21232446">
        <time>2020-07-04T12:32:31.074000Z</time>
      </trkpt>
      <trkpt lat="35.94523207" lon="120.2123726">
        <time>2020-07-04T12:32:35.087000Z</time>
      </trkpt>
      <trkpt lat="35.94513007" lon="120.21241923">
        <time>2020-07-04T12:32:39.074000Z</time>
      </trkpt>
      <trkpt lat="35.94503127" lon="120.21246128">
        <time>2020-07-04T12:32:43.076000Z</time>
      </trkpt>
      <trkpt lat="35.94493233" lon="120.21250137">
        <time>2020-07-04T12:32:47.084000Z</time>
      </trkpt>
      <trkpt lat="35.94484308" lon="120.21252874">
        <time>2020-07-04T12:32:51.084000Z</time>
      </trkpt>
      <trkpt lat="35.94475934" lon="120.21259538">
        <time>2020-07-04T12:32:55.084000Z</time>
      </trkpt>
      <trkpt lat="35.94468915" lon="120.21269768">
        <time>2020-07-04T12:32:59.105000Z</time>
      </trkpt>
      <trkpt lat="35.94458976" lon="120.21274818">
        <time>2020-07-04T12:33:03.068000Z</time>
      </trkpt>
      <trkpt lat="35.94448818" lon="120.21280371">
        <time>2020-07-04T12:33:07.066000Z</time>
      </trkpt>
      <trkpt lat="35.9443905" lon="120.21285211">
        <time>2020-07-04T12:33:11.085000Z</time>
      </trkpt>
      <trkpt lat="35.94428538" lon="120.21289552">
        <time>2020-07-04T12:33:16.099000Z</time>
      </trkpt>
      <trkpt lat="35.9441834" lon="120.21295228">
        <time>2020-07-04T12:33:20.064000Z</time>
      </trkpt>
      <trkpt lat="35.94408059" lon="120.21300925">
        <time>2020-07-04T12:33:24.079000Z</time>
      </trkpt>
      <trkpt lat="35.94398689" lon="120.21306693">
        <time>2020-07-04T12:33:28.069000Z</time>
      </trkpt>
      <trkpt lat="35.943902" lon="120.21312026">
        <time>2020-07-04T12:33:32.070000Z</time>
      </trkpt>
      <trkpt lat="35.94381219" lon="120.21311316">
        <time>2020-07-04T12:33:35.064000Z</time>
      </trkpt>
      <trkpt lat="35.94372339" lon="120.21301825">
        <time>2020-07-04T12:33:39.083000Z</time>
      </trkpt>
      <trkpt lat="35.94365435" lon="120.21290313">
        <time>2020-07-04T12:33:43.082000Z</time>
      </trkpt>
      <trkpt lat="35.94358512" lon="120.21279498">
        <time>2020-07-04T12:33:47.081000Z</time>
      </trkpt>
      <trkpt lat="35.94352432" lon="120.21269195">
        <time>2020-07-04T12:33:52.063000Z</time>
      </trkpt>
      <trkpt lat="35.94343977" lon="120.2125963">
        <time>2020-07-04T12:33:57.084000Z</time>
      </trkpt>
      <trkpt lat="35.94336778" lon="120.21250759">
        <time>2020-07-04T12:34:01.082000Z</time>
      </trkpt>
      <trkpt lat="35.94330587" lon="120.21242123">
        <time>2020-07-04T12:34:05.065000Z</time>
      </trkpt>
      <trkpt lat="35.94323678" lon="120.21231613">
        <time>2020-07-04T12:34:09.068000Z</time>
      </trkpt>
      <trkpt lat="35.94318792" lon="120.21219464">
        <time>2020-07-04T12:34:14.075000Z</time>
      </trkpt>
      <trkpt lat="35.94312199" lon="120.2121125">
        <time>2020-07-04T12:34:19.066000Z</time>
      </trkpt>
      <trkpt lat="35.94305582" lon="120.2120132">
        <time>2020-07-04T12:34:23.083000Z</time>
      </trkpt>
      <trkpt lat="35.94299884" lon="120.21189018">
        <time>2020-07-04T12:34:27.076000Z</time>
      </trkpt>
      <trkpt lat="35.94293536" lon="120.21179004">
        <time>2020-07-04T12:34:31.085000Z</time>
      </trkpt>
      <trkpt lat="35.94287376" lon="120.21170606">
        <time>2020-07-04T12:34:34.076000Z</time>
      </trkpt>
      <trkpt lat="35.94282603" lon="120.21159994">
        <time>2020-07-04T12:34:37.071000Z</time>
      </trkpt>
      <trkpt lat="35.94277973" lon="120.21149083">
        <time>2020-07-04T12:34:40.082000Z</time>
      </trkpt>
      <trkpt lat="35.94274394" lon="120.21138416">
        <time>2020-07-04T12:34:43.075000Z</time>
      </trkpt>
      <trkpt lat="35.94268461" lon="120.21129737">
        <time>2020-07-04T12:34:46.085000Z</time>
      </trkpt>
      <trkpt lat="35.94262656" lon="120.2112107">
        <time>2020-07-04T12:34:49.076000Z</time>
      </trkpt>
      <trkpt lat="35.94256883" lon="120.21111994">
        <time>2020-07-04T12:34:53.060000Z</time>
      </trkpt>
      <trkpt lat="35.94249009" lon="120.21104226">
        <time>2020-07-04T12:34:57.086000Z</time>
      </trkpt>
      <trkpt lat="35.94243509" lon="120.21095114">
        <time>2020-07-04T12:35:00.073000Z</time>
      </trkpt>
      <trkpt lat="35.94238166" lon="120.2108457">
        <time>2020-07-04T12:35:04.082000Z</time>
      </trkpt>
      <trkpt lat="35.94235429" lon="120.21073438">
        <time>2020-07-04T12:35:08.082000Z</time>
      </trkpt>
      <trkpt lat="35.94235429" lon="120.21073438">
        <time>2020-07-04T12:35:09.541000Z</time>
      </trkpt>
      <trkpt lat="35.94233004" lon="120.21061893">
        <time>2020-07-04T12:35:13.107000Z</time>
      </trkpt>
      <trkpt lat="35.94228978" lon="120.21051484">
        <time>2020-07-04T12:35:19.086000Z</time>
      </trkpt>
      <trkpt lat="35.94223752" lon="120.21040758">
        <time>2020-07-04T12:35:26.079000Z</time>
      </trkpt>
      <trkpt lat="35.94223752" lon="120.21040758">
        <time>2020-07-04T12:35:31.067000Z</time>
      </trkpt>
      <trkpt lat="35.94216619" lon="120.21030432">
        <time>2020-07-04T12:35:32.082000Z</time>
      </trkpt>
      <trkpt lat="35.94208711" lon="120.21020235">
        <time>2020-07-04T12:35:36.073000Z</time>
      </trkpt>
      <trkpt lat="35.94201177" lon="120.21008549">
        <time>2020-07-04T12:35:40.082000Z</time>
      </trkpt>
      <trkpt lat="35.9419474" lon="120.20997836">
        <time>2020-07-04T12:35:44.063000Z</time>
      </trkpt>
      <trkpt lat="35.94187992" lon="120.20985621">
        <time>2020-07-04T12:35:48.082000Z</time>
      </trkpt>
      <trkpt lat="35.94181989" lon="120.20974778">
        <time>2020-07-04T12:35:52.086000Z</time>
      </trkpt>
      <trkpt lat="35.94173818" lon="120.2096816">
        <time>2020-07-04T12:35:58.076000Z</time>
      </trkpt>
      <trkpt lat="35.94169208" lon="120.20955646">
        <time>2020-07-04T12:36:02.131000Z</time>
      </trkpt>
      <trkpt lat="35.94168202" lon="120.20942515">
        <time>2020-07-04T12:36:06.086000Z</time>
      </trkpt>
      <trkpt lat="35.94164172" lon="120.20932038">
        <time>2020-07-04T12:36:10.078000Z</time>
      </trkpt>
      <trkpt lat="35.94153345" lon="120.20928203">
        <time>2020-07-04T12:36:14.083000Z</time>
      </trkpt>
      <trkpt lat="35.94143929" lon="120.20927041">
        <time>2020-07-04T12:36:18.085000Z</time>
      </trkpt>
      <trkpt lat="35.94133859" lon="120.20923563">
        <time>2020-07-04T12:36:23.067000Z</time>
      </trkpt>
      <trkpt lat="35.94130229" lon="120.20909863">
        <time>2020-07-04T12:36:27.068000Z</time>
      </trkpt>
      <trkpt lat="35.94123315" lon="120.20899605">
        <time>2020-07-04T12:36:31.081000Z</time>
      </trkpt>
      <trkpt lat="35.94114446" lon="120.20890992">
        <time>2020-07-04T12:36:35.085000Z</time>
      </trkpt>
      <trkpt lat="35.94106427" lon="120.20885088">
        <time>2020-07-04T12:36:38.086000Z</time>
      </trkpt>
      <trkpt lat="35.94095963" lon="120.20880045">
        <time>2020-07-04T12:36:42.075000Z</time>
      </trkpt>
      <trkpt lat="35.94085631" lon="120.20879133">
        <time>2020-07-04T12:36:46.068000Z</time>
      </trkpt>
      <trkpt lat="35.94074975" lon="120.2088165">
        <time>2020-07-04T12:36:50.073000Z</time>
      </trkpt>
      <trkpt lat="35.94064555" lon="120.20888395">
        <time>2020-07-04T12:36:54.090000Z</time>
      </trkpt>
      <trkpt lat="35.94057548" lon="120.20896084">
        <time>2020-07-04T12:36:57.081000Z</time>
      </trkpt>
      <trkpt lat="35.94050914" lon="120.20908341">
        <time>2020-07-04T12:37:01.089000Z</time>
      </trkpt>
      <trkpt lat="35.94044629" lon="120.20919728">
        <time>2020-07-04T12:37:05.091000Z</time>
      </trkpt>
      <trkpt lat="35.9403859" lon="120.20930655">
        <time>2020-07-04T12:37:09.077000Z</time>
      </trkpt>
      <trkpt lat="35.94031934" lon="120.20942848">
        <time>2020-07-04T12:37:13.070000Z</time>
      </trkpt>
      <trkpt lat="35.94029025" lon="120.20953904">
        <time>2020-07-04T12:37:16.078000Z</time>
      </trkpt>
      <trkpt lat="35.94022522" lon="120.20963898">
        <time>2020-07-04T12:37:20.126000Z</time>
      </trkpt>
      <trkpt lat="35.94011703" lon="120.20965026">
        <time>2020-07-04T12:37:24.080000Z</time>
      </trkpt>
      <trkpt lat="35.94001052" lon="120.20968607">
        <time>2020-07-04T12:37:28.082000Z</time>
      </trkpt>
      <trkpt lat="35.93990698" lon="120.20972737">
        <time>2020-07-04T12:37:32.090000Z</time>
      </trkpt>
      <trkpt lat="35.93980816" lon="120.2097545">
        <time>2020-07-04T12:37:36.082000Z</time>
      </trkpt>
      <trkpt lat="35.93970697" lon="120.20977975">
        <time>2020-07-04T12:37:40.088000Z</time>
      </trkpt>
      <trkpt lat="35.93960477" lon="120.20979443">
        <time>2020-07-04T12:37:44.089000Z</time>
      </trkpt>
      <trkpt lat="35.93950176" lon="120.20981035">
        <time>2020-07-04T12:37:48.075000Z</time>
      </trkpt>
      <trkpt lat="35.93940232" lon="120.20983205">
        <time>2020-07-04T12:37:52.090000Z</time>
      </trkpt>
      <trkpt lat="35.93930278" lon="120.20985367">
        <time>2020-07-04T12:37:56.066000Z</time>
      </trkpt>
      <trkpt lat="35.93920405" lon="120.20989983">
        <time>2020-07-04T12:38:00.064000Z</time>
      </trkpt>
      <trkpt lat="35.93909156" lon="120.20993546">
        <time>2020-07-04T12:38:04.072000Z</time>
      </trkpt>
      <trkpt lat="35.93897864" lon="120.20997064">
        <time>2020-07-04T12:38:08.064000Z</time>
      </trkpt>
      <trkpt lat="35.93886693" lon="120.21000481">
        <time>2020-07-04T12:38:12.083000Z</time>
      </trkpt>
      <trkpt lat="35.93876182" lon="120.21002346">
        <time>2020-07-04T12:38:16.067000Z</time>
      </trkpt>
      <trkpt lat="35.93865619" lon="120.21003516">
        <time>2020-07-04T12:38:20.067000Z</time>
      </trkpt>
      <trkpt lat="35.93854749" lon="120.2100421">
        <time>2020-07-04T12:38:24.070000Z</time>
      </trkpt>
      <trkpt lat="35.93843721" lon="120.21002547">
        <time>2020-07-04T12:38:28.080000Z</time>
      </trkpt>
      <trkpt lat="35.9383276" lon="120.210009">
        <time>2020-07-04T12:38:32.067000Z</time>
      </trkpt>
      <trkpt lat="35.938225" lon="120.2099787">
        <time>2020-07-04T12:38:36.100000Z</time>
      </trkpt>
      <trkpt lat="35.93812567" lon="120.20994264">
        <time>2020-07-04T12:38:40.086000Z</time>
      </trkpt>
      <trkpt lat="35.93803909" lon="120.20989555">
        <time>2020-07-04T12:38:44.077000Z</time>
      </trkpt>
      <trkpt lat="35.93794262" lon="120.20982257">
        <time>2020-07-04T12:38:48.081000Z</time>
      </trkpt>
      <trkpt lat="35.93784283" lon="120.20974887">
        <time>2020-07-04T12:38:52.078000Z</time>
      </trkpt>
      <trkpt lat="35.9377457" lon="120.20969101">
        <time>2020-07-04T12:38:56.085000Z</time>
      </trkpt>
      <trkpt lat="35.93765292" lon="120.20962457">
        <time>2020-07-04T12:39:00.084000Z</time>
      </trkpt>
      <trkpt lat="35.93756234" lon="120.20953467">
        <time>2020-07-04T12:39:04.091000Z</time>
      </trkpt>
      <trkpt lat="35.93746701" lon="120.20946294">
        <time>2020-07-04T12:39:08.089000Z</time>
      </trkpt>
      <trkpt lat="35.93737399" lon="120.20939125">
        <time>2020-07-04T12:39:12.086000Z</time>
      </trkpt>
      <trkpt lat="35.93728313" lon="120.20931742">
        <time>2020-07-04T12:39:16.092000Z</time>
      </trkpt>
      <trkpt lat="35.93719629" lon="120.20924703">
        <time>2020-07-04T12:39:20.074000Z</time>
      </trkpt>
      <trkpt lat="35.9371006" lon="120.20919928">
        <time>2020-07-04T12:39:24.082000Z</time>
      </trkpt>
      <trkpt lat="35.93700646" lon="120.20911756">
        <time>2020-07-04T12:39:28.090000Z</time>
      </trkpt>
      <trkpt lat="35.93691886" lon="120.20902371">
        <time>2020-07-04T12:39:32.087000Z</time>
      </trkpt>
      <trkpt lat="35.93683305" lon="120.2089298">
        <time>2020-07-04T12:39:36.082000Z</time>
      </trkpt>
      <trkpt lat="35.93674486" lon="120.2088353">
        <time>2020-07-04T12:39:40.086000Z</time>
      </trkpt>
      <trkpt lat="35.93665741" lon="120.20874969">
        <time>2020-07-04T12:39:44.101000Z</time>
      </trkpt>
      <trkpt lat="35.93656592" lon="120.20867016">
        <time>2020-07-04T12:39:49.090000Z</time>
      </trkpt>
      <trkpt lat="35.93647819" lon="120.20858867">
        <time>2020-07-04T12:39:53.086000Z</time>
      </trkpt>
      <trkpt lat="35.93641365" lon="120.20850732">
        <time>2020-07-04T12:39:56.082000Z</time>
      </trkpt>
      <trkpt lat="35.93633942" lon="120.20843592">
        <time>2020-07-04T12:39:59.071000Z</time>
      </trkpt>
      <trkpt lat="35.93626638" lon="120.20835444">
        <time>2020-07-04T12:40:02.070000Z</time>
      </trkpt>
      <trkpt lat="35.93620076" lon="120.20826024">
        <time>2020-07-04T12:40:05.088000Z</time>
      </trkpt>
      <trkpt lat="35.93613494" lon="120.20817873">
        <time>2020-07-04T12:40:08.088000Z</time>
      </trkpt>
      <trkpt lat="35.93604945" lon="120.20808118">
        <time>2020-07-04T12:40:12.089000Z</time>
      </trkpt>
      <trkpt lat="35.93598832" lon="120.20799406">
        <time>2020-07-04T12:40:15.098000Z</time>
      </trkpt>
      <trkpt lat="35.93593594" lon="120.2079017">
        <time>2020-07-04T12:40:18.071000Z</time>
      </trkpt>
      <trkpt lat="35.93586148" lon="120.20780586">
        <time>2020-07-04T12:40:22.073000Z</time>
      </trkpt>
      <trkpt lat="35.93578706" lon="120.2077127">
        <time>2020-07-04T12:40:26.087000Z</time>
      </trkpt>
      <trkpt lat="35.93571406" lon="120.20759768">
        <time>2020-07-04T12:40:30.085000Z</time>
      </trkpt>
      <trkpt lat="35.93564441" lon="120.20748903">
        <time>2020-07-04T12:40:34.082000Z</time>
      </trkpt>
      <trkpt lat="35.93557428" lon="120.20737412">
        <time>2020-07-04T12:40:38.073000Z</time>
      </trkpt>
      <trkpt lat="35.93550494" lon="120.20729155">
        <time>2020-07-04T12:40:42.066000Z</time>
      </trkpt>
      <trkpt lat="35.93543858" lon="120.20718015">
        <time>2020-07-04T12:40:46.082000Z</time>
      </trkpt>
      <trkpt lat="35.93536949" lon="120.20706805">
        <time>2020-07-04T12:40:50.069000Z</time>
      </trkpt>
      <trkpt lat="35.9353167" lon="120.20696293">
        <time>2020-07-04T12:40:54.081000Z</time>
      </trkpt>
      <trkpt lat="35.93526528" lon="120.20684245">
        <time>2020-07-04T12:40:58.081000Z</time>
      </trkpt>
      <trkpt lat="35.93520936" lon="120.20673482">
        <time>2020-07-04T12:41:02.093000Z</time>
      </trkpt>
      <trkpt lat="35.9351482" lon="120.20662938">
        <time>2020-07-04T12:41:06.073000Z</time>
      </trkpt>
      <trkpt lat="35.935084" lon="120.20652537">
        <time>2020-07-04T12:41:10.088000Z</time>
      </trkpt>
      <trkpt lat="35.93503444" lon="120.20639725">
        <time>2020-07-04T12:41:14.066000Z</time>
      </trkpt>
      <trkpt lat="35.93496962" lon="120.20627319">
        <time>2020-07-04T12:41:18.092000Z</time>
      </trkpt>
      <trkpt lat="35.93492685" lon="120.20617377">
        <time>2020-07-04T12:41:21.083000Z</time>
      </trkpt>
      <trkpt lat="35.93486833" lon="120.20605985">
        <time>2020-07-04T12:41:25.099000Z</time>
      </trkpt>
      <trkpt lat="35.93480833" lon="120.20594406">
        <time>2020-07-04T12:41:29.089000Z</time>
      </trkpt>
      <trkpt lat="35.93476238" lon="120.20583412">
        <time>2020-07-04T12:41:33.069000Z</time>
      </trkpt>
      <trkpt lat="35.93473087" lon="120.2057209">
        <time>2020-07-04T12:41:37.082000Z</time>
      </trkpt>
      <trkpt lat="35.93468403" lon="120.20562472">
        <time>2020-07-04T12:41:41.083000Z</time>
      </trkpt>
      <trkpt lat="35.93462873" lon="120.20552068">
        <time>2020-07-04T12:41:45.082000Z</time>
      </trkpt>
      <trkpt lat="35.93458185" lon="120.20540969">
        <time>2020-07-04T12:41:49.058000Z</time>
      </trkpt>
      <trkpt lat="35.93453686" lon="120.20529302">
        <time>2020-07-04T12:41:53.067000Z</time>
      </trkpt>
      <trkpt lat="35.93448055" lon="120.20518396">
        <time>2020-07-04T12:41:57.087000Z</time>
      </trkpt>
      <trkpt lat="35.93443336" lon="120.2050801">
        <time>2020-07-04T12:42:01.068000Z</time>
      </trkpt>
      <trkpt lat="35.93439259" lon="120.20497126">
        <time>2020-07-04T12:42:05.081000Z</time>
      </trkpt>
      <trkpt lat="35.934338" lon="120.20485823">
        <time>2020-07-04T12:42:09.062000Z</time>
      </trkpt>
      <trkpt lat="35.93427572" lon="120.20475229">
        <time>2020-07-04T12:42:13.081000Z</time>
      </trkpt>
      <trkpt lat="35.93421484" lon="120.20462649">
        <time>2020-07-04T12:42:17.090000Z</time>
      </trkpt>
      <trkpt lat="35.93416692" lon="120.20453136">
        <time>2020-07-04T12:42:20.080000Z</time>
      </trkpt>
      <trkpt lat="35.93410936" lon="120.20441502">
        <time>2020-07-04T12:42:24.075000Z</time>
      </trkpt>
      <trkpt lat="35.9340529" lon="120.20430427">
        <time>2020-07-04T12:42:28.110000Z</time>
      </trkpt>
      <trkpt lat="35.93399978" lon="120.20418194">
        <time>2020-07-04T12:42:32.068000Z</time>
      </trkpt>
      <trkpt lat="35.93397815" lon="120.20405055">
        <time>2020-07-04T12:42:36.069000Z</time>
      </trkpt>
      <trkpt lat="35.93396478" lon="120.20392213">
        <time>2020-07-04T12:42:40.082000Z</time>
      </trkpt>
      <trkpt lat="35.93396096" lon="120.20380617">
        <time>2020-07-04T12:42:44.110000Z</time>
      </trkpt>
      <trkpt lat="35.93396945" lon="120.20367785">
        <time>2020-07-04T12:42:48.072000Z</time>
      </trkpt>
      <trkpt lat="35.93395874" lon="120.20353879">
        <time>2020-07-04T12:42:52.089000Z</time>
      </trkpt>
      <trkpt lat="35.93394633" lon="120.20340229">
        <time>2020-07-04T12:42:56.079000Z</time>
      </trkpt>
      <trkpt lat="35.93392502" lon="120.20326704">
        <time>2020-07-04T12:43:00.089000Z</time>
      </trkpt>
      <trkpt lat="35.93391029" lon="120.20314668">
        <time>2020-07-04T12:43:04.077000Z</time>
      </trkpt>
      <trkpt lat="35.93387666" lon="120.20301623">
        <time>2020-07-04T12:43:08.080000Z</time>
      </trkpt>
      <trkpt lat="35.93381649" lon="120.20290074">
        <time>2020-07-04T12:43:12.084000Z</time>
      </trkpt>
      <trkpt lat="35.93375655" lon="120.20279549">
        <time>2020-07-04T12:43:16.070000Z</time>
      </trkpt>
      <trkpt lat="35.93371775" lon="120.20268053">
        <time>2020-07-04T12:43:20.083000Z</time>
      </trkpt>
      <trkpt lat="35.93367852" lon="120.20257195">
        <time>2020-07-04T12:43:24.071000Z</time>
      </trkpt>
      <trkpt lat="35.93367907" lon="120.2026883">
        <time>2020-07-04T12:43:32.078000Z</time>
      </trkpt>
      <trkpt lat="35.93367907" lon="120.2026883">
        <time>2020-07-04T12:43:34.081000Z</time>
      </trkpt>
      <trkpt lat="35.93373221" lon="120.2027923">
        <time>2020-07-04T12:43:38.082000Z</time>
      </trkpt>
      <trkpt lat="35.93379483" lon="120.20290789">
        <time>2020-07-04T12:43:42.077000Z</time>
      </trkpt>
      <trkpt lat="35.93379483" lon="120.20290789">
        <time>2020-07-04T12:43:44.898000Z</time>
      </trkpt>
      <trkpt lat="35.93382336" lon="120.20304146">
        <time>2020-07-04T12:43:46.085000Z</time>
      </trkpt>
      <trkpt lat="35.93385037" lon="120.2031789">
        <time>2020-07-04T12:43:50.082000Z</time>
      </trkpt>
      <trkpt lat="35.93385562" lon="120.20332114">
        <time>2020-07-04T12:43:54.082000Z</time>
      </trkpt>
      <trkpt lat="35.93387652" lon="120.20346812">
        <time>2020-07-04T12:43:58.061000Z</time>
      </trkpt>
      <trkpt lat="35.93389529" lon="120.20358309">
        <time>2020-07-04T12:44:01.098000Z</time>
      </trkpt>
      <trkpt lat="35.93390984" lon="120.20373023">
        <time>2020-07-04T12:44:05.079000Z</time>
      </trkpt>
      <trkpt lat="35.93391407" lon="120.20384673">
        <time>2020-07-04T12:44:08.062000Z</time>
      </trkpt>
      <trkpt lat="35.93393957" lon="120.20397524">
        <time>2020-07-04T12:44:12.089000Z</time>
      </trkpt>
      <trkpt lat="35.93397431" lon="120.2041052">
        <time>2020-07-04T12:44:16.068000Z</time>
      </trkpt>
      <trkpt lat="35.93400715" lon="120.20421805">
        <time>2020-07-04T12:44:20.080000Z</time>
      </trkpt>
      <trkpt lat="35.93404551" lon="120.2043385">
        <time>2020-07-04T12:44:24.090000Z</time>
      </trkpt>
      <trkpt lat="35.93408569" lon="120.20446342">
        <time>2020-07-04T12:44:28.075000Z</time>
      </trkpt>
      <trkpt lat="35.93413992" lon="120.2045724">
        <time>2020-07-04T12:44:32.092000Z</time>
      </trkpt>
      <trkpt lat="35.9341859" lon="120.20468012">
        <time>2020-07-04T12:44:36.065000Z</time>
      </trkpt>
      <trkpt lat="35.93424368" lon="120.2047811">
        <time>2020-07-04T12:44:40.082000Z</time>
      </trkpt>
      <trkpt lat="35.93429798" lon="120.20488763">
        <time>2020-07-04T12:44:44.076000Z</time>
      </trkpt>
      <trkpt lat="35.93434732" lon="120.20500015">
        <time>2020-07-04T12:44:48.106000Z</time>
      </trkpt>
      <trkpt lat="35.93439502" lon="120.20510684">
        <time>2020-07-04T12:44:52.073000Z</time>
      </trkpt>
      <trkpt lat="35.93445517" lon="120.20522557">
        <time>2020-07-04T12:44:57.076000Z</time>
      </trkpt>
      <trkpt lat="35.93451241" lon="120.20533032">
        <time>2020-07-04T12:45:01.066000Z</time>
      </trkpt>
      <trkpt lat="35.9345623" lon="120.20543939">
        <time>2020-07-04T12:45:05.069000Z</time>
      </trkpt>
      <trkpt lat="35.9346246" lon="120.20554018">
        <time>2020-07-04T12:45:09.100000Z</time>
      </trkpt>
      <trkpt lat="35.93467788" lon="120.20564914">
        <time>2020-07-04T12:45:13.060000Z</time>
      </trkpt>
      <trkpt lat="35.93471625" lon="120.20577853">
        <time>2020-07-04T12:45:17.090000Z</time>
      </trkpt>
      <trkpt lat="35.93475843" lon="120.20590174">
        <time>2020-07-04T12:45:21.086000Z</time>
      </trkpt>
      <trkpt lat="35.93480972" lon="120.20601517">
        <time>2020-07-04T12:45:25.094000Z</time>
      </trkpt>
      <trkpt lat="35.93487122" lon="120.20611087">
        <time>2020-07-04T12:45:29.084000Z</time>
      </trkpt>
      <trkpt lat="35.93491881" lon="120.20621886">
        <time>2020-07-04T12:45:33.076000Z</time>
      </trkpt>
      <trkpt lat="35.93496967" lon="120.20633595">
        <time>2020-07-04T12:45:37.083000Z</time>
      </trkpt>
      <trkpt lat="35.93502001" lon="120.2064435">
        <time>2020-07-04T12:45:41.090000Z</time>
      </trkpt>
      <trkpt lat="35.93506877" lon="120.20655398">
        <time>2020-07-04T12:45:47.088000Z</time>
      </trkpt>
      <trkpt lat="35.93512615" lon="120.20665543">
        <time>2020-07-04T12:45:56.084000Z</time>
      </trkpt>
      <trkpt lat="35.93519363" lon="120.20675156">
        <time>2020-07-04T12:46:02.064000Z</time>
      </trkpt>
      <trkpt lat="35.93524785" lon="120.20687956">
        <time>2020-07-04T12:46:06.081000Z</time>
      </trkpt>
      <trkpt lat="35.93530787" lon="120.20699221">
        <time>2020-07-04T12:46:10.107000Z</time>
      </trkpt>
      <trkpt lat="35.93536687" lon="120.20710903">
        <time>2020-07-04T12:46:14.114000Z</time>
      </trkpt>
      <trkpt lat="35.93542858" lon="120.20721663">
        <time>2020-07-04T12:46:18.079000Z</time>
      </trkpt>
      <trkpt lat="35.93548106" lon="120.20732608">
        <time>2020-07-04T12:46:22.080000Z</time>
      </trkpt>
      <trkpt lat="35.9355415" lon="120.20744561">
        <time>2020-07-04T12:46:26.092000Z</time>
      </trkpt>
      <trkpt lat="35.93561604" lon="120.20755687">
        <time>2020-07-04T12:46:30.086000Z</time>
      </trkpt>
      <trkpt lat="35.93569355" lon="120.20765269">
        <time>2020-07-04T12:46:34.067000Z</time>
      </trkpt>
      <trkpt lat="35.93576422" lon="120.20773182">
        <time>2020-07-04T12:46:37.073000Z</time>
      </trkpt>
      <trkpt lat="35.93582519" lon="120.20782197">
        <time>2020-07-04T12:46:40.083000Z</time>
      </trkpt>
      <trkpt lat="35.93589984" lon="120.20793437">
        <time>2020-07-04T12:46:44.070000Z</time>
      </trkpt>
      <trkpt lat="35.93596204" lon="120.2080395">
        <time>2020-07-04T12:46:48.088000Z</time>
      </trkpt>
      <trkpt lat="35.93603123" lon="120.20813797">
        <time>2020-07-04T12:46:52.088000Z</time>
      </trkpt>
      <trkpt lat="35.93611564" lon="120.20822519">
        <time>2020-07-04T12:46:56.068000Z</time>
      </trkpt>
      <trkpt lat="35.93619725" lon="120.20831595">
        <time>2020-07-04T12:47:00.069000Z</time>
      </trkpt>
      <trkpt lat="35.93627414" lon="120.2084139">
        <time>2020-07-04T12:47:04.079000Z</time>
      </trkpt>
      <trkpt lat="35.93634864" lon="120.20848025">
        <time>2020-07-04T12:47:07.088000Z</time>
      </trkpt>
      <trkpt lat="35.93642264" lon="120.20858086">
        <time>2020-07-04T12:47:11.066000Z</time>
      </trkpt>
      <trkpt lat="35.93651388" lon="120.20866702">
        <time>2020-07-04T12:47:15.093000Z</time>
      </trkpt>
      <trkpt lat="35.93660277" lon="120.2087556">
        <time>2020-07-04T12:47:19.088000Z</time>
      </trkpt>
      <trkpt lat="35.93670144" lon="120.20883647">
        <time>2020-07-04T12:47:23.084000Z</time>
      </trkpt>
      <trkpt lat="35.93678881" lon="120.20891788">
        <time>2020-07-04T12:47:27.072000Z</time>
      </trkpt>
      <trkpt lat="35.93686569" lon="120.20899764">
        <time>2020-07-04T12:47:31.081000Z</time>
      </trkpt>
      <trkpt lat="35.93693542" lon="120.20908254">
        <time>2020-07-04T12:47:35.083000Z</time>
      </trkpt>
      <trkpt lat="35.93700377" lon="120.20915813">
        <time>2020-07-04T12:47:41.083000Z</time>
      </trkpt>
      <trkpt lat="35.93700377" lon="120.20915813">
        <time>2020-07-04T12:47:43.069000Z</time>
      </trkpt>
      <trkpt lat="35.9370861" lon="120.20923252">
        <time>2020-07-04T12:47:47.076000Z</time>
      </trkpt>
      <trkpt lat="35.93716373" lon="120.2092991">
        <time>2020-07-04T12:47:56.105000Z</time>
      </trkpt>
      <trkpt lat="35.93716373" lon="120.2092991">
        <time>2020-07-04T12:47:58.082000Z</time>
      </trkpt>
      <trkpt lat="35.93724358" lon="120.2093615">
        <time>2020-07-04T12:48:00.074000Z</time>
      </trkpt>
      <trkpt lat="35.93734112" lon="120.20943541">
        <time>2020-07-04T12:48:04.084000Z</time>
      </trkpt>
      <trkpt lat="35.93742157" lon="120.20949606">
        <time>2020-07-04T12:48:07.090000Z</time>
      </trkpt>
      <trkpt lat="35.93750915" lon="120.2095575">
        <time>2020-07-04T12:48:10.074000Z</time>
      </trkpt>
      <trkpt lat="35.93759277" lon="120.20961569">
        <time>2020-07-04T12:48:13.083000Z</time>
      </trkpt>
      <trkpt lat="35.93768191" lon="120.20966474">
        <time>2020-07-04T12:48:16.090000Z</time>
      </trkpt>
      <trkpt lat="35.93778299" lon="120.20973836">
        <time>2020-07-04T12:48:20.082000Z</time>
      </trkpt>
      <trkpt lat="35.93787685" lon="120.20980618">
        <time>2020-07-04T12:48:24.082000Z</time>
      </trkpt>
      <trkpt lat="35.9379788" lon="120.20984941">
        <time>2020-07-04T12:48:28.110000Z</time>
      </trkpt>
      <trkpt lat="35.93808221" lon="120.20989961">
        <time>2020-07-04T12:48:32.088000Z</time>
      </trkpt>
      <trkpt lat="35.93818867" lon="120.2099618">
        <time>2020-07-04T12:48:36.083000Z</time>
      </trkpt>
      <trkpt lat="35.93827967" lon="120.20999931">
        <time>2020-07-04T12:48:40.083000Z</time>
      </trkpt>
      <trkpt lat="35.93838043" lon="120.21004139">
        <time>2020-07-04T12:48:45.071000Z</time>
      </trkpt>
      <trkpt lat="35.93848095" lon="120.21005139">
        <time>2020-07-04T12:48:49.085000Z</time>
      </trkpt>
      <trkpt lat="35.93859065" lon="120.21006605">
        <time>2020-07-04T12:48:53.085000Z</time>
      </trkpt>
      <trkpt lat="35.9387019" lon="120.21006132">
        <time>2020-07-04T12:48:57.084000Z</time>
      </trkpt>
      <trkpt lat="35.93881024" lon="120.21004606">
        <time>2020-07-04T12:49:01.086000Z</time>
      </trkpt>
      <trkpt lat="35.93889951" lon="120.21003002">
        <time>2020-07-04T12:49:05.079000Z</time>
      </trkpt>
      <trkpt lat="35.9389875" lon="120.20999434">
        <time>2020-07-04T12:49:09.068000Z</time>
      </trkpt>
      <trkpt lat="35.93909382" lon="120.2099618">
        <time>2020-07-04T12:49:14.087000Z</time>
      </trkpt>
      <trkpt lat="35.93918983" lon="120.20993144">
        <time>2020-07-04T12:49:18.081000Z</time>
      </trkpt>
      <trkpt lat="35.93929849" lon="120.20989658">
        <time>2020-07-04T12:49:22.084000Z</time>
      </trkpt>
      <trkpt lat="35.93940816" lon="120.20986079">
        <time>2020-07-04T12:49:26.084000Z</time>
      </trkpt>
      <trkpt lat="35.93950981" lon="120.20982704">
        <time>2020-07-04T12:49:31.058000Z</time>
      </trkpt>
      <trkpt lat="35.93960339" lon="120.20979666">
        <time>2020-07-04T12:49:35.066000Z</time>
      </trkpt>
      <trkpt lat="35.93970667" lon="120.20977799">
        <time>2020-07-04T12:49:40.079000Z</time>
      </trkpt>
      <trkpt lat="35.93970667" lon="120.20977799">
        <time>2020-07-04T12:49:43.175000Z</time>
      </trkpt>
      <trkpt lat="35.93980763" lon="120.20977079">
        <time>2020-07-04T12:49:46.122000Z</time>
      </trkpt>
      <trkpt lat="35.93989922" lon="120.20975078">
        <time>2020-07-04T12:49:53.094000Z</time>
      </trkpt>
      <trkpt lat="35.93989922" lon="120.20975078">
        <time>2020-07-04T12:49:57.084000Z</time>
      </trkpt>
      <trkpt lat="35.9399961" lon="120.20968618">
        <time>2020-07-04T12:49:58.081000Z</time>
      </trkpt>
      <trkpt lat="35.9400943" lon="120.20962706">
        <time>2020-07-04T12:50:03.070000Z</time>
      </trkpt>
      <trkpt lat="35.94019207" lon="120.20958807">
        <time>2020-07-04T12:50:07.068000Z</time>
      </trkpt>
      <trkpt lat="35.94027252" lon="120.20952076">
        <time>2020-07-04T12:50:11.084000Z</time>
      </trkpt>
      <trkpt lat="35.94033688" lon="120.20941412">
        <time>2020-07-04T12:50:15.068000Z</time>
      </trkpt>
      <trkpt lat="35.94038864" lon="120.20931657">
        <time>2020-07-04T12:50:18.063000Z</time>
      </trkpt>
      <trkpt lat="35.94044108" lon="120.20922601">
        <time>2020-07-04T12:50:21.075000Z</time>
      </trkpt>
      <trkpt lat="35.94048426" lon="120.20910282">
        <time>2020-07-04T12:50:25.070000Z</time>
      </trkpt>
      <trkpt lat="35.9405204" lon="120.20898421">
        <time>2020-07-04T12:50:29.065000Z</time>
      </trkpt>
      <trkpt lat="35.94062272" lon="120.20894866">
        <time>2020-07-04T12:50:33.081000Z</time>
      </trkpt>
      <trkpt lat="35.94072411" lon="120.20890953">
        <time>2020-07-04T12:50:37.070000Z</time>
      </trkpt>
      <trkpt lat="35.94083832" lon="120.20889653">
        <time>2020-07-04T12:50:41.078000Z</time>
      </trkpt>
      <trkpt lat="35.94094234" lon="120.20892226">
        <time>2020-07-04T12:50:45.070000Z</time>
      </trkpt>
      <trkpt lat="35.94104276" lon="120.2089786">
        <time>2020-07-04T12:50:49.069000Z</time>
      </trkpt>
      <trkpt lat="35.94115144" lon="120.20904206">
        <time>2020-07-04T12:50:53.086000Z</time>
      </trkpt>
      <trkpt lat="35.941236" lon="120.20908928">
        <time>2020-07-04T12:50:56.101000Z</time>
      </trkpt>
      <trkpt lat="35.9413177" lon="120.20919102">
        <time>2020-07-04T12:51:00.062000Z</time>
      </trkpt>
      <trkpt lat="35.94139677" lon="120.20926988">
        <time>2020-07-04T12:51:04.065000Z</time>
      </trkpt>
      <trkpt lat="35.94148964" lon="120.2092799">
        <time>2020-07-04T12:51:07.086000Z</time>
      </trkpt>
      <trkpt lat="35.94158096" lon="120.20929116">
        <time>2020-07-04T12:51:10.070000Z</time>
      </trkpt>
      <trkpt lat="35.94168547" lon="120.20928329">
        <time>2020-07-04T12:51:16.070000Z</time>
      </trkpt>
      <trkpt lat="35.94168547" lon="120.20928329">
        <time>2020-07-04T12:51:18.080000Z</time>
      </trkpt>
      <trkpt lat="35.9417752" lon="120.20929373">
        <time>2020-07-04T12:51:23.079000Z</time>
      </trkpt>
      <trkpt lat="35.94186854" lon="120.20928293">
        <time>2020-07-04T12:51:30.063000Z</time>
      </trkpt>
      <trkpt lat="35.94197046" lon="120.20926952">
        <time>2020-07-04T12:51:37.070000Z</time>
      </trkpt>
      <trkpt lat="35.94197046" lon="120.20926952">
        <time>2020-07-04T12:51:39.061000Z</time>
      </trkpt>
      <trkpt lat="35.94206708" lon="120.20924868">
        <time>2020-07-04T12:51:42.063000Z</time>
      </trkpt>
      <trkpt lat="35.94215645" lon="120.2092318">
        <time>2020-07-04T12:51:45.078000Z</time>
      </trkpt>
      <trkpt lat="35.94226399" lon="120.20916875">
        <time>2020-07-04T12:51:49.083000Z</time>
      </trkpt>
      <trkpt lat="35.94237539" lon="120.20910623">
        <time>2020-07-04T12:51:53.084000Z</time>
      </trkpt>
      <trkpt lat="35.94246481" lon="120.20907279">
        <time>2020-07-04T12:51:56.083000Z</time>
      </trkpt>
      <trkpt lat="35.94255173" lon="120.20901281">
        <time>2020-07-04T12:52:00.083000Z</time>
      </trkpt>
      <trkpt lat="35.9426506" lon="120.20895469">
        <time>2020-07-04T12:52:04.079000Z</time>
      </trkpt>
      <trkpt lat="35.94276006" lon="120.2089377">
        <time>2020-07-04T12:52:08.086000Z</time>
      </trkpt>
      <trkpt lat="35.94286182" lon="120.20894436">
        <time>2020-07-04T12:52:12.087000Z</time>
      </trkpt>
      <trkpt lat="35.94296216" lon="120.20893505">
        <time>2020-07-04T12:52:16.064000Z</time>
      </trkpt>
      <trkpt lat="35.94306598" lon="120.20891515">
        <time>2020-07-04T12:52:20.080000Z</time>
      </trkpt>
      <trkpt lat="35.9431558" lon="120.20889195">
        <time>2020-07-04T12:52:24.059000Z</time>
      </trkpt>
      <trkpt lat="35.94324984" lon="120.20885973">
        <time>2020-07-04T12:52:28.084000Z</time>
      </trkpt>
      <trkpt lat="35.94336362" lon="120.20881486">
        <time>2020-07-04T12:52:32.067000Z</time>
      </trkpt>
      <trkpt lat="35.94344998" lon="120.20878396">
        <time>2020-07-04T12:52:35.072000Z</time>
      </trkpt>
      <trkpt lat="35.94354375" lon="120.20875687">
        <time>2020-07-04T12:52:38.082000Z</time>
      </trkpt>
      <trkpt lat="35.9436494" lon="120.20873277">
        <time>2020-07-04T12:52:41.076000Z</time>
      </trkpt>
      <trkpt lat="35.94374885" lon="120.2087263">
        <time>2020-07-04T12:52:44.087000Z</time>
      </trkpt>
      <trkpt lat="35.94386288" lon="120.20875765">
        <time>2020-07-04T12:52:48.061000Z</time>
      </trkpt>
      <trkpt lat="35.94396455" lon="120.20880997">
        <time>2020-07-04T12:52:52.072000Z</time>
      </trkpt>
      <trkpt lat="35.94406805" lon="120.20885055">
        <time>2020-07-04T12:52:56.068000Z</time>
      </trkpt>
      <trkpt lat="35.94417118" lon="120.2088817">
        <time>2020-07-04T12:53:00.067000Z</time>
      </trkpt>
      <trkpt lat="35.94428106" lon="120.20889089">
        <time>2020-07-04T12:53:04.096000Z</time>
      </trkpt>
      <trkpt lat="35.94437463" lon="120.20889409">
        <time>2020-07-04T12:53:07.074000Z</time>
      </trkpt>
      <trkpt lat="35.94449151" lon="120.2088832">
        <time>2020-07-04T12:53:11.078000Z</time>
      </trkpt>
      <trkpt lat="35.94459637" lon="120.20886503">
        <time>2020-07-04T12:53:14.079000Z</time>
      </trkpt>
      <trkpt lat="35.94469531" lon="120.20884397">
        <time>2020-07-04T12:53:17.075000Z</time>
      </trkpt>
      <trkpt lat="35.94479237" lon="120.20882721">
        <time>2020-07-04T12:53:20.073000Z</time>
      </trkpt>
      <trkpt lat="35.94488617" lon="120.20881356">
        <time>2020-07-04T12:53:23.088000Z</time>
      </trkpt>
      <trkpt lat="35.94498804" lon="120.20880218">
        <time>2020-07-04T12:53:26.115000Z</time>
      </trkpt>
      <trkpt lat="35.9450829" lon="120.20879121">
        <time>2020-07-04T12:53:29.065000Z</time>
      </trkpt>
      <trkpt lat="35.9451717" lon="120.20877384">
        <time>2020-07-04T12:53:32.082000Z</time>
      </trkpt>
      <trkpt lat="35.94526407" lon="120.20876087">
        <time>2020-07-04T12:53:35.086000Z</time>
      </trkpt>
      <trkpt lat="35.94536625" lon="120.20875298">
        <time>2020-07-04T12:53:40.070000Z</time>
      </trkpt>
      <trkpt lat="35.94546452" lon="120.20873229">
        <time>2020-07-04T12:53:44.085000Z</time>
      </trkpt>
      <trkpt lat="35.94556172" lon="120.20872637">
        <time>2020-07-04T12:53:48.070000Z</time>
      </trkpt>
      <trkpt lat="35.94567567" lon="120.20871558">
        <time>2020-07-04T12:53:52.064000Z</time>
      </trkpt>
      <trkpt lat="35.94576593" lon="120.20871153">
        <time>2020-07-04T12:53:55.080000Z</time>
      </trkpt>
      <trkpt lat="35.94588339" lon="120.20870758">
        <time>2020-07-04T12:53:59.084000Z</time>
      </trkpt>
      <trkpt lat="35.94597915" lon="120.20869968">
        <time>2020-07-04T12:54:02.085000Z</time>
      </trkpt>
      <trkpt lat="35.94608809" lon="120.20868889">
        <time>2020-07-04T12:54:06.065000Z</time>
      </trkpt>
      <trkpt lat="35.94619325" lon="120.20867003">
        <time>2020-07-04T12:54:10.061000Z</time>
      </trkpt>
      <trkpt lat="35.94630027" lon="120.20865532">
        <time>2020-07-04T12:54:14.062000Z</time>
      </trkpt>
      <trkpt lat="35.94639635" lon="120.20863821">
        <time>2020-07-04T12:54:18.064000Z</time>
      </trkpt>
      <trkpt lat="35.94650256" lon="120.20862296">
        <time>2020-07-04T12:54:22.074000Z</time>
      </trkpt>
      <trkpt lat="35.94661333" lon="120.20860189">
        <time>2020-07-04T12:54:26.064000Z</time>
      </trkpt>
      <trkpt lat="35.94672274" lon="120.20858995">
        <time>2020-07-04T12:54:30.068000Z</time>
      </trkpt>
      <trkpt lat="35.94681708" lon="120.20857689">
        <time>2020-07-04T12:54:33.066000Z</time>
      </trkpt>
      <trkpt lat="35.94693573" lon="120.20857152">
        <time>2020-07-04T12:54:37.088000Z</time>
      </trkpt>
      <trkpt lat="35.9470385" lon="120.20853518">
        <time>2020-07-04T12:54:41.071000Z</time>
      </trkpt>
      <trkpt lat="35.94703419" lon="120.20838715">
        <time>2020-07-04T12:54:45.081000Z</time>
      </trkpt>
      <trkpt lat="35.9470205" lon="120.20827271">
        <time>2020-07-04T12:54:48.060000Z</time>
      </trkpt>
      <trkpt lat="35.9470203" lon="120.20813079">
        <time>2020-07-04T12:54:52.066000Z</time>
      </trkpt>
      <trkpt lat="35.94702245" lon="120.20799805">
        <time>2020-07-04T12:54:56.065000Z</time>
      </trkpt>
      <trkpt lat="35.9470057" lon="120.20786281">
        <time>2020-07-04T12:55:00.075000Z</time>
      </trkpt>
      <trkpt lat="35.94698758" lon="120.20773352">
        <time>2020-07-04T12:55:04.067000Z</time>
      </trkpt>
      <trkpt lat="35.94697202" lon="120.20760182">
        <time>2020-07-04T12:55:08.093000Z</time>
      </trkpt>
      <trkpt lat="35.94695328" lon="120.2074911">
        <time>2020-07-04T12:55:12.066000Z</time>
      </trkpt>
      <trkpt lat="35.94694459" lon="120.20737306">
        <time>2020-07-04T12:55:16.066000Z</time>
      </trkpt>
      <trkpt lat="35.94694014" lon="120.2072352">
        <time>2020-07-04T12:55:21.093000Z</time>
      </trkpt>
      <trkpt lat="35.94697846" lon="120.20711391">
        <time>2020-07-04T12:55:25.080000Z</time>
      </trkpt>
      <trkpt lat="35.94703132" lon="120.20699486">
        <time>2020-07-04T12:55:29.069000Z</time>
      </trkpt>
      <trkpt lat="35.94707911" lon="120.20687934">
        <time>2020-07-04T12:55:33.067000Z</time>
      </trkpt>
      <trkpt lat="35.94710722" lon="120.20674984">
        <time>2020-07-04T12:55:37.076000Z</time>
      </trkpt>
      <trkpt lat="35.94716315" lon="120.20662951">
        <time>2020-07-04T12:55:41.085000Z</time>
      </trkpt>
      <trkpt lat="35.9472292" lon="120.20651122">
        <time>2020-07-04T12:55:45.081000Z</time>
      </trkpt>
      <trkpt lat="35.94727436" lon="120.20641384">
        <time>2020-07-04T12:55:48.077000Z</time>
      </trkpt>
      <trkpt lat="35.94731978" lon="120.20631395">
        <time>2020-07-04T12:55:51.059000Z</time>
      </trkpt>
      <trkpt lat="35.94736314" lon="120.2062107">
        <time>2020-07-04T12:55:54.064000Z</time>
      </trkpt>
      <trkpt lat="35.94740605" lon="120.20610921">
        <time>2020-07-04T12:55:57.110000Z</time>
      </trkpt>
      <trkpt lat="35.94744411" lon="120.20600236">
        <time>2020-07-04T12:56:00.086000Z</time>
      </trkpt>
      <trkpt lat="35.9474759" lon="120.20589028">
        <time>2020-07-04T12:56:03.066000Z</time>
      </trkpt>
      <trkpt lat="35.94750391" lon="120.20578143">
        <time>2020-07-04T12:56:06.070000Z</time>
      </trkpt>
      <trkpt lat="35.94754366" lon="120.20566554">
        <time>2020-07-04T12:56:09.075000Z</time>
      </trkpt>
      <trkpt lat="35.94760289" lon="120.2055516">
        <time>2020-07-04T12:56:12.069000Z</time>
      </trkpt>
      <trkpt lat="35.9476532" lon="120.20544646">
        <time>2020-07-04T12:56:15.113000Z</time>
      </trkpt>
      <trkpt lat="35.94770568" lon="120.20534481">
        <time>2020-07-04T12:56:18.089000Z</time>
      </trkpt>
      <trkpt lat="35.94775028" lon="120.20523192">
        <time>2020-07-04T12:56:21.084000Z</time>
      </trkpt>
      <trkpt lat="35.94778733" lon="120.20511073">
        <time>2020-07-04T12:56:24.086000Z</time>
      </trkpt>
      <trkpt lat="35.94782817" lon="120.20499301">
        <time>2020-07-04T12:56:27.082000Z</time>
      </trkpt>
      <trkpt lat="35.94785962" lon="120.20487085">
        <time>2020-07-04T12:56:30.074000Z</time>
      </trkpt>
      <trkpt lat="35.94787092" lon="120.20474743">
        <time>2020-07-04T12:56:33.087000Z</time>
      </trkpt>
      <trkpt lat="35.94787791" lon="120.20463133">
        <time>2020-07-04T12:56:36.082000Z</time>
      </trkpt>
      <trkpt lat="35.9478823" lon="120.2045194">
        <time>2020-07-04T12:56:39.087000Z</time>
      </trkpt>
      <trkpt lat="35.94786809" lon="120.20437267">
        <time>2020-07-04T12:56:43.090000Z</time>
      </trkpt>
      <trkpt lat="35.94786063" lon="120.20423973">
        <time>2020-07-04T12:56:47.131000Z</time>
      </trkpt>
      <trkpt lat="35.94796866" lon="120.20423444">
        <time>2020-07-04T12:56:51.083000Z</time>
      </trkpt>
      <trkpt lat="35.94804303" lon="120.2043042">
        <time>2020-07-04T12:56:54.087000Z</time>
      </trkpt>
      <trkpt lat="35.9481235" lon="120.20436727">
        <time>2020-07-04T12:56:57.073000Z</time>
      </trkpt>
      <trkpt lat="35.94820506" lon="120.20444184">
        <time>2020-07-04T12:57:00.089000Z</time>
      </trkpt>
      <trkpt lat="35.94828014" lon="120.20451945">
        <time>2020-07-04T12:57:03.105000Z</time>
      </trkpt>
      <trkpt lat="35.94835841" lon="120.20459075">
        <time>2020-07-04T12:57:06.086000Z</time>
      </trkpt>
      <trkpt lat="35.94843938" lon="120.20466616">
        <time>2020-07-04T12:57:09.079000Z</time>
      </trkpt>
      <trkpt lat="35.94852358" lon="120.20475478">
        <time>2020-07-04T12:57:12.089000Z</time>
      </trkpt>
      <trkpt lat="35.94859793" lon="120.20483533">
        <time>2020-07-04T12:57:15.076000Z</time>
      </trkpt>
      <trkpt lat="35.94867662" lon="120.20490736">
        <time>2020-07-04T12:57:18.132000Z</time>
      </trkpt>
      <trkpt lat="35.94874728" lon="120.2049815">
        <time>2020-07-04T12:57:21.073000Z</time>
      </trkpt>
      <trkpt lat="35.94881652" lon="120.20505603">
        <time>2020-07-04T12:57:26.068000Z</time>
      </trkpt>
      <trkpt lat="35.94881652" lon="120.20505603">
        <time>2020-07-04T12:57:30.081000Z</time>
      </trkpt>
      <trkpt lat="35.94888438" lon="120.20514606">
        <time>2020-07-04T12:57:33.101000Z</time>
      </trkpt>
      <trkpt lat="35.9489552" lon="120.20523543">
        <time>2020-07-04T12:57:39.084000Z</time>
      </trkpt>
      <trkpt lat="35.94904269" lon="120.20532363">
        <time>2020-07-04T12:57:43.076000Z</time>
      </trkpt>
      <trkpt lat="35.94904269" lon="120.20532363">
        <time>2020-07-04T12:57:44.080000Z</time>
      </trkpt>
      <trkpt lat="35.9491227" lon="120.20540382">
        <time>2020-07-04T12:57:47.090000Z</time>
      </trkpt>
      <trkpt lat="35.94919404" lon="120.20550121">
        <time>2020-07-04T12:57:51.091000Z</time>
      </trkpt>
      <trkpt lat="35.94927442" lon="120.20557336">
        <time>2020-07-04T12:57:55.074000Z</time>
      </trkpt>
      <trkpt lat="35.94936374" lon="120.20565335">
        <time>2020-07-04T12:57:59.066000Z</time>
      </trkpt>
      <trkpt lat="35.94944826" lon="120.20573968">
        <time>2020-07-04T12:58:03.081000Z</time>
      </trkpt>
      <trkpt lat="35.94953653" lon="120.20582342">
        <time>2020-07-04T12:58:07.085000Z</time>
      </trkpt>
      <trkpt lat="35.94962269" lon="120.20589591">
        <time>2020-07-04T12:58:11.073000Z</time>
      </trkpt>
      <trkpt lat="35.94970657" lon="120.20597668">
        <time>2020-07-04T12:58:15.085000Z</time>
      </trkpt>
      <trkpt lat="35.94981205" lon="120.20598194">
        <time>2020-07-04T12:58:19.072000Z</time>
      </trkpt>
      <trkpt lat="35.94991614" lon="120.20591842">
        <time>2020-07-04T12:58:23.089000Z</time>
      </trkpt>
      <trkpt lat="35.95002059" lon="120.20585758">
        <time>2020-07-04T12:58:27.088000Z</time>
      </trkpt>
      <trkpt lat="35.95012174" lon="120.20581807">
        <time>2020-07-04T12:58:31.068000Z</time>
      </trkpt>
      <trkpt lat="35.95021625" lon="120.20577993">
        <time>2020-07-04T12:58:35.086000Z</time>
      </trkpt>
      <trkpt lat="35.95032792" lon="120.20573434">
        <time>2020-07-04T12:58:39.078000Z</time>
      </trkpt>
      <trkpt lat="35.95044672" lon="120.20569355">
        <time>2020-07-04T12:58:43.080000Z</time>
      </trkpt>
      <trkpt lat="35.95055201" lon="120.20564326">
        <time>2020-07-04T12:58:47.066000Z</time>
      </trkpt>
      <trkpt lat="35.95064054" lon="120.2055694">
        <time>2020-07-04T12:58:51.083000Z</time>
      </trkpt>
      <trkpt lat="35.9506592" lon="120.20543928">
        <time>2020-07-04T12:58:55.068000Z</time>
      </trkpt>
      <trkpt lat="35.950621" lon="120.20530003">
        <time>2020-07-04T12:58:59.103000Z</time>
      </trkpt>
      <trkpt lat="35.95060571" lon="120.20518851">
        <time>2020-07-04T12:59:02.078000Z</time>
      </trkpt>
      <trkpt lat="35.9505889" lon="120.2050778">
        <time>2020-07-04T12:59:05.063000Z</time>
      </trkpt>
      <trkpt lat="35.95056552" lon="120.20493321">
        <time>2020-07-04T12:59:09.073000Z</time>
      </trkpt>
      <trkpt lat="35.95061599" lon="120.20481813">
        <time>2020-07-04T12:59:15.080000Z</time>
      </trkpt>
      <trkpt lat="35.95071748" lon="120.20478697">
        <time>2020-07-04T12:59:18.107000Z</time>
      </trkpt>
      <trkpt lat="35.95081854" lon="120.20476467">
        <time>2020-07-04T12:59:21.082000Z</time>
      </trkpt>
      <trkpt lat="35.95081854" lon="120.20476467">
        <time>2020-07-04T12:59:25.371000Z</time>
      </trkpt>
      <trkpt lat="35.95092056" lon="120.20474777">
        <time>2020-07-04T12:59:26.080000Z</time>
      </trkpt>
      <trkpt lat="35.95097919" lon="120.20464993">
        <time>2020-07-04T12:59:33.086000Z</time>
      </trkpt>
      <trkpt lat="35.95097919" lon="120.20464993">
        <time>2020-07-04T12:59:36.099000Z</time>
      </trkpt>
      <trkpt lat="35.95107395" lon="120.20458559">
        <time>2020-07-04T12:59:39.095000Z</time>
      </trkpt>
      <trkpt lat="35.95118393" lon="120.2045722">
        <time>2020-07-04T12:59:43.064000Z</time>
      </trkpt>
      <trkpt lat="35.9512915" lon="120.20454643">
        <time>2020-07-04T12:59:47.081000Z</time>
      </trkpt>
      <trkpt lat="35.95139265" lon="120.20456223">
        <time>2020-07-04T12:59:51.070000Z</time>
      </trkpt>
      <trkpt lat="35.95139265" lon="120.20456223">
        <time>2020-07-04T12:59:56.069000Z</time>
      </trkpt>
      <trkpt lat="35.95147685" lon="120.20451492">
        <time>2020-07-04T12:59:58.099000Z</time>
      </trkpt>
      <trkpt lat="35.95157449" lon="120.20446641">
        <time>2020-07-04T13:00:03.083000Z</time>
      </trkpt>
      <trkpt lat="35.95157449" lon="120.20446641">
        <time>2020-07-04T13:00:06.079000Z</time>
      </trkpt>
      <trkpt lat="35.95167878" lon="120.20447664">
        <time>2020-07-04T13:00:07.084000Z</time>
      </trkpt>
      <trkpt lat="35.95177836" lon="120.20446732">
        <time>2020-07-04T13:00:11.123000Z</time>
      </trkpt>
      <trkpt lat="35.95188917" lon="120.20446111">
        <time>2020-07-04T13:00:15.082000Z</time>
      </trkpt>
      <trkpt lat="35.95199742" lon="120.20445979">
        <time>2020-07-04T13:00:19.070000Z</time>
      </trkpt>
      <trkpt lat="35.9520941" lon="120.2044134">
        <time>2020-07-04T13:00:23.079000Z</time>
      </trkpt>
      <trkpt lat="35.95220159" lon="120.20440204">
        <time>2020-07-04T13:00:27.089000Z</time>
      </trkpt>
      <trkpt lat="35.9522888" lon="120.20437365">
        <time>2020-07-04T13:00:31.076000Z</time>
      </trkpt>
      <trkpt lat="35.9522888" lon="120.20437365">
        <time>2020-07-04T13:00:34.063000Z</time>
      </trkpt>
      <trkpt lat="35.95237901" lon="120.20434784">
        <time>2020-07-04T13:00:38.074000Z</time>
      </trkpt>
      <trkpt lat="35.95237901" lon="120.20434784">
        <time>2020-07-04T13:00:44.075000Z</time>
      </trkpt>
      <trkpt lat="35.95248903" lon="120.20431605">
        <time>2020-07-04T13:00:44.084000Z</time>
      </trkpt>
      <trkpt lat="35.95259794" lon="120.20432028">
        <time>2020-07-04T13:00:48.080000Z</time>
      </trkpt>
      <trkpt lat="35.95271781" lon="120.20429704">
        <time>2020-07-04T13:00:52.066000Z</time>
      </trkpt>
      <trkpt lat="35.95281069" lon="120.20427206">
        <time>2020-07-04T13:00:55.065000Z</time>
      </trkpt>
      <trkpt lat="35.95290215" lon="120.20426142">
        <time>2020-07-04T13:00:58.087000Z</time>
      </trkpt>
      <trkpt lat="35.95300226" lon="120.20424684">
        <time>2020-07-04T13:01:01.067000Z</time>
      </trkpt>
      <trkpt lat="35.95311085" lon="120.20423665">
        <time>2020-07-04T13:01:04.066000Z</time>
      </trkpt>
      <trkpt lat="35.95322295" lon="120.20422764">
        <time>2020-07-04T13:01:08.073000Z</time>
      </trkpt>
      <trkpt lat="35.95333045" lon="120.20420361">
        <time>2020-07-04T13:01:12.066000Z</time>
      </trkpt>
      <trkpt lat="35.95342468" lon="120.20419928">
        <time>2020-07-04T13:01:15.088000Z</time>
      </trkpt>
      <trkpt lat="35.95351827" lon="120.20418027">
        <time>2020-07-04T13:01:19.063000Z</time>
      </trkpt>
      <trkpt lat="35.95363245" lon="120.20416899">
        <time>2020-07-04T13:01:23.070000Z</time>
      </trkpt>
      <trkpt lat="35.95374218" lon="120.20415539">
        <time>2020-07-04T13:01:27.073000Z</time>
      </trkpt>
      <trkpt lat="35.95383968" lon="120.20413833">
        <time>2020-07-04T13:01:31.060000Z</time>
      </trkpt>
      <trkpt lat="35.95394279" lon="120.20413853">
        <time>2020-07-04T13:01:36.076000Z</time>
      </trkpt>
      <trkpt lat="35.95394279" lon="120.20413853">
        <time>2020-07-04T13:01:38.430000Z</time>
      </trkpt>
      <trkpt lat="35.9540391" lon="120.20415102">
        <time>2020-07-04T13:01:44.116000Z</time>
      </trkpt>
      <trkpt lat="35.9540391" lon="120.20415102">
        <time>2020-07-04T13:01:48.096000Z</time>
      </trkpt>
      <trkpt lat="35.95414454" lon="120.20413648">
        <time>2020-07-04T13:01:49.111000Z</time>
      </trkpt>
      <trkpt lat="35.95423816" lon="120.20411288">
        <time>2020-07-04T13:01:53.075000Z</time>
      </trkpt>
      <trkpt lat="35.95433715" lon="120.20409551">
        <time>2020-07-04T13:01:57.065000Z</time>
      </trkpt>
      <trkpt lat="35.95443485" lon="120.20408884">
        <time>2020-07-04T13:02:01.076000Z</time>
      </trkpt>
      <trkpt lat="35.9545376" lon="120.20406827">
        <time>2020-07-04T13:02:05.087000Z</time>
      </trkpt>
      <trkpt lat="35.95462759" lon="120.20405343">
        <time>2020-07-04T13:02:09.062000Z</time>
      </trkpt>
      <trkpt lat="35.95474765" lon="120.20402806">
        <time>2020-07-04T13:02:14.081000Z</time>
      </trkpt>
      <trkpt lat="35.95485654" lon="120.20400173">
        <time>2020-07-04T13:02:18.094000Z</time>
      </trkpt>
      <trkpt lat="35.95495039" lon="120.20406733">
        <time>2020-07-04T13:02:24.081000Z</time>
      </trkpt>
      <trkpt lat="35.95502385" lon="120.20416404">
        <time>2020-07-04T13:02:30.087000Z</time>
      </trkpt>
      <trkpt lat="35.95505673" lon="120.20430046">
        <time>2020-07-04T13:02:34.082000Z</time>
      </trkpt>
      <trkpt lat="35.9550877" lon="120.20443649">
        <time>2020-07-04T13:02:38.086000Z</time>
      </trkpt>
      <trkpt lat="35.95511437" lon="120.20454267">
        <time>2020-07-04T13:02:41.085000Z</time>
      </trkpt>
      <trkpt lat="35.95511437" lon="120.20454267">
        <time>2020-07-04T13:02:45.459000Z</time>
      </trkpt>
      <trkpt lat="35.9551349" lon="120.20465351">
        <time>2020-07-04T13:02:47.087000Z</time>
      </trkpt>
      <trkpt lat="35.95515744" lon="120.20477642">
        <time>2020-07-04T13:02:55.089000Z</time>
      </trkpt>
      <trkpt lat="35.95515744" lon="120.20477642">
        <time>2020-07-04T13:02:59.122000Z</time>
      </trkpt>
      <trkpt lat="35.95518658" lon="120.20490172">
        <time>2020-07-04T13:02:59.132000Z</time>
      </trkpt>
      <trkpt lat="35.9552111" lon="120.20503895">
        <time>2020-07-04T13:03:03.063000Z</time>
      </trkpt>
      <trkpt lat="35.95523358" lon="120.20515306">
        <time>2020-07-04T13:03:07.084000Z</time>
      </trkpt>
      <trkpt lat="35.95524573" lon="120.20528398">
        <time>2020-07-04T13:03:11.089000Z</time>
      </trkpt>
      <trkpt lat="35.95526305" lon="120.20541998">
        <time>2020-07-04T13:03:15.087000Z</time>
      </trkpt>
      <trkpt lat="35.95528153" lon="120.20555721">
        <time>2020-07-04T13:03:19.082000Z</time>
      </trkpt>
      <trkpt lat="35.95529397" lon="120.2056924">
        <time>2020-07-04T13:03:23.084000Z</time>
      </trkpt>
      <trkpt lat="35.9553077" lon="120.20582909">
        <time>2020-07-04T13:03:27.106000Z</time>
      </trkpt>
      <trkpt lat="35.95532369" lon="120.20594229">
        <time>2020-07-04T13:03:32.087000Z</time>
      </trkpt>
      <trkpt lat="35.95532369" lon="120.20594229">
        <time>2020-07-04T13:03:36.478000Z</time>
      </trkpt>
      <trkpt lat="35.95536399" lon="120.20604321">
        <time>2020-07-04T13:03:45.086000Z</time>
      </trkpt>
      <trkpt lat="35.95536399" lon="120.20604321">
        <time>2020-07-04T13:03:46.069000Z</time>
      </trkpt>
      <trkpt lat="35.9554579" lon="120.20602595">
        <time>2020-07-04T13:03:50.087000Z</time>
      </trkpt>
      <trkpt lat="35.95556176" lon="120.20599099">
        <time>2020-07-04T13:03:54.074000Z</time>
      </trkpt>
      <trkpt lat="35.95556176" lon="120.20599099">
        <time>2020-07-04T13:04:02.102000Z</time>
      </trkpt>
      <trkpt lat="35.95564027" lon="120.20605801">
        <time>2020-07-04T13:04:07.082000Z</time>
      </trkpt>
      <trkpt lat="35.95566999" lon="120.20616365">
        <time>2020-07-04T13:04:14.087000Z</time>
      </trkpt>
      <trkpt lat="35.95566999" lon="120.20616365">
        <time>2020-07-04T13:04:18.494000Z</time>
      </trkpt>
      <trkpt lat="35.95568612" lon="120.20629365">
        <time>2020-07-04T13:04:20.088000Z</time>
      </trkpt>
      <trkpt lat="35.95570488" lon="120.20644138">
        <time>2020-07-04T13:04:24.073000Z</time>
      </trkpt>
      <trkpt lat="35.95571744" lon="120.20655908">
        <time>2020-07-04T13:04:27.073000Z</time>
      </trkpt>
      <trkpt lat="35.95574109" lon="120.20666673">
        <time>2020-07-04T13:04:30.075000Z</time>
      </trkpt>
      <trkpt lat="35.95572898" lon="120.20677801">
        <time>2020-07-04T13:04:33.085000Z</time>
      </trkpt>
      <trkpt lat="35.95571836" lon="120.20692118">
        <time>2020-07-04T13:04:37.090000Z</time>
      </trkpt>
      <trkpt lat="35.95572209" lon="120.20705315">
        <time>2020-07-04T13:04:41.087000Z</time>
      </trkpt>
      <trkpt lat="35.955722" lon="120.20720279">
        <time>2020-07-04T13:04:45.082000Z</time>
      </trkpt>
      <trkpt lat="35.95572524" lon="120.20732009">
        <time>2020-07-04T13:04:48.085000Z</time>
      </trkpt>
      <trkpt lat="35.95573128" lon="120.20745442">
        <time>2020-07-04T13:04:52.084000Z</time>
      </trkpt>
      <trkpt lat="35.95573959" lon="120.2075819">
        <time>2020-07-04T13:04:57.085000Z</time>
      </trkpt>
      <trkpt lat="35.95575176" lon="120.20769422">
        <time>2020-07-04T13:05:03.089000Z</time>
      </trkpt>
      <trkpt lat="35.95575176" lon="120.20769422">
        <time>2020-07-04T13:05:05.108000Z</time>
      </trkpt>
      <trkpt lat="35.95584078" lon="120.20772803">
        <time>2020-07-04T13:05:08.069000Z</time>
      </trkpt>
      <trkpt lat="35.95593646" lon="120.20769563">
        <time>2020-07-04T13:05:12.082000Z</time>
      </trkpt>
      <trkpt lat="35.95603189" lon="120.20766758">
        <time>2020-07-04T13:05:17.063000Z</time>
      </trkpt>
      <trkpt lat="35.95613096" lon="120.20765108">
        <time>2020-07-04T13:05:25.077000Z</time>
      </trkpt>
      <trkpt lat="35.95613096" lon="120.20765108">
        <time>2020-07-04T13:05:28.513000Z</time>
      </trkpt>
      <trkpt lat="35.95622343" lon="120.20762259">
        <time>2020-07-04T13:05:29.084000Z</time>
      </trkpt>
      <trkpt lat="35.95631577" lon="120.20759536">
        <time>2020-07-04T13:05:33.086000Z</time>
      </trkpt>
      <trkpt lat="35.95640312" lon="120.20755559">
        <time>2020-07-04T13:05:38.122000Z</time>
      </trkpt>
      <trkpt lat="35.95650681" lon="120.20754153">
        <time>2020-07-04T13:05:42.088000Z</time>
      </trkpt>
      <trkpt lat="35.95654015" lon="120.20764728">
        <time>2020-07-04T13:05:46.070000Z</time>
      </trkpt>
      <trkpt lat="35.95652028" lon="120.20776938">
        <time>2020-07-04T13:05:50.075000Z</time>
      </trkpt>
      <trkpt lat="35.95653151" lon="120.20789409">
        <time>2020-07-04T13:05:54.068000Z</time>
      </trkpt>
      <trkpt lat="35.95654767" lon="120.20803159">
        <time>2020-07-04T13:05:58.067000Z</time>
      </trkpt>
      <trkpt lat="35.9565448" lon="120.20816818">
        <time>2020-07-04T13:06:02.081000Z</time>
      </trkpt>
      <trkpt lat="35.95656253" lon="120.2082797">
        <time>2020-07-04T13:06:05.071000Z</time>
      </trkpt>
      <trkpt lat="35.95659759" lon="120.20842056">
        <time>2020-07-04T13:06:09.074000Z</time>
      </trkpt>
      <trkpt lat="35.95662302" lon="120.20856192">
        <time>2020-07-04T13:06:13.068000Z</time>
      </trkpt>
      <trkpt lat="35.95664378" lon="120.208677">
        <time>2020-07-04T13:06:17.097000Z</time>
      </trkpt>
      <trkpt lat="35.95667351" lon="120.20880355">
        <time>2020-07-04T13:06:21.077000Z</time>
      </trkpt>
      <trkpt lat="35.9566686" lon="120.20893107">
        <time>2020-07-04T13:06:25.089000Z</time>
      </trkpt>
      <trkpt lat="35.9566751" lon="120.20904308">
        <time>2020-07-04T13:06:29.062000Z</time>
      </trkpt>
      <trkpt lat="35.95670262" lon="120.20916499">
        <time>2020-07-04T13:06:33.070000Z</time>
      </trkpt>
      <trkpt lat="35.95669783" lon="120.20904054">
        <time>2020-07-04T13:06:44.085000Z</time>
      </trkpt>
      <trkpt lat="35.95667714" lon="120.20890439">
        <time>2020-07-04T13:06:48.073000Z</time>
      </trkpt>
      <trkpt lat="35.9565822" lon="120.20887032">
        <time>2020-07-04T13:06:54.069000Z</time>
      </trkpt>
      <trkpt lat="35.9565822" lon="120.20887032">
        <time>2020-07-04T13:06:57.080000Z</time>
      </trkpt>
      <trkpt lat="35.95649424" lon="120.2089095">
        <time>2020-07-04T13:07:00.097000Z</time>
      </trkpt>
      <trkpt lat="35.95647004" lon="120.20894772">
        <time>2020-07-04T13:07:04.482000Z</time>
      </trkpt>
    </trkseg>
  </trk>
</gpx>