<?xml version="1.0" encoding="UTF-8"?>
<gpx xmlns="http://www.topografix.com/GPX/1/1" xmlns:gpxtpx="http://www.garmin.com/xmlschemas/TrackPointExtension/v1" xmlns:xsi="http://www.w3.org/2001/XMLSchema-instance" xsi:schemaLocation="http://www.topografix.com/GPX/1/1 http://www.topografix.com/GPX/1/1/gpx.xsd" version="1.1" creator="gpx.py -- https://github.com/tkrajina/gpxpy">
  <trk>
    <name>星期二 晚间跑</name>
    <trkseg>
      <trkpt lat="35.956761608831584" lon="120.20957571454346">
        <time>2023-06-13T10:54:01.258000Z</time>
      </trkpt>
      <trkpt lat="35.95676986500621" lon="120.2094597928226">
        <time>2023-06-13T10:54:08.255000Z</time>
      </trkpt>
      <trkpt lat="35.95675813034177" lon="120.20933574065566">
        <time>2023-06-13T10:54:13.263000Z</time>
      </trkpt>
      <trkpt lat="35.9567315177992" lon="120.20920012146235">
        <time>2023-06-13T10:54:18.268000Z</time>
      </trkpt>
      <trkpt lat="35.95672510564327" lon="120.20908453501761">
        <time>2023-06-13T10:54:23.262000Z</time>
      </trkpt>
      <trkpt lat="35.95669882837683" lon="120.2089782524854">
        <time>2023-06-13T10:54:28.257000Z</time>
      </trkpt>
      <trkpt lat="35.95668365713209" lon="120.20885554142296">
        <time>2023-06-13T10:54:33.250000Z</time>
      </trkpt>
      <trkpt lat="35.956672760657966" lon="120.20872235298157">
        <time>2023-06-13T10:54:38.252000Z</time>
      </trkpt>
      <trkpt lat="35.95667473040521" lon="120.20860676653683">
        <time>2023-06-13T10:54:42.278000Z</time>
      </trkpt>
      <trkpt lat="35.95664266962558" lon="120.20849830470979">
        <time>2023-06-13T10:54:46.292000Z</time>
      </trkpt>
      <trkpt lat="35.95660780090839" lon="120.20837073214352">
        <time>2023-06-13T10:54:50.303000Z</time>
      </trkpt>
      <trkpt lat="35.9565753210336" lon="120.20825891755521">
        <time>2023-06-13T10:54:54.266000Z</time>
      </trkpt>
      <trkpt lat="35.95653307624161" lon="120.20813930779696">
        <time>2023-06-13T10:55:00.271000Z</time>
      </trkpt>
      <trkpt lat="35.95655315089971" lon="120.20800477825105">
        <time>2023-06-13T10:55:05.256000Z</time>
      </trkpt>
      <trkpt lat="35.95654041040689" lon="120.20787636749446">
        <time>2023-06-13T10:55:09.272000Z</time>
      </trkpt>
      <trkpt lat="35.95653483644128" lon="120.20774703472853">
        <time>2023-06-13T10:55:13.278000Z</time>
      </trkpt>
      <trkpt lat="35.95653927884996" lon="120.20762457512319">
        <time>2023-06-13T10:55:17.274000Z</time>
      </trkpt>
      <trkpt lat="35.9564749058336" lon="120.20754394121468">
        <time>2023-06-13T10:55:21.258000Z</time>
      </trkpt>
      <trkpt lat="35.956387063488364" lon="120.20751267671585">
        <time>2023-06-13T10:55:25.231000Z</time>
      </trkpt>
      <trkpt lat="35.956291761249304" lon="120.20751217380166">
        <time>2023-06-13T10:55:29.263000Z</time>
      </trkpt>
      <trkpt lat="35.95617395360023" lon="120.20751837641001">
        <time>2023-06-13T10:55:33.264000Z</time>
      </trkpt>
      <trkpt lat="35.95606557559222" lon="120.20753664895892">
        <time>2023-06-13T10:55:37.269000Z</time>
      </trkpt>
      <trkpt lat="35.95595447346568" lon="120.20755860954523">
        <time>2023-06-13T10:55:41.255000Z</time>
      </trkpt>
      <trkpt lat="35.95584265887737" lon="120.2075876109302">
        <time>2023-06-13T10:55:45.257000Z</time>
      </trkpt>
      <trkpt lat="35.95573608297855" lon="120.20759272389114">
        <time>2023-06-13T10:55:49.292000Z</time>
      </trkpt>
      <trkpt lat="35.955627830699086" lon="120.20759951323271">
        <time>2023-06-13T10:55:52.301000Z</time>
      </trkpt>
      <trkpt lat="35.95553785096854" lon="120.20761996507645">
        <time>2023-06-13T10:55:55.263000Z</time>
      </trkpt>
      <trkpt lat="35.955455959774554" lon="120.20766790956259">
        <time>2023-06-13T10:55:59.255000Z</time>
      </trkpt>
      <trkpt lat="35.955362753011286" lon="120.20770747214556">
        <time>2023-06-13T10:56:03.242000Z</time>
      </trkpt>
      <trkpt lat="35.9552557580173" lon="120.20773421041667">
        <time>2023-06-13T10:56:07.313000Z</time>
      </trkpt>
      <trkpt lat="35.955156977288425" lon="120.2077638823539">
        <time>2023-06-13T10:56:11.293000Z</time>
      </trkpt>
      <trkpt lat="35.95506850630045" lon="120.20779858343303">
        <time>2023-06-13T10:56:15.267000Z</time>
      </trkpt>
      <trkpt lat="35.954978694207966" lon="120.2078230585903">
        <time>2023-06-13T10:56:19.258000Z</time>
      </trkpt>
      <trkpt lat="35.95489122904837" lon="120.20784988068044">
        <time>2023-06-13T10:56:23.253000Z</time>
      </trkpt>
      <trkpt lat="35.95479940529913" lon="120.20786203444004">
        <time>2023-06-13T10:56:27.271000Z</time>
      </trkpt>
      <trkpt lat="35.954704941250384" lon="120.20790000446141">
        <time>2023-06-13T10:56:31.283000Z</time>
      </trkpt>
      <trkpt lat="35.954601131379604" lon="120.2079311851412">
        <time>2023-06-13T10:56:35.257000Z</time>
      </trkpt>
      <trkpt lat="35.95450159627944" lon="120.20794945769012">
        <time>2023-06-13T10:56:39.308000Z</time>
      </trkpt>
      <trkpt lat="35.954399295151234" lon="120.20799262449145">
        <time>2023-06-13T10:56:43.287000Z</time>
      </trkpt>
      <trkpt lat="35.95430860295892" lon="120.20805096253753">
        <time>2023-06-13T10:56:47.277000Z</time>
      </trkpt>
      <trkpt lat="35.95420504454523" lon="120.20810410380363">
        <time>2023-06-13T10:56:52.251000Z</time>
      </trkpt>
      <trkpt lat="35.954118333756924" lon="120.20815682597458">
        <time>2023-06-13T10:56:56.259000Z</time>
      </trkpt>
      <trkpt lat="35.95403640065342" lon="120.2082282397896">
        <time>2023-06-13T10:57:00.253000Z</time>
      </trkpt>
      <trkpt lat="35.953961005434394" lon="120.20831004716456">
        <time>2023-06-13T10:57:04.278000Z</time>
      </trkpt>
      <trkpt lat="35.9538838500157" lon="120.20839654840529">
        <time>2023-06-13T10:57:08.255000Z</time>
      </trkpt>
      <trkpt lat="35.953811346553266" lon="120.20849109627306">
        <time>2023-06-13T10:57:12.248000Z</time>
      </trkpt>
      <trkpt lat="35.95374198630452" lon="120.2085942775011">
        <time>2023-06-13T10:57:16.263000Z</time>
      </trkpt>
      <trkpt lat="35.953684486448765" lon="120.20870491862297">
        <time>2023-06-13T10:57:20.235000Z</time>
      </trkpt>
      <trkpt lat="35.953638553619385" lon="120.20881958305836">
        <time>2023-06-13T10:57:24.265000Z</time>
      </trkpt>
      <trkpt lat="35.95358591526747" lon="120.20892603322864">
        <time>2023-06-13T10:57:28.278000Z</time>
      </trkpt>
      <trkpt lat="35.95353063661605" lon="120.20903432741761">
        <time>2023-06-13T10:57:32.272000Z</time>
      </trkpt>
      <trkpt lat="35.95347640570253" lon="120.20913792774081">
        <time>2023-06-13T10:57:36.309000Z</time>
      </trkpt>
      <trkpt lat="35.95341823529452" lon="120.20923993550241">
        <time>2023-06-13T10:57:40.311000Z</time>
      </trkpt>
      <trkpt lat="35.953367315232754" lon="120.20934948697686">
        <time>2023-06-13T10:57:44.246000Z</time>
      </trkpt>
      <trkpt lat="35.95330742653459" lon="120.20944696851075">
        <time>2023-06-13T10:57:48.258000Z</time>
      </trkpt>
      <trkpt lat="35.95324900466949" lon="120.20955828018486">
        <time>2023-06-13T10:57:52.265000Z</time>
      </trkpt>
      <trkpt lat="35.953196617774665" lon="120.20966003648937">
        <time>2023-06-13T10:57:56.250000Z</time>
      </trkpt>
      <trkpt lat="35.95313341822475" lon="120.20975274033844">
        <time>2023-06-13T10:58:00.268000Z</time>
      </trkpt>
      <trkpt lat="35.95307093113661" lon="120.20984938368201">
        <time>2023-06-13T10:58:04.271000Z</time>
      </trkpt>
      <trkpt lat="35.95300190616399" lon="120.2099500503391">
        <time>2023-06-13T10:58:08.272000Z</time>
      </trkpt>
      <trkpt lat="35.95291724894196" lon="120.21002490073442">
        <time>2023-06-13T10:58:12.307000Z</time>
      </trkpt>
      <trkpt lat="35.95282848458737" lon="120.21010025404394">
        <time>2023-06-13T10:58:16.252000Z</time>
      </trkpt>
      <trkpt lat="35.95275149680674" lon="120.21017527207732">
        <time>2023-06-13T10:58:20.248000Z</time>
      </trkpt>
      <trkpt lat="35.95265845768154" lon="120.21025481633842">
        <time>2023-06-13T10:58:24.267000Z</time>
      </trkpt>
      <trkpt lat="35.95256713684648" lon="120.21031005308032">
        <time>2023-06-13T10:58:28.276000Z</time>
      </trkpt>
      <trkpt lat="35.95247011631727" lon="120.21035548299551">
        <time>2023-06-13T10:58:32.286000Z</time>
      </trkpt>
      <trkpt lat="35.952373053878546" lon="120.21040359511971">
        <time>2023-06-13T10:58:36.304000Z</time>
      </trkpt>
      <trkpt lat="35.95228026621044" lon="120.21045447327197">
        <time>2023-06-13T10:58:40.269000Z</time>
      </trkpt>
      <trkpt lat="35.95218643080443" lon="120.21046293899417">
        <time>2023-06-13T10:58:47.273000Z</time>
      </trkpt>
      <trkpt lat="35.95211610663682" lon="120.21038113161922">
        <time>2023-06-13T10:58:55.296000Z</time>
      </trkpt>
      <trkpt lat="35.95211610663682" lon="120.21038113161922">
        <time>2023-06-13T10:58:55.590000Z</time>
      </trkpt>
      <trkpt lat="35.95211610663682" lon="120.21038113161922">
        <time>2023-06-13T10:59:02.251000Z</time>
      </trkpt>
      <trkpt lat="35.95211610663682" lon="120.21038113161922">
        <time>2023-06-13T10:59:22.264000Z</time>
      </trkpt>
      <trkpt lat="35.95194809138775" lon="120.21042161621153">
        <time>2023-06-13T10:59:22.271000Z</time>
      </trkpt>
      <trkpt lat="35.95184415578842" lon="120.21047241054475">
        <time>2023-06-13T10:59:26.257000Z</time>
      </trkpt>
      <trkpt lat="35.951741519384086" lon="120.21052831783891">
        <time>2023-06-13T10:59:30.281000Z</time>
      </trkpt>
      <trkpt lat="35.95163917634636" lon="120.21058766171336">
        <time>2023-06-13T10:59:34.251000Z</time>
      </trkpt>
      <trkpt lat="35.95154102426022" lon="120.21062085404992">
        <time>2023-06-13T10:59:38.255000Z</time>
      </trkpt>
      <trkpt lat="35.95144031569362" lon="120.21066561341286">
        <time>2023-06-13T10:59:42.228000Z</time>
      </trkpt>
      <trkpt lat="35.951337637379766" lon="120.2106929384172">
        <time>2023-06-13T10:59:46.215000Z</time>
      </trkpt>
      <trkpt lat="35.951239611022174" lon="120.21072336472571">
        <time>2023-06-13T10:59:50.282000Z</time>
      </trkpt>
      <trkpt lat="35.9511345019564" lon="120.21073878742754">
        <time>2023-06-13T10:59:54.244000Z</time>
      </trkpt>
      <trkpt lat="35.951042007654905" lon="120.21074364893138">
        <time>2023-06-13T10:59:57.254000Z</time>
      </trkpt>
      <trkpt lat="35.95094787888229" lon="120.21076208911836">
        <time>2023-06-13T11:00:00.272000Z</time>
      </trkpt>
      <trkpt lat="35.95084394328296" lon="120.21079092286527">
        <time>2023-06-13T11:00:04.259000Z</time>
      </trkpt>
      <trkpt lat="35.9507433604449" lon="120.21082922816277">
        <time>2023-06-13T11:00:08.284000Z</time>
      </trkpt>
      <trkpt lat="35.950638125650585" lon="120.21085169166327">
        <time>2023-06-13T11:00:12.239000Z</time>
      </trkpt>
      <trkpt lat="35.95054802019149" lon="120.21085110493004">
        <time>2023-06-13T11:00:15.263000Z</time>
      </trkpt>
      <trkpt lat="35.950446389615536" lon="120.21083693951368">
        <time>2023-06-13T11:00:20.251000Z</time>
      </trkpt>
      <trkpt lat="35.95035636797547" lon="120.21085194312036">
        <time>2023-06-13T11:00:24.254000Z</time>
      </trkpt>
      <trkpt lat="35.95026575960219" lon="120.2108723949641">
        <time>2023-06-13T11:00:31.255000Z</time>
      </trkpt>
      <trkpt lat="35.95017259474844" lon="120.21087784320116">
        <time>2023-06-13T11:00:35.294000Z</time>
      </trkpt>
      <trkpt lat="35.95007838215679" lon="120.21089561283588">
        <time>2023-06-13T11:00:38.246000Z</time>
      </trkpt>
      <trkpt lat="35.94997645821422" lon="120.21094422787428">
        <time>2023-06-13T11:00:42.268000Z</time>
      </trkpt>
      <trkpt lat="35.949881030246615" lon="120.2109997998923">
        <time>2023-06-13T11:00:46.252000Z</time>
      </trkpt>
      <trkpt lat="35.94979084096849" lon="120.21105780266225">
        <time>2023-06-13T11:00:50.266000Z</time>
      </trkpt>
      <trkpt lat="35.94970626756549" lon="120.21111932583153">
        <time>2023-06-13T11:00:54.286000Z</time>
      </trkpt>
      <trkpt lat="35.94962634611875" lon="120.2111776638776">
        <time>2023-06-13T11:00:58.264000Z</time>
      </trkpt>
      <trkpt lat="35.949532678350806" lon="120.21123549900949">
        <time>2023-06-13T11:01:03.283000Z</time>
      </trkpt>
      <trkpt lat="35.949532678350806" lon="120.21123549900949">
        <time>2023-06-13T11:01:04.273000Z</time>
      </trkpt>
      <trkpt lat="35.94942015130073" lon="120.21122368052602">
        <time>2023-06-13T11:01:09.275000Z</time>
      </trkpt>
      <trkpt lat="35.94932656735182" lon="120.21121705882251">
        <time>2023-06-13T11:01:14.270000Z</time>
      </trkpt>
      <trkpt lat="35.94920875970274" lon="120.2112196572125">
        <time>2023-06-13T11:01:22.289000Z</time>
      </trkpt>
      <trkpt lat="35.94910939224064" lon="120.21119627170265">
        <time>2023-06-13T11:01:26.268000Z</time>
      </trkpt>
      <trkpt lat="35.949008306488395" lon="120.21119861863554">
        <time>2023-06-13T11:01:31.256000Z</time>
      </trkpt>
      <trkpt lat="35.949008306488395" lon="120.21119861863554">
        <time>2023-06-13T11:01:32.707000Z</time>
      </trkpt>
      <trkpt lat="35.948907136917114" lon="120.21122368052602">
        <time>2023-06-13T11:01:36.259000Z</time>
      </trkpt>
      <trkpt lat="35.948799387551844" lon="120.21123692393303">
        <time>2023-06-13T11:01:41.289000Z</time>
      </trkpt>
      <trkpt lat="35.9486866928637" lon="120.21125569939613">
        <time>2023-06-13T11:01:46.299000Z</time>
      </trkpt>
      <trkpt lat="35.948579320684075" lon="120.21126743406057">
        <time>2023-06-13T11:01:50.276000Z</time>
      </trkpt>
      <trkpt lat="35.94847731292248" lon="120.21133423782885">
        <time>2023-06-13T11:01:54.272000Z</time>
      </trkpt>
      <trkpt lat="35.94838896766305" lon="120.21136499941349">
        <time>2023-06-13T11:01:58.293000Z</time>
      </trkpt>
      <trkpt lat="35.94828545115888" lon="120.2113681845367">
        <time>2023-06-13T11:02:02.250000Z</time>
      </trkpt>
      <trkpt lat="35.94818520359695" lon="120.21137120202184">
        <time>2023-06-13T11:02:06.265000Z</time>
      </trkpt>
      <trkpt lat="35.94808520749211" lon="120.21140246652067">
        <time>2023-06-13T11:02:10.259000Z</time>
      </trkpt>
      <trkpt lat="35.94798445701599" lon="120.2114511653781">
        <time>2023-06-13T11:02:14.253000Z</time>
      </trkpt>
      <trkpt lat="35.947881024330854" lon="120.21149232052267">
        <time>2023-06-13T11:02:18.270000Z</time>
      </trkpt>
      <trkpt lat="35.947787230834365" lon="120.21150925196707">
        <time>2023-06-13T11:02:22.258000Z</time>
      </trkpt>
      <trkpt lat="35.94767327886075" lon="120.21154060028493">
        <time>2023-06-13T11:02:27.272000Z</time>
      </trkpt>
      <trkpt lat="35.947580030187964" lon="120.2115529216826">
        <time>2023-06-13T11:02:30.244000Z</time>
      </trkpt>
      <trkpt lat="35.94748929608613" lon="120.21155870519578">
        <time>2023-06-13T11:02:33.240000Z</time>
      </trkpt>
      <trkpt lat="35.94739747233689" lon="120.21157496608794">
        <time>2023-06-13T11:02:36.270000Z</time>
      </trkpt>
      <trkpt lat="35.9472820116207" lon="120.211596256122">
        <time>2023-06-13T11:02:40.263000Z</time>
      </trkpt>
      <trkpt lat="35.94719035550952" lon="120.21162341348827">
        <time>2023-06-13T11:02:44.257000Z</time>
      </trkpt>
      <trkpt lat="35.94708818010986" lon="120.21163791418076">
        <time>2023-06-13T11:02:48.246000Z</time>
      </trkpt>
      <trkpt lat="35.94698742963374" lon="120.2116737049073">
        <time>2023-06-13T11:02:52.293000Z</time>
      </trkpt>
      <trkpt lat="35.94688659533858" lon="120.21170413121581">
        <time>2023-06-13T11:02:56.268000Z</time>
      </trkpt>
      <trkpt lat="35.94678513240069" lon="120.2117326296866">
        <time>2023-06-13T11:03:00.263000Z</time>
      </trkpt>
      <trkpt lat="35.94669356010854" lon="120.21177160553634">
        <time>2023-06-13T11:03:04.261000Z</time>
      </trkpt>
      <trkpt lat="35.946584469638765" lon="120.21180094219744">
        <time>2023-06-13T11:03:08.267000Z</time>
      </trkpt>
      <trkpt lat="35.94648698810488" lon="120.2118272613734">
        <time>2023-06-13T11:03:12.293000Z</time>
      </trkpt>
      <trkpt lat="35.946394577622414" lon="120.21185785531998">
        <time>2023-06-13T11:03:16.253000Z</time>
      </trkpt>
      <trkpt lat="35.946292569860816" lon="120.2118946518749">
        <time>2023-06-13T11:03:20.252000Z</time>
      </trkpt>
      <trkpt lat="35.94618670642376" lon="120.21192893385887">
        <time>2023-06-13T11:03:24.287000Z</time>
      </trkpt>
      <trkpt lat="35.94608960207552" lon="120.21197344176471">
        <time>2023-06-13T11:03:28.274000Z</time>
      </trkpt>
      <trkpt lat="35.94599358737469" lon="120.21201677620411">
        <time>2023-06-13T11:03:32.292000Z</time>
      </trkpt>
      <trkpt lat="35.945897991769016" lon="120.21204535849392">
        <time>2023-06-13T11:03:37.270000Z</time>
      </trkpt>
      <trkpt lat="35.945897991769016" lon="120.21204535849392">
        <time>2023-06-13T11:03:40.273000Z</time>
      </trkpt>
      <trkpt lat="35.94580742530525" lon="120.21208290942013">
        <time>2023-06-13T11:03:45.248000Z</time>
      </trkpt>
      <trkpt lat="35.94571694266051" lon="120.21210378035903">
        <time>2023-06-13T11:03:52.245000Z</time>
      </trkpt>
      <trkpt lat="35.94562641810626" lon="120.2121435943991">
        <time>2023-06-13T11:03:58.243000Z</time>
      </trkpt>
      <trkpt lat="35.94562641810626" lon="120.2121435943991">
        <time>2023-06-13T11:04:03.257000Z</time>
      </trkpt>
      <trkpt lat="35.94553354661912" lon="120.21217972040176">
        <time>2023-06-13T11:04:03.265000Z</time>
      </trkpt>
      <trkpt lat="35.94544750638306" lon="120.21222179755569">
        <time>2023-06-13T11:04:07.303000Z</time>
      </trkpt>
      <trkpt lat="35.94534390605986" lon="120.21227032877505">
        <time>2023-06-13T11:04:12.262000Z</time>
      </trkpt>
      <trkpt lat="35.945241772569716" lon="120.21231743507087">
        <time>2023-06-13T11:04:16.312000Z</time>
      </trkpt>
      <trkpt lat="35.9451259765774" lon="120.21235255524516">
        <time>2023-06-13T11:04:20.262000Z</time>
      </trkpt>
      <trkpt lat="35.94502887222916" lon="120.21240678615868">
        <time>2023-06-13T11:04:24.282000Z</time>
      </trkpt>
      <trkpt lat="35.944947861135006" lon="120.21245766431093">
        <time>2023-06-13T11:04:28.275000Z</time>
      </trkpt>
      <trkpt lat="35.94486219808459" lon="120.21251533180475">
        <time>2023-06-13T11:04:32.342000Z</time>
      </trkpt>
      <trkpt lat="35.94477766659111" lon="120.21256042644382">
        <time>2023-06-13T11:04:35.274000Z</time>
      </trkpt>
      <trkpt lat="35.944665055722" lon="120.21261256188154">
        <time>2023-06-13T11:04:39.278000Z</time>
      </trkpt>
      <trkpt lat="35.944568454287946" lon="120.21267115138471">
        <time>2023-06-13T11:04:43.253000Z</time>
      </trkpt>
      <trkpt lat="35.94448199495673" lon="120.21271641366184">
        <time>2023-06-13T11:04:47.261000Z</time>
      </trkpt>
      <trkpt lat="35.94439691863954" lon="120.21276209503412">
        <time>2023-06-13T11:04:51.291000Z</time>
      </trkpt>
      <trkpt lat="35.9443093277514" lon="120.21280442364514">
        <time>2023-06-13T11:04:55.235000Z</time>
      </trkpt>
      <trkpt lat="35.944223664700985" lon="120.21284004673362">
        <time>2023-06-13T11:04:58.288000Z</time>
      </trkpt>
      <trkpt lat="35.94414277933538" lon="120.2128944452852">
        <time>2023-06-13T11:05:02.303000Z</time>
      </trkpt>
      <trkpt lat="35.94406176824123" lon="120.2129428088665">
        <time>2023-06-13T11:05:06.276000Z</time>
      </trkpt>
      <trkpt lat="35.94397312961519" lon="120.21300206892192">
        <time>2023-06-13T11:05:10.240000Z</time>
      </trkpt>
      <trkpt lat="35.94388193450868" lon="120.21306292153895">
        <time>2023-06-13T11:05:14.310000Z</time>
      </trkpt>
      <trkpt lat="35.94379480462521" lon="120.21298765204847">
        <time>2023-06-13T11:05:20.244000Z</time>
      </trkpt>
      <trkpt lat="35.943721840158105" lon="120.21290215663612">
        <time>2023-06-13T11:05:24.255000Z</time>
      </trkpt>
      <trkpt lat="35.94364225398749" lon="120.21281104534864">
        <time>2023-06-13T11:05:29.310000Z</time>
      </trkpt>
      <trkpt lat="35.943570085801184" lon="120.21271540783346">
        <time>2023-06-13T11:05:34.271000Z</time>
      </trkpt>
      <trkpt lat="35.94348966144025" lon="120.21264273673296">
        <time>2023-06-13T11:05:39.272000Z</time>
      </trkpt>
      <trkpt lat="35.94342310912907" lon="120.21256579086185">
        <time>2023-06-13T11:05:43.261000Z</time>
      </trkpt>
      <trkpt lat="35.94339461065829" lon="120.21244056522846">
        <time>2023-06-13T11:05:48.271000Z</time>
      </trkpt>
      <trkpt lat="35.94338254071772" lon="120.21232774481177">
        <time>2023-06-13T11:05:52.257000Z</time>
      </trkpt>
      <trkpt lat="35.943319969810545" lon="120.21222774870694">
        <time>2023-06-13T11:05:57.252000Z</time>
      </trkpt>
      <trkpt lat="35.9432514058426" lon="120.21214418113232">
        <time>2023-06-13T11:06:02.288000Z</time>
      </trkpt>
      <trkpt lat="35.94318233896047" lon="120.21205340512097">
        <time>2023-06-13T11:06:07.247000Z</time>
      </trkpt>
      <trkpt lat="35.94311628956348" lon="120.21196061745286">
        <time>2023-06-13T11:06:11.289000Z</time>
      </trkpt>
      <trkpt lat="35.94307161401957" lon="120.2118460368365">
        <time>2023-06-13T11:06:15.298000Z</time>
      </trkpt>
      <trkpt lat="35.94307161401957" lon="120.2118460368365">
        <time>2023-06-13T11:06:15.827000Z</time>
      </trkpt>
      <trkpt lat="35.943016754463315" lon="120.21173019893467">
        <time>2023-06-13T11:06:20.294000Z</time>
      </trkpt>
      <trkpt lat="35.94298264011741" lon="120.21161746233702">
        <time>2023-06-13T11:06:25.270000Z</time>
      </trkpt>
      <trkpt lat="35.94298264011741" lon="120.21161746233702">
        <time>2023-06-13T11:06:28.834000Z</time>
      </trkpt>
      <trkpt lat="35.94292736146599" lon="120.21152274683118">
        <time>2023-06-13T11:06:30.266000Z</time>
      </trkpt>
      <trkpt lat="35.94284086022526" lon="120.21143264137208">
        <time>2023-06-13T11:06:35.263000Z</time>
      </trkpt>
      <trkpt lat="35.94278231263161" lon="120.21133591420949">
        <time>2023-06-13T11:06:39.263000Z</time>
      </trkpt>
      <trkpt lat="35.942729506641626" lon="120.21123005077243">
        <time>2023-06-13T11:06:43.270000Z</time>
      </trkpt>
      <trkpt lat="35.94267615582794" lon="120.21110909990966">
        <time>2023-06-13T11:06:48.322000Z</time>
      </trkpt>
      <trkpt lat="35.94260671176016" lon="120.21099552512169">
        <time>2023-06-13T11:06:52.290000Z</time>
      </trkpt>
      <trkpt lat="35.942535884678364" lon="120.21090290509164">
        <time>2023-06-13T11:06:56.272000Z</time>
      </trkpt>
      <trkpt lat="35.9424656862393" lon="120.21079578436911">
        <time>2023-06-13T11:07:00.263000Z</time>
      </trkpt>
      <trkpt lat="35.9423879859969" lon="120.21068690344691">
        <time>2023-06-13T11:07:04.264000Z</time>
      </trkpt>
      <trkpt lat="35.94232478644699" lon="120.21059579215944">
        <time>2023-06-13T11:07:08.253000Z</time>
      </trkpt>
      <trkpt lat="35.94226854387671" lon="120.21049587987363">
        <time>2023-06-13T11:07:12.284000Z</time>
      </trkpt>
      <trkpt lat="35.942220599390566" lon="120.21037140861154">
        <time>2023-06-13T11:07:17.271000Z</time>
      </trkpt>
      <trkpt lat="35.94217085279524" lon="120.21027208305895">
        <time>2023-06-13T11:07:21.238000Z</time>
      </trkpt>
      <trkpt lat="35.94211645424366" lon="120.21017200313509">
        <time>2023-06-13T11:07:25.248000Z</time>
      </trkpt>
      <trkpt lat="35.94206486362964" lon="120.21005197428167">
        <time>2023-06-13T11:07:29.242000Z</time>
      </trkpt>
      <trkpt lat="35.942004304379225" lon="120.20994326099753">
        <time>2023-06-13T11:07:33.285000Z</time>
      </trkpt>
      <trkpt lat="35.941943284124136" lon="120.20983655937016">
        <time>2023-06-13T11:07:37.274000Z</time>
      </trkpt>
      <trkpt lat="35.94188155140728" lon="120.20973061211407">
        <time>2023-06-13T11:07:41.284000Z</time>
      </trkpt>
      <trkpt lat="35.94181114342064" lon="120.20962307229638">
        <time>2023-06-13T11:07:45.268000Z</time>
      </trkpt>
      <trkpt lat="35.94175972044468" lon="120.20951603539288">
        <time>2023-06-13T11:07:49.289000Z</time>
      </trkpt>
      <trkpt lat="35.94174283090979" lon="120.209397431463">
        <time>2023-06-13T11:07:53.307000Z</time>
      </trkpt>
      <trkpt lat="35.94179320614785" lon="120.20928821526468">
        <time>2023-06-13T11:07:58.258000Z</time>
      </trkpt>
      <trkpt lat="35.94179320614785" lon="120.20928821526468">
        <time>2023-06-13T11:08:02.011000Z</time>
      </trkpt>
      <trkpt lat="35.941998730413616" lon="120.20927086472511">
        <time>2023-06-13T11:08:38.182000Z</time>
      </trkpt>
      <trkpt lat="35.94209076371044" lon="120.20924613811076">
        <time>2023-06-13T11:08:42.251000Z</time>
      </trkpt>
      <trkpt lat="35.94219939317554" lon="120.20920640788972">
        <time>2023-06-13T11:08:46.248000Z</time>
      </trkpt>
      <trkpt lat="35.94229368958622" lon="120.20915393717587">
        <time>2023-06-13T11:08:50.248000Z</time>
      </trkpt>
      <trkpt lat="35.94237989746034" lon="120.2090921625495">
        <time>2023-06-13T11:08:54.283000Z</time>
      </trkpt>
      <trkpt lat="35.94248136039823" lon="120.20903809927404">
        <time>2023-06-13T11:08:59.258000Z</time>
      </trkpt>
      <trkpt lat="35.942564299330115" lon="120.20899367518723">
        <time>2023-06-13T11:09:03.287000Z</time>
      </trkpt>
      <trkpt lat="35.942652435041964" lon="120.20896006375551">
        <time>2023-06-13T11:09:07.260000Z</time>
      </trkpt>
      <trkpt lat="35.94276131596416" lon="120.20893768407404">
        <time>2023-06-13T11:09:11.283000Z</time>
      </trkpt>
      <trkpt lat="35.942859719507396" lon="120.20891848951578">
        <time>2023-06-13T11:09:15.304000Z</time>
      </trkpt>
      <trkpt lat="35.94296520575881" lon="120.20889803767204">
        <time>2023-06-13T11:09:20.253000Z</time>
      </trkpt>
      <trkpt lat="35.943060046993196" lon="120.20889418199658">
        <time>2023-06-13T11:09:24.246000Z</time>
      </trkpt>
      <trkpt lat="35.94315467868" lon="120.20888957194984">
        <time>2023-06-13T11:09:28.264000Z</time>
      </trkpt>
      <trkpt lat="35.94324746634811" lon="120.20888194441795">
        <time>2023-06-13T11:09:32.277000Z</time>
      </trkpt>
      <trkpt lat="35.94334440305829" lon="120.20885453559458">
        <time>2023-06-13T11:09:36.284000Z</time>
      </trkpt>
      <trkpt lat="35.943442094139755" lon="120.2087998855859">
        <time>2023-06-13T11:09:40.275000Z</time>
      </trkpt>
      <trkpt lat="35.94353592954576" lon="120.20876753143966">
        <time>2023-06-13T11:09:44.221000Z</time>
      </trkpt>
      <trkpt lat="35.94364845659584" lon="120.20873685367405">
        <time>2023-06-13T11:09:49.303000Z</time>
      </trkpt>
      <trkpt lat="35.9437487879768" lon="120.20873199217021">
        <time>2023-06-13T11:09:53.250000Z</time>
      </trkpt>
      <trkpt lat="35.943854567594826" lon="120.20874422974885">
        <time>2023-06-13T11:09:58.276000Z</time>
      </trkpt>
      <trkpt lat="35.943942996673286" lon="120.20878630690277">
        <time>2023-06-13T11:10:02.269000Z</time>
      </trkpt>
      <trkpt lat="35.94403775408864" lon="120.2088400349021">
        <time>2023-06-13T11:10:06.261000Z</time>
      </trkpt>
      <trkpt lat="35.94412760809064" lon="120.20887113176286">
        <time>2023-06-13T11:10:10.267000Z</time>
      </trkpt>
      <trkpt lat="35.94421440269798" lon="120.20890859887004">
        <time>2023-06-13T11:10:14.252000Z</time>
      </trkpt>
      <trkpt lat="35.94432177487761" lon="120.20893760025501">
        <time>2023-06-13T11:10:19.244000Z</time>
      </trkpt>
      <trkpt lat="35.944420848973095" lon="120.20894187502563">
        <time>2023-06-13T11:10:23.234000Z</time>
      </trkpt>
      <trkpt lat="35.94452461693436" lon="120.208919076249">
        <time>2023-06-13T11:10:27.285000Z</time>
      </trkpt>
      <trkpt lat="35.94461807515472" lon="120.20888948813081">
        <time>2023-06-13T11:10:31.251000Z</time>
      </trkpt>
      <trkpt lat="35.94470822252333" lon="120.20886492915452">
        <time>2023-06-13T11:10:35.284000Z</time>
      </trkpt>
      <trkpt lat="35.94479740597308" lon="120.20884858444333">
        <time>2023-06-13T11:10:39.260000Z</time>
      </trkpt>
      <trkpt lat="35.9448912832886" lon="120.20884363912046">
        <time>2023-06-13T11:10:43.259000Z</time>
      </trkpt>
      <trkpt lat="35.94499773345888" lon="120.2088257856667">
        <time>2023-06-13T11:10:47.253000Z</time>
      </trkpt>
      <trkpt lat="35.94510254915804" lon="120.2088072616607">
        <time>2023-06-13T11:10:51.270000Z</time>
      </trkpt>
      <trkpt lat="35.94519692938775" lon="120.20881128497422">
        <time>2023-06-13T11:10:55.287000Z</time>
      </trkpt>
      <trkpt lat="35.94529294408858" lon="120.20878924056888">
        <time>2023-06-13T11:10:59.259000Z</time>
      </trkpt>
      <trkpt lat="35.94538669567555" lon="120.20876971073449">
        <time>2023-06-13T11:11:03.265000Z</time>
      </trkpt>
      <trkpt lat="35.9454896254465" lon="120.20876753143966">
        <time>2023-06-13T11:11:07.310000Z</time>
      </trkpt>
      <trkpt lat="35.945589831098914" lon="120.2087554614991">
        <time>2023-06-13T11:11:11.262000Z</time>
      </trkpt>
      <trkpt lat="35.94568500760943" lon="120.20873978734016">
        <time>2023-06-13T11:11:15.271000Z</time>
      </trkpt>
      <trkpt lat="35.94578098040074" lon="120.20872972905636">
        <time>2023-06-13T11:11:19.271000Z</time>
      </trkpt>
      <trkpt lat="35.94587439671159" lon="120.20871330052614">
        <time>2023-06-13T11:11:23.255000Z</time>
      </trkpt>
      <trkpt lat="35.94598507974297" lon="120.20871254615486">
        <time>2023-06-13T11:11:27.233000Z</time>
      </trkpt>
      <trkpt lat="35.94608595594764" lon="120.20870114676654">
        <time>2023-06-13T11:11:31.264000Z</time>
      </trkpt>
      <trkpt lat="35.94619680661708" lon="120.20869268104434">
        <time>2023-06-13T11:11:36.275000Z</time>
      </trkpt>
      <trkpt lat="35.946300155483186" lon="120.2086703851819">
        <time>2023-06-13T11:11:40.237000Z</time>
      </trkpt>
      <trkpt lat="35.94640237279236" lon="120.20865253172815">
        <time>2023-06-13T11:11:44.263000Z</time>
      </trkpt>
      <trkpt lat="35.946509786881506" lon="120.20864037796855">
        <time>2023-06-13T11:11:48.257000Z</time>
      </trkpt>
      <trkpt lat="35.946612842381" lon="120.20862260833383">
        <time>2023-06-13T11:11:52.276000Z</time>
      </trkpt>
      <trkpt lat="35.94671946018934" lon="120.20861129276454">
        <time>2023-06-13T11:11:57.287000Z</time>
      </trkpt>
      <trkpt lat="35.94681283459067" lon="120.2085982169956">
        <time>2023-06-13T11:12:01.248000Z</time>
      </trkpt>
      <trkpt lat="35.94690729863942" lon="120.2085842192173">
        <time>2023-06-13T11:12:05.323000Z</time>
      </trkpt>
      <trkpt lat="35.94700075685978" lon="120.20856309682131">
        <time>2023-06-13T11:12:09.263000Z</time>
      </trkpt>
      <trkpt lat="35.94704648014158" lon="120.2084480971098">
        <time>2023-06-13T11:12:14.298000Z</time>
      </trkpt>
      <trkpt lat="35.947054317221045" lon="120.2083304990083">
        <time>2023-06-13T11:12:18.249000Z</time>
      </trkpt>
      <trkpt lat="35.94704677350819" lon="120.2082131523639">
        <time>2023-06-13T11:12:22.270000Z</time>
      </trkpt>
      <trkpt lat="35.94703021924943" lon="120.20809940993786">
        <time>2023-06-13T11:12:26.301000Z</time>
      </trkpt>
      <trkpt lat="35.94703281763941" lon="120.20797200500965">
        <time>2023-06-13T11:12:31.284000Z</time>
      </trkpt>
      <trkpt lat="35.94703281763941" lon="120.20797200500965">
        <time>2023-06-13T11:12:35.017000Z</time>
      </trkpt>
      <trkpt lat="35.94704161863774" lon="120.2078553289175">
        <time>2023-06-13T11:12:38.264000Z</time>
      </trkpt>
      <trkpt lat="35.947028207592666" lon="120.20773915573955">
        <time>2023-06-13T11:12:44.308000Z</time>
      </trkpt>
      <trkpt lat="35.947017394937575" lon="120.20762080326676">
        <time>2023-06-13T11:12:51.257000Z</time>
      </trkpt>
      <trkpt lat="35.947017394937575" lon="120.20762080326676">
        <time>2023-06-13T11:12:54.041000Z</time>
      </trkpt>
      <trkpt lat="35.94700771383941" lon="120.20749557763338">
        <time>2023-06-13T11:12:56.242000Z</time>
      </trkpt>
      <trkpt lat="35.946993422694504" lon="120.20737362094223">
        <time>2023-06-13T11:13:00.297000Z</time>
      </trkpt>
      <trkpt lat="35.94697552733123" lon="120.20725744776428">
        <time>2023-06-13T11:13:04.257000Z</time>
      </trkpt>
      <trkpt lat="35.94700851012021" lon="120.20712953992188">
        <time>2023-06-13T11:13:08.254000Z</time>
      </trkpt>
      <trkpt lat="35.94704618677497" lon="120.20702023990452">
        <time>2023-06-13T11:13:12.278000Z</time>
      </trkpt>
      <trkpt lat="35.94709048513323" lon="120.20691823214293">
        <time>2023-06-13T11:13:16.254000Z</time>
      </trkpt>
      <trkpt lat="35.94713155645877" lon="120.20680859684944">
        <time>2023-06-13T11:13:20.255000Z</time>
      </trkpt>
      <trkpt lat="35.947179584763944" lon="120.20670633763075">
        <time>2023-06-13T11:13:24.295000Z</time>
      </trkpt>
      <trkpt lat="35.94722270965576" lon="120.20659443922341">
        <time>2023-06-13T11:13:28.245000Z</time>
      </trkpt>
      <trkpt lat="35.94726772047579" lon="120.20648044534028">
        <time>2023-06-13T11:13:32.294000Z</time>
      </trkpt>
      <trkpt lat="35.94730510376394" lon="120.20636117085814">
        <time>2023-06-13T11:13:36.281000Z</time>
      </trkpt>
      <trkpt lat="35.94735032413155" lon="120.20623485557735">
        <time>2023-06-13T11:13:41.303000Z</time>
      </trkpt>
      <trkpt lat="35.94739726278931" lon="120.20613754168153">
        <time>2023-06-13T11:13:45.286000Z</time>
      </trkpt>
      <trkpt lat="35.94743804074824" lon="120.2060351986438">
        <time>2023-06-13T11:13:49.257000Z</time>
      </trkpt>
      <trkpt lat="35.94748363830149" lon="120.20592229440808">
        <time>2023-06-13T11:13:53.277000Z</time>
      </trkpt>
      <trkpt lat="35.94753619283438" lon="120.2058108150959">
        <time>2023-06-13T11:13:57.257000Z</time>
      </trkpt>
      <trkpt lat="35.94758560415357" lon="120.20569975487888">
        <time>2023-06-13T11:14:01.252000Z</time>
      </trkpt>
      <trkpt lat="35.947619760409" lon="120.20558794029057">
        <time>2023-06-13T11:14:05.274000Z</time>
      </trkpt>
      <trkpt lat="35.94767042901367" lon="120.20547788590193">
        <time>2023-06-13T11:14:09.294000Z</time>
      </trkpt>
      <trkpt lat="35.94771900214255" lon="120.20534955896437">
        <time>2023-06-13T11:14:14.309000Z</time>
      </trkpt>
      <trkpt lat="35.94776501879096" lon="120.2052256744355">
        <time>2023-06-13T11:14:19.278000Z</time>
      </trkpt>
      <trkpt lat="35.94781359191984" lon="120.20512433722615">
        <time>2023-06-13T11:14:23.294000Z</time>
      </trkpt>
      <trkpt lat="35.94784766435623" lon="120.20499886013567">
        <time>2023-06-13T11:14:27.279000Z</time>
      </trkpt>
      <trkpt lat="35.94788370653987" lon="120.20487531088293">
        <time>2023-06-13T11:14:31.291000Z</time>
      </trkpt>
      <trkpt lat="35.947904996573925" lon="120.20475352182984">
        <time>2023-06-13T11:14:37.268000Z</time>
      </trkpt>
      <trkpt lat="35.947904996573925" lon="120.20475352182984">
        <time>2023-06-13T11:14:38.291000Z</time>
      </trkpt>
      <trkpt lat="35.9479115344584" lon="120.20462242886424">
        <time>2023-06-13T11:14:45.269000Z</time>
      </trkpt>
      <trkpt lat="35.947893052361906" lon="120.20451011136174">
        <time>2023-06-13T11:14:52.325000Z</time>
      </trkpt>
      <trkpt lat="35.94787457026541" lon="120.20438848994672">
        <time>2023-06-13T11:14:59.287000Z</time>
      </trkpt>
      <trkpt lat="35.947954365983605" lon="120.20431397482753">
        <time>2023-06-13T11:15:08.249000Z</time>
      </trkpt>
      <trkpt lat="35.947954365983605" lon="120.20431397482753">
        <time>2023-06-13T11:15:10.092000Z</time>
      </trkpt>
      <trkpt lat="35.94805612228811" lon="120.20437675528228">
        <time>2023-06-13T11:15:12.272000Z</time>
      </trkpt>
      <trkpt lat="35.94814526382834" lon="120.20446183159947">
        <time>2023-06-13T11:15:16.247000Z</time>
      </trkpt>
      <trkpt lat="35.9482308011502" lon="120.20453492179513">
        <time>2023-06-13T11:15:20.251000Z</time>
      </trkpt>
      <trkpt lat="35.94831244088709" lon="120.20460960455239">
        <time>2023-06-13T11:15:24.266000Z</time>
      </trkpt>
      <trkpt lat="35.94838754273951" lon="120.2046817727387">
        <time>2023-06-13T11:15:28.254000Z</time>
      </trkpt>
      <trkpt lat="35.94846008811146" lon="120.2047573775053">
        <time>2023-06-13T11:15:32.269000Z</time>
      </trkpt>
      <trkpt lat="35.948535106144845" lon="120.20482745021582">
        <time>2023-06-13T11:15:36.348000Z</time>
      </trkpt>
      <trkpt lat="35.94861879944801" lon="120.2049024682492">
        <time>2023-06-13T11:15:40.286000Z</time>
      </trkpt>
      <trkpt lat="35.948704881593585" lon="120.2049753908068">
        <time>2023-06-13T11:15:44.263000Z</time>
      </trkpt>
      <trkpt lat="35.94878203701228" lon="120.20505057647824">
        <time>2023-06-13T11:15:48.293000Z</time>
      </trkpt>
      <trkpt lat="35.94885294791311" lon="120.20513607189059">
        <time>2023-06-13T11:15:52.291000Z</time>
      </trkpt>
      <trkpt lat="35.948926750570536" lon="120.20521528087556">
        <time>2023-06-13T11:15:56.261000Z</time>
      </trkpt>
      <trkpt lat="35.94900763593614" lon="120.2052843477577">
        <time>2023-06-13T11:16:00.314000Z</time>
      </trkpt>
      <trkpt lat="35.94908931758255" lon="120.20534947514534">
        <time>2023-06-13T11:16:04.264000Z</time>
      </trkpt>
      <trkpt lat="35.94916982576251" lon="120.2054170332849">
        <time>2023-06-13T11:16:11.273000Z</time>
      </trkpt>
      <trkpt lat="35.94916982576251" lon="120.2054170332849">
        <time>2023-06-13T11:16:12.113000Z</time>
      </trkpt>
      <trkpt lat="35.949234743602574" lon="120.20549381151795">
        <time>2023-06-13T11:16:17.291000Z</time>
      </trkpt>
      <trkpt lat="35.94930963590741" lon="120.20558207295835">
        <time>2023-06-13T11:16:24.261000Z</time>
      </trkpt>
      <trkpt lat="35.949395382776856" lon="120.20567226223648">
        <time>2023-06-13T11:16:29.269000Z</time>
      </trkpt>
      <trkpt lat="35.949395382776856" lon="120.20567226223648">
        <time>2023-06-13T11:16:30.275000Z</time>
      </trkpt>
      <trkpt lat="35.94946528784931" lon="120.20575935021043">
        <time>2023-06-13T11:16:33.258000Z</time>
      </trkpt>
      <trkpt lat="35.94953049905598" lon="120.20583713427186">
        <time>2023-06-13T11:16:37.270000Z</time>
      </trkpt>
      <trkpt lat="35.94961691647768" lon="120.20589756779373">
        <time>2023-06-13T11:16:41.284000Z</time>
      </trkpt>
      <trkpt lat="35.94970182515681" lon="120.2059820573777">
        <time>2023-06-13T11:16:45.266000Z</time>
      </trkpt>
      <trkpt lat="35.94970182515681" lon="120.2059820573777">
        <time>2023-06-13T11:16:52.411000Z</time>
      </trkpt>
      <trkpt lat="35.94980173744261" lon="120.20597887225449">
        <time>2023-06-13T11:16:53.204000Z</time>
      </trkpt>
      <trkpt lat="35.94988593365997" lon="120.2059350349009">
        <time>2023-06-13T11:17:00.262000Z</time>
      </trkpt>
      <trkpt lat="35.9499785117805" lon="120.20588650368154">
        <time>2023-06-13T11:17:08.246000Z</time>
      </trkpt>
      <trkpt lat="35.95007025171071" lon="120.20584283396602">
        <time>2023-06-13T11:17:16.259000Z</time>
      </trkpt>
      <trkpt lat="35.95016467384994" lon="120.20581022836268">
        <time>2023-06-13T11:17:24.243000Z</time>
      </trkpt>
      <trkpt lat="35.95025419257581" lon="120.20577636547387">
        <time>2023-06-13T11:17:31.231000Z</time>
      </trkpt>
      <trkpt lat="35.950354021042585" lon="120.20574359223247">
        <time>2023-06-13T11:17:39.304000Z</time>
      </trkpt>
      <trkpt lat="35.950442953035235" lon="120.20571526139975">
        <time>2023-06-13T11:17:46.256000Z</time>
      </trkpt>
      <trkpt lat="35.950442953035235" lon="120.20571526139975">
        <time>2023-06-13T11:17:50.227000Z</time>
      </trkpt>
      <trkpt lat="35.950538464821875" lon="120.20568986423314">
        <time>2023-06-13T11:17:50.229000Z</time>
      </trkpt>
      <trkpt lat="35.95064441207796" lon="120.20565432496369">
        <time>2023-06-13T11:17:54.276000Z</time>
      </trkpt>
      <trkpt lat="35.95067856833339" lon="120.20555038936436">
        <time>2023-06-13T11:17:58.273000Z</time>
      </trkpt>
      <trkpt lat="35.95064302906394" lon="120.20541996695101">
        <time>2023-06-13T11:18:02.279000Z</time>
      </trkpt>
      <trkpt lat="35.9506268100813" lon="120.20530035719275">
        <time>2023-06-13T11:18:06.256000Z</time>
      </trkpt>
      <trkpt lat="35.9506045980379" lon="120.20519055426121">
        <time>2023-06-13T11:18:10.295000Z</time>
      </trkpt>
      <trkpt lat="35.950580667704344" lon="120.20505904220045">
        <time>2023-06-13T11:18:15.285000Z</time>
      </trkpt>
      <trkpt lat="35.950571866706014" lon="120.20494446158409">
        <time>2023-06-13T11:18:20.260000Z</time>
      </trkpt>
      <trkpt lat="35.950571866706014" lon="120.20494446158409">
        <time>2023-06-13T11:18:22.230000Z</time>
      </trkpt>
      <trkpt lat="35.950571866706014" lon="120.20494446158409">
        <time>2023-06-13T11:18:30.649000Z</time>
      </trkpt>
      <trkpt lat="35.950571866706014" lon="120.20494446158409">
        <time>2023-06-13T11:19:00.261000Z</time>
      </trkpt>
      <trkpt lat="35.95069290138781" lon="120.20477372221649">
        <time>2023-06-13T11:19:00.272000Z</time>
      </trkpt>
      <trkpt lat="35.950783928856254" lon="120.204703733325">
        <time>2023-06-13T11:19:04.271000Z</time>
      </trkpt>
      <trkpt lat="35.95086996909231" lon="120.20467012189329">
        <time>2023-06-13T11:19:07.247000Z</time>
      </trkpt>
      <trkpt lat="35.95097155775875" lon="120.20464824512601">
        <time>2023-06-13T11:19:11.303000Z</time>
      </trkpt>
      <trkpt lat="35.951075996272266" lon="120.20461790263653">
        <time>2023-06-13T11:19:15.291000Z</time>
      </trkpt>
      <trkpt lat="35.95117741730064" lon="120.20457322709262">
        <time>2023-06-13T11:19:19.303000Z</time>
      </trkpt>
      <trkpt lat="35.95126375090331" lon="120.20454003475606">
        <time>2023-06-13T11:19:23.265000Z</time>
      </trkpt>
      <trkpt lat="35.95136550720781" lon="120.20451488904655">
        <time>2023-06-13T11:19:27.246000Z</time>
      </trkpt>
      <trkpt lat="35.95145636703819" lon="120.2044743206352">
        <time>2023-06-13T11:19:33.236000Z</time>
      </trkpt>
      <trkpt lat="35.95145636703819" lon="120.2044743206352">
        <time>2023-06-13T11:19:34.212000Z</time>
      </trkpt>
      <trkpt lat="35.95145636703819" lon="120.2044743206352">
        <time>2023-06-13T11:19:43.239000Z</time>
      </trkpt>
      <trkpt lat="35.95157568342984" lon="120.20448756404221">
        <time>2023-06-13T11:19:43.257000Z</time>
      </trkpt>
      <trkpt lat="35.951668471097946" lon="120.2044759131968">
        <time>2023-06-13T11:19:50.276000Z</time>
      </trkpt>
      <trkpt lat="35.95176758710295" lon="120.20444741472602">
        <time>2023-06-13T11:19:58.234000Z</time>
      </trkpt>
      <trkpt lat="35.9518581116572" lon="120.20441531203687">
        <time>2023-06-13T11:20:06.308000Z</time>
      </trkpt>
      <trkpt lat="35.9518581116572" lon="120.20441531203687">
        <time>2023-06-13T11:20:13.189000Z</time>
      </trkpt>
      <trkpt lat="35.9518581116572" lon="120.20441531203687">
        <time>2023-06-13T11:20:17.238000Z</time>
      </trkpt>
      <trkpt lat="35.95198107417673" lon="120.2043807785958">
        <time>2023-06-13T11:20:17.250000Z</time>
      </trkpt>
      <trkpt lat="35.952071263454854" lon="120.20438329316676">
        <time>2023-06-13T11:20:24.262000Z</time>
      </trkpt>
      <trkpt lat="35.95216698478907" lon="120.20436795428395">
        <time>2023-06-13T11:20:33.270000Z</time>
      </trkpt>
      <trkpt lat="35.95226819626987" lon="120.20435705780983">
        <time>2023-06-13T11:20:41.252000Z</time>
      </trkpt>
      <trkpt lat="35.952367186546326" lon="120.2043514419347">
        <time>2023-06-13T11:20:49.263000Z</time>
      </trkpt>
      <trkpt lat="35.95246722456068" lon="120.20432713441551">
        <time>2023-06-13T11:20:56.225000Z</time>
      </trkpt>
      <trkpt lat="35.95256273634732" lon="120.204320512712">
        <time>2023-06-13T11:21:03.259000Z</time>
      </trkpt>
      <trkpt lat="35.95266398973763" lon="120.20431070588529">
        <time>2023-06-13T11:21:11.239000Z</time>
      </trkpt>
      <trkpt lat="35.95275677740574" lon="120.20429821684957">
        <time>2023-06-13T11:21:19.250000Z</time>
      </trkpt>
      <trkpt lat="35.95285228919238" lon="120.2042948640883">
        <time>2023-06-13T11:21:26.304000Z</time>
      </trkpt>
      <trkpt lat="35.952943693846464" lon="120.2042874880135">
        <time>2023-06-13T11:21:33.248000Z</time>
      </trkpt>
      <trkpt lat="35.953045156784356" lon="120.20426259376109">
        <time>2023-06-13T11:21:40.282000Z</time>
      </trkpt>
      <trkpt lat="35.9531335439533" lon="120.20423904061317">
        <time>2023-06-13T11:21:47.239000Z</time>
      </trkpt>
      <trkpt lat="35.95323328860104" lon="120.20421984605491">
        <time>2023-06-13T11:21:55.233000Z</time>
      </trkpt>
      <trkpt lat="35.95332381315529" lon="120.20421456545591">
        <time>2023-06-13T11:22:01.258000Z</time>
      </trkpt>
      <trkpt lat="35.95332381315529" lon="120.20421456545591">
        <time>2023-06-13T11:22:02.046000Z</time>
      </trkpt>
      <trkpt lat="35.95341827720404" lon="120.20421909168363">
        <time>2023-06-13T11:22:06.347000Z</time>
      </trkpt>
      <trkpt lat="35.9535159682855" lon="120.20419545471668">
        <time>2023-06-13T11:22:09.263000Z</time>
      </trkpt>
      <trkpt lat="35.95362065825611" lon="120.2041754219681">
        <time>2023-06-13T11:22:12.262000Z</time>
      </trkpt>
      <trkpt lat="35.953717972151935" lon="120.20414868369699">
        <time>2023-06-13T11:22:15.267000Z</time>
      </trkpt>
      <trkpt lat="35.953812561929226" lon="120.20410895347595">
        <time>2023-06-13T11:22:19.301000Z</time>
      </trkpt>
      <trkpt lat="35.95391251612455" lon="120.20407886244357">
        <time>2023-06-13T11:22:23.288000Z</time>
      </trkpt>
      <trkpt lat="35.954013811424375" lon="120.20405790768564">
        <time>2023-06-13T11:22:27.286000Z</time>
      </trkpt>
      <trkpt lat="35.95410764683038" lon="120.20404441282153">
        <time>2023-06-13T11:22:31.275000Z</time>
      </trkpt>
      <trkpt lat="35.95420802012086" lon="120.20402831956744">
        <time>2023-06-13T11:22:35.285000Z</time>
      </trkpt>
      <trkpt lat="35.95431698486209" lon="120.20401113666594">
        <time>2023-06-13T11:22:40.323000Z</time>
      </trkpt>
      <trkpt lat="35.95440876670182" lon="120.20400719717145">
        <time>2023-06-13T11:22:44.264000Z</time>
      </trkpt>
      <trkpt lat="35.954500758089125" lon="120.203992780298">
        <time>2023-06-13T11:22:48.282000Z</time>
      </trkpt>
      <trkpt lat="35.954600125551224" lon="120.2039922773838">
        <time>2023-06-13T11:22:52.235000Z</time>
      </trkpt>
      <trkpt lat="35.954600125551224" lon="120.2039922773838">
        <time>2023-06-13T11:22:55.091000Z</time>
      </trkpt>
      <trkpt lat="35.95469534397125" lon="120.20398733206093">
        <time>2023-06-13T11:22:58.258000Z</time>
      </trkpt>
      <trkpt lat="35.95479655545205" lon="120.20396671257913">
        <time>2023-06-13T11:23:05.256000Z</time>
      </trkpt>
      <trkpt lat="35.95489571336657" lon="120.2039703167975">
        <time>2023-06-13T11:23:13.233000Z</time>
      </trkpt>
      <trkpt lat="35.95499097369611" lon="120.20399110391736">
        <time>2023-06-13T11:23:22.228000Z</time>
      </trkpt>
      <trkpt lat="35.95499097369611" lon="120.20399110391736">
        <time>2023-06-13T11:23:33.234000Z</time>
      </trkpt>
      <trkpt lat="35.95499097369611" lon="120.20399110391736">
        <time>2023-06-13T11:24:38.256000Z</time>
      </trkpt>
      <trkpt lat="35.95518291927874" lon="120.20397794432938">
        <time>2023-06-13T11:24:38.272000Z</time>
      </trkpt>
      <trkpt lat="35.95527507830411" lon="120.20394776947796">
        <time>2023-06-13T11:24:42.309000Z</time>
      </trkpt>
      <trkpt lat="35.95536774024367" lon="120.20392094738781">
        <time>2023-06-13T11:24:46.268000Z</time>
      </trkpt>
      <trkpt lat="35.955467484891415" lon="120.2038818039">
        <time>2023-06-13T11:24:51.284000Z</time>
      </trkpt>
      <trkpt lat="35.955565217882395" lon="120.20386017858982">
        <time>2023-06-13T11:24:55.280000Z</time>
      </trkpt>
      <trkpt lat="35.955660017207265" lon="120.2038318477571">
        <time>2023-06-13T11:24:59.245000Z</time>
      </trkpt>
      <trkpt lat="35.95575397834182" lon="120.2038009185344">
        <time>2023-06-13T11:25:04.240000Z</time>
      </trkpt>
      <trkpt lat="35.95586059615016" lon="120.20378524437547">
        <time>2023-06-13T11:25:11.262000Z</time>
      </trkpt>
      <trkpt lat="35.955967884510756" lon="120.2037901058793">
        <time>2023-06-13T11:25:17.338000Z</time>
      </trkpt>
      <trkpt lat="35.9560578642413" lon="120.2037802990526">
        <time>2023-06-13T11:25:21.259000Z</time>
      </trkpt>
      <trkpt lat="35.956146963872015" lon="120.20375766791403">
        <time>2023-06-13T11:25:25.269000Z</time>
      </trkpt>
      <trkpt lat="35.956245702691376" lon="120.20372372120619">
        <time>2023-06-13T11:25:29.291000Z</time>
      </trkpt>
      <trkpt lat="35.95633886754513" lon="120.20370570011437">
        <time>2023-06-13T11:25:35.211000Z</time>
      </trkpt>
      <trkpt lat="35.95633886754513" lon="120.20370570011437">
        <time>2023-06-13T11:25:35.903000Z</time>
      </trkpt>
      <trkpt lat="35.95643873792142" lon="120.20370913669467">
        <time>2023-06-13T11:25:42.261000Z</time>
      </trkpt>
      <trkpt lat="35.95654384698719" lon="120.20369321107864">
        <time>2023-06-13T11:25:48.244000Z</time>
      </trkpt>
      <trkpt lat="35.95654384698719" lon="120.20369321107864">
        <time>2023-06-13T11:25:57.234000Z</time>
      </trkpt>
      <trkpt lat="35.956636969931424" lon="120.2036952227354">
        <time>2023-06-13T11:25:57.248000Z</time>
      </trkpt>
      <trkpt lat="35.9567418275401" lon="120.20369329489768">
        <time>2023-06-13T11:26:02.250000Z</time>
      </trkpt>
      <trkpt lat="35.95683989580721" lon="120.20364702679217">
        <time>2023-06-13T11:26:06.249000Z</time>
      </trkpt>
      <trkpt lat="35.95693788025528" lon="120.20364015363157">
        <time>2023-06-13T11:26:09.271000Z</time>
      </trkpt>
      <trkpt lat="35.95703573897481" lon="120.20363973453641">
        <time>2023-06-13T11:26:12.289000Z</time>
      </trkpt>
      <trkpt lat="35.957129364833236" lon="120.20365205593407">
        <time>2023-06-13T11:26:16.295000Z</time>
      </trkpt>
      <trkpt lat="35.957230534404516" lon="120.20363881252706">
        <time>2023-06-13T11:26:21.249000Z</time>
      </trkpt>
      <trkpt lat="35.95733681693673" lon="120.20363621413708">
        <time>2023-06-13T11:26:26.267000Z</time>
      </trkpt>
      <trkpt lat="35.95742943696678" lon="120.20359975285828">
        <time>2023-06-13T11:26:31.252000Z</time>
      </trkpt>
      <trkpt lat="35.95752113498747" lon="120.20356974564493">
        <time>2023-06-13T11:26:36.307000Z</time>
      </trkpt>
      <trkpt lat="35.95761249773204" lon="120.20355231128633">
        <time>2023-06-13T11:26:41.221000Z</time>
      </trkpt>
      <trkpt lat="35.95761249773204" lon="120.20355231128633">
        <time>2023-06-13T11:26:44.202000Z</time>
      </trkpt>
      <trkpt lat="35.95771714579314" lon="120.20353571511805">
        <time>2023-06-13T11:26:47.245000Z</time>
      </trkpt>
      <trkpt lat="35.95780984964222" lon="120.20351928658783">
        <time>2023-06-13T11:26:53.204000Z</time>
      </trkpt>
      <trkpt lat="35.95780984964222" lon="120.20351928658783">
        <time>2023-06-13T11:26:57.578000Z</time>
      </trkpt>
      <trkpt lat="35.95790439750999" lon="120.20350855775177">
        <time>2023-06-13T11:27:00.284000Z</time>
      </trkpt>
      <trkpt lat="35.95800238195807" lon="120.20349305123091">
        <time>2023-06-13T11:27:04.261000Z</time>
      </trkpt>
      <trkpt lat="35.95811679493636" lon="120.20347737707198">
        <time>2023-06-13T11:27:08.268000Z</time>
      </trkpt>
      <trkpt lat="35.95821624621749" lon="120.20344854332507">
        <time>2023-06-13T11:27:12.260000Z</time>
      </trkpt>
      <trkpt lat="35.95831620041281" lon="120.20340856164694">
        <time>2023-06-13T11:27:17.305000Z</time>
      </trkpt>
      <trkpt lat="35.958410245366395" lon="120.2033688314259">
        <time>2023-06-13T11:27:21.275000Z</time>
      </trkpt>
      <trkpt lat="35.958516485989094" lon="120.20334117114544">
        <time>2023-06-13T11:27:25.277000Z</time>
      </trkpt>
      <trkpt lat="35.95860851928592" lon="120.20333521999419">
        <time>2023-06-13T11:27:29.272000Z</time>
      </trkpt>
      <trkpt lat="35.9586991276592" lon="120.20334695465863">
        <time>2023-06-13T11:27:34.267000Z</time>
      </trkpt>
      <trkpt lat="35.9586991276592" lon="120.20334695465863">
        <time>2023-06-13T11:27:37.283000Z</time>
      </trkpt>
      <trkpt lat="35.958793591707945" lon="120.20331124775112">
        <time>2023-06-13T11:27:40.229000Z</time>
      </trkpt>
      <trkpt lat="35.95887984149158" lon="120.2032707631588">
        <time>2023-06-13T11:27:51.245000Z</time>
      </trkpt>
      <trkpt lat="35.95897656865418" lon="120.20326221361756">
        <time>2023-06-13T11:27:57.217000Z</time>
      </trkpt>
      <trkpt lat="35.95908855088055" lon="120.2032824140042">
        <time>2023-06-13T11:28:03.261000Z</time>
      </trkpt>
      <trkpt lat="35.95918121282011" lon="120.20328559912741">
        <time>2023-06-13T11:28:11.250000Z</time>
      </trkpt>
      <trkpt lat="35.95918121282011" lon="120.20328559912741">
        <time>2023-06-13T11:28:21.261000Z</time>
      </trkpt>
      <trkpt lat="35.95918121282011" lon="120.20328559912741">
        <time>2023-06-13T11:29:00.287000Z</time>
      </trkpt>
      <trkpt lat="35.959333344362676" lon="120.20324997603893">
        <time>2023-06-13T11:29:00.299000Z</time>
      </trkpt>
      <trkpt lat="35.95941871404648" lon="120.2032081503421">
        <time>2023-06-13T11:29:03.278000Z</time>
      </trkpt>
      <trkpt lat="35.95952055417001" lon="120.20316842012107">
        <time>2023-06-13T11:29:07.254000Z</time>
      </trkpt>
      <trkpt lat="35.959628974087536" lon="120.20312173292041">
        <time>2023-06-13T11:29:11.275000Z</time>
      </trkpt>
      <trkpt lat="35.959704578854144" lon="120.20305928774178">
        <time>2023-06-13T11:29:15.263000Z</time>
      </trkpt>
      <trkpt lat="35.95979225356132" lon="120.20301712676883">
        <time>2023-06-13T11:29:20.257000Z</time>
      </trkpt>
      <trkpt lat="35.959905283525586" lon="120.20302316173911">
        <time>2023-06-13T11:29:25.240000Z</time>
      </trkpt>
      <trkpt lat="35.96000800374895" lon="120.20304034464061">
        <time>2023-06-13T11:29:29.257000Z</time>
      </trkpt>
      <trkpt lat="35.960122919641435" lon="120.20306507125497">
        <time>2023-06-13T11:29:33.249000Z</time>
      </trkpt>
      <trkpt lat="35.96023372840136" lon="120.20304688252509">
        <time>2023-06-13T11:29:37.309000Z</time>
      </trkpt>
      <trkpt lat="35.960353086702526" lon="120.20303715951741">
        <time>2023-06-13T11:29:41.262000Z</time>
      </trkpt>
      <trkpt lat="35.96044662874192" lon="120.203004386276">
        <time>2023-06-13T11:29:44.257000Z</time>
      </trkpt>
      <trkpt lat="35.96054079942405" lon="120.20297102630138">
        <time>2023-06-13T11:29:48.266000Z</time>
      </trkpt>
      <trkpt lat="35.960638113319874" lon="120.20294428803027">
        <time>2023-06-13T11:29:53.253000Z</time>
      </trkpt>
      <trkpt lat="35.96074175555259" lon="120.20290212705731">
        <time>2023-06-13T11:29:58.263000Z</time>
      </trkpt>
      <trkpt lat="35.960830226540565" lon="120.20287916064262">
        <time>2023-06-13T11:30:02.262000Z</time>
      </trkpt>
      <trkpt lat="35.96091710496694" lon="120.20284747704864">
        <time>2023-06-13T11:30:06.229000Z</time>
      </trkpt>
      <trkpt lat="35.96101404167712" lon="120.20285275764763">
        <time>2023-06-13T11:30:11.263000Z</time>
      </trkpt>
      <trkpt lat="35.96111822873354" lon="120.20282660610974">
        <time>2023-06-13T11:30:17.305000Z</time>
      </trkpt>
      <trkpt lat="35.96121403388679" lon="120.20281570963562">
        <time>2023-06-13T11:30:22.251000Z</time>
      </trkpt>
      <trkpt lat="35.96132647711784" lon="120.2027834393084">
        <time>2023-06-13T11:30:27.239000Z</time>
      </trkpt>
      <trkpt lat="35.96143053844571" lon="120.20277690142393">
        <time>2023-06-13T11:30:31.233000Z</time>
      </trkpt>
      <trkpt lat="35.961539964191616" lon="120.20275728777051">
        <time>2023-06-13T11:30:35.268000Z</time>
      </trkpt>
      <trkpt lat="35.96164465416223" lon="120.20274178124964">
        <time>2023-06-13T11:30:40.258000Z</time>
      </trkpt>
      <trkpt lat="35.96164465416223" lon="120.20274178124964">
        <time>2023-06-13T11:30:45.269000Z</time>
      </trkpt>
      <trkpt lat="35.96174360252917" lon="120.20274312235415">
        <time>2023-06-13T11:30:46.264000Z</time>
      </trkpt>
      <trkpt lat="35.96181493252516" lon="120.20282845012844">
        <time>2023-06-13T11:30:52.272000Z</time>
      </trkpt>
      <trkpt lat="35.96181493252516" lon="120.20282845012844">
        <time>2023-06-13T11:30:56.481000Z</time>
      </trkpt>
      <trkpt lat="35.96181053202599" lon="120.20296163856983">
        <time>2023-06-13T11:30:57.256000Z</time>
      </trkpt>
      <trkpt lat="35.961801395751536" lon="120.20309625193477">
        <time>2023-06-13T11:31:02.258000Z</time>
      </trkpt>
      <trkpt lat="35.96179586369544" lon="120.20321669988334">
        <time>2023-06-13T11:31:07.235000Z</time>
      </trkpt>
      <trkpt lat="35.961799384094775" lon="120.20334452390671">
        <time>2023-06-13T11:31:12.273000Z</time>
      </trkpt>
      <trkpt lat="35.96180097665638" lon="120.20346547476947">
        <time>2023-06-13T11:31:16.247000Z</time>
      </trkpt>
      <trkpt lat="35.96180730499327" lon="120.20360335707664">
        <time>2023-06-13T11:31:21.273000Z</time>
      </trkpt>
      <trkpt lat="35.96182117704302" lon="120.20373268984258">
        <time>2023-06-13T11:31:25.255000Z</time>
      </trkpt>
      <trkpt lat="35.961824990808964" lon="120.20386034622788">
        <time>2023-06-13T11:31:29.247000Z</time>
      </trkpt>
      <trkpt lat="35.961805460974574" lon="120.20397450774908">
        <time>2023-06-13T11:31:33.270000Z</time>
      </trkpt>
      <trkpt lat="35.96179557032883" lon="120.20409185439348">
        <time>2023-06-13T11:31:37.245000Z</time>
      </trkpt>
      <trkpt lat="35.9617912536487" lon="120.20423233509064">
        <time>2023-06-13T11:31:41.256000Z</time>
      </trkpt>
      <trkpt lat="35.96179112792015" lon="120.20435228012502">
        <time>2023-06-13T11:31:45.250000Z</time>
      </trkpt>
      <trkpt lat="35.96181581262499" lon="120.20447985269129">
        <time>2023-06-13T11:31:50.263000Z</time>
      </trkpt>
      <trkpt lat="35.961817782372236" lon="120.20459887571633">
        <time>2023-06-13T11:31:55.285000Z</time>
      </trkpt>
      <trkpt lat="35.96183685120195" lon="120.20473432727158">
        <time>2023-06-13T11:32:00.255000Z</time>
      </trkpt>
      <trkpt lat="35.96186723560095" lon="120.20485544577241">
        <time>2023-06-13T11:32:04.252000Z</time>
      </trkpt>
      <trkpt lat="35.96186752896756" lon="120.20496918819845">
        <time>2023-06-13T11:32:08.265000Z</time>
      </trkpt>
      <trkpt lat="35.961878006346524" lon="120.20508938468993">
        <time>2023-06-13T11:32:12.284000Z</time>
      </trkpt>
      <trkpt lat="35.961865852586925" lon="120.2052203938365">
        <time>2023-06-13T11:32:17.243000Z</time>
      </trkpt>
      <trkpt lat="35.961882951669395" lon="120.20535157062113">
        <time>2023-06-13T11:32:21.235000Z</time>
      </trkpt>
      <trkpt lat="35.96184468828142" lon="120.20545282401145">
        <time>2023-06-13T11:32:24.266000Z</time>
      </trkpt>
      <trkpt lat="35.961828720755875" lon="120.20557360723615">
        <time>2023-06-13T11:32:28.283000Z</time>
      </trkpt>
      <trkpt lat="35.96183081623167" lon="120.20569195970893">
        <time>2023-06-13T11:32:32.262000Z</time>
      </trkpt>
      <trkpt lat="35.96180952619761" lon="120.20580218173563">
        <time>2023-06-13T11:32:36.270000Z</time>
      </trkpt>
      <trkpt lat="35.96181417815387" lon="120.20591919310391">
        <time>2023-06-13T11:32:40.279000Z</time>
      </trkpt>
      <trkpt lat="35.961897619999945" lon="120.20599823445082">
        <time>2023-06-13T11:32:45.273000Z</time>
      </trkpt>
      <trkpt lat="35.961897619999945" lon="120.20599823445082">
        <time>2023-06-13T11:32:51.530000Z</time>
      </trkpt>
      <trkpt lat="35.96197527833283" lon="120.20606185309589">
        <time>2023-06-13T11:32:52.300000Z</time>
      </trkpt>
      <trkpt lat="35.962014044635" lon="120.20616872236133">
        <time>2023-06-13T11:33:00.238000Z</time>
      </trkpt>
      <trkpt lat="35.962014044635" lon="120.20616872236133">
        <time>2023-06-13T11:33:02.267000Z</time>
      </trkpt>
      <trkpt lat="35.96202846150845" lon="120.20629956386983">
        <time>2023-06-13T11:33:05.269000Z</time>
      </trkpt>
      <trkpt lat="35.96204539295286" lon="120.20642193965614">
        <time>2023-06-13T11:33:10.250000Z</time>
      </trkpt>
      <trkpt lat="35.96206555142999" lon="120.20655579864979">
        <time>2023-06-13T11:33:15.315000Z</time>
      </trkpt>
      <trkpt lat="35.962106245569885" lon="120.20667800679803">
        <time>2023-06-13T11:33:20.266000Z</time>
      </trkpt>
      <trkpt lat="35.96213248092681" lon="120.20681572146714">
        <time>2023-06-13T11:33:24.247000Z</time>
      </trkpt>
      <trkpt lat="35.96216236241162" lon="120.2069229260087">
        <time>2023-06-13T11:33:28.242000Z</time>
      </trkpt>
      <trkpt lat="35.96219785977155" lon="120.20704303868115">
        <time>2023-06-13T11:33:32.256000Z</time>
      </trkpt>
      <trkpt lat="35.96220456529409" lon="120.20715476945043">
        <time>2023-06-13T11:33:37.275000Z</time>
      </trkpt>
      <trkpt lat="35.9622003743425" lon="120.20729198120534">
        <time>2023-06-13T11:33:42.280000Z</time>
      </trkpt>
      <trkpt lat="35.96223071683198" lon="120.20742273889482">
        <time>2023-06-13T11:33:47.263000Z</time>
      </trkpt>
      <trkpt lat="35.96227212343365" lon="120.2075307816267">
        <time>2023-06-13T11:33:51.269000Z</time>
      </trkpt>
      <trkpt lat="35.96232354640961" lon="120.20764209330082">
        <time>2023-06-13T11:33:56.326000Z</time>
      </trkpt>
      <trkpt lat="35.96235367935151" lon="120.20776145160198">
        <time>2023-06-13T11:34:01.294000Z</time>
      </trkpt>
      <trkpt lat="35.96236683893949" lon="120.20788600668311">
        <time>2023-06-13T11:34:06.257000Z</time>
      </trkpt>
      <trkpt lat="35.962376981042325" lon="120.20802942104638">
        <time>2023-06-13T11:34:11.263000Z</time>
      </trkpt>
      <trkpt lat="35.962393283843994" lon="120.20815305411816">
        <time>2023-06-13T11:34:14.247000Z</time>
      </trkpt>
      <trkpt lat="35.962410382926464" lon="120.20828297361732">
        <time>2023-06-13T11:34:18.296000Z</time>
      </trkpt>
      <trkpt lat="35.962374047376215" lon="120.20838825032115">
        <time>2023-06-13T11:34:24.255000Z</time>
      </trkpt>
      <trkpt lat="35.962393367663026" lon="120.20849905908108">
        <time>2023-06-13T11:34:28.244000Z</time>
      </trkpt>
      <trkpt lat="35.9624094190076" lon="120.20862210541964">
        <time>2023-06-13T11:34:32.260000Z</time>
      </trkpt>
      <trkpt lat="35.96244252752513" lon="120.2087636757642">
        <time>2023-06-13T11:34:36.338000Z</time>
      </trkpt>
      <trkpt lat="35.962489885278046" lon="120.20888621918857">
        <time>2023-06-13T11:34:39.276000Z</time>
      </trkpt>
      <trkpt lat="35.96251679118723" lon="120.20900147035718">
        <time>2023-06-13T11:34:43.278000Z</time>
      </trkpt>
      <trkpt lat="35.962560502812266" lon="120.20913206040859">
        <time>2023-06-13T11:34:47.291000Z</time>
      </trkpt>
      <trkpt lat="35.962613727897406" lon="120.20923272706568">
        <time>2023-06-13T11:34:51.263000Z</time>
      </trkpt>
      <trkpt lat="35.96271003596485" lon="120.20927421748638">
        <time>2023-06-13T11:34:56.277000Z</time>
      </trkpt>
      <trkpt lat="35.96279532182962" lon="120.20923214033246">
        <time>2023-06-13T11:35:01.230000Z</time>
      </trkpt>
      <trkpt lat="35.96288232598454" lon="120.20919140428305">
        <time>2023-06-13T11:35:07.248000Z</time>
      </trkpt>
    </trkseg>
  </trk>
</gpx>