<?xml version="1.0" encoding="UTF-8"?>
<gpx xmlns="http://www.topografix.com/GPX/1/1" xmlns:gpxtpx="http://www.garmin.com/xmlschemas/TrackPointExtension/v1" xmlns:xsi="http://www.w3.org/2001/XMLSchema-instance" xsi:schemaLocation="http://www.topografix.com/GPX/1/1 http://www.topografix.com/GPX/1/1/gpx.xsd" version="1.1" creator="gpx.py -- https://github.com/tkrajina/gpxpy">
  <trk>
    <name>星期一 晚间跑</name>
    <trkseg>
      <trkpt lat="35.956761608831584" lon="120.20973287522793">
        <time>2023-06-12T11:46:56.600000Z</time>
      </trkpt>
      <trkpt lat="35.956761608831584" lon="120.20973287522793">
        <time>2023-06-12T11:47:01.597000Z</time>
      </trkpt>
      <trkpt lat="35.956761608831584" lon="120.20973287522793">
        <time>2023-06-12T11:47:08.611000Z</time>
      </trkpt>
      <trkpt lat="35.95676663797349" lon="120.20960815250874">
        <time>2023-06-12T11:47:08.622000Z</time>
      </trkpt>
      <trkpt lat="35.95675393939018" lon="120.20948477089405">
        <time>2023-06-12T11:47:14.587000Z</time>
      </trkpt>
      <trkpt lat="35.95675393939018" lon="120.20948477089405">
        <time>2023-06-12T11:47:18.543000Z</time>
      </trkpt>
      <trkpt lat="35.9567367983982" lon="120.20936180837452">
        <time>2023-06-12T11:47:19.624000Z</time>
      </trkpt>
      <trkpt lat="35.9567288774997" lon="120.209233565256">
        <time>2023-06-12T11:47:24.613000Z</time>
      </trkpt>
      <trkpt lat="35.95670582726598" lon="120.20909979008138">
        <time>2023-06-12T11:47:29.594000Z</time>
      </trkpt>
      <trkpt lat="35.95667963381857" lon="120.2089782524854">
        <time>2023-06-12T11:47:33.628000Z</time>
      </trkpt>
      <trkpt lat="35.95666634850204" lon="120.2088532783091">
        <time>2023-06-12T11:47:38.601000Z</time>
      </trkpt>
      <trkpt lat="35.9566625347361" lon="120.2087290585041">
        <time>2023-06-12T11:47:45.568000Z</time>
      </trkpt>
      <trkpt lat="35.9566625347361" lon="120.2087290585041">
        <time>2023-06-12T11:47:49.574000Z</time>
      </trkpt>
      <trkpt lat="35.95665876287967" lon="120.2086122147739">
        <time>2023-06-12T11:47:49.577000Z</time>
      </trkpt>
      <trkpt lat="35.95666257664561" lon="120.20848539657891">
        <time>2023-06-12T11:47:54.577000Z</time>
      </trkpt>
      <trkpt lat="35.956643130630255" lon="120.20837509073317">
        <time>2023-06-12T11:47:58.605000Z</time>
      </trkpt>
      <trkpt lat="35.95664380118251" lon="120.2082525473088">
        <time>2023-06-12T11:48:02.606000Z</time>
      </trkpt>
      <trkpt lat="35.95664380118251" lon="120.2082525473088">
        <time>2023-06-12T11:48:04.593000Z</time>
      </trkpt>
      <trkpt lat="35.9566295100376" lon="120.20812916569412">
        <time>2023-06-12T11:48:06.581000Z</time>
      </trkpt>
      <trkpt lat="35.95661098603159" lon="120.20801399834454">
        <time>2023-06-12T11:48:10.598000Z</time>
      </trkpt>
      <trkpt lat="35.95658190082759" lon="120.20789757370949">
        <time>2023-06-12T11:48:14.618000Z</time>
      </trkpt>
      <trkpt lat="35.95657842233777" lon="120.20778240635991">
        <time>2023-06-12T11:48:18.618000Z</time>
      </trkpt>
      <trkpt lat="35.95656459219754" lon="120.20766145549715">
        <time>2023-06-12T11:48:22.658000Z</time>
      </trkpt>
      <trkpt lat="35.95655667129904" lon="120.20753656513989">
        <time>2023-06-12T11:48:27.606000Z</time>
      </trkpt>
      <trkpt lat="35.956469415687025" lon="120.20750789903104">
        <time>2023-06-12T11:48:31.603000Z</time>
      </trkpt>
      <trkpt lat="35.956361750140786" lon="120.20752692595124">
        <time>2023-06-12T11:48:35.591000Z</time>
      </trkpt>
      <trkpt lat="35.95625647343695" lon="120.2074966672808">
        <time>2023-06-12T11:48:39.622000Z</time>
      </trkpt>
      <trkpt lat="35.956157189793885" lon="120.20749909803271">
        <time>2023-06-12T11:48:43.618000Z</time>
      </trkpt>
      <trkpt lat="35.95605220645666" lon="120.20753564313054">
        <time>2023-06-12T11:48:47.612000Z</time>
      </trkpt>
      <trkpt lat="35.95596842933446" lon="120.20757637917995">
        <time>2023-06-12T11:48:50.604000Z</time>
      </trkpt>
      <trkpt lat="35.95587174408138" lon="120.20760177634656">
        <time>2023-06-12T11:48:54.603000Z</time>
      </trkpt>
      <trkpt lat="35.955780004151165" lon="120.20760244689882">
        <time>2023-06-12T11:48:57.624000Z</time>
      </trkpt>
      <trkpt lat="35.955780004151165" lon="120.20760244689882">
        <time>2023-06-12T11:49:05.600000Z</time>
      </trkpt>
      <trkpt lat="35.955689270049334" lon="120.2075912989676">
        <time>2023-06-12T11:49:08.615000Z</time>
      </trkpt>
      <trkpt lat="35.955689270049334" lon="120.2075912989676">
        <time>2023-06-12T11:49:10.586000Z</time>
      </trkpt>
      <trkpt lat="35.955689270049334" lon="120.2075912989676">
        <time>2023-06-12T11:49:45.629000Z</time>
      </trkpt>
      <trkpt lat="35.9555924590677" lon="120.2075720205903">
        <time>2023-06-12T11:49:45.647000Z</time>
      </trkpt>
      <trkpt lat="35.955512705259025" lon="120.20762667059898">
        <time>2023-06-12T11:49:49.590000Z</time>
      </trkpt>
      <trkpt lat="35.955425198189914" lon="120.20767754875124">
        <time>2023-06-12T11:49:53.614000Z</time>
      </trkpt>
      <trkpt lat="35.95533911604434" lon="120.20772616378963">
        <time>2023-06-12T11:49:57.614000Z</time>
      </trkpt>
      <trkpt lat="35.955242472700775" lon="120.20775759592652">
        <time>2023-06-12T11:50:01.614000Z</time>
      </trkpt>
      <trkpt lat="35.955131077207625" lon="120.20778902806342">
        <time>2023-06-12T11:50:06.593000Z</time>
      </trkpt>
      <trkpt lat="35.955039002001286" lon="120.20782037638128">
        <time>2023-06-12T11:50:10.619000Z</time>
      </trkpt>
      <trkpt lat="35.95494558569044" lon="120.20784233696759">
        <time>2023-06-12T11:50:14.621000Z</time>
      </trkpt>
      <trkpt lat="35.95483997371048" lon="120.20785767585039">
        <time>2023-06-12T11:50:19.610000Z</time>
      </trkpt>
      <trkpt lat="35.95473348163068" lon="120.20788365975022">
        <time>2023-06-12T11:50:24.601000Z</time>
      </trkpt>
      <trkpt lat="35.95462866593152" lon="120.20791676826775">
        <time>2023-06-12T11:50:29.598000Z</time>
      </trkpt>
      <trkpt lat="35.954526364803314" lon="120.20796027034521">
        <time>2023-06-12T11:50:34.616000Z</time>
      </trkpt>
      <trkpt lat="35.954428715631366" lon="120.2079988270998">
        <time>2023-06-12T11:50:39.607000Z</time>
      </trkpt>
      <trkpt lat="35.95432469621301" lon="120.2080437541008">
        <time>2023-06-12T11:50:44.615000Z</time>
      </trkpt>
      <trkpt lat="35.95423019025475" lon="120.2080815564841">
        <time>2023-06-12T11:50:48.589000Z</time>
      </trkpt>
      <trkpt lat="35.9541497239843" lon="120.20813478156924">
        <time>2023-06-12T11:50:52.607000Z</time>
      </trkpt>
      <trkpt lat="35.954064605757594" lon="120.2082057762891">
        <time>2023-06-12T11:50:56.614000Z</time>
      </trkpt>
      <trkpt lat="35.953979906626046" lon="120.20829236134887">
        <time>2023-06-12T11:51:00.626000Z</time>
      </trkpt>
      <trkpt lat="35.95389135181904" lon="120.20838431082666">
        <time>2023-06-12T11:51:04.619000Z</time>
      </trkpt>
      <trkpt lat="35.95382232684642" lon="120.20846419036388">
        <time>2023-06-12T11:51:07.611000Z</time>
      </trkpt>
      <trkpt lat="35.95376193523407" lon="120.20855370908976">
        <time>2023-06-12T11:51:10.581000Z</time>
      </trkpt>
      <trkpt lat="35.953704728744924" lon="120.20864582620561">
        <time>2023-06-12T11:51:13.598000Z</time>
      </trkpt>
      <trkpt lat="35.953654646873474" lon="120.208739368245">
        <time>2023-06-12T11:51:16.623000Z</time>
      </trkpt>
      <trkpt lat="35.95359580591321" lon="120.20886375568807">
        <time>2023-06-12T11:51:20.630000Z</time>
      </trkpt>
      <trkpt lat="35.95353357028216" lon="120.20898906514049">
        <time>2023-06-12T11:51:24.642000Z</time>
      </trkpt>
      <trkpt lat="35.953474561683834" lon="120.20911026746035">
        <time>2023-06-12T11:51:29.621000Z</time>
      </trkpt>
      <trkpt lat="35.95341387670487" lon="120.20920850336552">
        <time>2023-06-12T11:51:33.617000Z</time>
      </trkpt>
      <trkpt lat="35.95335197634995" lon="120.20929994992912">
        <time>2023-06-12T11:51:37.592000Z</time>
      </trkpt>
      <trkpt lat="35.95328693278134" lon="120.20941268652678">
        <time>2023-06-12T11:51:42.669000Z</time>
      </trkpt>
      <trkpt lat="35.953239616937935" lon="120.20953070372343">
        <time>2023-06-12T11:51:46.601000Z</time>
      </trkpt>
      <trkpt lat="35.95317599829286" lon="120.20963304676116">
        <time>2023-06-12T11:51:50.581000Z</time>
      </trkpt>
      <trkpt lat="35.953112547285855" lon="120.20972927100956">
        <time>2023-06-12T11:51:54.625000Z</time>
      </trkpt>
      <trkpt lat="35.953048802912235" lon="120.2098347991705">
        <time>2023-06-12T11:51:58.619000Z</time>
      </trkpt>
      <trkpt lat="35.95297906547785" lon="120.20993798039854">
        <time>2023-06-12T11:52:02.555000Z</time>
      </trkpt>
      <trkpt lat="35.95291113015264" lon="120.21002992987633">
        <time>2023-06-12T11:52:06.569000Z</time>
      </trkpt>
      <trkpt lat="35.95283787231892" lon="120.21010452881455">
        <time>2023-06-12T11:52:09.555000Z</time>
      </trkpt>
      <trkpt lat="35.95274764113128" lon="120.21018977276981">
        <time>2023-06-12T11:52:13.594000Z</time>
      </trkpt>
      <trkpt lat="35.95265120733529" lon="120.21026655100286">
        <time>2023-06-12T11:52:17.618000Z</time>
      </trkpt>
      <trkpt lat="35.952563574537635" lon="120.21031072363257">
        <time>2023-06-12T11:52:21.618000Z</time>
      </trkpt>
      <trkpt lat="35.95245331060141" lon="120.21036394871771">
        <time>2023-06-12T11:52:25.594000Z</time>
      </trkpt>
      <trkpt lat="35.952346147969365" lon="120.21042798645794">
        <time>2023-06-12T11:52:29.615000Z</time>
      </trkpt>
      <trkpt lat="35.95224782824516" lon="120.21048355847597">
        <time>2023-06-12T11:52:33.593000Z</time>
      </trkpt>
      <trkpt lat="35.95224782824516" lon="120.21048355847597">
        <time>2023-06-12T11:52:40.623000Z</time>
      </trkpt>
      <trkpt lat="35.95215495675802" lon="120.21047106944025">
        <time>2023-06-12T11:52:40.631000Z</time>
      </trkpt>
      <trkpt lat="35.95208232756704" lon="120.21039269864559">
        <time>2023-06-12T11:52:47.608000Z</time>
      </trkpt>
      <trkpt lat="35.95208232756704" lon="120.21039269864559">
        <time>2023-06-12T11:53:07.734000Z</time>
      </trkpt>
      <trkpt lat="35.95208232756704" lon="120.21039269864559">
        <time>2023-06-12T11:53:52.270000Z</time>
      </trkpt>
      <trkpt lat="35.95198492985219" lon="120.21040124818683">
        <time>2023-06-12T11:53:52.285000Z</time>
      </trkpt>
      <trkpt lat="35.95187110360712" lon="120.21044173277915">
        <time>2023-06-12T11:53:56.294000Z</time>
      </trkpt>
      <trkpt lat="35.951754888519645" lon="120.21045899949968">
        <time>2023-06-12T11:54:00.297000Z</time>
      </trkpt>
      <trkpt lat="35.951700657606125" lon="120.21034978330135">
        <time>2023-06-12T11:54:05.278000Z</time>
      </trkpt>
      <trkpt lat="35.95165920909494" lon="120.21024635061622">
        <time>2023-06-12T11:54:10.303000Z</time>
      </trkpt>
      <trkpt lat="35.95163967926055" lon="120.21012347191572">
        <time>2023-06-12T11:54:15.307000Z</time>
      </trkpt>
      <trkpt lat="35.95161826349795" lon="120.20999447442591">
        <time>2023-06-12T11:54:20.291000Z</time>
      </trkpt>
      <trkpt lat="35.95156788825989" lon="120.20989732816815">
        <time>2023-06-12T11:54:24.309000Z</time>
      </trkpt>
      <trkpt lat="35.951535534113646" lon="120.20977210253477">
        <time>2023-06-12T11:54:28.301000Z</time>
      </trkpt>
      <trkpt lat="35.95151524990797" lon="120.2096358127892">
        <time>2023-06-12T11:54:33.301000Z</time>
      </trkpt>
      <trkpt lat="35.95149534288794" lon="120.20950832404196">
        <time>2023-06-12T11:54:37.279000Z</time>
      </trkpt>
      <trkpt lat="35.951485871337354" lon="120.209373626858">
        <time>2023-06-12T11:54:41.299000Z</time>
      </trkpt>
      <trkpt lat="35.951463617384434" lon="120.20924965851009">
        <time>2023-06-12T11:54:45.320000Z</time>
      </trkpt>
      <trkpt lat="35.95144190825522" lon="120.2091370895505">
        <time>2023-06-12T11:54:49.323000Z</time>
      </trkpt>
      <trkpt lat="35.951424138620496" lon="120.20901672542095">
        <time>2023-06-12T11:54:53.268000Z</time>
      </trkpt>
      <trkpt lat="35.95139362849295" lon="120.20890700630844">
        <time>2023-06-12T11:54:57.294000Z</time>
      </trkpt>
      <trkpt lat="35.95136772841215" lon="120.20878622308373">
        <time>2023-06-12T11:55:01.301000Z</time>
      </trkpt>
      <trkpt lat="35.95133830793202" lon="120.20866225473583">
        <time>2023-06-12T11:55:05.307000Z</time>
      </trkpt>
      <trkpt lat="35.9513134136796" lon="120.20853476598859">
        <time>2023-06-12T11:55:09.309000Z</time>
      </trkpt>
      <trkpt lat="35.951282400637865" lon="120.20841674879193">
        <time>2023-06-12T11:55:13.308000Z</time>
      </trkpt>
      <trkpt lat="35.951268947683275" lon="120.20829236134887">
        <time>2023-06-12T11:55:18.289000Z</time>
      </trkpt>
      <trkpt lat="35.951270246878266" lon="120.20817275159061">
        <time>2023-06-12T11:55:24.299000Z</time>
      </trkpt>
      <trkpt lat="35.951230390928686" lon="120.20805096253753">
        <time>2023-06-12T11:55:30.285000Z</time>
      </trkpt>
      <trkpt lat="35.951203275471926" lon="120.2079417463392">
        <time>2023-06-12T11:55:34.287000Z</time>
      </trkpt>
      <trkpt lat="35.95118361990899" lon="120.20782800391316">
        <time>2023-06-12T11:55:38.262000Z</time>
      </trkpt>
      <trkpt lat="35.951159270480275" lon="120.20771342329681">
        <time>2023-06-12T11:55:43.307000Z</time>
      </trkpt>
      <trkpt lat="35.95109468791634" lon="120.2076100744307">
        <time>2023-06-12T11:55:48.290000Z</time>
      </trkpt>
      <trkpt lat="35.951024699024856" lon="120.20751954987645">
        <time>2023-06-12T11:55:53.307000Z</time>
      </trkpt>
      <trkpt lat="35.9509558416903" lon="120.20743120461702">
        <time>2023-06-12T11:55:58.332000Z</time>
      </trkpt>
      <trkpt lat="35.95090073067695" lon="120.20733858458698">
        <time>2023-06-12T11:56:03.297000Z</time>
      </trkpt>
      <trkpt lat="35.95082344952971" lon="120.20725610665977">
        <time>2023-06-12T11:56:08.312000Z</time>
      </trkpt>
      <trkpt lat="35.950733050704" lon="120.20718134008348">
        <time>2023-06-12T11:56:13.314000Z</time>
      </trkpt>
      <trkpt lat="35.95065761357546" lon="120.20709106698632">
        <time>2023-06-12T11:56:18.337000Z</time>
      </trkpt>
      <trkpt lat="35.95059122890234" lon="120.20700875669718">
        <time>2023-06-12T11:56:22.318000Z</time>
      </trkpt>
      <trkpt lat="35.9505200246349" lon="120.2069300506264">
        <time>2023-06-12T11:56:26.307000Z</time>
      </trkpt>
      <trkpt lat="35.95043771434575" lon="120.20684011280537">
        <time>2023-06-12T11:56:31.312000Z</time>
      </trkpt>
      <trkpt lat="35.95036558806896" lon="120.20674724131823">
        <time>2023-06-12T11:56:36.337000Z</time>
      </trkpt>
      <trkpt lat="35.950280972756445" lon="120.20665814168751">
        <time>2023-06-12T11:56:41.284000Z</time>
      </trkpt>
      <trkpt lat="35.95020461361855" lon="120.20659033209085">
        <time>2023-06-12T11:56:45.281000Z</time>
      </trkpt>
      <trkpt lat="35.95013089478016" lon="120.2065032441169">
        <time>2023-06-12T11:56:50.290000Z</time>
      </trkpt>
      <trkpt lat="35.950051601976156" lon="120.20641640760005">
        <time>2023-06-12T11:56:56.276000Z</time>
      </trkpt>
      <trkpt lat="35.94996304716915" lon="120.20633803680539">
        <time>2023-06-12T11:57:01.278000Z</time>
      </trkpt>
      <trkpt lat="35.949891549535096" lon="120.20626100711524">
        <time>2023-06-12T11:57:05.311000Z</time>
      </trkpt>
      <trkpt lat="35.94983321148902" lon="120.20616855472326">
        <time>2023-06-12T11:57:09.297000Z</time>
      </trkpt>
      <trkpt lat="35.949754882603884" lon="120.20609429106116">
        <time>2023-06-12T11:57:13.304000Z</time>
      </trkpt>
      <trkpt lat="35.94967852346599" lon="120.2060322649777">
        <time>2023-06-12T11:57:17.324000Z</time>
      </trkpt>
      <trkpt lat="35.94958728644997" lon="120.20598088391125">
        <time>2023-06-12T11:57:21.297000Z</time>
      </trkpt>
      <trkpt lat="35.949503844603896" lon="120.20591458305717">
        <time>2023-06-12T11:57:25.304000Z</time>
      </trkpt>
      <trkpt lat="35.949422917328775" lon="120.2058541495353">
        <time>2023-06-12T11:57:29.315000Z</time>
      </trkpt>
      <trkpt lat="35.94935385044664" lon="120.20578315481544">
        <time>2023-06-12T11:57:33.342000Z</time>
      </trkpt>
      <trkpt lat="35.94928314909339" lon="120.20570428110659">
        <time>2023-06-12T11:57:37.322000Z</time>
      </trkpt>
      <trkpt lat="35.94919371418655" lon="120.20561886951327">
        <time>2023-06-12T11:57:42.307000Z</time>
      </trkpt>
      <trkpt lat="35.94911056570709" lon="120.20555055700243">
        <time>2023-06-12T11:57:47.324000Z</time>
      </trkpt>
      <trkpt lat="35.94903517048806" lon="120.2054722700268">
        <time>2023-06-12T11:57:51.285000Z</time>
      </trkpt>
      <trkpt lat="35.948959230445325" lon="120.20538317039609">
        <time>2023-06-12T11:57:55.326000Z</time>
      </trkpt>
      <trkpt lat="35.948890540748835" lon="120.20529666915536">
        <time>2023-06-12T11:57:59.302000Z</time>
      </trkpt>
      <trkpt lat="35.9488257067278" lon="120.20521293394268">
        <time>2023-06-12T11:58:03.281000Z</time>
      </trkpt>
      <trkpt lat="35.94874255824834" lon="120.20511880517006">
        <time>2023-06-12T11:58:08.311000Z</time>
      </trkpt>
      <trkpt lat="35.94867541920394" lon="120.20503506995738">
        <time>2023-06-12T11:58:12.334000Z</time>
      </trkpt>
      <trkpt lat="35.94859838951379" lon="120.20495259203017">
        <time>2023-06-12T11:58:17.317000Z</time>
      </trkpt>
      <trkpt lat="35.94853141810745" lon="120.20487623289227">
        <time>2023-06-12T11:58:21.300000Z</time>
      </trkpt>
      <trkpt lat="35.94845090992749" lon="120.20479962229729">
        <time>2023-06-12T11:58:25.270000Z</time>
      </trkpt>
      <trkpt lat="35.948364324867725" lon="120.20470909774303">
        <time>2023-06-12T11:58:30.305000Z</time>
      </trkpt>
      <trkpt lat="35.94828913919628" lon="120.20463148131967">
        <time>2023-06-12T11:58:34.303000Z</time>
      </trkpt>
      <trkpt lat="35.94821634236723" lon="120.20454464480281">
        <time>2023-06-12T11:58:38.308000Z</time>
      </trkpt>
      <trkpt lat="35.94814597629011" lon="120.2044671960175">
        <time>2023-06-12T11:58:42.281000Z</time>
      </trkpt>
      <trkpt lat="35.94807053916156" lon="120.20440299063921">
        <time>2023-06-12T11:58:46.321000Z</time>
      </trkpt>
      <trkpt lat="35.94797485973686" lon="120.20432663150132">
        <time>2023-06-12T11:58:51.324000Z</time>
      </trkpt>
      <trkpt lat="35.947878300212324" lon="120.20429218187928">
        <time>2023-06-12T11:58:56.313000Z</time>
      </trkpt>
      <trkpt lat="35.947836306877434" lon="120.20440232008696">
        <time>2023-06-12T11:59:01.302000Z</time>
      </trkpt>
      <trkpt lat="35.94785495661199" lon="120.20454028621316">
        <time>2023-06-12T11:59:06.302000Z</time>
      </trkpt>
      <trkpt lat="35.947858854196966" lon="120.2046606503427">
        <time>2023-06-12T11:59:11.284000Z</time>
      </trkpt>
      <trkpt lat="35.94784774817526" lon="120.20478109829128">
        <time>2023-06-12T11:59:16.304000Z</time>
      </trkpt>
      <trkpt lat="35.94782771542668" lon="120.20491512492299">
        <time>2023-06-12T11:59:21.312000Z</time>
      </trkpt>
      <trkpt lat="35.947802402079105" lon="120.20503272302449">
        <time>2023-06-12T11:59:25.301000Z</time>
      </trkpt>
      <trkpt lat="35.947746955789626" lon="120.20514948293567">
        <time>2023-06-12T11:59:30.303000Z</time>
      </trkpt>
      <trkpt lat="35.94769104849547" lon="120.2052634768188">
        <time>2023-06-12T11:59:35.296000Z</time>
      </trkpt>
      <trkpt lat="35.947638703510165" lon="120.20538350567222">
        <time>2023-06-12T11:59:40.287000Z</time>
      </trkpt>
      <trkpt lat="35.94761100132018" lon="120.2055034507066">
        <time>2023-06-12T11:59:45.299000Z</time>
      </trkpt>
      <trkpt lat="35.947565361857414" lon="120.20560210570693">
        <time>2023-06-12T11:59:49.280000Z</time>
      </trkpt>
      <trkpt lat="35.947524877265096" lon="120.20570344291627">
        <time>2023-06-12T11:59:53.257000Z</time>
      </trkpt>
      <trkpt lat="35.94748242292553" lon="120.20581156946719">
        <time>2023-06-12T11:59:57.271000Z</time>
      </trkpt>
      <trkpt lat="35.947432718239725" lon="120.20593428052962">
        <time>2023-06-12T12:00:02.300000Z</time>
      </trkpt>
      <trkpt lat="35.947392862290144" lon="120.20603427663445">
        <time>2023-06-12T12:00:06.284000Z</time>
      </trkpt>
      <trkpt lat="35.94735853839666" lon="120.20614659413695">
        <time>2023-06-12T12:00:11.293000Z</time>
      </trkpt>
      <trkpt lat="35.94731763470918" lon="120.20626477897167">
        <time>2023-06-12T12:00:16.258000Z</time>
      </trkpt>
      <trkpt lat="35.947259715758264" lon="120.20638925023377">
        <time>2023-06-12T12:00:21.286000Z</time>
      </trkpt>
      <trkpt lat="35.947199114598334" lon="120.20649938844144">
        <time>2023-06-12T12:00:26.280000Z</time>
      </trkpt>
      <trkpt lat="35.94715821091086" lon="120.20660064183176">
        <time>2023-06-12T12:00:30.274000Z</time>
      </trkpt>
      <trkpt lat="35.947135370224714" lon="120.20671765320003">
        <time>2023-06-12T12:00:35.275000Z</time>
      </trkpt>
      <trkpt lat="35.94708742573857" lon="120.20682150498033">
        <time>2023-06-12T12:00:39.300000Z</time>
      </trkpt>
      <trkpt lat="35.94703633803874" lon="120.20694480277598">
        <time>2023-06-12T12:00:44.315000Z</time>
      </trkpt>
      <trkpt lat="35.94698621425778" lon="120.20705619826913">
        <time>2023-06-12T12:00:49.277000Z</time>
      </trkpt>
      <trkpt lat="35.946939275600016" lon="120.20718108862638">
        <time>2023-06-12T12:00:54.310000Z</time>
      </trkpt>
      <trkpt lat="35.94690637663007" lon="120.20730840973556">
        <time>2023-06-12T12:00:59.272000Z</time>
      </trkpt>
      <trkpt lat="35.94690918456763" lon="120.20743682049215">
        <time>2023-06-12T12:01:04.295000Z</time>
      </trkpt>
      <trkpt lat="35.94691978767514" lon="120.20754813216627">
        <time>2023-06-12T12:01:08.288000Z</time>
      </trkpt>
      <trkpt lat="35.946929762139916" lon="120.20765877328813">
        <time>2023-06-12T12:01:12.287000Z</time>
      </trkpt>
      <trkpt lat="35.946942837908864" lon="120.20777343772352">
        <time>2023-06-12T12:01:16.306000Z</time>
      </trkpt>
      <trkpt lat="35.946948998607695" lon="120.20790830254555">
        <time>2023-06-12T12:01:21.269000Z</time>
      </trkpt>
      <trkpt lat="35.94695444684476" lon="120.20802539773285">
        <time>2023-06-12T12:01:25.308000Z</time>
      </trkpt>
      <trkpt lat="35.94696136191487" lon="120.20814224146307">
        <time>2023-06-12T12:01:29.300000Z</time>
      </trkpt>
      <trkpt lat="35.946980766020715" lon="120.20827953703701">
        <time>2023-06-12T12:01:34.291000Z</time>
      </trkpt>
      <trkpt lat="35.9469902375713" lon="120.20841331221163">
        <time>2023-06-12T12:01:39.303000Z</time>
      </trkpt>
      <trkpt lat="35.947000002488494" lon="120.20852772518992">
        <time>2023-06-12T12:01:43.347000Z</time>
      </trkpt>
      <trkpt lat="35.94697322230786" lon="120.20863937214017">
        <time>2023-06-12T12:01:48.273000Z</time>
      </trkpt>
      <trkpt lat="35.946872220374644" lon="120.20866535604">
        <time>2023-06-12T12:01:54.288000Z</time>
      </trkpt>
      <trkpt lat="35.946768200956285" lon="120.20866317674518">
        <time>2023-06-12T12:01:59.320000Z</time>
      </trkpt>
      <trkpt lat="35.94666929449886" lon="120.20867574959993">
        <time>2023-06-12T12:02:04.307000Z</time>
      </trkpt>
      <trkpt lat="35.94657432753593" lon="120.20869083702564">
        <time>2023-06-12T12:02:09.310000Z</time>
      </trkpt>
      <trkpt lat="35.94647231977433" lon="120.20870491862297">
        <time>2023-06-12T12:02:14.309000Z</time>
      </trkpt>
      <trkpt lat="35.94637915492058" lon="120.2087084390223">
        <time>2023-06-12T12:02:18.295000Z</time>
      </trkpt>
      <trkpt lat="35.946264364756644" lon="120.20872000604868">
        <time>2023-06-12T12:02:23.299000Z</time>
      </trkpt>
      <trkpt lat="35.94616026151925" lon="120.20871313288808">
        <time>2023-06-12T12:02:27.287000Z</time>
      </trkpt>
      <trkpt lat="35.94606273807585" lon="120.20871816202998">
        <time>2023-06-12T12:02:31.310000Z</time>
      </trkpt>
      <trkpt lat="35.94597330316901" lon="120.20873894914985">
        <time>2023-06-12T12:02:35.309000Z</time>
      </trkpt>
      <trkpt lat="35.94588219188154" lon="120.20876753143966">
        <time>2023-06-12T12:02:40.320000Z</time>
      </trkpt>
      <trkpt lat="35.94578697346151" lon="120.20877390168607">
        <time>2023-06-12T12:02:44.297000Z</time>
      </trkpt>
      <trkpt lat="35.94567972701043" lon="120.20879921503365">
        <time>2023-06-12T12:02:49.310000Z</time>
      </trkpt>
      <trkpt lat="35.94559029210359" lon="120.20881237462163">
        <time>2023-06-12T12:02:53.341000Z</time>
      </trkpt>
      <trkpt lat="35.94548954162747" lon="120.2088175714016">
        <time>2023-06-12T12:02:57.306000Z</time>
      </trkpt>
      <trkpt lat="35.94538133125752" lon="120.20882964134216">
        <time>2023-06-12T12:03:01.309000Z</time>
      </trkpt>
      <trkpt lat="35.945275258272886" lon="120.20883919671178">
        <time>2023-06-12T12:03:05.275000Z</time>
      </trkpt>
      <trkpt lat="35.94517496880144" lon="120.2088485006243">
        <time>2023-06-12T12:03:09.304000Z</time>
      </trkpt>
      <trkpt lat="35.94507803209126" lon="120.20885143429041">
        <time>2023-06-12T12:03:13.316000Z</time>
      </trkpt>
      <trkpt lat="35.94498235266656" lon="120.20887129940093">
        <time>2023-06-12T12:03:17.332000Z</time>
      </trkpt>
      <trkpt lat="35.94488290138543" lon="120.20887800492346">
        <time>2023-06-12T12:03:21.306000Z</time>
      </trkpt>
      <trkpt lat="35.94479132909328" lon="120.20889803767204">
        <time>2023-06-12T12:03:25.327000Z</time>
      </trkpt>
      <trkpt lat="35.94468186143786" lon="120.20892569795251">
        <time>2023-06-12T12:03:30.293000Z</time>
      </trkpt>
      <trkpt lat="35.94457000494003" lon="120.20894346758723">
        <time>2023-06-12T12:03:35.295000Z</time>
      </trkpt>
      <trkpt lat="35.94447746872902" lon="120.2089573815465">
        <time>2023-06-12T12:03:39.299000Z</time>
      </trkpt>
      <trkpt lat="35.94438589643687" lon="120.208974564448">
        <time>2023-06-12T12:03:43.297000Z</time>
      </trkpt>
      <trkpt lat="35.94428464304656" lon="120.20897976122797">
        <time>2023-06-12T12:03:47.300000Z</time>
      </trkpt>
      <trkpt lat="35.944183892570436" lon="120.20896660163999">
        <time>2023-06-12T12:03:52.288000Z</time>
      </trkpt>
      <trkpt lat="35.94407350290567" lon="120.20893273875117">
        <time>2023-06-12T12:03:57.296000Z</time>
      </trkpt>
      <trkpt lat="35.94398218207061" lon="120.20889577455819">
        <time>2023-06-12T12:04:01.268000Z</time>
      </trkpt>
      <trkpt lat="35.94388993922621" lon="120.20884422585368">
        <time>2023-06-12T12:04:05.299000Z</time>
      </trkpt>
      <trkpt lat="35.94378327950835" lon="120.20881505683064">
        <time>2023-06-12T12:04:10.283000Z</time>
      </trkpt>
      <trkpt lat="35.943687222898006" lon="120.20880608819425">
        <time>2023-06-12T12:04:15.309000Z</time>
      </trkpt>
      <trkpt lat="35.94357951544225" lon="120.20884389057755">
        <time>2023-06-12T12:04:20.286000Z</time>
      </trkpt>
      <trkpt lat="35.94349020626396" lon="120.20886601880193">
        <time>2023-06-12T12:04:24.291000Z</time>
      </trkpt>
      <trkpt lat="35.94338367227465" lon="120.20890063606203">
        <time>2023-06-12T12:04:30.321000Z</time>
      </trkpt>
      <trkpt lat="35.94329126179218" lon="120.20892905071378">
        <time>2023-06-12T12:04:34.296000Z</time>
      </trkpt>
      <trkpt lat="35.943197552114725" lon="120.20894967019558">
        <time>2023-06-12T12:04:38.289000Z</time>
      </trkpt>
      <trkpt lat="35.94310405198485" lon="120.20897221751511">
        <time>2023-06-12T12:04:42.308000Z</time>
      </trkpt>
      <trkpt lat="35.94301436562091" lon="120.20897875539958">
        <time>2023-06-12T12:04:46.328000Z</time>
      </trkpt>
      <trkpt lat="35.94290259294212" lon="120.20898495800793">
        <time>2023-06-12T12:04:51.332000Z</time>
      </trkpt>
      <trkpt lat="35.942805404774845" lon="120.20899845287204">
        <time>2023-06-12T12:04:55.298000Z</time>
      </trkpt>
      <trkpt lat="35.942714544944465" lon="120.20901982672513">
        <time>2023-06-12T12:04:59.278000Z</time>
      </trkpt>
      <trkpt lat="35.94261081889272" lon="120.20904807373881">
        <time>2023-06-12T12:05:04.290000Z</time>
      </trkpt>
      <trkpt lat="35.94251953996718" lon="120.20909258164465">
        <time>2023-06-12T12:05:09.294000Z</time>
      </trkpt>
      <trkpt lat="35.94243685249239" lon="120.20913926884532">
        <time>2023-06-12T12:05:13.320000Z</time>
      </trkpt>
      <trkpt lat="35.94235349446535" lon="120.20918947644532">
        <time>2023-06-12T12:05:17.315000Z</time>
      </trkpt>
      <trkpt lat="35.942267454229295" lon="120.20924555137753">
        <time>2023-06-12T12:05:21.291000Z</time>
      </trkpt>
      <trkpt lat="35.9421747084707" lon="120.2092872094363">
        <time>2023-06-12T12:05:25.308000Z</time>
      </trkpt>
      <trkpt lat="35.94206746201962" lon="120.20931193605065">
        <time>2023-06-12T12:05:30.301000Z</time>
      </trkpt>
      <trkpt lat="35.94197362661362" lon="120.20932031795382">
        <time>2023-06-12T12:05:34.294000Z</time>
      </trkpt>
      <trkpt lat="35.941876815631986" lon="120.20932677201927">
        <time>2023-06-12T12:05:39.329000Z</time>
      </trkpt>
      <trkpt lat="35.94176780898124" lon="120.20932459272444">
        <time>2023-06-12T12:05:44.266000Z</time>
      </trkpt>
      <trkpt lat="35.941669824533165" lon="120.20930740982294">
        <time>2023-06-12T12:05:49.309000Z</time>
      </trkpt>
      <trkpt lat="35.94157414510846" lon="120.20931336097419">
        <time>2023-06-12T12:05:53.311000Z</time>
      </trkpt>
      <trkpt lat="35.94147762749344" lon="120.20933582447469">
        <time>2023-06-12T12:05:57.271000Z</time>
      </trkpt>
      <trkpt lat="35.941386725753546" lon="120.20931780338287">
        <time>2023-06-12T12:06:01.303000Z</time>
      </trkpt>
      <trkpt lat="35.94131371937692" lon="120.20923943258822">
        <time>2023-06-12T12:06:05.286000Z</time>
      </trkpt>
      <trkpt lat="35.94124817289412" lon="120.2091418672353">
        <time>2023-06-12T12:06:09.285000Z</time>
      </trkpt>
      <trkpt lat="35.941173657774925" lon="120.20903441123664">
        <time>2023-06-12T12:06:14.294000Z</time>
      </trkpt>
      <trkpt lat="35.94108677934855" lon="120.20897917449474">
        <time>2023-06-12T12:06:18.293000Z</time>
      </trkpt>
      <trkpt lat="35.940979910083115" lon="120.20895201712847">
        <time>2023-06-12T12:06:23.321000Z</time>
      </trkpt>
      <trkpt lat="35.94086382072419" lon="120.2089309785515">
        <time>2023-06-12T12:06:28.290000Z</time>
      </trkpt>
      <trkpt lat="35.94076193869114" lon="120.20894288085401">
        <time>2023-06-12T12:06:32.312000Z</time>
      </trkpt>
      <trkpt lat="35.94066592399031" lon="120.20897364243865">
        <time>2023-06-12T12:06:36.326000Z</time>
      </trkpt>
      <trkpt lat="35.94058101531118" lon="120.20903726108372">
        <time>2023-06-12T12:06:40.300000Z</time>
      </trkpt>
      <trkpt lat="35.94050603918731" lon="120.20912803709507">
        <time>2023-06-12T12:06:44.292000Z</time>
      </trkpt>
      <trkpt lat="35.940445815213025" lon="120.20923716947436">
        <time>2023-06-12T12:06:48.283000Z</time>
      </trkpt>
      <trkpt lat="35.94040507916361" lon="120.20934252999723">
        <time>2023-06-12T12:06:52.286000Z</time>
      </trkpt>
      <trkpt lat="35.94036342110485" lon="120.20945887081325">
        <time>2023-06-12T12:06:56.314000Z</time>
      </trkpt>
      <trkpt lat="35.940310447476804" lon="120.20956825464964">
        <time>2023-06-12T12:07:00.291000Z</time>
      </trkpt>
      <trkpt lat="35.94021589960903" lon="120.20963044837117">
        <time>2023-06-12T12:07:05.283000Z</time>
      </trkpt>
      <trkpt lat="35.940112131647766" lon="120.20964863710105">
        <time>2023-06-12T12:07:09.300000Z</time>
      </trkpt>
      <trkpt lat="35.94000668730587" lon="120.20969163626432">
        <time>2023-06-12T12:07:14.303000Z</time>
      </trkpt>
      <trkpt lat="35.939916456118226" lon="120.20974301733077">
        <time>2023-06-12T12:07:18.315000Z</time>
      </trkpt>
      <trkpt lat="35.93982454854995" lon="120.2097861841321">
        <time>2023-06-12T12:07:22.300000Z</time>
      </trkpt>
      <trkpt lat="35.939717344008386" lon="120.20980965346098">
        <time>2023-06-12T12:07:26.310000Z</time>
      </trkpt>
      <trkpt lat="35.93962350860238" lon="120.2098311111331">
        <time>2023-06-12T12:07:30.303000Z</time>
      </trkpt>
      <trkpt lat="35.93953051138669" lon="120.2098588552326">
        <time>2023-06-12T12:07:34.294000Z</time>
      </trkpt>
      <trkpt lat="35.939438519999385" lon="120.20989372394979">
        <time>2023-06-12T12:07:38.310000Z</time>
      </trkpt>
      <trkpt lat="35.93934141565114" lon="120.20992297679186">
        <time>2023-06-12T12:07:42.288000Z</time>
      </trkpt>
      <trkpt lat="35.93924137763679" lon="120.20996027626097">
        <time>2023-06-12T12:07:47.311000Z</time>
      </trkpt>
      <trkpt lat="35.939154122024775" lon="120.20998978056014">
        <time>2023-06-12T12:07:51.321000Z</time>
      </trkpt>
      <trkpt lat="35.93905986752361" lon="120.21002054214478">
        <time>2023-06-12T12:07:55.313000Z</time>
      </trkpt>
      <trkpt lat="35.93895769212395" lon="120.21005247719586">
        <time>2023-06-12T12:07:59.319000Z</time>
      </trkpt>
      <trkpt lat="35.93885744456202" lon="120.21007510833442">
        <time>2023-06-12T12:08:03.292000Z</time>
      </trkpt>
      <trkpt lat="35.93875916674733" lon="120.21009212359786">
        <time>2023-06-12T12:08:07.346000Z</time>
      </trkpt>
      <trkpt lat="35.93865581788123" lon="120.2100917045027">
        <time>2023-06-12T12:08:11.293000Z</time>
      </trkpt>
      <trkpt lat="35.93855913262814" lon="120.2100850827992">
        <time>2023-06-12T12:08:15.294000Z</time>
      </trkpt>
      <trkpt lat="35.93845129944384" lon="120.2100692410022">
        <time>2023-06-12T12:08:19.299000Z</time>
      </trkpt>
      <trkpt lat="35.93834748957306" lon="120.21004660986364">
        <time>2023-06-12T12:08:23.316000Z</time>
      </trkpt>
      <trkpt lat="35.93824933748692" lon="120.21001735702157">
        <time>2023-06-12T12:08:27.286000Z</time>
      </trkpt>
      <trkpt lat="35.938151478767395" lon="120.20997335202992">
        <time>2023-06-12T12:08:31.287000Z</time>
      </trkpt>
      <trkpt lat="35.938043729402125" lon="120.2099209651351">
        <time>2023-06-12T12:08:35.319000Z</time>
      </trkpt>
      <trkpt lat="35.93794888816774" lon="120.20987645722926">
        <time>2023-06-12T12:08:39.287000Z</time>
      </trkpt>
      <trkpt lat="35.93785211909562" lon="120.20981485024095">
        <time>2023-06-12T12:08:43.330000Z</time>
      </trkpt>
      <trkpt lat="35.93774923123419" lon="120.20974502898753">
        <time>2023-06-12T12:08:47.279000Z</time>
      </trkpt>
      <trkpt lat="35.937645002268255" lon="120.2096720226109">
        <time>2023-06-12T12:08:51.272000Z</time>
      </trkpt>
      <trkpt lat="35.937547269277275" lon="120.20958392880857">
        <time>2023-06-12T12:08:55.283000Z</time>
      </trkpt>
      <trkpt lat="35.9374476922676" lon="120.20950321108103">
        <time>2023-06-12T12:08:59.303000Z</time>
      </trkpt>
      <trkpt lat="35.93735197093338" lon="120.20942928269506">
        <time>2023-06-12T12:09:03.301000Z</time>
      </trkpt>
      <trkpt lat="35.93728143721819" lon="120.209357785061">
        <time>2023-06-12T12:09:06.347000Z</time>
      </trkpt>
      <trkpt lat="35.937188104726374" lon="120.20928469486535">
        <time>2023-06-12T12:09:10.286000Z</time>
      </trkpt>
      <trkpt lat="35.93711358960718" lon="120.20921990275383">
        <time>2023-06-12T12:09:13.292000Z</time>
      </trkpt>
      <trkpt lat="35.93701648525894" lon="120.20914488472044">
        <time>2023-06-12T12:09:17.318000Z</time>
      </trkpt>
      <trkpt lat="35.93691678252071" lon="120.20907782949507">
        <time>2023-06-12T12:09:21.327000Z</time>
      </trkpt>
      <trkpt lat="35.93683158047497" lon="120.20897691138089">
        <time>2023-06-12T12:09:25.314000Z</time>
      </trkpt>
      <trkpt lat="35.93675379641354" lon="120.20887959748507">
        <time>2023-06-12T12:09:29.281000Z</time>
      </trkpt>
      <trkpt lat="35.936667546629906" lon="120.20878253504634">
        <time>2023-06-12T12:09:34.328000Z</time>
      </trkpt>
      <trkpt lat="35.93658687081188" lon="120.20870089530945">
        <time>2023-06-12T12:09:38.309000Z</time>
      </trkpt>
      <trkpt lat="35.936504057608545" lon="120.20862118341029">
        <time>2023-06-12T12:09:42.336000Z</time>
      </trkpt>
      <trkpt lat="35.93642912339419" lon="120.20853996276855">
        <time>2023-06-12T12:09:46.309000Z</time>
      </trkpt>
      <trkpt lat="35.93634836375713" lon="120.20843845792115">
        <time>2023-06-12T12:09:50.308000Z</time>
      </trkpt>
      <trkpt lat="35.93626877758652" lon="120.20835128612816">
        <time>2023-06-12T12:09:54.295000Z</time>
      </trkpt>
      <trkpt lat="35.93618365935981" lon="120.20825606770813">
        <time>2023-06-12T12:09:58.274000Z</time>
      </trkpt>
      <trkpt lat="35.936099253594875" lon="120.20816227421165">
        <time>2023-06-12T12:10:02.307000Z</time>
      </trkpt>
      <trkpt lat="35.9360427595675" lon="120.20806814543903">
        <time>2023-06-12T12:10:06.268000Z</time>
      </trkpt>
      <trkpt lat="35.93597507569939" lon="120.20797016099095">
        <time>2023-06-12T12:10:10.294000Z</time>
      </trkpt>
      <trkpt lat="35.93590173404664" lon="120.20787997171283">
        <time>2023-06-12T12:10:14.309000Z</time>
      </trkpt>
      <trkpt lat="35.93581933993846" lon="120.20778584294021">
        <time>2023-06-12T12:10:18.299000Z</time>
      </trkpt>
      <trkpt lat="35.935744741000235" lon="120.20769875496626">
        <time>2023-06-12T12:10:22.334000Z</time>
      </trkpt>
      <trkpt lat="35.93567202799022" lon="120.20760588347912">
        <time>2023-06-12T12:10:26.289000Z</time>
      </trkpt>
      <trkpt lat="35.935598937794566" lon="120.207494571805">
        <time>2023-06-12T12:10:30.300000Z</time>
      </trkpt>
      <trkpt lat="35.93553221784532" lon="120.2073735371232">
        <time>2023-06-12T12:10:34.278000Z</time>
      </trkpt>
      <trkpt lat="35.93547760974616" lon="120.20727211609483">
        <time>2023-06-12T12:10:37.285000Z</time>
      </trkpt>
      <trkpt lat="35.9354227501899" lon="120.20717983134091">
        <time>2023-06-12T12:10:40.296000Z</time>
      </trkpt>
      <trkpt lat="35.93534488230944" lon="120.20708737894893">
        <time>2023-06-12T12:10:44.303000Z</time>
      </trkpt>
      <trkpt lat="35.93529123812914" lon="120.20698495209217">
        <time>2023-06-12T12:10:48.285000Z</time>
      </trkpt>
      <trkpt lat="35.9352491190657" lon="120.20687053911388">
        <time>2023-06-12T12:10:53.277000Z</time>
      </trkpt>
      <trkpt lat="35.9352491190657" lon="120.20687053911388">
        <time>2023-06-12T12:10:54.124000Z</time>
      </trkpt>
      <trkpt lat="35.935203270055354" lon="120.20676626823843">
        <time>2023-06-12T12:10:58.301000Z</time>
      </trkpt>
      <trkpt lat="35.93514237552881" lon="120.20666610449553">
        <time>2023-06-12T12:11:02.273000Z</time>
      </trkpt>
      <trkpt lat="35.93514237552881" lon="120.20666610449553">
        <time>2023-06-12T12:11:04.123000Z</time>
      </trkpt>
      <trkpt lat="35.93508961144835" lon="120.20656795240939">
        <time>2023-06-12T12:11:06.293000Z</time>
      </trkpt>
      <trkpt lat="35.93503387179226" lon="120.20647147670388">
        <time>2023-06-12T12:11:10.325000Z</time>
      </trkpt>
      <trkpt lat="35.93498475383967" lon="120.2063724026084">
        <time>2023-06-12T12:11:14.346000Z</time>
      </trkpt>
      <trkpt lat="35.93492658343166" lon="120.20626846700907">
        <time>2023-06-12T12:11:18.300000Z</time>
      </trkpt>
      <trkpt lat="35.93488018959761" lon="120.20615640096366">
        <time>2023-06-12T12:11:22.320000Z</time>
      </trkpt>
      <trkpt lat="35.93483040109277" lon="120.20603251643479">
        <time>2023-06-12T12:11:26.302000Z</time>
      </trkpt>
      <trkpt lat="35.93478174414486" lon="120.20591114647686">
        <time>2023-06-12T12:11:30.299000Z</time>
      </trkpt>
      <trkpt lat="35.93472759705037" lon="120.20579346455634">
        <time>2023-06-12T12:11:34.293000Z</time>
      </trkpt>
      <trkpt lat="35.93467194121331" lon="120.20566865801811">
        <time>2023-06-12T12:11:38.292000Z</time>
      </trkpt>
      <trkpt lat="35.93461184296757" lon="120.20555189810693">
        <time>2023-06-12T12:11:42.287000Z</time>
      </trkpt>
      <trkpt lat="35.93455698341131" lon="120.20544335246086">
        <time>2023-06-12T12:11:46.317000Z</time>
      </trkpt>
      <trkpt lat="35.93450476415455" lon="120.20532147958875">
        <time>2023-06-12T12:11:50.287000Z</time>
      </trkpt>
      <trkpt lat="35.93450476415455" lon="120.20532147958875">
        <time>2023-06-12T12:11:55.142000Z</time>
      </trkpt>
      <trkpt lat="35.934467716142535" lon="120.20520446822047">
        <time>2023-06-12T12:11:56.294000Z</time>
      </trkpt>
      <trkpt lat="35.93441306613386" lon="120.20507882349193">
        <time>2023-06-12T12:12:01.294000Z</time>
      </trkpt>
      <trkpt lat="35.93441306613386" lon="120.20507882349193">
        <time>2023-06-12T12:12:05.143000Z</time>
      </trkpt>
      <trkpt lat="35.93435988295823" lon="120.20497740246356">
        <time>2023-06-12T12:12:05.326000Z</time>
      </trkpt>
      <trkpt lat="35.93430996872485" lon="120.20488067530096">
        <time>2023-06-12T12:12:09.288000Z</time>
      </trkpt>
      <trkpt lat="35.93425749801099" lon="120.2047642506659">
        <time>2023-06-12T12:12:13.341000Z</time>
      </trkpt>
      <trkpt lat="35.93420875724405" lon="120.20465520210564">
        <time>2023-06-12T12:12:17.318000Z</time>
      </trkpt>
      <trkpt lat="35.93417183496058" lon="120.20453601144254">
        <time>2023-06-12T12:12:22.338000Z</time>
      </trkpt>
      <trkpt lat="35.93417183496058" lon="120.20453601144254">
        <time>2023-06-12T12:12:28.149000Z</time>
      </trkpt>
      <trkpt lat="35.93414266593754" lon="120.2044222690165">
        <time>2023-06-12T12:12:29.333000Z</time>
      </trkpt>
      <trkpt lat="35.93408206477761" lon="120.20431539975107">
        <time>2023-06-12T12:12:35.263000Z</time>
      </trkpt>
      <trkpt lat="35.93408206477761" lon="120.20431539975107">
        <time>2023-06-12T12:12:38.154000Z</time>
      </trkpt>
      <trkpt lat="35.934033365920186" lon="120.2041907608509">
        <time>2023-06-12T12:12:40.314000Z</time>
      </trkpt>
      <trkpt lat="35.93400377780199" lon="120.20406092517078">
        <time>2023-06-12T12:12:44.310000Z</time>
      </trkpt>
      <trkpt lat="35.93397565651685" lon="120.20393033511937">
        <time>2023-06-12T12:12:48.339000Z</time>
      </trkpt>
      <trkpt lat="35.933958305977285" lon="120.20381013862789">
        <time>2023-06-12T12:12:52.350000Z</time>
      </trkpt>
      <trkpt lat="35.933957886882126" lon="120.20369312725961">
        <time>2023-06-12T12:12:56.289000Z</time>
      </trkpt>
      <trkpt lat="35.93395160045475" lon="120.2035730984062">
        <time>2023-06-12T12:13:00.304000Z</time>
      </trkpt>
      <trkpt lat="35.93393982388079" lon="120.20346153527498">
        <time>2023-06-12T12:13:04.288000Z</time>
      </trkpt>
      <trkpt lat="35.93393982388079" lon="120.20346153527498">
        <time>2023-06-12T12:13:06.163000Z</time>
      </trkpt>
      <trkpt lat="35.93390269204974" lon="120.20357779227197">
        <time>2023-06-12T12:13:21.333000Z</time>
      </trkpt>
      <trkpt lat="35.93390269204974" lon="120.20357779227197">
        <time>2023-06-12T12:13:24.163000Z</time>
      </trkpt>
      <trkpt lat="35.93390935566276" lon="120.2037010062486">
        <time>2023-06-12T12:13:26.272000Z</time>
      </trkpt>
      <trkpt lat="35.93392645474523" lon="120.2038373798132">
        <time>2023-06-12T12:13:31.303000Z</time>
      </trkpt>
      <trkpt lat="35.93395621050149" lon="120.2039473503828">
        <time>2023-06-12T12:13:35.311000Z</time>
      </trkpt>
      <trkpt lat="35.93399267178029" lon="120.20405748859048">
        <time>2023-06-12T12:13:39.321000Z</time>
      </trkpt>
      <trkpt lat="35.934018194675446" lon="120.20416410639882">
        <time>2023-06-12T12:13:43.296000Z</time>
      </trkpt>
      <trkpt lat="35.93404325656593" lon="120.20427416078746">
        <time>2023-06-12T12:13:47.278000Z</time>
      </trkpt>
      <trkpt lat="35.9340825676918" lon="120.20440173335373">
        <time>2023-06-12T12:13:51.315000Z</time>
      </trkpt>
      <trkpt lat="35.93412145972252" lon="120.20450952462852">
        <time>2023-06-12T12:13:55.284000Z</time>
      </trkpt>
      <trkpt lat="35.93414958100766" lon="120.20462393760681">
        <time>2023-06-12T12:13:59.297000Z</time>
      </trkpt>
      <trkpt lat="35.934198782779276" lon="120.20472711883485">
        <time>2023-06-12T12:14:03.316000Z</time>
      </trkpt>
      <trkpt lat="35.93425133731216" lon="120.20482527092099">
        <time>2023-06-12T12:14:07.284000Z</time>
      </trkpt>
      <trkpt lat="35.93430607113987" lon="120.20494127646089">
        <time>2023-06-12T12:14:11.276000Z</time>
      </trkpt>
      <trkpt lat="35.93435099814087" lon="120.20505049265921">
        <time>2023-06-12T12:14:15.276000Z</time>
      </trkpt>
      <trkpt lat="35.93439642805606" lon="120.20514906384051">
        <time>2023-06-12T12:14:19.296000Z</time>
      </trkpt>
      <trkpt lat="35.9344538860023" lon="120.20525484345853">
        <time>2023-06-12T12:14:23.279000Z</time>
      </trkpt>
      <trkpt lat="35.93450417742133" lon="120.20534679293633">
        <time>2023-06-12T12:14:27.293000Z</time>
      </trkpt>
      <trkpt lat="35.93454516492784" lon="120.20547989755869">
        <time>2023-06-12T12:14:31.312000Z</time>
      </trkpt>
      <trkpt lat="35.93459436669946" lon="120.2055948972702">
        <time>2023-06-12T12:14:35.275000Z</time>
      </trkpt>
      <trkpt lat="35.93465048354119" lon="120.20570738241076">
        <time>2023-06-12T12:14:39.289000Z</time>
      </trkpt>
      <trkpt lat="35.93469742219895" lon="120.20581810735166">
        <time>2023-06-12T12:14:43.270000Z</time>
      </trkpt>
      <trkpt lat="35.93476016074419" lon="120.20592581480742">
        <time>2023-06-12T12:14:47.280000Z</time>
      </trkpt>
      <trkpt lat="35.93481380492449" lon="120.20603159442544">
        <time>2023-06-12T12:14:51.289000Z</time>
      </trkpt>
      <trkpt lat="35.9348643058911" lon="120.20613837987185">
        <time>2023-06-12T12:14:55.299000Z</time>
      </trkpt>
      <trkpt lat="35.934913381934166" lon="120.20624499768019">
        <time>2023-06-12T12:14:59.308000Z</time>
      </trkpt>
      <trkpt lat="35.9349626256153" lon="120.2063563093543">
        <time>2023-06-12T12:15:03.298000Z</time>
      </trkpt>
      <trkpt lat="35.93501853290945" lon="120.20647441036999">
        <time>2023-06-12T12:15:07.289000Z</time>
      </trkpt>
      <trkpt lat="35.93508374411613" lon="120.20656225271523">
        <time>2023-06-12T12:15:11.302000Z</time>
      </trkpt>
      <trkpt lat="35.935142752714455" lon="120.20667113363743">
        <time>2023-06-12T12:15:15.294000Z</time>
      </trkpt>
      <trkpt lat="35.93519530724734" lon="120.20677590742707">
        <time>2023-06-12T12:15:19.318000Z</time>
      </trkpt>
      <trkpt lat="35.935241701081395" lon="120.20688386633992">
        <time>2023-06-12T12:15:23.309000Z</time>
      </trkpt>
      <trkpt lat="35.93529211822897" lon="120.20699299871922">
        <time>2023-06-12T12:15:27.272000Z</time>
      </trkpt>
      <trkpt lat="35.93534282874316" lon="120.2071028854698">
        <time>2023-06-12T12:15:31.295000Z</time>
      </trkpt>
      <trkpt lat="35.935402968898416" lon="120.20719215273857">
        <time>2023-06-12T12:15:35.304000Z</time>
      </trkpt>
      <trkpt lat="35.935460133478045" lon="120.2072892151773">
        <time>2023-06-12T12:15:39.283000Z</time>
      </trkpt>
      <trkpt lat="35.935518806800246" lon="120.20739105530083">
        <time>2023-06-12T12:15:43.275000Z</time>
      </trkpt>
      <trkpt lat="35.93557986896485" lon="120.20748778246343">
        <time>2023-06-12T12:15:47.306000Z</time>
      </trkpt>
      <trkpt lat="35.93564985785633" lon="120.20758107304573">
        <time>2023-06-12T12:15:51.272000Z</time>
      </trkpt>
      <trkpt lat="35.935714691877365" lon="120.20767377689481">
        <time>2023-06-12T12:15:55.318000Z</time>
      </trkpt>
      <trkpt lat="35.935775293037295" lon="120.2077781315893">
        <time>2023-06-12T12:15:59.295000Z</time>
      </trkpt>
      <trkpt lat="35.93584737740457" lon="120.20787586458027">
        <time>2023-06-12T12:16:05.291000Z</time>
      </trkpt>
      <trkpt lat="35.93584737740457" lon="120.20787586458027">
        <time>2023-06-12T12:16:06.622000Z</time>
      </trkpt>
      <trkpt lat="35.93591296579689" lon="120.20795197226107">
        <time>2023-06-12T12:16:11.307000Z</time>
      </trkpt>
      <trkpt lat="35.93591296579689" lon="120.20795197226107">
        <time>2023-06-12T12:16:17.297000Z</time>
      </trkpt>
      <trkpt lat="35.93599628191441" lon="120.20803621038795">
        <time>2023-06-12T12:16:17.315000Z</time>
      </trkpt>
      <trkpt lat="35.93606124166399" lon="120.2081280760467">
        <time>2023-06-12T12:16:21.267000Z</time>
      </trkpt>
      <trkpt lat="35.9361273329705" lon="120.20822782069445">
        <time>2023-06-12T12:16:25.297000Z</time>
      </trkpt>
      <trkpt lat="35.93620100989938" lon="120.20832396112382">
        <time>2023-06-12T12:16:29.277000Z</time>
      </trkpt>
      <trkpt lat="35.936264880001545" lon="120.20840886980295">
        <time>2023-06-12T12:16:33.314000Z</time>
      </trkpt>
      <trkpt lat="35.936345513910055" lon="120.20849126391113">
        <time>2023-06-12T12:16:37.290000Z</time>
      </trkpt>
      <trkpt lat="35.936413407325745" lon="120.20856753922999">
        <time>2023-06-12T12:16:41.323000Z</time>
      </trkpt>
      <trkpt lat="35.936494837515056" lon="120.20863870158792">
        <time>2023-06-12T12:16:45.324000Z</time>
      </trkpt>
      <trkpt lat="35.93656968791038" lon="120.20872419700027">
        <time>2023-06-12T12:16:49.305000Z</time>
      </trkpt>
      <trkpt lat="35.93663829378784" lon="120.20880466327071">
        <time>2023-06-12T12:16:53.317000Z</time>
      </trkpt>
      <trkpt lat="35.93672010116279" lon="120.20887616090477">
        <time>2023-06-12T12:16:57.298000Z</time>
      </trkpt>
      <trkpt lat="35.93679470010102" lon="120.2089539449662">
        <time>2023-06-12T12:17:01.293000Z</time>
      </trkpt>
      <trkpt lat="35.93687097541988" lon="120.20903659053147">
        <time>2023-06-12T12:17:05.311000Z</time>
      </trkpt>
      <trkpt lat="35.93695927876979" lon="120.20910029299557">
        <time>2023-06-12T12:17:09.309000Z</time>
      </trkpt>
      <trkpt lat="35.93705378472805" lon="120.20916575565934">
        <time>2023-06-12T12:17:14.313000Z</time>
      </trkpt>
      <trkpt lat="35.93714284244925" lon="120.20924831740558">
        <time>2023-06-12T12:17:18.312000Z</time>
      </trkpt>
      <trkpt lat="35.937236049212515" lon="120.20931830629706">
        <time>2023-06-12T12:17:22.291000Z</time>
      </trkpt>
      <trkpt lat="35.93732150271535" lon="120.2093768119812">
        <time>2023-06-12T12:17:26.302000Z</time>
      </trkpt>
      <trkpt lat="35.93740272335708" lon="120.20944219082594">
        <time>2023-06-12T12:17:30.325000Z</time>
      </trkpt>
      <trkpt lat="35.937496977858245" lon="120.20949524827302">
        <time>2023-06-12T12:17:34.322000Z</time>
      </trkpt>
      <trkpt lat="35.93758498784155" lon="120.20955962128937">
        <time>2023-06-12T12:17:38.315000Z</time>
      </trkpt>
      <trkpt lat="35.9376633586362" lon="120.20962743088603">
        <time>2023-06-12T12:17:42.294000Z</time>
      </trkpt>
      <trkpt lat="35.93774436973035" lon="120.20969280973077">
        <time>2023-06-12T12:17:46.324000Z</time>
      </trkpt>
      <trkpt lat="35.93782571610063" lon="120.20976707339287">
        <time>2023-06-12T12:17:50.275000Z</time>
      </trkpt>
      <trkpt lat="35.93791900668293" lon="120.20980512723327">
        <time>2023-06-12T12:17:54.286000Z</time>
      </trkpt>
      <trkpt lat="35.938004166819155" lon="120.20986966788769">
        <time>2023-06-12T12:17:58.292000Z</time>
      </trkpt>
      <trkpt lat="35.93809699639678" lon="120.20993613637984">
        <time>2023-06-12T12:18:03.303000Z</time>
      </trkpt>
      <trkpt lat="35.93818613793701" lon="120.20998156629503">
        <time>2023-06-12T12:18:07.284000Z</time>
      </trkpt>
      <trkpt lat="35.93829133082181" lon="120.21002280525863">
        <time>2023-06-12T12:18:11.328000Z</time>
      </trkpt>
      <trkpt lat="35.93840285204351" lon="120.2100430894643">
        <time>2023-06-12T12:18:15.334000Z</time>
      </trkpt>
      <trkpt lat="35.93851969577372" lon="120.21005356684327">
        <time>2023-06-12T12:18:19.289000Z</time>
      </trkpt>
      <trkpt lat="35.93862723559141" lon="120.2100552432239">
        <time>2023-06-12T12:18:23.290000Z</time>
      </trkpt>
      <trkpt lat="35.938733643852174" lon="120.21003780886531">
        <time>2023-06-12T12:18:27.285000Z</time>
      </trkpt>
      <trkpt lat="35.93883556779474" lon="120.21002682857215">
        <time>2023-06-12T12:18:31.299000Z</time>
      </trkpt>
      <trkpt lat="35.9389255894348" lon="120.21001484245062">
        <time>2023-06-12T12:18:35.292000Z</time>
      </trkpt>
      <trkpt lat="35.93903874512762" lon="120.21000126376748">
        <time>2023-06-12T12:18:39.290000Z</time>
      </trkpt>
      <trkpt lat="35.939124324359" lon="120.20995885133743">
        <time>2023-06-12T12:18:42.291000Z</time>
      </trkpt>
      <trkpt lat="35.93923245090991" lon="120.20992163568735">
        <time>2023-06-12T12:18:46.314000Z</time>
      </trkpt>
      <trkpt lat="35.93933357857168" lon="120.20989355631173">
        <time>2023-06-12T12:18:50.295000Z</time>
      </trkpt>
      <trkpt lat="35.93942670151591" lon="120.20984569564462">
        <time>2023-06-12T12:18:54.291000Z</time>
      </trkpt>
      <trkpt lat="35.939515423960984" lon="120.20979657769203">
        <time>2023-06-12T12:18:58.288000Z</time>
      </trkpt>
      <trkpt lat="35.93961533624679" lon="120.20977830514312">
        <time>2023-06-12T12:19:02.325000Z</time>
      </trkpt>
      <trkpt lat="35.93971323687583" lon="120.20973849110305">
        <time>2023-06-12T12:19:06.286000Z</time>
      </trkpt>
      <trkpt lat="35.93981851357967" lon="120.20970714278519">
        <time>2023-06-12T12:19:10.308000Z</time>
      </trkpt>
      <trkpt lat="35.939909876324236" lon="120.20967965014279">
        <time>2023-06-12T12:19:14.287000Z</time>
      </trkpt>
      <trkpt lat="35.940017122775316" lon="120.20964025519788">
        <time>2023-06-12T12:19:18.293000Z</time>
      </trkpt>
      <trkpt lat="35.9401233214885" lon="120.20961343310773">
        <time>2023-06-12T12:19:22.301000Z</time>
      </trkpt>
      <trkpt lat="35.94022034201771" lon="120.20957219414413">
        <time>2023-06-12T12:19:26.293000Z</time>
      </trkpt>
      <trkpt lat="35.94031526707113" lon="120.20953204482794">
        <time>2023-06-12T12:19:30.331000Z</time>
      </trkpt>
      <trkpt lat="35.94037746079266" lon="120.2094254270196">
        <time>2023-06-12T12:19:34.279000Z</time>
      </trkpt>
      <trkpt lat="35.94041056931019" lon="120.20928930491209">
        <time>2023-06-12T12:19:38.330000Z</time>
      </trkpt>
      <trkpt lat="35.94043655321002" lon="120.20915695466101">
        <time>2023-06-12T12:19:42.331000Z</time>
      </trkpt>
      <trkpt lat="35.94049128703773" lon="120.20906064659357">
        <time>2023-06-12T12:19:46.314000Z</time>
      </trkpt>
      <trkpt lat="35.94054924789816" lon="120.20895813591778">
        <time>2023-06-12T12:19:50.331000Z</time>
      </trkpt>
      <trkpt lat="35.9406378865242" lon="120.20890616811812">
        <time>2023-06-12T12:19:54.333000Z</time>
      </trkpt>
      <trkpt lat="35.94073180574924" lon="120.2088778372854">
        <time>2023-06-12T12:19:58.318000Z</time>
      </trkpt>
      <trkpt lat="35.9408305445686" lon="120.20888119004667">
        <time>2023-06-12T12:20:03.267000Z</time>
      </trkpt>
      <trkpt lat="35.94092421233654" lon="120.20887926220894">
        <time>2023-06-12T12:20:08.303000Z</time>
      </trkpt>
      <trkpt lat="35.94102458562702" lon="120.20889778621495">
        <time>2023-06-12T12:20:12.309000Z</time>
      </trkpt>
      <trkpt lat="35.94112441409379" lon="120.20893005654216">
        <time>2023-06-12T12:20:16.274000Z</time>
      </trkpt>
      <trkpt lat="35.94121166970581" lon="120.20901546813548">
        <time>2023-06-12T12:20:20.307000Z</time>
      </trkpt>
      <trkpt lat="35.94126254785806" lon="120.20913759246469">
        <time>2023-06-12T12:20:24.342000Z</time>
      </trkpt>
      <trkpt lat="35.9413279267028" lon="120.20926055498421">
        <time>2023-06-12T12:20:28.283000Z</time>
      </trkpt>
      <trkpt lat="35.94140583649278" lon="120.20933138206601">
        <time>2023-06-12T12:20:32.307000Z</time>
      </trkpt>
      <trkpt lat="35.9415047429502" lon="120.20935309119523">
        <time>2023-06-12T12:20:37.298000Z</time>
      </trkpt>
      <trkpt lat="35.94160184729844" lon="120.2093421947211">
        <time>2023-06-12T12:20:41.306000Z</time>
      </trkpt>
      <trkpt lat="35.94169170130044" lon="120.20935610868037">
        <time>2023-06-12T12:20:47.277000Z</time>
      </trkpt>
      <trkpt lat="35.941695012152195" lon="120.20936055108905">
        <time>2023-06-12T12:20:48.462000Z</time>
      </trkpt>
    </trkseg>
  </trk>
</gpx>