<?xml version="1.0" encoding="UTF-8"?>
<gpx xmlns="http://www.topografix.com/GPX/1/1" xmlns:gpxtpx="http://www.garmin.com/xmlschemas/TrackPointExtension/v1" xmlns:xsi="http://www.w3.org/2001/XMLSchema-instance" xsi:schemaLocation="http://www.topografix.com/GPX/1/1 http://www.topografix.com/GPX/1/1/gpx.xsd" version="1.1" creator="gpx.py -- https://github.com/tkrajina/gpxpy">
  <trk>
    <name>星期六 晚间跑</name>
    <trkseg>
      <trkpt lat="35.956849618814886" lon="120.20994971506298">
        <time>2023-06-17T11:21:51.194000Z</time>
      </trkpt>
      <trkpt lat="35.956849618814886" lon="120.20994971506298">
        <time>2023-06-17T11:21:54.193000Z</time>
      </trkpt>
      <trkpt lat="35.95681743230671" lon="120.20981065928936">
        <time>2023-06-17T11:21:54.200000Z</time>
      </trkpt>
      <trkpt lat="35.95680041704327" lon="120.20968643948436">
        <time>2023-06-17T11:21:58.216000Z</time>
      </trkpt>
      <trkpt lat="35.95678176730871" lon="120.20956121385098">
        <time>2023-06-17T11:22:02.202000Z</time>
      </trkpt>
      <trkpt lat="35.95678176730871" lon="120.20956121385098">
        <time>2023-06-17T11:22:04.011000Z</time>
      </trkpt>
      <trkpt lat="35.95676550641656" lon="120.20944705232978">
        <time>2023-06-17T11:22:06.234000Z</time>
      </trkpt>
      <trkpt lat="35.95675783697516" lon="120.20931554026902">
        <time>2023-06-17T11:22:11.276000Z</time>
      </trkpt>
      <trkpt lat="35.95673453528434" lon="120.20920615643263">
        <time>2023-06-17T11:22:15.254000Z</time>
      </trkpt>
      <trkpt lat="35.95671316143125" lon="120.20908143371344">
        <time>2023-06-17T11:22:19.249000Z</time>
      </trkpt>
      <trkpt lat="35.95671257469803" lon="120.20896458998322">
        <time>2023-06-17T11:22:23.215000Z</time>
      </trkpt>
      <trkpt lat="35.95670498907566" lon="120.20883869379759">
        <time>2023-06-17T11:22:27.218000Z</time>
      </trkpt>
      <trkpt lat="35.95668265130371" lon="120.20872855558991">
        <time>2023-06-17T11:22:31.275000Z</time>
      </trkpt>
      <trkpt lat="35.95666190609336" lon="120.20859151147306">
        <time>2023-06-17T11:22:36.262000Z</time>
      </trkpt>
      <trkpt lat="35.9566268697381" lon="120.20846066996455">
        <time>2023-06-17T11:22:40.250000Z</time>
      </trkpt>
      <trkpt lat="35.95661199185997" lon="120.20832505077124">
        <time>2023-06-17T11:22:45.269000Z</time>
      </trkpt>
      <trkpt lat="35.95660252030939" lon="120.2082007471472">
        <time>2023-06-17T11:22:50.232000Z</time>
      </trkpt>
      <trkpt lat="35.956591120921075" lon="120.20807543769479">
        <time>2023-06-17T11:22:55.239000Z</time>
      </trkpt>
      <trkpt lat="35.956585966050625" lon="120.20794074051082">
        <time>2023-06-17T11:23:00.240000Z</time>
      </trkpt>
      <trkpt lat="35.95657481811941" lon="120.207809060812">
        <time>2023-06-17T11:23:04.261000Z</time>
      </trkpt>
      <trkpt lat="35.956540242768824" lon="120.20768551155925">
        <time>2023-06-17T11:23:08.211000Z</time>
      </trkpt>
      <trkpt lat="35.95653969794512" lon="120.20756280049682">
        <time>2023-06-17T11:23:13.244000Z</time>
      </trkpt>
      <trkpt lat="35.95650235656649" lon="120.20745584741235">
        <time>2023-06-17T11:23:19.246000Z</time>
      </trkpt>
      <trkpt lat="35.95638697966933" lon="120.20746900700033">
        <time>2023-06-17T11:23:23.206000Z</time>
      </trkpt>
      <trkpt lat="35.95627227332443" lon="120.20747168920934">
        <time>2023-06-17T11:23:27.248000Z</time>
      </trkpt>
      <trkpt lat="35.956178144551814" lon="120.20749742165208">
        <time>2023-06-17T11:23:31.238000Z</time>
      </trkpt>
      <trkpt lat="35.956077771261334" lon="120.20753899589181">
        <time>2023-06-17T11:23:36.247000Z</time>
      </trkpt>
      <trkpt lat="35.95596629194915" lon="120.20757445134223">
        <time>2023-06-17T11:23:41.260000Z</time>
      </trkpt>
      <trkpt lat="35.9558673016727" lon="120.20756850019097">
        <time>2023-06-17T11:23:45.250000Z</time>
      </trkpt>
      <trkpt lat="35.95577753148973" lon="120.20759674720466">
        <time>2023-06-17T11:23:52.263000Z</time>
      </trkpt>
      <trkpt lat="35.95577753148973" lon="120.20759674720466">
        <time>2023-06-17T11:23:54.079000Z</time>
      </trkpt>
      <trkpt lat="35.95577753148973" lon="120.20759674720466">
        <time>2023-06-17T11:24:08.113000Z</time>
      </trkpt>
      <trkpt lat="35.95577753148973" lon="120.20759674720466">
        <time>2023-06-17T11:24:21.125000Z</time>
      </trkpt>
      <trkpt lat="35.95577753148973" lon="120.20759674720466">
        <time>2023-06-17T11:24:46.263000Z</time>
      </trkpt>
      <trkpt lat="35.955659011378884" lon="120.20755793899298">
        <time>2023-06-17T11:24:46.275000Z</time>
      </trkpt>
      <trkpt lat="35.955565511249006" lon="120.20757646299899">
        <time>2023-06-17T11:24:53.257000Z</time>
      </trkpt>
      <trkpt lat="35.955565511249006" lon="120.20757646299899">
        <time>2023-06-17T11:24:58.138000Z</time>
      </trkpt>
      <trkpt lat="35.95547859091312" lon="120.20762993954122">
        <time>2023-06-17T11:24:58.248000Z</time>
      </trkpt>
      <trkpt lat="35.955388275906444" lon="120.20768760703504">
        <time>2023-06-17T11:25:02.271000Z</time>
      </trkpt>
      <trkpt lat="35.95529129728675" lon="120.20773069001734">
        <time>2023-06-17T11:25:06.234000Z</time>
      </trkpt>
      <trkpt lat="35.95519486349076" lon="120.20776245743036">
        <time>2023-06-17T11:25:10.259000Z</time>
      </trkpt>
      <trkpt lat="35.95510044135153" lon="120.20778114907444">
        <time>2023-06-17T11:25:14.241000Z</time>
      </trkpt>
      <trkpt lat="35.95500803086907" lon="120.20780813880265">
        <time>2023-06-17T11:25:18.215000Z</time>
      </trkpt>
      <trkpt lat="35.95490887295455" lon="120.20784225314856">
        <time>2023-06-17T11:25:22.257000Z</time>
      </trkpt>
      <trkpt lat="35.95481046941131" lon="120.20786421373487">
        <time>2023-06-17T11:25:26.214000Z</time>
      </trkpt>
      <trkpt lat="35.9547110600397" lon="120.20789304748178">
        <time>2023-06-17T11:25:30.231000Z</time>
      </trkpt>
      <trkpt lat="35.95461827237159" lon="120.20792246796191">
        <time>2023-06-17T11:25:34.244000Z</time>
      </trkpt>
      <trkpt lat="35.95452276058495" lon="120.20795105025172">
        <time>2023-06-17T11:25:38.239000Z</time>
      </trkpt>
      <trkpt lat="35.95442875754088" lon="120.20798373967409">
        <time>2023-06-17T11:25:42.240000Z</time>
      </trkpt>
      <trkpt lat="35.9543320722878" lon="120.2080279123038">
        <time>2023-06-17T11:25:46.236000Z</time>
      </trkpt>
      <trkpt lat="35.95423924271017" lon="120.20807300694287">
        <time>2023-06-17T11:25:50.219000Z</time>
      </trkpt>
      <trkpt lat="35.95414842478931" lon="120.20813402719796">
        <time>2023-06-17T11:25:54.249000Z</time>
      </trkpt>
      <trkpt lat="35.95406209118664" lon="120.20820845849812">
        <time>2023-06-17T11:25:58.244000Z</time>
      </trkpt>
      <trkpt lat="35.9539763443172" lon="120.20829697139561">
        <time>2023-06-17T11:26:03.234000Z</time>
      </trkpt>
      <trkpt lat="35.95391410868615" lon="120.20837827585638">
        <time>2023-06-17T11:26:07.242000Z</time>
      </trkpt>
      <trkpt lat="35.95387555193156" lon="120.20848715677857">
        <time>2023-06-17T11:26:11.233000Z</time>
      </trkpt>
      <trkpt lat="35.95382651779801" lon="120.2085979655385">
        <time>2023-06-17T11:26:15.251000Z</time>
      </trkpt>
      <trkpt lat="35.95375313423574" lon="120.20867013372481">
        <time>2023-06-17T11:26:19.228000Z</time>
      </trkpt>
      <trkpt lat="35.95368172042072" lon="120.20875940099359">
        <time>2023-06-17T11:26:23.260000Z</time>
      </trkpt>
      <trkpt lat="35.95361353363842" lon="120.20885436795652">
        <time>2023-06-17T11:26:27.244000Z</time>
      </trkpt>
      <trkpt lat="35.95356001518667" lon="120.20895721390843">
        <time>2023-06-17T11:26:31.184000Z</time>
      </trkpt>
      <trkpt lat="35.95350808929652" lon="120.20905511453748">
        <time>2023-06-17T11:26:35.189000Z</time>
      </trkpt>
      <trkpt lat="35.95350808929652" lon="120.20905511453748">
        <time>2023-06-17T11:26:41.608000Z</time>
      </trkpt>
      <trkpt lat="35.953459138982" lon="120.2091629896313">
        <time>2023-06-17T11:26:44.250000Z</time>
      </trkpt>
      <trkpt lat="35.95340490806848" lon="120.20925996825099">
        <time>2023-06-17T11:26:51.257000Z</time>
      </trkpt>
      <trkpt lat="35.95335520338267" lon="120.20936340093613">
        <time>2023-06-17T11:26:58.393000Z</time>
      </trkpt>
      <trkpt lat="35.953306294977665" lon="120.20946054719388">
        <time>2023-06-17T11:27:04.265000Z</time>
      </trkpt>
      <trkpt lat="35.953306294977665" lon="120.20946054719388">
        <time>2023-06-17T11:27:04.654000Z</time>
      </trkpt>
      <trkpt lat="35.95325889531523" lon="120.2095597051084">
        <time>2023-06-17T11:27:08.240000Z</time>
      </trkpt>
      <trkpt lat="35.95319385174662" lon="120.20966297015548">
        <time>2023-06-17T11:27:12.215000Z</time>
      </trkpt>
      <trkpt lat="35.95312897581607" lon="120.20975064486265">
        <time>2023-06-17T11:27:16.244000Z</time>
      </trkpt>
      <trkpt lat="35.95306288450956" lon="120.20984519273043">
        <time>2023-06-17T11:27:20.244000Z</time>
      </trkpt>
      <trkpt lat="35.95298535190523" lon="120.20993571728468">
        <time>2023-06-17T11:27:24.242000Z</time>
      </trkpt>
      <trkpt lat="35.95291691366583" lon="120.21002263762057">
        <time>2023-06-17T11:27:28.248000Z</time>
      </trkpt>
      <trkpt lat="35.9528417699039" lon="120.21010905504227">
        <time>2023-06-17T11:27:32.232000Z</time>
      </trkpt>
      <trkpt lat="35.95276281237602" lon="120.21018415689468">
        <time>2023-06-17T11:27:36.213000Z</time>
      </trkpt>
      <trkpt lat="35.952671826817095" lon="120.21025858819485">
        <time>2023-06-17T11:27:40.218000Z</time>
      </trkpt>
      <trkpt lat="35.95257518347353" lon="120.21032094955444">
        <time>2023-06-17T11:27:44.239000Z</time>
      </trkpt>
      <trkpt lat="35.95247476827353" lon="120.21037928760052">
        <time>2023-06-17T11:27:48.228000Z</time>
      </trkpt>
      <trkpt lat="35.95238872803748" lon="120.2104199398309">
        <time>2023-06-17T11:27:51.248000Z</time>
      </trkpt>
      <trkpt lat="35.95228273887187" lon="120.21048515103757">
        <time>2023-06-17T11:27:55.206000Z</time>
      </trkpt>
      <trkpt lat="35.952163925394416" lon="120.210494203493">
        <time>2023-06-17T11:27:59.239000Z</time>
      </trkpt>
      <trkpt lat="35.95205408055335" lon="120.21049680188298">
        <time>2023-06-17T11:28:02.239000Z</time>
      </trkpt>
      <trkpt lat="35.95194343943149" lon="120.21051147021353">
        <time>2023-06-17T11:28:05.239000Z</time>
      </trkpt>
      <trkpt lat="35.95185408834368" lon="120.21052923984826">
        <time>2023-06-17T11:28:07.248000Z</time>
      </trkpt>
      <trkpt lat="35.95174805726856" lon="120.21053678356111">
        <time>2023-06-17T11:28:10.273000Z</time>
      </trkpt>
      <trkpt lat="35.95164495985955" lon="120.21056754514575">
        <time>2023-06-17T11:28:13.231000Z</time>
      </trkpt>
      <trkpt lat="35.951553764753044" lon="120.21058657206595">
        <time>2023-06-17T11:28:16.250000Z</time>
      </trkpt>
      <trkpt lat="35.9514513798058" lon="120.21059688180685">
        <time>2023-06-17T11:28:20.241000Z</time>
      </trkpt>
      <trkpt lat="35.9514513798058" lon="120.21059688180685">
        <time>2023-06-17T11:28:25.747000Z</time>
      </trkpt>
      <trkpt lat="35.951351509429514" lon="120.21061557345092">
        <time>2023-06-17T11:28:27.239000Z</time>
      </trkpt>
      <trkpt lat="35.95124564599246" lon="120.21062588319182">
        <time>2023-06-17T11:28:35.206000Z</time>
      </trkpt>
      <trkpt lat="35.95115520525724" lon="120.21063979715109">
        <time>2023-06-17T11:28:42.193000Z</time>
      </trkpt>
      <trkpt lat="35.95106363296509" lon="120.21066980436444">
        <time>2023-06-17T11:28:50.219000Z</time>
      </trkpt>
      <trkpt lat="35.95106363296509" lon="120.21066980436444">
        <time>2023-06-17T11:28:54.879000Z</time>
      </trkpt>
      <trkpt lat="35.95095102209598" lon="120.21069553680718">
        <time>2023-06-17T11:28:55.250000Z</time>
      </trkpt>
      <trkpt lat="35.95084100961685" lon="120.2107360213995">
        <time>2023-06-17T11:28:59.249000Z</time>
      </trkpt>
      <trkpt lat="35.950752664357424" lon="120.21078790538013">
        <time>2023-06-17T11:29:03.215000Z</time>
      </trkpt>
      <trkpt lat="35.950645292177796" lon="120.21082210354507">
        <time>2023-06-17T11:29:08.265000Z</time>
      </trkpt>
      <trkpt lat="35.95053372904658" lon="120.21084272302687">
        <time>2023-06-17T11:29:12.237000Z</time>
      </trkpt>
      <trkpt lat="35.95043012872338" lon="120.21085663698614">
        <time>2023-06-17T11:29:17.240000Z</time>
      </trkpt>
      <trkpt lat="35.95033243764192" lon="120.21085772663355">
        <time>2023-06-17T11:29:24.313000Z</time>
      </trkpt>
      <trkpt lat="35.95033243764192" lon="120.21085772663355">
        <time>2023-06-17T11:29:25.267000Z</time>
      </trkpt>
      <trkpt lat="35.950233740732074" lon="120.21087231114507">
        <time>2023-06-17T11:29:31.236000Z</time>
      </trkpt>
      <trkpt lat="35.95012561418116" lon="120.21088371053338">
        <time>2023-06-17T11:29:38.251000Z</time>
      </trkpt>
      <trkpt lat="35.95012561418116" lon="120.21088371053338">
        <time>2023-06-17T11:29:42.937000Z</time>
      </trkpt>
      <trkpt lat="35.95000776462257" lon="120.21088521927595">
        <time>2023-06-17T11:29:44.250000Z</time>
      </trkpt>
      <trkpt lat="35.949917659163475" lon="120.2109033241868">
        <time>2023-06-17T11:29:48.213000Z</time>
      </trkpt>
      <trkpt lat="35.94982591923326" lon="120.21093240939081">
        <time>2023-06-17T11:29:52.254000Z</time>
      </trkpt>
      <trkpt lat="35.94973598141223" lon="120.2109551243484">
        <time>2023-06-17T11:29:56.266000Z</time>
      </trkpt>
      <trkpt lat="35.94964637886733" lon="120.21099007688463">
        <time>2023-06-17T11:30:01.224000Z</time>
      </trkpt>
      <trkpt lat="35.94954026397318" lon="120.21104346960783">
        <time>2023-06-17T11:30:06.216000Z</time>
      </trkpt>
      <trkpt lat="35.94943280797452" lon="120.21106601692736">
        <time>2023-06-17T11:30:10.233000Z</time>
      </trkpt>
      <trkpt lat="35.949332769960165" lon="120.211102059111">
        <time>2023-06-17T11:30:14.256000Z</time>
      </trkpt>
      <trkpt lat="35.94922447577119" lon="120.21111748181283">
        <time>2023-06-17T11:30:17.247000Z</time>
      </trkpt>
      <trkpt lat="35.94912167172879" lon="120.2111472375691">
        <time>2023-06-17T11:30:20.231000Z</time>
      </trkpt>
      <trkpt lat="35.949009521864355" lon="120.21118177101016">
        <time>2023-06-17T11:30:24.257000Z</time>
      </trkpt>
      <trkpt lat="35.94892465509474" lon="120.21122334524989">
        <time>2023-06-17T11:30:27.227000Z</time>
      </trkpt>
      <trkpt lat="35.9488225216046" lon="120.2112468983978">
        <time>2023-06-17T11:30:31.272000Z</time>
      </trkpt>
      <trkpt lat="35.94872151967138" lon="120.21127841435373">
        <time>2023-06-17T11:30:36.247000Z</time>
      </trkpt>
      <trkpt lat="35.948628899641335" lon="120.21128377877176">
        <time>2023-06-17T11:30:41.236000Z</time>
      </trkpt>
      <trkpt lat="35.948628899641335" lon="120.21128377877176">
        <time>2023-06-17T11:30:43.016000Z</time>
      </trkpt>
      <trkpt lat="35.94852211419493" lon="120.21130481734872">
        <time>2023-06-17T11:30:46.264000Z</time>
      </trkpt>
      <trkpt lat="35.94842039979994" lon="120.21133214235306">
        <time>2023-06-17T11:30:51.233000Z</time>
      </trkpt>
      <trkpt lat="35.94842039979994" lon="120.21133214235306">
        <time>2023-06-17T11:30:53.032000Z</time>
      </trkpt>
      <trkpt lat="35.94833067152649" lon="120.21137438714504">
        <time>2023-06-17T11:30:56.238000Z</time>
      </trkpt>
      <trkpt lat="35.94822648447007" lon="120.21139274351299">
        <time>2023-06-17T11:31:01.232000Z</time>
      </trkpt>
      <trkpt lat="35.94813541509211" lon="120.21140648983419">
        <time>2023-06-17T11:31:05.220000Z</time>
      </trkpt>
      <trkpt lat="35.948041579686105" lon="120.21142761223018">
        <time>2023-06-17T11:31:09.240000Z</time>
      </trkpt>
      <trkpt lat="35.947937057353556" lon="120.21145887672901">
        <time>2023-06-17T11:31:13.209000Z</time>
      </trkpt>
      <trkpt lat="35.947847119532526" lon="120.21147589199245">
        <time>2023-06-17T11:31:17.245000Z</time>
      </trkpt>
      <trkpt lat="35.947749176993966" lon="120.21150698885322">
        <time>2023-06-17T11:31:22.248000Z</time>
      </trkpt>
      <trkpt lat="35.947749176993966" lon="120.21150698885322">
        <time>2023-06-17T11:31:25.471000Z</time>
      </trkpt>
      <trkpt lat="35.94765203073621" lon="120.21153607405722">
        <time>2023-06-17T11:31:28.224000Z</time>
      </trkpt>
      <trkpt lat="35.947552705183625" lon="120.21155183203518">
        <time>2023-06-17T11:31:34.221000Z</time>
      </trkpt>
      <trkpt lat="35.947552705183625" lon="120.21155183203518">
        <time>2023-06-17T11:31:35.473000Z</time>
      </trkpt>
      <trkpt lat="35.947454595007" lon="120.21157203242183">
        <time>2023-06-17T11:31:38.239000Z</time>
      </trkpt>
      <trkpt lat="35.9473639447242" lon="120.21159533411264">
        <time>2023-06-17T11:31:42.277000Z</time>
      </trkpt>
      <trkpt lat="35.9472664212808" lon="120.21161436103284">
        <time>2023-06-17T11:31:46.271000Z</time>
      </trkpt>
      <trkpt lat="35.947173507884145" lon="120.21164814010262">
        <time>2023-06-17T11:31:50.245000Z</time>
      </trkpt>
      <trkpt lat="35.947060394100845" lon="120.21167253144085">
        <time>2023-06-17T11:31:54.245000Z</time>
      </trkpt>
      <trkpt lat="35.94696048181504" lon="120.2117043826729">
        <time>2023-06-17T11:31:58.235000Z</time>
      </trkpt>
      <trkpt lat="35.94686237163842" lon="120.21173648536205">
        <time>2023-06-17T11:32:02.266000Z</time>
      </trkpt>
      <trkpt lat="35.94676610548049" lon="120.21176464855671">
        <time>2023-06-17T11:32:06.248000Z</time>
      </trkpt>
      <trkpt lat="35.946670048870146" lon="120.21179197356105">
        <time>2023-06-17T11:32:10.238000Z</time>
      </trkpt>
      <trkpt lat="35.946573028340936" lon="120.21181644871831">
        <time>2023-06-17T11:32:14.249000Z</time>
      </trkpt>
      <trkpt lat="35.946467500180006" lon="120.21184964105487">
        <time>2023-06-17T11:32:18.261000Z</time>
      </trkpt>
      <trkpt lat="35.94635820016265" lon="120.21189062856138">
        <time>2023-06-17T11:32:22.256000Z</time>
      </trkpt>
      <trkpt lat="35.946250995621085" lon="120.2119223959744">
        <time>2023-06-17T11:32:26.245000Z</time>
      </trkpt>
      <trkpt lat="35.94615556765348" lon="120.21194544620812">
        <time>2023-06-17T11:32:30.268000Z</time>
      </trkpt>
      <trkpt lat="35.946052386425436" lon="120.21199624054134">
        <time>2023-06-17T11:32:34.248000Z</time>
      </trkpt>
      <trkpt lat="35.9459497500211" lon="120.21203965879977">
        <time>2023-06-17T11:32:38.231000Z</time>
      </trkpt>
      <trkpt lat="35.94584631733596" lon="120.21206891164184">
        <time>2023-06-17T11:32:42.266000Z</time>
      </trkpt>
      <trkpt lat="35.945749967359006" lon="120.2121068816632">
        <time>2023-06-17T11:32:47.248000Z</time>
      </trkpt>
      <trkpt lat="35.945648294873536" lon="120.21214669570327">
        <time>2023-06-17T11:32:52.260000Z</time>
      </trkpt>
      <trkpt lat="35.94555051997304" lon="120.21218340843916">
        <time>2023-06-17T11:32:56.248000Z</time>
      </trkpt>
      <trkpt lat="35.94545098487288" lon="120.21221517585218">
        <time>2023-06-17T11:33:00.241000Z</time>
      </trkpt>
      <trkpt lat="35.94535383861512" lon="120.21225775592029">
        <time>2023-06-17T11:33:06.279000Z</time>
      </trkpt>
      <trkpt lat="35.94526268541813" lon="120.21230511367321">
        <time>2023-06-17T11:33:10.236000Z</time>
      </trkpt>
      <trkpt lat="35.94517199322581" lon="120.21235565654933">
        <time>2023-06-17T11:33:14.242000Z</time>
      </trkpt>
      <trkpt lat="35.94508046284318" lon="120.2124057803303">
        <time>2023-06-17T11:33:18.249000Z</time>
      </trkpt>
      <trkpt lat="35.94508046284318" lon="120.2124057803303">
        <time>2023-06-17T11:33:21.250000Z</time>
      </trkpt>
      <trkpt lat="35.94499417115003" lon="120.21243922412395">
        <time>2023-06-17T11:33:23.272000Z</time>
      </trkpt>
      <trkpt lat="35.944899916648865" lon="120.21245590411127">
        <time>2023-06-17T11:33:28.234000Z</time>
      </trkpt>
      <trkpt lat="35.94481002073735" lon="120.21252304315567">
        <time>2023-06-17T11:33:35.194000Z</time>
      </trkpt>
      <trkpt lat="35.94472683034837" lon="120.21256604231894">
        <time>2023-06-17T11:33:41.047000Z</time>
      </trkpt>
      <trkpt lat="35.94472683034837" lon="120.21256604231894">
        <time>2023-06-17T11:33:43.999000Z</time>
      </trkpt>
      <trkpt lat="35.94463324639946" lon="120.21261675283313">
        <time>2023-06-17T11:33:46.057000Z</time>
      </trkpt>
      <trkpt lat="35.94454456586391" lon="120.21266084164381">
        <time>2023-06-17T11:33:50.018000Z</time>
      </trkpt>
      <trkpt lat="35.94445387367159" lon="120.21270710974932">
        <time>2023-06-17T11:33:55.027000Z</time>
      </trkpt>
      <trkpt lat="35.9443497704342" lon="120.2127718180418">
        <time>2023-06-17T11:34:00.049000Z</time>
      </trkpt>
      <trkpt lat="35.94425547402352" lon="120.21281682886183">
        <time>2023-06-17T11:34:04.016000Z</time>
      </trkpt>
      <trkpt lat="35.94416666775942" lon="120.21286209113896">
        <time>2023-06-17T11:34:08.058000Z</time>
      </trkpt>
      <trkpt lat="35.94416666775942" lon="120.21286209113896">
        <time>2023-06-17T11:34:11.196000Z</time>
      </trkpt>
      <trkpt lat="35.94393813516945" lon="120.21298136562109">
        <time>2023-06-17T11:34:18.032000Z</time>
      </trkpt>
      <trkpt lat="35.94386940356344" lon="120.21306233480573">
        <time>2023-06-17T11:34:24.200000Z</time>
      </trkpt>
      <trkpt lat="35.943773346953094" lon="120.21300114691257">
        <time>2023-06-17T11:34:37.011000Z</time>
      </trkpt>
      <trkpt lat="35.94372795894742" lon="120.21289830096066">
        <time>2023-06-17T11:34:41.192000Z</time>
      </trkpt>
      <trkpt lat="35.943667902611196" lon="120.21280635148287">
        <time>2023-06-17T11:34:44.212000Z</time>
      </trkpt>
      <trkpt lat="35.943596698343754" lon="120.2127046789974">
        <time>2023-06-17T11:34:48.022000Z</time>
      </trkpt>
      <trkpt lat="35.943546700291336" lon="120.2125907689333">
        <time>2023-06-17T11:34:52.037000Z</time>
      </trkpt>
      <trkpt lat="35.94350344967097" lon="120.21248708479106">
        <time>2023-06-17T11:34:56.024000Z</time>
      </trkpt>
      <trkpt lat="35.943425497971475" lon="120.21238524466753">
        <time>2023-06-17T11:35:01.029000Z</time>
      </trkpt>
      <trkpt lat="35.94337646383792" lon="120.21229036152363">
        <time>2023-06-17T11:35:05.222000Z</time>
      </trkpt>
      <trkpt lat="35.94337646383792" lon="120.21229036152363">
        <time>2023-06-17T11:35:06.162000Z</time>
      </trkpt>
      <trkpt lat="35.94337646383792" lon="120.21229036152363">
        <time>2023-06-17T11:35:12.083000Z</time>
      </trkpt>
      <trkpt lat="35.94332181382924" lon="120.21216169930995">
        <time>2023-06-17T11:35:12.097000Z</time>
      </trkpt>
      <trkpt lat="35.943273827433586" lon="120.21206086501479">
        <time>2023-06-17T11:35:18.165000Z</time>
      </trkpt>
      <trkpt lat="35.943208490498364" lon="120.21197067573667">
        <time>2023-06-17T11:35:23.194000Z</time>
      </trkpt>
      <trkpt lat="35.94314713496715" lon="120.21186179481447">
        <time>2023-06-17T11:35:27.031000Z</time>
      </trkpt>
      <trkpt lat="35.94308862928301" lon="120.21174511872232">
        <time>2023-06-17T11:35:31.158000Z</time>
      </trkpt>
      <trkpt lat="35.94302157405764" lon="120.21163774654269">
        <time>2023-06-17T11:35:35.200000Z</time>
      </trkpt>
      <trkpt lat="35.94296193681657" lon="120.21154277957976">
        <time>2023-06-17T11:35:39.159000Z</time>
      </trkpt>
      <trkpt lat="35.94296193681657" lon="120.21154277957976">
        <time>2023-06-17T11:35:42.200000Z</time>
      </trkpt>
      <trkpt lat="35.94284685328603" lon="120.21138394251466">
        <time>2023-06-17T11:35:47.191000Z</time>
      </trkpt>
      <trkpt lat="35.942785874940455" lon="120.21127950400114">
        <time>2023-06-17T11:35:51.012000Z</time>
      </trkpt>
      <trkpt lat="35.94271052163094" lon="120.21118168719113">
        <time>2023-06-17T11:35:55.041000Z</time>
      </trkpt>
      <trkpt lat="35.94265356659889" lon="120.2110780030489">
        <time>2023-06-17T11:35:59.042000Z</time>
      </trkpt>
      <trkpt lat="35.942611573264" lon="120.21097398363054">
        <time>2023-06-17T11:36:04.011000Z</time>
      </trkpt>
      <trkpt lat="35.942611573264" lon="120.21097398363054">
        <time>2023-06-17T11:36:07.199000Z</time>
      </trkpt>
      <trkpt lat="35.94258508644998" lon="120.2108568046242">
        <time>2023-06-17T11:36:10.175000Z</time>
      </trkpt>
      <trkpt lat="35.94251945614815" lon="120.2107722312212">
        <time>2023-06-17T11:36:17.013000Z</time>
      </trkpt>
      <trkpt lat="35.94251945614815" lon="120.2107722312212">
        <time>2023-06-17T11:36:19.998000Z</time>
      </trkpt>
      <trkpt lat="35.94245772343129" lon="120.21066787652671">
        <time>2023-06-17T11:36:22.005000Z</time>
      </trkpt>
      <trkpt lat="35.94240579754114" lon="120.21057249046862">
        <time>2023-06-17T11:36:26.008000Z</time>
      </trkpt>
      <trkpt lat="35.942339706234634" lon="120.21047291345894">
        <time>2023-06-17T11:36:29.994000Z</time>
      </trkpt>
      <trkpt lat="35.94227520748973" lon="120.21038079634309">
        <time>2023-06-17T11:36:34.033000Z</time>
      </trkpt>
      <trkpt lat="35.942210289649665" lon="120.21026789210737">
        <time>2023-06-17T11:36:39.212000Z</time>
      </trkpt>
      <trkpt lat="35.942210289649665" lon="120.21026789210737">
        <time>2023-06-17T11:36:43.232000Z</time>
      </trkpt>
      <trkpt lat="35.942210289649665" lon="120.21026789210737">
        <time>2023-06-17T11:36:48.973000Z</time>
      </trkpt>
      <trkpt lat="35.94206867739558" lon="120.21003470756114">
        <time>2023-06-17T11:36:48.984000Z</time>
      </trkpt>
      <trkpt lat="35.94201092608273" lon="120.20994083024561">
        <time>2023-06-17T11:36:53.002000Z</time>
      </trkpt>
      <trkpt lat="35.9419564018026" lon="120.20984192378819">
        <time>2023-06-17T11:36:58.182000Z</time>
      </trkpt>
      <trkpt lat="35.94190954696387" lon="120.20973949693143">
        <time>2023-06-17T11:37:02.227000Z</time>
      </trkpt>
      <trkpt lat="35.941840605810285" lon="120.2096603717655">
        <time>2023-06-17T11:37:06.214000Z</time>
      </trkpt>
      <trkpt lat="35.94177790917456" lon="120.20957403816283">
        <time>2023-06-17T11:37:10.133000Z</time>
      </trkpt>
      <trkpt lat="35.94174446538091" lon="120.2094682585448">
        <time>2023-06-17T11:37:14.184000Z</time>
      </trkpt>
      <trkpt lat="35.94174446538091" lon="120.2094682585448">
        <time>2023-06-17T11:37:20.047000Z</time>
      </trkpt>
      <trkpt lat="35.94180825166404" lon="120.20937781780958">
        <time>2023-06-17T11:37:20.062000Z</time>
      </trkpt>
      <trkpt lat="35.94190124887973" lon="120.20934521220624">
        <time>2023-06-17T11:37:27.557000Z</time>
      </trkpt>
      <trkpt lat="35.94190124887973" lon="120.20934521220624">
        <time>2023-06-17T11:37:30.576000Z</time>
      </trkpt>
      <trkpt lat="35.94200162217021" lon="120.20932777784765">
        <time>2023-06-17T11:37:32.485000Z</time>
      </trkpt>
      <trkpt lat="35.94211393967271" lon="120.20930774509907">
        <time>2023-06-17T11:37:37.285000Z</time>
      </trkpt>
      <trkpt lat="35.94220081809908" lon="120.20927052944899">
        <time>2023-06-17T11:37:41.193000Z</time>
      </trkpt>
      <trkpt lat="35.94228954054415" lon="120.20921302959323">
        <time>2023-06-17T11:37:45.007000Z</time>
      </trkpt>
      <trkpt lat="35.942380065098405" lon="120.20916860550642">
        <time>2023-06-17T11:37:49.004000Z</time>
      </trkpt>
      <trkpt lat="35.94247188884765" lon="120.20912753418088">
        <time>2023-06-17T11:37:53.017000Z</time>
      </trkpt>
      <trkpt lat="35.94256840646267" lon="120.20907866768539">
        <time>2023-06-17T11:37:57.009000Z</time>
      </trkpt>
      <trkpt lat="35.94265876337886" lon="120.20902460440993">
        <time>2023-06-17T11:38:01.038000Z</time>
      </trkpt>
      <trkpt lat="35.942749539390206" lon="120.20900130271912">
        <time>2023-06-17T11:38:06.198000Z</time>
      </trkpt>
      <trkpt lat="35.942749539390206" lon="120.20900130271912">
        <time>2023-06-17T11:38:10.024000Z</time>
      </trkpt>
      <trkpt lat="35.942841405048966" lon="120.20899417810142">
        <time>2023-06-17T11:38:13.185000Z</time>
      </trkpt>
      <trkpt lat="35.9429416526109" lon="120.20899258553982">
        <time>2023-06-17T11:38:19.195000Z</time>
      </trkpt>
      <trkpt lat="35.94305007252842" lon="120.20898613147438">
        <time>2023-06-17T11:38:24.016000Z</time>
      </trkpt>
      <trkpt lat="35.94314340502024" lon="120.2089748159051">
        <time>2023-06-17T11:38:28.022000Z</time>
      </trkpt>
      <trkpt lat="35.943236821331084" lon="120.20894774235785">
        <time>2023-06-17T11:38:32.192000Z</time>
      </trkpt>
      <trkpt lat="35.943236821331084" lon="120.20894774235785">
        <time>2023-06-17T11:38:34.187000Z</time>
      </trkpt>
      <trkpt lat="35.94341070391238" lon="120.20888663828373">
        <time>2023-06-17T11:38:39.037000Z</time>
      </trkpt>
      <trkpt lat="35.94351526815444" lon="120.20883869379759">
        <time>2023-06-17T11:38:44.212000Z</time>
      </trkpt>
      <trkpt lat="35.94361233059317" lon="120.20880877040327">
        <time>2023-06-17T11:38:48.021000Z</time>
      </trkpt>
      <trkpt lat="35.94371651764959" lon="120.20878546871245">
        <time>2023-06-17T11:38:53.031000Z</time>
      </trkpt>
      <trkpt lat="35.943806916475296" lon="120.20880097523332">
        <time>2023-06-17T11:38:57.049000Z</time>
      </trkpt>
      <trkpt lat="35.94391722232103" lon="120.20882125943899">
        <time>2023-06-17T11:39:02.012000Z</time>
      </trkpt>
      <trkpt lat="35.944008962251246" lon="120.20885118283331">
        <time>2023-06-17T11:39:06.033000Z</time>
      </trkpt>
      <trkpt lat="35.9441045159474" lon="120.20888672210276">
        <time>2023-06-17T11:39:10.043000Z</time>
      </trkpt>
      <trkpt lat="35.94420078210533" lon="120.20891999825835">
        <time>2023-06-17T11:39:14.005000Z</time>
      </trkpt>
      <trkpt lat="35.944294491782784" lon="120.20894271321595">
        <time>2023-06-17T11:39:18.033000Z</time>
      </trkpt>
      <trkpt lat="35.94439499080181" lon="120.20894145593047">
        <time>2023-06-17T11:39:22.023000Z</time>
      </trkpt>
      <trkpt lat="35.944485515356064" lon="120.20895067602396">
        <time>2023-06-17T11:39:26.047000Z</time>
      </trkpt>
      <trkpt lat="35.944485515356064" lon="120.20895067602396">
        <time>2023-06-17T11:39:31.038000Z</time>
      </trkpt>
      <trkpt lat="35.94458953477442" lon="120.20893139764667">
        <time>2023-06-17T11:39:32.038000Z</time>
      </trkpt>
      <trkpt lat="35.94468072988093" lon="120.20890683867037">
        <time>2023-06-17T11:39:38.068000Z</time>
      </trkpt>
      <trkpt lat="35.944773433730006" lon="120.20888412371278">
        <time>2023-06-17T11:39:45.042000Z</time>
      </trkpt>
      <trkpt lat="35.94486366491765" lon="120.20886677317321">
        <time>2023-06-17T11:39:52.042000Z</time>
      </trkpt>
      <trkpt lat="35.9449586737901" lon="120.20885788835585">
        <time>2023-06-17T11:39:58.043000Z</time>
      </trkpt>
      <trkpt lat="35.945048527792096" lon="120.20883995108306">
        <time>2023-06-17T11:40:03.010000Z</time>
      </trkpt>
      <trkpt lat="35.945048527792096" lon="120.20883995108306">
        <time>2023-06-17T11:40:06.132000Z</time>
      </trkpt>
      <trkpt lat="35.94515631906688" lon="120.20882142707705">
        <time>2023-06-17T11:40:07.999000Z</time>
      </trkpt>
      <trkpt lat="35.94525966793299" lon="120.20880751311779">
        <time>2023-06-17T11:40:12.014000Z</time>
      </trkpt>
      <trkpt lat="35.945362388156354" lon="120.20879502408206">
        <time>2023-06-17T11:40:16.023000Z</time>
      </trkpt>
      <trkpt lat="35.94547168817371" lon="120.20877985283732">
        <time>2023-06-17T11:40:20.047000Z</time>
      </trkpt>
      <trkpt lat="35.94558509532362" lon="120.20876468159258">
        <time>2023-06-17T11:40:24.004000Z</time>
      </trkpt>
      <trkpt lat="35.94568131957203" lon="120.2087496779859">
        <time>2023-06-17T11:40:28.031000Z</time>
      </trkpt>
      <trkpt lat="35.94577775336802" lon="120.20873693749309">
        <time>2023-06-17T11:40:32.071000Z</time>
      </trkpt>
      <trkpt lat="35.94588906504214" lon="120.20872780121863">
        <time>2023-06-17T11:40:36.018000Z</time>
      </trkpt>
      <trkpt lat="35.94600125681609" lon="120.2087089419365">
        <time>2023-06-17T11:40:40.068000Z</time>
      </trkpt>
      <trkpt lat="35.946105192415416" lon="120.20870273932815">
        <time>2023-06-17T11:40:44.031000Z</time>
      </trkpt>
      <trkpt lat="35.94621189404279" lon="120.20869427360594">
        <time>2023-06-17T11:40:48.037000Z</time>
      </trkpt>
      <trkpt lat="35.946312518790364" lon="120.20867960527539">
        <time>2023-06-17T11:40:52.036000Z</time>
      </trkpt>
      <trkpt lat="35.94641628675163" lon="120.2086637634784">
        <time>2023-06-17T11:40:56.052000Z</time>
      </trkpt>
      <trkpt lat="35.94650861341506" lon="120.2086568903178">
        <time>2023-06-17T11:41:00.039000Z</time>
      </trkpt>
      <trkpt lat="35.94660919625312" lon="120.20864741876721">
        <time>2023-06-17T11:41:04.037000Z</time>
      </trkpt>
      <trkpt lat="35.94672029837966" lon="120.2086397074163">
        <time>2023-06-17T11:41:09.034000Z</time>
      </trkpt>
      <trkpt lat="35.94682301860303" lon="120.208625709638">
        <time>2023-06-17T11:41:13.063000Z</time>
      </trkpt>
      <trkpt lat="35.946932318620384" lon="120.20860098302364">
        <time>2023-06-17T11:41:17.043000Z</time>
      </trkpt>
      <trkpt lat="35.94702778849751" lon="120.20855689421296">
        <time>2023-06-17T11:41:21.040000Z</time>
      </trkpt>
      <trkpt lat="35.94704777933657" lon="120.20841197110713">
        <time>2023-06-17T11:41:25.035000Z</time>
      </trkpt>
      <trkpt lat="35.94703730195761" lon="120.20827727392316">
        <time>2023-06-17T11:41:29.054000Z</time>
      </trkpt>
      <trkpt lat="35.947027620859444" lon="120.20814852789044">
        <time>2023-06-17T11:41:33.166000Z</time>
      </trkpt>
      <trkpt lat="35.94702607020736" lon="120.20802196115255">
        <time>2023-06-17T11:41:37.188000Z</time>
      </trkpt>
      <trkpt lat="35.94702607020736" lon="120.20802196115255">
        <time>2023-06-17T11:41:40.104000Z</time>
      </trkpt>
      <trkpt lat="35.947014754638076" lon="120.20779129117727">
        <time>2023-06-17T11:41:45.008000Z</time>
      </trkpt>
      <trkpt lat="35.947005660273135" lon="120.20765877328813">
        <time>2023-06-17T11:41:49.005000Z</time>
      </trkpt>
      <trkpt lat="35.9469955181703" lon="120.20753857679665">
        <time>2023-06-17T11:41:52.980000Z</time>
      </trkpt>
      <trkpt lat="35.94698315486312" lon="120.20742206834257">
        <time>2023-06-17T11:41:57.166000Z</time>
      </trkpt>
      <trkpt lat="35.94698315486312" lon="120.20742206834257">
        <time>2023-06-17T11:42:03.084000Z</time>
      </trkpt>
      <trkpt lat="35.94697820954025" lon="120.20730229094625">
        <time>2023-06-17T11:42:04.014000Z</time>
      </trkpt>
      <trkpt lat="35.94698965083808" lon="120.20718737505376">
        <time>2023-06-17T11:42:10.054000Z</time>
      </trkpt>
      <trkpt lat="35.94703554175794" lon="120.20709006115794">
        <time>2023-06-17T11:42:16.211000Z</time>
      </trkpt>
      <trkpt lat="35.94708440825343" lon="120.20697983913124">
        <time>2023-06-17T11:42:22.197000Z</time>
      </trkpt>
      <trkpt lat="35.94713386148214" lon="120.20686643198133">
        <time>2023-06-17T11:42:29.995000Z</time>
      </trkpt>
      <trkpt lat="35.94717560335994" lon="120.20674698986113">
        <time>2023-06-17T11:42:35.016000Z</time>
      </trkpt>
      <trkpt lat="35.94717560335994" lon="120.20674698986113">
        <time>2023-06-17T11:42:39.026000Z</time>
      </trkpt>
      <trkpt lat="35.947217931970954" lon="120.20662092603743">
        <time>2023-06-17T11:42:39.998000Z</time>
      </trkpt>
      <trkpt lat="35.947255860082805" lon="120.20651657134295">
        <time>2023-06-17T11:42:44.008000Z</time>
      </trkpt>
      <trkpt lat="35.947306863963604" lon="120.20641481503844">
        <time>2023-06-17T11:42:48.005000Z</time>
      </trkpt>
      <trkpt lat="35.94734697137028" lon="120.20629713311791">
        <time>2023-06-17T11:42:52.009000Z</time>
      </trkpt>
      <trkpt lat="35.9473993582651" lon="120.20618665963411">
        <time>2023-06-17T11:42:56.029000Z</time>
      </trkpt>
      <trkpt lat="35.94744985923171" lon="120.20607409067452">
        <time>2023-06-17T11:43:00.006000Z</time>
      </trkpt>
      <trkpt lat="35.94749126583338" lon="120.20596018061042">
        <time>2023-06-17T11:43:04.035000Z</time>
      </trkpt>
      <trkpt lat="35.94753061886877" lon="120.20584945566952">
        <time>2023-06-17T11:43:08.014000Z</time>
      </trkpt>
      <trkpt lat="35.947584095411" lon="120.20573328249156">
        <time>2023-06-17T11:43:12.225000Z</time>
      </trkpt>
      <trkpt lat="35.9476300701499" lon="120.20562062971294">
        <time>2023-06-17T11:43:16.196000Z</time>
      </trkpt>
      <trkpt lat="35.947680487297475" lon="120.20551024004817">
        <time>2023-06-17T11:43:20.230000Z</time>
      </trkpt>
      <trkpt lat="35.94772134907544" lon="120.20539557561278">
        <time>2023-06-17T11:43:24.223000Z</time>
      </trkpt>
      <trkpt lat="35.94772134907544" lon="120.20539557561278">
        <time>2023-06-17T11:43:26.373000Z</time>
      </trkpt>
      <trkpt lat="35.94781371764839" lon="120.20518183708191">
        <time>2023-06-17T11:43:32.270000Z</time>
      </trkpt>
      <trkpt lat="35.947859357111156" lon="120.205057868734">
        <time>2023-06-17T11:43:36.178000Z</time>
      </trkpt>
      <trkpt lat="35.94789732713252" lon="120.20492417737842">
        <time>2023-06-17T11:43:40.209000Z</time>
      </trkpt>
      <trkpt lat="35.94791488721967" lon="120.2048007119447">
        <time>2023-06-17T11:43:44.031000Z</time>
      </trkpt>
      <trkpt lat="35.94792142510414" lon="120.2046677749604">
        <time>2023-06-17T11:43:48.027000Z</time>
      </trkpt>
      <trkpt lat="35.94791585113853" lon="120.20454766228795">
        <time>2023-06-17T11:43:52.223000Z</time>
      </trkpt>
      <trkpt lat="35.94791983254254" lon="120.20442377775908">
        <time>2023-06-17T11:43:59.036000Z</time>
      </trkpt>
      <trkpt lat="35.947891627438366" lon="120.2043051738292">
        <time>2023-06-17T11:44:06.172000Z</time>
      </trkpt>
      <trkpt lat="35.94798521138728" lon="120.20430475473404">
        <time>2023-06-17T11:44:13.014000Z</time>
      </trkpt>
      <trkpt lat="35.94807401765138" lon="120.20435596816242">
        <time>2023-06-17T11:44:17.035000Z</time>
      </trkpt>
      <trkpt lat="35.94815892633051" lon="120.20441371947527">
        <time>2023-06-17T11:44:21.020000Z</time>
      </trkpt>
      <trkpt lat="35.94815892633051" lon="120.20441371947527">
        <time>2023-06-17T11:44:25.198000Z</time>
      </trkpt>
      <trkpt lat="35.948241404257715" lon="120.20448697730899">
        <time>2023-06-17T11:44:25.204000Z</time>
      </trkpt>
      <trkpt lat="35.94831797294319" lon="120.20456325262785">
        <time>2023-06-17T11:44:29.190000Z</time>
      </trkpt>
      <trkpt lat="35.948398732580245" lon="120.20463374443352">
        <time>2023-06-17T11:44:33.183000Z</time>
      </trkpt>
      <trkpt lat="35.94848804175854" lon="120.20469627343118">
        <time>2023-06-17T11:44:37.009000Z</time>
      </trkpt>
      <trkpt lat="35.948570729233325" lon="120.20476433448493">
        <time>2023-06-17T11:44:41.048000Z</time>
      </trkpt>
      <trkpt lat="35.94864666927606" lon="120.20484429784119">
        <time>2023-06-17T11:44:45.198000Z</time>
      </trkpt>
      <trkpt lat="35.948717831633985" lon="120.20492400974035">
        <time>2023-06-17T11:44:49.170000Z</time>
      </trkpt>
      <trkpt lat="35.94879683107138" lon="120.20500212907791">
        <time>2023-06-17T11:44:53.036000Z</time>
      </trkpt>
      <trkpt lat="35.94879683107138" lon="120.20500212907791">
        <time>2023-06-17T11:44:55.040000Z</time>
      </trkpt>
      <trkpt lat="35.94886451493949" lon="120.20509039051831">
        <time>2023-06-17T11:44:57.183000Z</time>
      </trkpt>
      <trkpt lat="35.94893224071711" lon="120.20517060533166">
        <time>2023-06-17T11:45:01.027000Z</time>
      </trkpt>
      <trkpt lat="35.94893224071711" lon="120.20517060533166">
        <time>2023-06-17T11:45:05.190000Z</time>
      </trkpt>
      <trkpt lat="35.94901086296886" lon="120.2052407618612">
        <time>2023-06-17T11:45:08.044000Z</time>
      </trkpt>
      <trkpt lat="35.94901086296886" lon="120.2052407618612">
        <time>2023-06-17T11:45:12.206000Z</time>
      </trkpt>
      <trkpt lat="35.94901086296886" lon="120.2052407618612">
        <time>2023-06-17T11:45:26.974000Z</time>
      </trkpt>
      <trkpt lat="35.94921047799289" lon="120.20545676350594">
        <time>2023-06-17T11:45:26.984000Z</time>
      </trkpt>
      <trkpt lat="35.94921047799289" lon="120.20545676350594">
        <time>2023-06-17T11:45:30.997000Z</time>
      </trkpt>
      <trkpt lat="35.94921047799289" lon="120.20545676350594">
        <time>2023-06-17T11:46:07.984000Z</time>
      </trkpt>
      <trkpt lat="35.94939768780023" lon="120.20568869076669">
        <time>2023-06-17T11:46:07.997000Z</time>
      </trkpt>
      <trkpt lat="35.94939768780023" lon="120.20568869076669">
        <time>2023-06-17T11:46:10.988000Z</time>
      </trkpt>
      <trkpt lat="35.94939768780023" lon="120.20568869076669">
        <time>2023-06-17T11:46:39.004000Z</time>
      </trkpt>
      <trkpt lat="35.94956662505865" lon="120.20587745122612">
        <time>2023-06-17T11:46:39.017000Z</time>
      </trkpt>
      <trkpt lat="35.94956662505865" lon="120.20587745122612">
        <time>2023-06-17T11:46:42.968000Z</time>
      </trkpt>
      <trkpt lat="35.94956662505865" lon="120.20587745122612">
        <time>2023-06-17T11:46:47.995000Z</time>
      </trkpt>
      <trkpt lat="35.949697047472" lon="120.20598767325282">
        <time>2023-06-17T11:46:48.002000Z</time>
      </trkpt>
      <trkpt lat="35.94980127643794" lon="120.20599907264113">
        <time>2023-06-17T11:46:52.990000Z</time>
      </trkpt>
      <trkpt lat="35.949903493747115" lon="120.20595104433596">
        <time>2023-06-17T11:46:57.031000Z</time>
      </trkpt>
      <trkpt lat="35.949903493747115" lon="120.20595104433596">
        <time>2023-06-17T11:46:58.020000Z</time>
      </trkpt>
      <trkpt lat="35.95000642351806" lon="120.20589320920408">
        <time>2023-06-17T11:47:03.177000Z</time>
      </trkpt>
      <trkpt lat="35.9500926733017" lon="120.2058594301343">
        <time>2023-06-17T11:47:06.023000Z</time>
      </trkpt>
      <trkpt lat="35.950188604183495" lon="120.20581869408488">
        <time>2023-06-17T11:47:10.027000Z</time>
      </trkpt>
      <trkpt lat="35.95026911236346" lon="120.2057592663914">
        <time>2023-06-17T11:47:14.025000Z</time>
      </trkpt>
      <trkpt lat="35.950371623039246" lon="120.20571945235133">
        <time>2023-06-17T11:47:18.180000Z</time>
      </trkpt>
      <trkpt lat="35.950371623039246" lon="120.20571945235133">
        <time>2023-06-17T11:47:21.170000Z</time>
      </trkpt>
      <trkpt lat="35.950567801482975" lon="120.20565323531628">
        <time>2023-06-17T11:47:26.182000Z</time>
      </trkpt>
      <trkpt lat="35.95064562745392" lon="120.20555315539241">
        <time>2023-06-17T11:47:31.046000Z</time>
      </trkpt>
      <trkpt lat="35.95066213980317" lon="120.2054397482425">
        <time>2023-06-17T11:47:35.024000Z</time>
      </trkpt>
      <trkpt lat="35.950645208358765" lon="120.20532483235002">
        <time>2023-06-17T11:47:38.995000Z</time>
      </trkpt>
      <trkpt lat="35.950614111498" lon="120.20520002581179">
        <time>2023-06-17T11:47:43.017000Z</time>
      </trkpt>
      <trkpt lat="35.95058645121753" lon="120.20509189926088">
        <time>2023-06-17T11:47:45.991000Z</time>
      </trkpt>
      <trkpt lat="35.950573878362775" lon="120.20496977493167">
        <time>2023-06-17T11:47:53.037000Z</time>
      </trkpt>
      <trkpt lat="35.950573878362775" lon="120.20496977493167">
        <time>2023-06-17T11:47:54.006000Z</time>
      </trkpt>
      <trkpt lat="35.950573878362775" lon="120.20496977493167">
        <time>2023-06-17T11:48:05.006000Z</time>
      </trkpt>
      <trkpt lat="35.950573878362775" lon="120.20496977493167">
        <time>2023-06-17T11:49:31.023000Z</time>
      </trkpt>
      <trkpt lat="35.95070455223322" lon="120.20483583211899">
        <time>2023-06-17T11:49:31.047000Z</time>
      </trkpt>
      <trkpt lat="35.95078698825091" lon="120.20478277467191">
        <time>2023-06-17T11:49:37.999000Z</time>
      </trkpt>
      <trkpt lat="35.9508601622656" lon="120.20471119321883">
        <time>2023-06-17T11:49:43.013000Z</time>
      </trkpt>
      <trkpt lat="35.9508601622656" lon="120.20471119321883">
        <time>2023-06-17T11:49:45.799000Z</time>
      </trkpt>
      <trkpt lat="35.950951776467264" lon="120.20464195869863">
        <time>2023-06-17T11:49:47.982000Z</time>
      </trkpt>
      <trkpt lat="35.95105575397611" lon="120.20459988154471">
        <time>2023-06-17T11:49:52.022000Z</time>
      </trkpt>
      <trkpt lat="35.951156127266586" lon="120.2045678626746">
        <time>2023-06-17T11:49:56.047000Z</time>
      </trkpt>
      <trkpt lat="35.951156127266586" lon="120.2045678626746">
        <time>2023-06-17T11:50:00.859000Z</time>
      </trkpt>
      <trkpt lat="35.951249417848885" lon="120.20453735254705">
        <time>2023-06-17T11:50:04.023000Z</time>
      </trkpt>
      <trkpt lat="35.95134031958878" lon="120.20451857708395">
        <time>2023-06-17T11:50:07.990000Z</time>
      </trkpt>
      <trkpt lat="35.95134031958878" lon="120.20451857708395">
        <time>2023-06-17T11:50:10.883000Z</time>
      </trkpt>
      <trkpt lat="35.951428706757724" lon="120.20449720323086">
        <time>2023-06-17T11:50:11.990000Z</time>
      </trkpt>
      <trkpt lat="35.95152719411999" lon="120.2044756617397">
        <time>2023-06-17T11:50:15.992000Z</time>
      </trkpt>
      <trkpt lat="35.95162190962583" lon="120.20444741472602">
        <time>2023-06-17T11:50:19.986000Z</time>
      </trkpt>
      <trkpt lat="35.951711176894605" lon="120.20442788489163">
        <time>2023-06-17T11:50:22.982000Z</time>
      </trkpt>
      <trkpt lat="35.95181435812265" lon="120.20438211970031">
        <time>2023-06-17T11:50:26.999000Z</time>
      </trkpt>
      <trkpt lat="35.95191850326955" lon="120.20436502061784">
        <time>2023-06-17T11:50:30.998000Z</time>
      </trkpt>
      <trkpt lat="35.95201820600778" lon="120.20435286685824">
        <time>2023-06-17T11:50:34.989000Z</time>
      </trkpt>
      <trkpt lat="35.95212038140744" lon="120.20434398204088">
        <time>2023-06-17T11:50:39.014000Z</time>
      </trkpt>
      <trkpt lat="35.95221551600844" lon="120.20433375611901">
        <time>2023-06-17T11:50:43.008000Z</time>
      </trkpt>
      <trkpt lat="35.95232150517404" lon="120.20434180274606">
        <time>2023-06-17T11:50:47Z</time>
      </trkpt>
      <trkpt lat="35.952416262589395" lon="120.20432797260582">
        <time>2023-06-17T11:50:52.009000Z</time>
      </trkpt>
      <trkpt lat="35.952416262589395" lon="120.20432797260582">
        <time>2023-06-17T11:50:56.910000Z</time>
      </trkpt>
      <trkpt lat="35.95251676160842" lon="120.20430819131434">
        <time>2023-06-17T11:51:00.057000Z</time>
      </trkpt>
      <trkpt lat="35.9526084177196" lon="120.20430182106793">
        <time>2023-06-17T11:51:04.955000Z</time>
      </trkpt>
      <trkpt lat="35.95271222759038" lon="120.20431028679013">
        <time>2023-06-17T11:51:11.026000Z</time>
      </trkpt>
      <trkpt lat="35.95280069857836" lon="120.20429075695574">
        <time>2023-06-17T11:51:15.992000Z</time>
      </trkpt>
      <trkpt lat="35.95289994031191" lon="120.20426678471267">
        <time>2023-06-17T11:51:21.978000Z</time>
      </trkpt>
      <trkpt lat="35.95289994031191" lon="120.20426678471267">
        <time>2023-06-17T11:51:24.062000Z</time>
      </trkpt>
      <trkpt lat="35.95289994031191" lon="120.20426678471267">
        <time>2023-06-17T11:51:27.986000Z</time>
      </trkpt>
      <trkpt lat="35.95289994031191" lon="120.20426678471267">
        <time>2023-06-17T11:51:27.994000Z</time>
      </trkpt>
      <trkpt lat="35.95301221590489" lon="120.20425781607628">
        <time>2023-06-17T11:51:30.027000Z</time>
      </trkpt>
      <trkpt lat="35.95311141572893" lon="120.20425982773304">
        <time>2023-06-17T11:51:36.995000Z</time>
      </trkpt>
      <trkpt lat="35.953205209225416" lon="120.20424197427928">
        <time>2023-06-17T11:51:43.988000Z</time>
      </trkpt>
      <trkpt lat="35.953296069055796" lon="120.20422822795808">
        <time>2023-06-17T11:51:52.031000Z</time>
      </trkpt>
      <trkpt lat="35.95338617451489" lon="120.20421297289431">
        <time>2023-06-17T11:51:59.078000Z</time>
      </trkpt>
      <trkpt lat="35.95347531605512" lon="120.20423728041351">
        <time>2023-06-17T11:52:04.999000Z</time>
      </trkpt>
      <trkpt lat="35.95347531605512" lon="120.20423728041351">
        <time>2023-06-17T11:52:05.974000Z</time>
      </trkpt>
      <trkpt lat="35.953571372665465" lon="120.20422504283488">
        <time>2023-06-17T11:52:10.003000Z</time>
      </trkpt>
      <trkpt lat="35.95367501489818" lon="120.2042118832469">
        <time>2023-06-17T11:52:13.964000Z</time>
      </trkpt>
      <trkpt lat="35.953772915527225" lon="120.20419092848897">
        <time>2023-06-17T11:52:18.004000Z</time>
      </trkpt>
      <trkpt lat="35.95386398490518" lon="120.2041754219681">
        <time>2023-06-17T11:52:21.035000Z</time>
      </trkpt>
      <trkpt lat="35.953952288255095" lon="120.20415304228663">
        <time>2023-06-17T11:52:24.019000Z</time>
      </trkpt>
      <trkpt lat="35.953952288255095" lon="120.20415304228663">
        <time>2023-06-17T11:52:29.388000Z</time>
      </trkpt>
      <trkpt lat="35.95404767431319" lon="120.20413711667061">
        <time>2023-06-17T11:52:29.984000Z</time>
      </trkpt>
      <trkpt lat="35.95414226409048" lon="120.20411130040884">
        <time>2023-06-17T11:52:36.009000Z</time>
      </trkpt>
      <trkpt lat="35.95422872342169" lon="120.20407400093973">
        <time>2023-06-17T11:52:42.001000Z</time>
      </trkpt>
      <trkpt lat="35.95422872342169" lon="120.20407400093973">
        <time>2023-06-17T11:52:45.014000Z</time>
      </trkpt>
      <trkpt lat="35.954342130571604" lon="120.20404575392604">
        <time>2023-06-17T11:52:47.010000Z</time>
      </trkpt>
      <trkpt lat="35.95445398706943" lon="120.20402831956744">
        <time>2023-06-17T11:52:50.969000Z</time>
      </trkpt>
      <trkpt lat="35.954559640958905" lon="120.20400325767696">
        <time>2023-06-17T11:52:54.997000Z</time>
      </trkpt>
      <trkpt lat="35.95466386992484" lon="120.20400987938046">
        <time>2023-06-17T11:52:58.993000Z</time>
      </trkpt>
      <trkpt lat="35.95476738642901" lon="120.20400979556143">
        <time>2023-06-17T11:53:02.995000Z</time>
      </trkpt>
      <trkpt lat="35.95486553851515" lon="120.20397987216711">
        <time>2023-06-17T11:53:06.996000Z</time>
      </trkpt>
      <trkpt lat="35.954963942058384" lon="120.20398867316544">
        <time>2023-06-17T11:53:11.997000Z</time>
      </trkpt>
      <trkpt lat="35.95506502781063" lon="120.20401147194207">
        <time>2023-06-17T11:53:17.006000Z</time>
      </trkpt>
      <trkpt lat="35.9551540017128" lon="120.20399294793606">
        <time>2023-06-17T11:53:20.003000Z</time>
      </trkpt>
      <trkpt lat="35.9552594460547" lon="120.20397459156811">
        <time>2023-06-17T11:53:24.008000Z</time>
      </trkpt>
      <trkpt lat="35.9552594460547" lon="120.20397459156811">
        <time>2023-06-17T11:53:29.410000Z</time>
      </trkpt>
      <trkpt lat="35.955318245105445" lon="120.20406218245625">
        <time>2023-06-17T11:53:30.005000Z</time>
      </trkpt>
      <trkpt lat="35.95532293897122" lon="120.20417433232069">
        <time>2023-06-17T11:53:35.962000Z</time>
      </trkpt>
      <trkpt lat="35.955342720262706" lon="120.20429335534573">
        <time>2023-06-17T11:53:41.001000Z</time>
      </trkpt>
      <trkpt lat="35.955342720262706" lon="120.20429335534573">
        <time>2023-06-17T11:53:41.997000Z</time>
      </trkpt>
      <trkpt lat="35.95536899752915" lon="120.20440282300115">
        <time>2023-06-17T11:53:45.004000Z</time>
      </trkpt>
      <trkpt lat="35.955390078015625" lon="120.20451254211366">
        <time>2023-06-17T11:53:49.001000Z</time>
      </trkpt>
      <trkpt lat="35.95540357287973" lon="120.20464086905122">
        <time>2023-06-17T11:53:53.009000Z</time>
      </trkpt>
      <trkpt lat="35.95543320290744" lon="120.20477313548326">
        <time>2023-06-17T11:53:57.002000Z</time>
      </trkpt>
      <trkpt lat="35.95544732641429" lon="120.20490900613368">
        <time>2023-06-17T11:54:01.013000Z</time>
      </trkpt>
      <trkpt lat="35.955470628105104" lon="120.2050375007093">
        <time>2023-06-17T11:54:04.986000Z</time>
      </trkpt>
      <trkpt lat="35.95547875855118" lon="120.20517270080745">
        <time>2023-06-17T11:54:09.007000Z</time>
      </trkpt>
      <trkpt lat="35.95550314988941" lon="120.20529717206955">
        <time>2023-06-17T11:54:12.997000Z</time>
      </trkpt>
      <trkpt lat="35.955523014999926" lon="120.20543119870126">
        <time>2023-06-17T11:54:17.007000Z</time>
      </trkpt>
      <trkpt lat="35.95553169026971" lon="120.20555483177304">
        <time>2023-06-17T11:54:20.977000Z</time>
      </trkpt>
      <trkpt lat="35.95555071718991" lon="120.20567402243614">
        <time>2023-06-17T11:54:25Z</time>
      </trkpt>
      <trkpt lat="35.95555071718991" lon="120.20567402243614">
        <time>2023-06-17T11:54:27.171000Z</time>
      </trkpt>
      <trkpt lat="35.95555071718991" lon="120.20567402243614">
        <time>2023-06-17T11:54:32.170000Z</time>
      </trkpt>
      <trkpt lat="35.95555071718991" lon="120.20567402243614">
        <time>2023-06-17T11:54:32.180000Z</time>
      </trkpt>
      <trkpt lat="35.95557364169508" lon="120.20578541792929">
        <time>2023-06-17T11:54:35.180000Z</time>
      </trkpt>
      <trkpt lat="35.95560641493648" lon="120.20588968880475">
        <time>2023-06-17T11:54:39.189000Z</time>
      </trkpt>
      <trkpt lat="35.955650713294744" lon="120.2060024254024">
        <time>2023-06-17T11:54:44.014000Z</time>
      </trkpt>
      <trkpt lat="35.955650713294744" lon="120.2060024254024">
        <time>2023-06-17T11:54:44.598000Z</time>
      </trkpt>
      <trkpt lat="35.955684911459684" lon="120.20612195134163">
        <time>2023-06-17T11:54:49.020000Z</time>
      </trkpt>
      <trkpt lat="35.95569819677621" lon="120.20624139346182">
        <time>2023-06-17T11:54:53.213000Z</time>
      </trkpt>
      <trkpt lat="35.95571529585868" lon="120.20636376924813">
        <time>2023-06-17T11:54:56.998000Z</time>
      </trkpt>
      <trkpt lat="35.95572874881327" lon="120.2064894977957">
        <time>2023-06-17T11:55:01.014000Z</time>
      </trkpt>
      <trkpt lat="35.955721330828965" lon="120.206611873582">
        <time>2023-06-17T11:55:05.241000Z</time>
      </trkpt>
      <trkpt lat="35.95572715625167" lon="120.20674070343375">
        <time>2023-06-17T11:55:09.007000Z</time>
      </trkpt>
      <trkpt lat="35.955723258666694" lon="120.20687179639935">
        <time>2023-06-17T11:55:13.004000Z</time>
      </trkpt>
      <trkpt lat="35.95572468359023" lon="120.20699920132756">
        <time>2023-06-17T11:55:17.196000Z</time>
      </trkpt>
      <trkpt lat="35.955725186504424" lon="120.20713708363473">
        <time>2023-06-17T11:55:21.167000Z</time>
      </trkpt>
      <trkpt lat="35.955725186504424" lon="120.20713708363473">
        <time>2023-06-17T11:55:25.206000Z</time>
      </trkpt>
      <trkpt lat="35.95575628336519" lon="120.20738334394991">
        <time>2023-06-17T11:55:31.170000Z</time>
      </trkpt>
      <trkpt lat="35.955749955028296" lon="120.2074980083853">
        <time>2023-06-17T11:55:38.200000Z</time>
      </trkpt>
      <trkpt lat="35.95572895836085" lon="120.20760990679264">
        <time>2023-06-17T11:55:43.185000Z</time>
      </trkpt>
      <trkpt lat="35.95579400192946" lon="120.20770118571818">
        <time>2023-06-17T11:55:47.026000Z</time>
      </trkpt>
      <trkpt lat="35.955885741859674" lon="120.20767176523805">
        <time>2023-06-17T11:55:52.193000Z</time>
      </trkpt>
      <trkpt lat="35.95597920008004" lon="120.2076327893883">
        <time>2023-06-17T11:55:55.994000Z</time>
      </trkpt>
      <trkpt lat="35.95597920008004" lon="120.2076327893883">
        <time>2023-06-17T11:55:58.977000Z</time>
      </trkpt>
      <trkpt lat="35.95607915427536" lon="120.20761468447745">
        <time>2023-06-17T11:55:59.994000Z</time>
      </trkpt>
      <trkpt lat="35.95617315731943" lon="120.20759758539498">
        <time>2023-06-17T11:56:05.014000Z</time>
      </trkpt>
      <trkpt lat="35.95627608709037" lon="120.2075720205903">
        <time>2023-06-17T11:56:09.998000Z</time>
      </trkpt>
      <trkpt lat="35.95636879093945" lon="120.20756246522069">
        <time>2023-06-17T11:56:14.004000Z</time>
      </trkpt>
      <trkpt lat="35.95646530855447" lon="120.20753731951118">
        <time>2023-06-17T11:56:18.184000Z</time>
      </trkpt>
      <trkpt lat="35.95652905292809" lon="120.20761854015291">
        <time>2023-06-17T11:56:28.189000Z</time>
      </trkpt>
      <trkpt lat="35.95652905292809" lon="120.20761854015291">
        <time>2023-06-17T11:56:32.123000Z</time>
      </trkpt>
      <trkpt lat="35.95654066186398" lon="120.2077451068908">
        <time>2023-06-17T11:56:35.198000Z</time>
      </trkpt>
      <trkpt lat="35.956528591923416" lon="120.20786371082067">
        <time>2023-06-17T11:56:39.137000Z</time>
      </trkpt>
      <trkpt lat="35.956528591923416" lon="120.20786371082067">
        <time>2023-06-17T11:56:42.180000Z</time>
      </trkpt>
      <trkpt lat="35.956547115929425" lon="120.20798608660698">
        <time>2023-06-17T11:56:43.186000Z</time>
      </trkpt>
      <trkpt lat="35.956570375710726" lon="120.2081108931452">
        <time>2023-06-17T11:56:47.217000Z</time>
      </trkpt>
      <trkpt lat="35.95657117199153" lon="120.20823922008276">
        <time>2023-06-17T11:56:51.221000Z</time>
      </trkpt>
      <trkpt lat="35.956564717926085" lon="120.20837282761931">
        <time>2023-06-17T11:56:56.131000Z</time>
      </trkpt>
      <trkpt lat="35.956600341014564" lon="120.20848740823567">
        <time>2023-06-17T11:57:01.203000Z</time>
      </trkpt>
      <trkpt lat="35.956619745120406" lon="120.20860182121396">
        <time>2023-06-17T11:57:05.235000Z</time>
      </trkpt>
      <trkpt lat="35.95664866268635" lon="120.2087324950844">
        <time>2023-06-17T11:57:10.194000Z</time>
      </trkpt>
      <trkpt lat="35.95666106790304" lon="120.2088590618223">
        <time>2023-06-17T11:57:14.162000Z</time>
      </trkpt>
      <trkpt lat="35.956671545282006" lon="120.20897448062897">
        <time>2023-06-17T11:57:18.122000Z</time>
      </trkpt>
      <trkpt lat="35.956671545282006" lon="120.20897448062897">
        <time>2023-06-17T11:57:21.718000Z</time>
      </trkpt>
      <trkpt lat="35.956711107864976" lon="120.20908461883664">
        <time>2023-06-17T11:57:24.156000Z</time>
      </trkpt>
      <trkpt lat="35.956726698204875" lon="120.20919500850141">
        <time>2023-06-17T11:57:32.178000Z</time>
      </trkpt>
      <trkpt lat="35.95674811396748" lon="120.20931763574481">
        <time>2023-06-17T11:57:40.150000Z</time>
      </trkpt>
      <trkpt lat="35.95676521304995" lon="120.20943925715983">
        <time>2023-06-17T11:57:48.169000Z</time>
      </trkpt>
      <trkpt lat="35.95677711535245" lon="120.20955475978553">
        <time>2023-06-17T11:57:55.152000Z</time>
      </trkpt>
      <trkpt lat="35.95679920166731" lon="120.20966783165932">
        <time>2023-06-17T11:58:03.161000Z</time>
      </trkpt>
      <trkpt lat="35.95682313200086" lon="120.20978157408535">
        <time>2023-06-17T11:58:12.165000Z</time>
      </trkpt>
      <trkpt lat="35.95684949308634" lon="120.20989598706365">
        <time>2023-06-17T11:58:21.134000Z</time>
      </trkpt>
      <trkpt lat="35.95685523469001" lon="120.20994896069169">
        <time>2023-06-17T11:58:25.616000Z</time>
      </trkpt>
    </trkseg>
  </trk>
</gpx>