<?xml version="1.0" encoding="UTF-8"?>
<gpx xmlns="http://www.topografix.com/GPX/1/1" xmlns:gpxtpx="http://www.garmin.com/xmlschemas/TrackPointExtension/v1" xmlns:xsi="http://www.w3.org/2001/XMLSchema-instance" xsi:schemaLocation="http://www.topografix.com/GPX/1/1 http://www.topografix.com/GPX/1/1/gpx.xsd" version="1.1" creator="gpx.py -- https://github.com/tkrajina/gpxpy">
  <trk>
    <name>星期六 夜跑</name>
    <trkseg>
      <trkpt lat="35.95682212646889" lon="120.20990938333742">
        <ele>16.82278124243021</ele>
        <time>2025-05-24T13:12:18.001000Z</time>
      </trkpt>
      <trkpt lat="35.95681973702122" lon="120.20979708865167">
        <ele>18.025234839878976</ele>
        <time>2025-05-24T13:12:22.001000Z</time>
      </trkpt>
      <trkpt lat="35.95683327765284" lon="120.20967401245015">
        <ele>19.646206541918218</ele>
        <time>2025-05-24T13:12:27.001000Z</time>
      </trkpt>
      <trkpt lat="35.956802249506524" lon="120.20952811920904">
        <ele>13.129349642433226</ele>
        <time>2025-05-24T13:12:32Z</time>
      </trkpt>
      <trkpt lat="35.95680413015325" lon="120.20939290731886">
        <ele>13.370060544461012</ele>
        <time>2025-05-24T13:12:38Z</time>
      </trkpt>
      <trkpt lat="35.95677518416542" lon="120.2092765614786">
        <ele>13.650355711579323</ele>
        <time>2025-05-24T13:12:42Z</time>
      </trkpt>
      <trkpt lat="35.95674361697772" lon="120.20916904665718">
        <ele>13.519489034079015</ele>
        <time>2025-05-24T13:12:46Z</time>
      </trkpt>
      <trkpt lat="35.956726103834775" lon="120.20905840632237">
        <ele>13.330248444341123</ele>
        <time>2025-05-24T13:12:51Z</time>
      </trkpt>
      <trkpt lat="35.95670489999847" lon="120.20892990776704">
        <ele>14.133120725862682</ele>
        <time>2025-05-24T13:12:56Z</time>
      </trkpt>
      <trkpt lat="35.956693850652236" lon="120.20881854866302">
        <ele>13.335661690682173</ele>
        <time>2025-05-24T13:13:01Z</time>
      </trkpt>
      <trkpt lat="35.95667025575355" lon="120.20870280643659">
        <ele>14.172837171703577</ele>
        <time>2025-05-24T13:13:06Z</time>
      </trkpt>
      <trkpt lat="35.956653232345104" lon="120.20859326235285">
        <ele>15.50350079126656</ele>
        <time>2025-05-24T13:13:11Z</time>
      </trkpt>
      <trkpt lat="35.95663797432704" lon="120.20847966485954">
        <ele>16.32988762948662</ele>
        <time>2025-05-24T13:13:17Z</time>
      </trkpt>
      <trkpt lat="35.95661966224062" lon="120.20835215660959">
        <ele>17.47887682635337</ele>
        <time>2025-05-24T13:13:22Z</time>
      </trkpt>
      <trkpt lat="35.95661895577888" lon="120.20821964413956">
        <ele>18.198279063217342</ele>
        <time>2025-05-24T13:13:27Z</time>
      </trkpt>
      <trkpt lat="35.95659081976084" lon="120.20807561917744">
        <ele>18.274815876968205</ele>
        <time>2025-05-24T13:13:32Z</time>
      </trkpt>
      <trkpt lat="35.95657895490551" lon="120.20795730329978">
        <ele>17.148503083735704</ele>
        <time>2025-05-24T13:13:37Z</time>
      </trkpt>
      <trkpt lat="35.956550069880514" lon="120.2078245767513">
        <ele>16.915833819657564</ele>
        <time>2025-05-24T13:13:42Z</time>
      </trkpt>
      <trkpt lat="35.95654677331915" lon="120.2077027863994">
        <ele>18.500300974585116</ele>
        <time>2025-05-24T13:13:46Z</time>
      </trkpt>
      <trkpt lat="35.95656575968544" lon="120.20759385113061">
        <ele>16.877406287007034</ele>
        <time>2025-05-24T13:13:50Z</time>
      </trkpt>
      <trkpt lat="35.95650203433817" lon="120.20750016208622">
        <ele>16.21317597012967</ele>
        <time>2025-05-24T13:13:55Z</time>
      </trkpt>
      <trkpt lat="35.956400564347476" lon="120.20747373869129">
        <ele>14.522265794686973</ele>
        <time>2025-05-24T13:14:00Z</time>
      </trkpt>
      <trkpt lat="35.956311603817056" lon="120.20745583440608">
        <ele>15.098314553499222</ele>
        <time>2025-05-24T13:14:04Z</time>
      </trkpt>
      <trkpt lat="35.956213105557794" lon="120.20747513425486">
        <ele>14.20385989639908</ele>
        <time>2025-05-24T13:14:09Z</time>
      </trkpt>
      <trkpt lat="35.95610468385327" lon="120.20750293246678">
        <ele>16.05280222557485</ele>
        <time>2025-05-24T13:14:16Z</time>
      </trkpt>
      <trkpt lat="35.956016334941125" lon="120.20754142135611">
        <ele>12.718517920002341</ele>
        <time>2025-05-24T13:14:21Z</time>
      </trkpt>
      <trkpt lat="35.95590873531532" lon="120.20757055477509">
        <ele>12.856254027225077</ele>
        <time>2025-05-24T13:14:26Z</time>
      </trkpt>
      <trkpt lat="35.95581348317457" lon="120.2075784927063">
        <ele>10.722571126185358</ele>
        <time>2025-05-24T13:14:31Z</time>
      </trkpt>
      <trkpt lat="35.95572638068713" lon="120.20754812690447">
        <ele>10.234650573693216</ele>
        <time>2025-05-24T13:14:38Z</time>
      </trkpt>
      <trkpt lat="35.955726982058216" lon="120.20742483353236">
        <ele>9.858247248455882</ele>
        <time>2025-05-24T13:14:42Z</time>
      </trkpt>
      <trkpt lat="35.955721220222514" lon="120.20730679537354">
        <ele>10.938605399802327</ele>
        <time>2025-05-24T13:14:47Z</time>
      </trkpt>
      <trkpt lat="35.955728077518955" lon="120.20719534666111">
        <ele>11.84106651507318</ele>
        <time>2025-05-24T13:14:52Z</time>
      </trkpt>
      <trkpt lat="35.95571597699786" lon="120.20707603034376">
        <ele>12.947023317217827</ele>
        <time>2025-05-24T13:14:57Z</time>
      </trkpt>
      <trkpt lat="35.955710543532554" lon="120.20696157278044">
        <ele>12.961192776449025</ele>
        <time>2025-05-24T13:15:01Z</time>
      </trkpt>
      <trkpt lat="35.95570890542799" lon="120.20684157566369">
        <ele>13.166597189381719</ele>
        <time>2025-05-24T13:15:05Z</time>
      </trkpt>
      <trkpt lat="35.95571182980727" lon="120.2067235326384">
        <ele>13.023845133371651</ele>
        <time>2025-05-24T13:15:09Z</time>
      </trkpt>
      <trkpt lat="35.95569655482012" lon="120.20660327814338">
        <ele>12.760554518550634</ele>
        <time>2025-05-24T13:15:14Z</time>
      </trkpt>
      <trkpt lat="35.95568758177505" lon="120.20646964026302">
        <ele>13.2902324879542</ele>
        <time>2025-05-24T13:15:19Z</time>
      </trkpt>
      <trkpt lat="35.95564977392616" lon="120.20636795410344">
        <ele>12.774909546598792</ele>
        <time>2025-05-24T13:15:24Z</time>
      </trkpt>
      <trkpt lat="35.95561476629826" lon="120.20622863131565">
        <ele>13.294881253503263</ele>
        <time>2025-05-24T13:15:30Z</time>
      </trkpt>
      <trkpt lat="35.95558483724947" lon="120.20611028279568">
        <ele>12.331561419181526</ele>
        <time>2025-05-24T13:15:35Z</time>
      </trkpt>
      <trkpt lat="35.95557370913212" lon="120.20596466504584">
        <ele>14.074791497550905</ele>
        <time>2025-05-24T13:15:40Z</time>
      </trkpt>
      <trkpt lat="35.95553983684651" lon="120.20584643099858">
        <ele>13.627382724545896</ele>
        <time>2025-05-24T13:15:44Z</time>
      </trkpt>
      <trkpt lat="35.9555308478059" lon="120.205735755496">
        <ele>14.0969831738621</ele>
        <time>2025-05-24T13:15:47Z</time>
      </trkpt>
      <trkpt lat="35.955510975451155" lon="120.20561106693202">
        <ele>13.615090967155993</ele>
        <time>2025-05-24T13:15:52Z</time>
      </trkpt>
      <trkpt lat="35.95547197377026" lon="120.20550438639545">
        <ele>12.426198249682784</ele>
        <time>2025-05-24T13:15:56Z</time>
      </trkpt>
      <trkpt lat="35.95548029373109" lon="120.20538223370691">
        <ele>13.525495487265289</ele>
        <time>2025-05-24T13:16:06Z</time>
      </trkpt>
      <trkpt lat="35.95544124375131" lon="120.2052752458923">
        <ele>12.1450997851789</ele>
        <time>2025-05-24T13:16:12Z</time>
      </trkpt>
      <trkpt lat="35.955483527424576" lon="120.2051725687705">
        <ele>12.1961181294173</ele>
        <time>2025-05-24T13:16:15Z</time>
      </trkpt>
      <trkpt lat="35.95545804631838" lon="120.20505488964191">
        <ele>13.281212416477501</ele>
        <time>2025-05-24T13:16:20Z</time>
      </trkpt>
      <trkpt lat="35.95546602246726" lon="120.20493241576963">
        <ele>13.738505589775741</ele>
        <time>2025-05-24T13:16:25Z</time>
      </trkpt>
      <trkpt lat="35.95538484619376" lon="120.20483689882839">
        <ele>12.618719606660306</ele>
        <time>2025-05-24T13:16:30Z</time>
      </trkpt>
      <trkpt lat="35.955296151123385" lon="120.20476080312466">
        <ele>11.973578698001802</ele>
        <time>2025-05-24T13:16:34Z</time>
      </trkpt>
      <trkpt lat="35.955273956540715" lon="120.20463522607328">
        <ele>11.7129828594625</ele>
        <time>2025-05-24T13:16:37Z</time>
      </trkpt>
      <trkpt lat="35.955254274496525" lon="120.20450877055761">
        <ele>11.903767426498234</ele>
        <time>2025-05-24T13:16:41Z</time>
      </trkpt>
      <trkpt lat="35.95516679500607" lon="120.20442986283985">
        <ele>10.717700779438019</ele>
        <time>2025-05-24T13:16:45Z</time>
      </trkpt>
      <trkpt lat="35.95509434820944" lon="120.2043507354752">
        <ele>9.859808004461229</ele>
        <time>2025-05-24T13:16:50Z</time>
      </trkpt>
      <trkpt lat="35.955050816153204" lon="120.20422295888406">
        <ele>9.305042777210474</ele>
        <time>2025-05-24T13:16:55Z</time>
      </trkpt>
      <trkpt lat="35.95500748437871" lon="120.20411485912038">
        <ele>9.083503711037338</ele>
        <time>2025-05-24T13:16:59Z</time>
      </trkpt>
      <trkpt lat="35.95493352781535" lon="120.20403429496874">
        <ele>9.102243364788592</ele>
        <time>2025-05-24T13:17:04Z</time>
      </trkpt>
      <trkpt lat="35.95484310658293" lon="120.20401475738312">
        <ele>9.81209441833198</ele>
        <time>2025-05-24T13:17:09Z</time>
      </trkpt>
      <trkpt lat="35.954753095032565" lon="120.20400112284534">
        <ele>8.776488650590181</ele>
        <time>2025-05-24T13:17:13Z</time>
      </trkpt>
      <trkpt lat="35.95464629587709" lon="120.20402657665349">
        <ele>8.76234062667936</ele>
        <time>2025-05-24T13:17:17Z</time>
      </trkpt>
      <trkpt lat="35.95453855222957" lon="120.20403768624894">
        <ele>8.876476028934121</ele>
        <time>2025-05-24T13:17:21Z</time>
      </trkpt>
      <trkpt lat="35.95444427278473" lon="120.2040489202907">
        <ele>8.622117498889565</ele>
        <time>2025-05-24T13:17:25Z</time>
      </trkpt>
      <trkpt lat="35.95433967902542" lon="120.20405740091013">
        <ele>7.090317421592772</ele>
        <time>2025-05-24T13:17:30Z</time>
      </trkpt>
      <trkpt lat="35.95422930328102" lon="120.20407142975263">
        <ele>7.249619843438268</ele>
        <time>2025-05-24T13:17:35Z</time>
      </trkpt>
      <trkpt lat="35.954136363431836" lon="120.2040873894674">
        <ele>6.320813114754856</ele>
        <time>2025-05-24T13:17:39Z</time>
      </trkpt>
      <trkpt lat="35.95404449548964" lon="120.20407656676458">
        <ele>7.063486631959677</ele>
        <time>2025-05-24T13:17:43Z</time>
      </trkpt>
      <trkpt lat="35.953952887873584" lon="120.2040879000964">
        <ele>6.3157864874228835</ele>
        <time>2025-05-24T13:17:47Z</time>
      </trkpt>
      <trkpt lat="35.95384168404654" lon="120.20409601717792">
        <ele>7.243405154906213</ele>
        <time>2025-05-24T13:17:52Z</time>
      </trkpt>
      <trkpt lat="35.95375096639993" lon="120.20409536598375">
        <ele>6.549030563794076</ele>
        <time>2025-05-24T13:17:57Z</time>
      </trkpt>
      <trkpt lat="35.953648523322954" lon="120.20410629801098">
        <ele>6.132211713120341</ele>
        <time>2025-05-24T13:18:03Z</time>
      </trkpt>
      <trkpt lat="35.95355030913814" lon="120.20413243055597">
        <ele>6.839220295660198</ele>
        <time>2025-05-24T13:18:10Z</time>
      </trkpt>
      <trkpt lat="35.95345957424186" lon="120.20414507615976">
        <ele>7.219473959878087</ele>
        <time>2025-05-24T13:18:15Z</time>
      </trkpt>
      <trkpt lat="35.95336097683624" lon="120.20414936112564">
        <ele>5.4741263668984175</ele>
        <time>2025-05-24T13:18:21Z</time>
      </trkpt>
      <trkpt lat="35.95324203191486" lon="120.20417313772491">
        <ele>4.155976821668446</ele>
        <time>2025-05-24T13:18:27Z</time>
      </trkpt>
      <trkpt lat="35.95313940185004" lon="120.2041925242855">
        <ele>5.355431541800499</ele>
        <time>2025-05-24T13:18:32Z</time>
      </trkpt>
      <trkpt lat="35.9530484974589" lon="120.20421100405838">
        <ele>4.823767418973148</ele>
        <time>2025-05-24T13:18:36Z</time>
      </trkpt>
      <trkpt lat="35.95295866975631" lon="120.20423825231747">
        <ele>5.097973397001624</ele>
        <time>2025-05-24T13:18:40Z</time>
      </trkpt>
      <trkpt lat="35.95285746240805" lon="120.2042604633902">
        <ele>4.5298133827745914</ele>
        <time>2025-05-24T13:18:45Z</time>
      </trkpt>
      <trkpt lat="35.95275596114216" lon="120.20427101650132">
        <ele>4.533026932738721</ele>
        <time>2025-05-24T13:18:51Z</time>
      </trkpt>
      <trkpt lat="35.95266228826388" lon="120.20426166770699">
        <ele>5.580402407795191</ele>
        <time>2025-05-24T13:18:57Z</time>
      </trkpt>
      <trkpt lat="35.95257799727388" lon="120.20430539759577">
        <ele>4.2308947229757905</ele>
        <time>2025-05-24T13:19:01Z</time>
      </trkpt>
      <trkpt lat="35.952488429740164" lon="120.2043314963939">
        <ele>4.167739585042</ele>
        <time>2025-05-24T13:19:05Z</time>
      </trkpt>
      <trkpt lat="35.95239529284584" lon="120.20432857335658">
        <ele>4.17791048809886</ele>
        <time>2025-05-24T13:19:09Z</time>
      </trkpt>
      <trkpt lat="35.9522853069065" lon="120.20434545357395">
        <ele>3.897705702111125</ele>
        <time>2025-05-24T13:19:14Z</time>
      </trkpt>
      <trkpt lat="35.95218935331148" lon="120.20437738903401">
        <ele>1.7477934015914798</ele>
        <time>2025-05-24T13:19:19Z</time>
      </trkpt>
      <trkpt lat="35.95209518530114" lon="120.204393188986">
        <ele>3.7443779706954956</ele>
        <time>2025-05-24T13:19:23Z</time>
      </trkpt>
      <trkpt lat="35.952001942314055" lon="120.20442093994454">
        <ele>2.7549851816147566</ele>
        <time>2025-05-24T13:19:27Z</time>
      </trkpt>
      <trkpt lat="35.9519035729078" lon="120.20443034943018">
        <ele>5.5418807454407215</ele>
        <time>2025-05-24T13:19:32Z</time>
      </trkpt>
      <trkpt lat="35.95181132149692" lon="120.20441922566691">
        <ele>6.808267660439014</ele>
        <time>2025-05-24T13:19:38Z</time>
      </trkpt>
      <trkpt lat="35.95172160137243" lon="120.20444959066563">
        <ele>7.028995351865888</ele>
        <time>2025-05-24T13:19:43Z</time>
      </trkpt>
      <trkpt lat="35.95162017174644" lon="120.20445910548399">
        <ele>6.22719594091177</ele>
        <time>2025-05-24T13:19:48Z</time>
      </trkpt>
      <trkpt lat="35.95150899608871" lon="120.20446368091326">
        <ele>6.409655817784369</ele>
        <time>2025-05-24T13:19:53Z</time>
      </trkpt>
      <trkpt lat="35.95140858101317" lon="120.20447226349529">
        <ele>5.65966019872576</ele>
        <time>2025-05-24T13:19:58Z</time>
      </trkpt>
      <trkpt lat="35.95130680716149" lon="120.20448820470997">
        <ele>6.751088686287403</ele>
        <time>2025-05-24T13:20:02Z</time>
      </trkpt>
      <trkpt lat="35.95119650892307" lon="120.20450459688973">
        <ele>7.833128699101508</ele>
        <time>2025-05-24T13:20:07Z</time>
      </trkpt>
      <trkpt lat="35.951088763309436" lon="120.20454409571191">
        <ele>7.706120390444994</ele>
        <time>2025-05-24T13:20:12Z</time>
      </trkpt>
      <trkpt lat="35.950996202323935" lon="120.20457380432411">
        <ele>8.857297867536545</ele>
        <time>2025-05-24T13:20:16Z</time>
      </trkpt>
      <trkpt lat="35.950917004394775" lon="120.20463183024631">
        <ele>7.922111793421209</ele>
        <time>2025-05-24T13:20:20Z</time>
      </trkpt>
      <trkpt lat="35.95085414867005" lon="120.20471459963882">
        <ele>6.976661165244877</ele>
        <time>2025-05-24T13:20:24Z</time>
      </trkpt>
      <trkpt lat="35.95078559025447" lon="120.20479471937625">
        <ele>6.067125559784472</ele>
        <time>2025-05-24T13:20:29Z</time>
      </trkpt>
      <trkpt lat="35.9506958458142" lon="120.2048222591238">
        <ele>6.684355910867453</ele>
        <time>2025-05-24T13:20:32Z</time>
      </trkpt>
      <trkpt lat="35.95059120954101" lon="120.20487362094502">
        <ele>6.613621751777828</ele>
        <time>2025-05-24T13:20:36Z</time>
      </trkpt>
      <trkpt lat="35.950543925670075" lon="120.20497743638693">
        <ele>6.408711485564709</ele>
        <time>2025-05-24T13:20:41Z</time>
      </trkpt>
      <trkpt lat="35.9505640847486" lon="120.20508990279353">
        <ele>7.058079810813069</ele>
        <time>2025-05-24T13:20:47Z</time>
      </trkpt>
      <trkpt lat="35.95050039418349" lon="120.20517172526314">
        <ele>8.201793543994427</ele>
        <time>2025-05-24T13:20:54Z</time>
      </trkpt>
      <trkpt lat="35.95040167932242" lon="120.20518756885842">
        <ele>6.768855033442378</ele>
        <time>2025-05-24T13:20:59Z</time>
      </trkpt>
      <trkpt lat="35.95029618783345" lon="120.20522641295219">
        <ele>5.597169269807637</ele>
        <time>2025-05-24T13:21:04Z</time>
      </trkpt>
      <trkpt lat="35.950202103664196" lon="120.2052713074569">
        <ele>6.096312654204667</ele>
        <time>2025-05-24T13:21:09Z</time>
      </trkpt>
      <trkpt lat="35.95011095116869" lon="120.20529822071629">
        <ele>7.1950418427586555</ele>
        <time>2025-05-24T13:21:15Z</time>
      </trkpt>
      <trkpt lat="35.9500141268677" lon="120.20531945939743">
        <ele>8.266551176086068</ele>
        <time>2025-05-24T13:21:21Z</time>
      </trkpt>
      <trkpt lat="35.949945548703624" lon="120.20541569635206">
        <ele>7.807822889648378</ele>
        <time>2025-05-24T13:21:28Z</time>
      </trkpt>
      <trkpt lat="35.949919818428114" lon="120.2055333526973">
        <ele>6.745827487669885</ele>
        <time>2025-05-24T13:21:33Z</time>
      </trkpt>
      <trkpt lat="35.9498894694884" lon="120.20563921419993">
        <ele>6.6789485877379775</ele>
        <time>2025-05-24T13:21:37Z</time>
      </trkpt>
      <trkpt lat="35.949843773218525" lon="120.20573589621533">
        <ele>6.725853055715561</ele>
        <time>2025-05-24T13:21:41Z</time>
      </trkpt>
      <trkpt lat="35.94979615744083" lon="120.20583076029432">
        <ele>7.406105445697904</ele>
        <time>2025-05-24T13:21:46Z</time>
      </trkpt>
      <trkpt lat="35.949735254001915" lon="120.20592948833564">
        <ele>7.614456549286842</ele>
        <time>2025-05-24T13:21:53Z</time>
      </trkpt>
      <trkpt lat="35.949641336801456" lon="120.20591523924622">
        <ele>9.958562426269054</ele>
        <time>2025-05-24T13:22:04Z</time>
      </trkpt>
      <trkpt lat="35.9495524153006" lon="120.20584447844736">
        <ele>8.086599068716168</ele>
        <time>2025-05-24T13:22:11Z</time>
      </trkpt>
      <trkpt lat="35.94947339153956" lon="120.20577010363608">
        <ele>7.38494473323226</ele>
        <time>2025-05-24T13:22:16Z</time>
      </trkpt>
      <trkpt lat="35.94940317740993" lon="120.2056765159963">
        <ele>6.8761999839916825</ele>
        <time>2025-05-24T13:22:21Z</time>
      </trkpt>
      <trkpt lat="35.94932834362579" lon="120.20559855235462">
        <ele>6.648752533830702</ele>
        <time>2025-05-24T13:22:25Z</time>
      </trkpt>
      <trkpt lat="35.94926200728391" lon="120.2055234459039">
        <ele>6.363267235457897</ele>
        <time>2025-05-24T13:22:29Z</time>
      </trkpt>
      <trkpt lat="35.94917881132699" lon="120.20543851118522">
        <ele>7.020884200930595</ele>
        <time>2025-05-24T13:22:34Z</time>
      </trkpt>
      <trkpt lat="35.9491072959061" lon="120.20536333114848">
        <ele>6.560529985465109</ele>
        <time>2025-05-24T13:22:38Z</time>
      </trkpt>
      <trkpt lat="35.949035808532514" lon="120.20528742401775">
        <ele>7.160291436128318</ele>
        <time>2025-05-24T13:22:42Z</time>
      </trkpt>
      <trkpt lat="35.948964370256945" lon="120.20521311316226">
        <ele>5.812434596940875</ele>
        <time>2025-05-24T13:22:46Z</time>
      </trkpt>
      <trkpt lat="35.948888717658676" lon="120.2051422429499">
        <ele>7.227734195999801</ele>
        <time>2025-05-24T13:22:50Z</time>
      </trkpt>
      <trkpt lat="35.948802812467605" lon="120.20504906944954">
        <ele>5.6418961538001895</ele>
        <time>2025-05-24T13:22:55Z</time>
      </trkpt>
      <trkpt lat="35.94873077792007" lon="120.20495491713528">
        <ele>5.162741308100522</ele>
        <time>2025-05-24T13:23:00Z</time>
      </trkpt>
      <trkpt lat="35.948665167233145" lon="120.20487684568134">
        <ele>5.819635779596865</ele>
        <time>2025-05-24T13:23:04Z</time>
      </trkpt>
      <trkpt lat="35.94859353416292" lon="120.20477871330867">
        <ele>4.9341491693630815</ele>
        <time>2025-05-24T13:23:10Z</time>
      </trkpt>
      <trkpt lat="35.948524950635324" lon="120.20470498057541">
        <ele>5.79510157648474</ele>
        <time>2025-05-24T13:23:18Z</time>
      </trkpt>
      <trkpt lat="35.94845042894302" lon="120.20463118019627">
        <ele>5.925141245126724</ele>
        <time>2025-05-24T13:23:22Z</time>
      </trkpt>
      <trkpt lat="35.94837444859459" lon="120.2045653092546">
        <ele>5.201701889745891</ele>
        <time>2025-05-24T13:23:26Z</time>
      </trkpt>
      <trkpt lat="35.94830191242339" lon="120.20449240958311">
        <ele>4.456222106702626</ele>
        <time>2025-05-24T13:23:33Z</time>
      </trkpt>
      <trkpt lat="35.948223478647" lon="120.20443627741204">
        <ele>4.08687056414783</ele>
        <time>2025-05-24T13:23:39Z</time>
      </trkpt>
      <trkpt lat="35.94814203543413" lon="120.20436930527926">
        <ele>4.671718497760594</ele>
        <time>2025-05-24T13:23:46Z</time>
      </trkpt>
      <trkpt lat="35.948059456098306" lon="120.20430960542716">
        <ele>3.9564326480031013</ele>
        <time>2025-05-24T13:23:52Z</time>
      </trkpt>
      <trkpt lat="35.947972871386796" lon="120.20423933025742">
        <ele>4.333805521018803</ele>
        <time>2025-05-24T13:23:59Z</time>
      </trkpt>
      <trkpt lat="35.9478819959202" lon="120.20419742058303">
        <ele>5.237415751442313</ele>
        <time>2025-05-24T13:24:06Z</time>
      </trkpt>
      <trkpt lat="35.947861685499085" lon="120.20431198535645">
        <ele>4.595680663362145</ele>
        <time>2025-05-24T13:24:11Z</time>
      </trkpt>
      <trkpt lat="35.94787602230734" lon="120.2044344020369">
        <ele>3.4019762938842177</ele>
        <time>2025-05-24T13:24:16Z</time>
      </trkpt>
      <trkpt lat="35.94786653281935" lon="120.2045694102835">
        <ele>3.242384497076273</ele>
        <time>2025-05-24T13:24:21Z</time>
      </trkpt>
      <trkpt lat="35.94785074996016" lon="120.20481217660625">
        <ele>3.600917302072048</ele>
        <time>2025-05-24T13:25:08Z</time>
      </trkpt>
      <trkpt lat="35.94784472972882" lon="120.20493981433461">
        <ele>3.731945180334151</ele>
        <time>2025-05-24T13:25:16Z</time>
      </trkpt>
      <trkpt lat="35.947796545557445" lon="120.20505485847332">
        <ele>3.142549959011376</ele>
        <time>2025-05-24T13:25:22Z</time>
      </trkpt>
      <trkpt lat="35.94775522946205" lon="120.20516264473203">
        <ele>2.55739938095212</ele>
        <time>2025-05-24T13:25:27Z</time>
      </trkpt>
      <trkpt lat="35.94762136217699" lon="120.20549070151216">
        <ele>3.011934387497604</ele>
        <time>2025-05-24T13:25:57Z</time>
      </trkpt>
      <trkpt lat="35.94759287861231" lon="120.20560131710141">
        <ele>3.208725342527032</ele>
        <time>2025-05-24T13:26:01Z</time>
      </trkpt>
      <trkpt lat="35.9475479425284" lon="120.20570044688355">
        <ele>3.2774260649457574</ele>
        <time>2025-05-24T13:26:05Z</time>
      </trkpt>
      <trkpt lat="35.947496641942735" lon="120.20580124609174">
        <ele>2.9316348331049085</ele>
        <time>2025-05-24T13:26:09Z</time>
      </trkpt>
      <trkpt lat="35.94745848633784" lon="120.20592432547882">
        <ele>2.952633213251829</ele>
        <time>2025-05-24T13:26:14Z</time>
      </trkpt>
      <trkpt lat="35.947410751062606" lon="120.20602765979089">
        <ele>2.548773896880448</ele>
        <time>2025-05-24T13:26:18Z</time>
      </trkpt>
      <trkpt lat="35.94736330063256" lon="120.2061447210189">
        <ele>2.782926281914115</ele>
        <time>2025-05-24T13:26:23Z</time>
      </trkpt>
      <trkpt lat="35.94728028824214" lon="120.206351165547">
        <ele>2.3910003136843443</ele>
        <time>2025-05-24T13:27:14Z</time>
      </trkpt>
      <trkpt lat="35.94723713539841" lon="120.20645138151274">
        <ele>3.344564240425825</ele>
        <time>2025-05-24T13:27:17Z</time>
      </trkpt>
      <trkpt lat="35.94718863151882" lon="120.20657802697966">
        <ele>2.853433328680694</ele>
        <time>2025-05-24T13:27:22Z</time>
      </trkpt>
      <trkpt lat="35.947148895103474" lon="120.2066876794201">
        <ele>3.7620544182136655</ele>
        <time>2025-05-24T13:27:26Z</time>
      </trkpt>
      <trkpt lat="35.947107896259865" lon="120.20679161918142">
        <ele>3.279654026031494</ele>
        <time>2025-05-24T13:27:30Z</time>
      </trkpt>
      <trkpt lat="35.947074087473425" lon="120.20689682281025">
        <ele>3.554373247548938</ele>
        <time>2025-05-24T13:27:34Z</time>
      </trkpt>
      <trkpt lat="35.94702729706569" lon="120.20701504860723">
        <ele>3.8300845408812165</ele>
        <time>2025-05-24T13:27:38Z</time>
      </trkpt>
      <trkpt lat="35.94697793729223" lon="120.2071258866381">
        <ele>3.494577929377556</ele>
        <time>2025-05-24T13:27:42Z</time>
      </trkpt>
      <trkpt lat="35.94694101205421" lon="120.20724138963232">
        <ele>3.7716785250231624</ele>
        <time>2025-05-24T13:27:46Z</time>
      </trkpt>
      <trkpt lat="35.94694375114708" lon="120.20736036574974">
        <ele>3.6859827805310488</ele>
        <time>2025-05-24T13:27:50Z</time>
      </trkpt>
      <trkpt lat="35.94695652702853" lon="120.20747824097442">
        <ele>2.8506883084774017</ele>
        <time>2025-05-24T13:27:54Z</time>
      </trkpt>
      <trkpt lat="35.946961321389395" lon="120.20759181288575">
        <ele>2.337990644387901</ele>
        <time>2025-05-24T13:27:58Z</time>
      </trkpt>
      <trkpt lat="35.946967404001924" lon="120.20771214140466">
        <ele>3.4120375383645296</ele>
        <time>2025-05-24T13:28:02Z</time>
      </trkpt>
      <trkpt lat="35.946965981696664" lon="120.20784787782821">
        <ele>4.408694756217301</ele>
        <time>2025-05-24T13:28:07Z</time>
      </trkpt>
      <trkpt lat="35.9469848777695" lon="120.20796849042452">
        <ele>4.589778118766844</ele>
        <time>2025-05-24T13:28:11Z</time>
      </trkpt>
      <trkpt lat="35.9469841446422" lon="120.20807950693789">
        <ele>4.33227960485965</ele>
        <time>2025-05-24T13:28:16Z</time>
      </trkpt>
      <trkpt lat="35.94698425869141" lon="120.20819155926357">
        <ele>5.012443613260984</ele>
        <time>2025-05-24T13:28:22Z</time>
      </trkpt>
      <trkpt lat="35.94700378809998" lon="120.20831462177512">
        <ele>3.4481073394417763</ele>
        <time>2025-05-24T13:28:27Z</time>
      </trkpt>
      <trkpt lat="35.94702479884228" lon="120.20844865298297">
        <ele>3.1172341043129563</ele>
        <time>2025-05-24T13:28:32Z</time>
      </trkpt>
      <trkpt lat="35.94702985463475" lon="120.20855952020229">
        <ele>2.5906397718936205</ele>
        <time>2025-05-24T13:28:37Z</time>
      </trkpt>
      <trkpt lat="35.946935586410305" lon="120.20856953025073">
        <ele>2.2185358786955476</ele>
        <time>2025-05-24T13:28:41Z</time>
      </trkpt>
      <trkpt lat="35.946822297205586" lon="120.20858282289205">
        <ele>2.813039179891348</ele>
        <time>2025-05-24T13:28:46Z</time>
      </trkpt>
      <trkpt lat="35.94671825929116" lon="120.20859816856935">
        <ele>2.8522053072229028</ele>
        <time>2025-05-24T13:28:51Z</time>
      </trkpt>
      <trkpt lat="35.946613743073435" lon="120.20861073801525">
        <ele>1.8583083041012287</ele>
        <time>2025-05-24T13:28:56Z</time>
      </trkpt>
      <trkpt lat="35.9465225346488" lon="120.20862130821475">
        <ele>2.2115567978471518</ele>
        <time>2025-05-24T13:29:00Z</time>
      </trkpt>
      <trkpt lat="35.94642692543142" lon="120.20864300743591">
        <ele>2.6704624285921454</ele>
        <time>2025-05-24T13:29:04Z</time>
      </trkpt>
      <trkpt lat="35.94633025571446" lon="120.20864070109253">
        <ele>3.4431468015536666</ele>
        <time>2025-05-24T13:29:10Z</time>
      </trkpt>
      <trkpt lat="35.946237918505126" lon="120.20864751023569">
        <ele>3.9426016807556152</ele>
        <time>2025-05-24T13:29:15Z</time>
      </trkpt>
      <trkpt lat="35.94614262167823" lon="120.2086590558427">
        <ele>2.6210989225655794</ele>
        <time>2025-05-24T13:29:21Z</time>
      </trkpt>
      <trkpt lat="35.946042598009186" lon="120.20867622789876">
        <ele>1.6977673480287194</ele>
        <time>2025-05-24T13:29:26Z</time>
      </trkpt>
      <trkpt lat="35.94593310491128" lon="120.20869405778257">
        <ele>1.6272585522383451</ele>
        <time>2025-05-24T13:29:31Z</time>
      </trkpt>
      <trkpt lat="35.94584015357479" lon="120.20869853959886">
        <ele>2.253585070371628</ele>
        <time>2025-05-24T13:29:35Z</time>
      </trkpt>
      <trkpt lat="35.94573288247656" lon="120.20873513016019">
        <ele>2.2491661217063665</ele>
        <time>2025-05-24T13:29:40Z</time>
      </trkpt>
      <trkpt lat="35.94563755615607" lon="120.20874517279303">
        <ele>2.961653414182365</ele>
        <time>2025-05-24T13:29:44Z</time>
      </trkpt>
      <trkpt lat="35.9455340274837" lon="120.20875406187211">
        <ele>1.633054736070335</ele>
        <time>2025-05-24T13:29:49Z</time>
      </trkpt>
      <trkpt lat="35.94543110496561" lon="120.20874994890953">
        <ele>2.3336007930338383</ele>
        <time>2025-05-24T13:29:53Z</time>
      </trkpt>
      <trkpt lat="35.945328564391616" lon="120.20876093420172">
        <ele>3.090094684623182</ele>
        <time>2025-05-24T13:29:58Z</time>
      </trkpt>
      <trkpt lat="35.94522456299352" lon="120.20877419629329">
        <ele>3.4619916286319494</ele>
        <time>2025-05-24T13:30:03Z</time>
      </trkpt>
      <trkpt lat="35.945133852974706" lon="120.20878067645224">
        <ele>3.242840079590678</ele>
        <time>2025-05-24T13:30:07Z</time>
      </trkpt>
      <trkpt lat="35.945033400449255" lon="120.20879537036187">
        <ele>3.3474841602146626</ele>
        <time>2025-05-24T13:30:12Z</time>
      </trkpt>
      <trkpt lat="35.94494278411845" lon="120.20880555093389">
        <ele>2.513974883593619</ele>
        <time>2025-05-24T13:30:19Z</time>
      </trkpt>
      <trkpt lat="35.9448523581379" lon="120.20880051041202">
        <ele>4.679433557204902</ele>
        <time>2025-05-24T13:30:25Z</time>
      </trkpt>
      <trkpt lat="35.94475775213642" lon="120.20881756704983">
        <ele>3.194880844093859</ele>
        <time>2025-05-24T13:30:33Z</time>
      </trkpt>
      <trkpt lat="35.944663023753684" lon="120.20884988418291">
        <ele>2.5509250396862626</ele>
        <time>2025-05-24T13:30:38Z</time>
      </trkpt>
      <trkpt lat="35.94455842196873" lon="120.20888320663053">
        <ele>2.1463294187560678</ele>
        <time>2025-05-24T13:30:43Z</time>
      </trkpt>
      <trkpt lat="35.94446459925615" lon="120.20889648685818">
        <ele>2.3855719612911344</ele>
        <time>2025-05-24T13:30:47Z</time>
      </trkpt>
      <trkpt lat="35.94437176147603" lon="120.20890886555578">
        <ele>3.001982394605875</ele>
        <time>2025-05-24T13:30:51Z</time>
      </trkpt>
      <trkpt lat="35.94425947032709" lon="120.20889837179628">
        <ele>2.7842491222545505</ele>
        <time>2025-05-24T13:30:56Z</time>
      </trkpt>
      <trkpt lat="35.9441547287003" lon="120.20886670629427">
        <ele>2.3108291951939464</ele>
        <time>2025-05-24T13:31:01Z</time>
      </trkpt>
      <trkpt lat="35.94406557911344" lon="120.20883073984886">
        <ele>2.50039429590106</ele>
        <time>2025-05-24T13:31:05Z</time>
      </trkpt>
      <trkpt lat="35.94397397814587" lon="120.20878743767561">
        <ele>3.0588544020429254</ele>
        <time>2025-05-24T13:31:09Z</time>
      </trkpt>
      <trkpt lat="35.94388569795317" lon="120.20876268128771">
        <ele>2.9107377296313643</ele>
        <time>2025-05-24T13:31:13Z</time>
      </trkpt>
      <trkpt lat="35.943779760760144" lon="120.20875050616146">
        <ele>1.805516473017633</ele>
        <time>2025-05-24T13:31:18Z</time>
      </trkpt>
      <trkpt lat="35.943693411674005" lon="120.20878471232822">
        <ele>2.0576002215966582</ele>
        <time>2025-05-24T13:31:22Z</time>
      </trkpt>
      <trkpt lat="35.943605144343486" lon="120.20880992985983">
        <ele>1.599572516977787</ele>
        <time>2025-05-24T13:31:26Z</time>
      </trkpt>
      <trkpt lat="35.94350351772606" lon="120.20884243440892">
        <ele>3.1663980865851045</ele>
        <time>2025-05-24T13:31:30Z</time>
      </trkpt>
      <trkpt lat="35.943414705747756" lon="120.2088943531192">
        <ele>2.264402604661882</ele>
        <time>2025-05-24T13:31:34Z</time>
      </trkpt>
      <trkpt lat="35.943321085003255" lon="120.20893707740099">
        <ele>2.1533953454345465</ele>
        <time>2025-05-24T13:31:41Z</time>
      </trkpt>
      <trkpt lat="35.94322070739823" lon="120.2089507635736">
        <ele>3.9628175273537636</ele>
        <time>2025-05-24T13:31:48Z</time>
      </trkpt>
      <trkpt lat="35.94311940479362" lon="120.20896690069503">
        <ele>3.451867915689945</ele>
        <time>2025-05-24T13:31:53Z</time>
      </trkpt>
      <trkpt lat="35.94302538439581" lon="120.20897921376759">
        <ele>3.8337885290384293</ele>
        <time>2025-05-24T13:31:58Z</time>
      </trkpt>
      <trkpt lat="35.94292633330041" lon="120.2089948213399">
        <ele>4.266833775676787</ele>
        <time>2025-05-24T13:32:02Z</time>
      </trkpt>
      <trkpt lat="35.94283125653929" lon="120.20899980544317">
        <ele>4.295300515368581</ele>
        <time>2025-05-24T13:32:06Z</time>
      </trkpt>
      <trkpt lat="35.942744435820075" lon="120.2090324555584">
        <ele>4.011182867921889</ele>
        <time>2025-05-24T13:32:10Z</time>
      </trkpt>
      <trkpt lat="35.942652011412974" lon="120.2090462642331">
        <ele>4.307090811431408</ele>
        <time>2025-05-24T13:32:14Z</time>
      </trkpt>
      <trkpt lat="35.94255585840259" lon="120.20910164762641">
        <ele>3.2518784273415804</ele>
        <time>2025-05-24T13:32:19Z</time>
      </trkpt>
      <trkpt lat="35.942461275167226" lon="120.20914181725871">
        <ele>4.777004109695554</ele>
        <time>2025-05-24T13:32:25Z</time>
      </trkpt>
      <trkpt lat="35.94238005141997" lon="120.20920930007686">
        <ele>4.111578021198511</ele>
        <time>2025-05-24T13:32:32Z</time>
      </trkpt>
      <trkpt lat="35.94228336410423" lon="120.2092348141462">
        <ele>5.109195709228516</ele>
        <time>2025-05-24T13:32:39Z</time>
      </trkpt>
      <trkpt lat="35.94219061980622" lon="120.20927518866688">
        <ele>4.87658990547061</ele>
        <time>2025-05-24T13:32:46Z</time>
      </trkpt>
      <trkpt lat="35.94210199444323" lon="120.209298414964">
        <ele>5.35367594845593</ele>
        <time>2025-05-24T13:32:52Z</time>
      </trkpt>
      <trkpt lat="35.94200621858219" lon="120.20932350650659">
        <ele>4.885330553166568</ele>
        <time>2025-05-24T13:32:57Z</time>
      </trkpt>
      <trkpt lat="35.94180975093295" lon="120.20934091574331">
        <ele>4.768945105373859</ele>
        <time>2025-05-24T13:33:27Z</time>
      </trkpt>
      <trkpt lat="35.94173140365357" lon="120.20941130876389">
        <ele>5.544275644235313</ele>
        <time>2025-05-24T13:33:33Z</time>
      </trkpt>
      <trkpt lat="35.94173705226231" lon="120.20952682219838">
        <ele>5.883955834433436</ele>
        <time>2025-05-24T13:33:37Z</time>
      </trkpt>
      <trkpt lat="35.94176605110187" lon="120.20965379806664">
        <ele>6.158103340305388</ele>
        <time>2025-05-24T13:33:42Z</time>
      </trkpt>
      <trkpt lat="35.9418197358022" lon="120.20975283210619">
        <ele>6.005767302587628</ele>
        <time>2025-05-24T13:33:47Z</time>
      </trkpt>
      <trkpt lat="35.94187250586163" lon="120.209844126784">
        <ele>6.987977505661547</ele>
        <time>2025-05-24T13:33:55Z</time>
      </trkpt>
      <trkpt lat="35.94192184023832" lon="120.20995444664482">
        <ele>6.242234890349209</ele>
        <time>2025-05-24T13:34:02Z</time>
      </trkpt>
      <trkpt lat="35.9419722347693" lon="120.21004746654336">
        <ele>7.15420288592577</ele>
        <time>2025-05-24T13:34:07Z</time>
      </trkpt>
      <trkpt lat="35.942032377701686" lon="120.21013672906942">
        <ele>7.106945035047829</ele>
        <time>2025-05-24T13:34:11Z</time>
      </trkpt>
      <trkpt lat="35.94208787909564" lon="120.21024564478923">
        <ele>8.482153589837253</ele>
        <time>2025-05-24T13:34:15Z</time>
      </trkpt>
      <trkpt lat="35.942143305277966" lon="120.2103382435357">
        <ele>6.303891474381089</ele>
        <time>2025-05-24T13:34:20Z</time>
      </trkpt>
      <trkpt lat="35.942205482667696" lon="120.21044911273451">
        <ele>7.643581352196634</ele>
        <time>2025-05-24T13:34:24Z</time>
      </trkpt>
      <trkpt lat="35.94226589710896" lon="120.21054286555814">
        <ele>7.871006661094725</ele>
        <time>2025-05-24T13:34:28Z</time>
      </trkpt>
      <trkpt lat="35.94231892057976" lon="120.21063364410595">
        <ele>7.432937159202993</ele>
        <time>2025-05-24T13:34:32Z</time>
      </trkpt>
      <trkpt lat="35.94238141251635" lon="120.21073282089459">
        <ele>7.87516319565475</ele>
        <time>2025-05-24T13:34:37Z</time>
      </trkpt>
      <trkpt lat="35.94243430271113" lon="120.21083312168653">
        <ele>7.472057274542749</ele>
        <time>2025-05-24T13:34:41Z</time>
      </trkpt>
      <trkpt lat="35.94250087687964" lon="120.21095015682613">
        <ele>8.182408067397773</ele>
        <time>2025-05-24T13:34:46Z</time>
      </trkpt>
      <trkpt lat="35.94255737112941" lon="120.21104657208417">
        <ele>9.273248163051903</ele>
        <time>2025-05-24T13:34:50Z</time>
      </trkpt>
      <trkpt lat="35.942598453167264" lon="120.21115944952062">
        <ele>7.970126993954182</ele>
        <time>2025-05-24T13:34:56Z</time>
      </trkpt>
      <trkpt lat="35.9426628395726" lon="120.21124065473812">
        <ele>7.9021591525524855</ele>
        <time>2025-05-24T13:35:03Z</time>
      </trkpt>
      <trkpt lat="35.94270489750461" lon="120.21134793298097">
        <ele>8.14810092560947</ele>
        <time>2025-05-24T13:35:11Z</time>
      </trkpt>
      <trkpt lat="35.94277799514025" lon="120.21141788450807">
        <ele>10.257049134001136</ele>
        <time>2025-05-24T13:35:17Z</time>
      </trkpt>
      <trkpt lat="35.942832785537504" lon="120.21151450834599">
        <ele>9.321019905619323</ele>
        <time>2025-05-24T13:35:23Z</time>
      </trkpt>
      <trkpt lat="35.94288960157013" lon="120.21162279348445">
        <ele>6.944463552907109</ele>
        <time>2025-05-24T13:35:29Z</time>
      </trkpt>
      <trkpt lat="35.94292353926096" lon="120.21172817364136">
        <ele>8.221756818704307</ele>
        <time>2025-05-24T13:35:34Z</time>
      </trkpt>
      <trkpt lat="35.94299123465211" lon="120.2118162412788">
        <ele>8.37544540129602</ele>
        <time>2025-05-24T13:35:38Z</time>
      </trkpt>
      <trkpt lat="35.9430474944245" lon="120.21191135401398">
        <ele>7.353466864675283</ele>
        <time>2025-05-24T13:35:42Z</time>
      </trkpt>
      <trkpt lat="35.94311125018027" lon="120.21200426000847">
        <ele>7.922940146178007</ele>
        <time>2025-05-24T13:35:46Z</time>
      </trkpt>
      <trkpt lat="35.943169054139" lon="120.21210879468939">
        <ele>8.791995990090072</ele>
        <time>2025-05-24T13:35:50Z</time>
      </trkpt>
      <trkpt lat="35.94324178832142" lon="120.21219382406737">
        <ele>8.757070603780448</ele>
        <time>2025-05-24T13:35:55Z</time>
      </trkpt>
      <trkpt lat="35.94330476237416" lon="120.21231427196419">
        <ele>8.578740443103015</ele>
        <time>2025-05-24T13:35:59Z</time>
      </trkpt>
      <trkpt lat="35.94335925694978" lon="120.21242779880222">
        <ele>8.113655107095838</ele>
        <time>2025-05-24T13:36:03Z</time>
      </trkpt>
      <trkpt lat="35.94342041269274" lon="120.21253680943076">
        <ele>8.443318056873977</ele>
        <time>2025-05-24T13:36:08Z</time>
      </trkpt>
      <trkpt lat="35.943479115360994" lon="120.21262245105765">
        <ele>9.758760645985603</ele>
        <time>2025-05-24T13:36:13Z</time>
      </trkpt>
      <trkpt lat="35.94353753765205" lon="120.2127168459776">
        <ele>8.304580580443144</ele>
        <time>2025-05-24T13:36:21Z</time>
      </trkpt>
      <trkpt lat="35.94359127084864" lon="120.21281199808726">
        <ele>8.270291647873819</ele>
        <time>2025-05-24T13:36:26Z</time>
      </trkpt>
      <trkpt lat="35.94366569006234" lon="120.21290723877136">
        <ele>8.177391219884157</ele>
        <time>2025-05-24T13:36:29Z</time>
      </trkpt>
      <trkpt lat="35.94371279183437" lon="120.21301995982823">
        <ele>8.313453155569732</ele>
        <time>2025-05-24T13:36:34Z</time>
      </trkpt>
      <trkpt lat="35.94376902194176" lon="120.21310905701587">
        <ele>8.73053237143904</ele>
        <time>2025-05-24T13:36:38Z</time>
      </trkpt>
      <trkpt lat="35.94386846746677" lon="120.21308828020491">
        <ele>10.205133461393416</ele>
        <time>2025-05-24T13:36:47Z</time>
      </trkpt>
      <trkpt lat="35.94396006610061" lon="120.21301125514734">
        <ele>8.873678464442492</ele>
        <time>2025-05-24T13:36:52Z</time>
      </trkpt>
      <trkpt lat="35.94404788969681" lon="120.21297938096613">
        <ele>8.719332909211516</ele>
        <time>2025-05-24T13:36:56Z</time>
      </trkpt>
      <trkpt lat="35.944118131021796" lon="120.21289875343948">
        <ele>7.584140004590154</ele>
        <time>2025-05-24T13:37:00Z</time>
      </trkpt>
      <trkpt lat="35.94423144466198" lon="120.21284759099473">
        <ele>7.882323465310037</ele>
        <time>2025-05-24T13:37:05Z</time>
      </trkpt>
      <trkpt lat="35.944321383589454" lon="120.21278310154317">
        <ele>7.151143698953092</ele>
        <time>2025-05-24T13:37:09Z</time>
      </trkpt>
      <trkpt lat="35.94442311643437" lon="120.2127330586788">
        <ele>7.301592077128589</ele>
        <time>2025-05-24T13:37:14Z</time>
      </trkpt>
      <trkpt lat="35.94452510052877" lon="120.21269858967325">
        <ele>7.836548056453466</ele>
        <time>2025-05-24T13:37:18Z</time>
      </trkpt>
      <trkpt lat="35.94460582722285" lon="120.21263104706851">
        <ele>7.973299036733806</ele>
        <time>2025-05-24T13:37:22Z</time>
      </trkpt>
      <trkpt lat="35.94468582815994" lon="120.21257925216241">
        <ele>6.407032287679613</ele>
        <time>2025-05-24T13:37:28Z</time>
      </trkpt>
      <trkpt lat="35.94477277563867" lon="120.21254608899568">
        <ele>8.542978218756616</ele>
        <time>2025-05-24T13:37:34Z</time>
      </trkpt>
      <trkpt lat="35.94487306799101" lon="120.21250444667693">
        <ele>8.309965474531054</ele>
        <time>2025-05-24T13:37:40Z</time>
      </trkpt>
      <trkpt lat="35.94495775075478" lon="120.21244836040344">
        <ele>8.200557579286397</ele>
        <time>2025-05-24T13:37:47Z</time>
      </trkpt>
      <trkpt lat="35.94505446438794" lon="120.21239693545135">
        <ele>7.071034520864487</ele>
        <time>2025-05-24T13:37:52Z</time>
      </trkpt>
      <trkpt lat="35.9451585564007" lon="120.21236288943828">
        <ele>8.228679574094713</ele>
        <time>2025-05-24T13:37:57Z</time>
      </trkpt>
      <trkpt lat="35.94525645929034" lon="120.21231725968934">
        <ele>7.919149029068649</ele>
        <time>2025-05-24T13:38:01Z</time>
      </trkpt>
      <trkpt lat="35.945343484282446" lon="120.21227426805154">
        <ele>7.166167424991727</ele>
        <time>2025-05-24T13:38:05Z</time>
      </trkpt>
      <trkpt lat="35.94545026627619" lon="120.21225362825543">
        <ele>8.762814493849874</ele>
        <time>2025-05-24T13:38:11Z</time>
      </trkpt>
      <trkpt lat="35.94554063702825" lon="120.21218275292175">
        <ele>8.229283783584833</ele>
        <time>2025-05-24T13:38:17Z</time>
      </trkpt>
      <trkpt lat="35.945641611832365" lon="120.21214872583431">
        <ele>6.812983099371195</ele>
        <time>2025-05-24T13:38:22Z</time>
      </trkpt>
      <trkpt lat="35.945751942159504" lon="120.21213254495956">
        <ele>7.613741049543023</ele>
        <time>2025-05-24T13:38:27Z</time>
      </trkpt>
      <trkpt lat="35.94583853668659" lon="120.2120948295389">
        <ele>7.084508386440575</ele>
        <time>2025-05-24T13:38:35Z</time>
      </trkpt>
      <trkpt lat="35.94593903368559" lon="120.2120651658074">
        <ele>7.732771349139512</ele>
        <time>2025-05-24T13:38:43Z</time>
      </trkpt>
      <trkpt lat="35.9460261644869" lon="120.21201841977614">
        <ele>5.245598565787077</ele>
        <time>2025-05-24T13:38:49Z</time>
      </trkpt>
      <trkpt lat="35.946119911550284" lon="120.21196291664596">
        <ele>6.571045673452318</ele>
        <time>2025-05-24T13:38:54Z</time>
      </trkpt>
      <trkpt lat="35.94621816263763" lon="120.21190491643115">
        <ele>7.2097908249124885</ele>
        <time>2025-05-24T13:38:59Z</time>
      </trkpt>
      <trkpt lat="35.94631260970646" lon="120.2118892113063">
        <ele>6.9335156893357635</ele>
        <time>2025-05-24T13:39:03Z</time>
      </trkpt>
      <trkpt lat="35.94640569133272" lon="120.21186276304391">
        <ele>5.1579570937901735</ele>
        <time>2025-05-24T13:39:07Z</time>
      </trkpt>
      <trkpt lat="35.946503425622865" lon="120.21184323361115">
        <ele>6.8236435716971755</ele>
        <time>2025-05-24T13:39:11Z</time>
      </trkpt>
      <trkpt lat="35.94659836928602" lon="120.21179442536318">
        <ele>6.876246850006282</ele>
        <time>2025-05-24T13:39:15Z</time>
      </trkpt>
      <trkpt lat="35.94669871000329" lon="120.21177517681711">
        <ele>6.089349318295717</ele>
        <time>2025-05-24T13:39:20Z</time>
      </trkpt>
      <trkpt lat="35.94678833469255" lon="120.21175358494959">
        <ele>6.3064742889255285</ele>
        <time>2025-05-24T13:39:24Z</time>
      </trkpt>
      <trkpt lat="35.9468755355715" lon="120.21171005943502">
        <ele>7.086764949373901</ele>
        <time>2025-05-24T13:39:28Z</time>
      </trkpt>
      <trkpt lat="35.94698114973736" lon="120.21167178676073">
        <ele>7.66131831984967</ele>
        <time>2025-05-24T13:39:34Z</time>
      </trkpt>
      <trkpt lat="35.94708472735675" lon="120.21163551602437">
        <ele>6.728738308884203</ele>
        <time>2025-05-24T13:39:41Z</time>
      </trkpt>
      <trkpt lat="35.94717839961258" lon="120.21162015059839">
        <ele>5.395653583109379</ele>
        <time>2025-05-24T13:39:45Z</time>
      </trkpt>
      <trkpt lat="35.94727107045484" lon="120.21159992123796">
        <ele>6.370020507834852</ele>
        <time>2025-05-24T13:39:49Z</time>
      </trkpt>
      <trkpt lat="35.94737136405477" lon="120.21159652889058">
        <ele>6.901525675319135</ele>
        <time>2025-05-24T13:39:53Z</time>
      </trkpt>
      <trkpt lat="35.947464564496244" lon="120.21157747225391">
        <ele>7.77480355463922</ele>
        <time>2025-05-24T13:39:57Z</time>
      </trkpt>
      <trkpt lat="35.9475876929598" lon="120.21156648382049">
        <ele>7.723913540132344</ele>
        <time>2025-05-24T13:40:02Z</time>
      </trkpt>
      <trkpt lat="35.94768966244466" lon="120.21152956560144">
        <ele>6.686476982198656</ele>
        <time>2025-05-24T13:40:06Z</time>
      </trkpt>
      <trkpt lat="35.9477929687403" lon="120.21148941431382">
        <ele>5.927644987590611</ele>
        <time>2025-05-24T13:40:11Z</time>
      </trkpt>
      <trkpt lat="35.94789550688122" lon="120.2114800709105">
        <ele>7.175413016229868</ele>
        <time>2025-05-24T13:40:16Z</time>
      </trkpt>
      <trkpt lat="35.94798866387218" lon="120.2114536772099">
        <ele>7.230069049634039</ele>
        <time>2025-05-24T13:40:20Z</time>
      </trkpt>
      <trkpt lat="35.94807854796926" lon="120.21141622988777">
        <ele>7.739387397654355</ele>
        <time>2025-05-24T13:40:27Z</time>
      </trkpt>
      <trkpt lat="35.94818130231219" lon="120.21140535842082">
        <ele>6.864031791687012</ele>
        <time>2025-05-24T13:40:33Z</time>
      </trkpt>
      <trkpt lat="35.94828197105138" lon="120.21139364616766">
        <ele>6.634159026667476</ele>
        <time>2025-05-24T13:40:40Z</time>
      </trkpt>
      <trkpt lat="35.94837998395041" lon="120.2113630212901">
        <ele>7.826196254231036</ele>
        <time>2025-05-24T13:40:47Z</time>
      </trkpt>
      <trkpt lat="35.948479186481165" lon="120.21131352561578">
        <ele>3.7746048318222165</ele>
        <time>2025-05-24T13:40:55Z</time>
      </trkpt>
      <trkpt lat="35.94857766575302" lon="120.21131260644731">
        <ele>5.275593783706427</ele>
        <time>2025-05-24T13:41:00Z</time>
      </trkpt>
      <trkpt lat="35.94868168969436" lon="120.2112859042303">
        <ele>5.090384993702173</ele>
        <time>2025-05-24T13:41:05Z</time>
      </trkpt>
      <trkpt lat="35.94879015094859" lon="120.21125313742569">
        <ele>5.860298261977732</ele>
        <time>2025-05-24T13:41:09Z</time>
      </trkpt>
      <trkpt lat="35.94888752793136" lon="120.21124564135683">
        <ele>5.152208650484681</ele>
        <time>2025-05-24T13:41:13Z</time>
      </trkpt>
      <trkpt lat="35.94900126320172" lon="120.2112068335426">
        <ele>5.245666643604636</ele>
        <time>2025-05-24T13:41:18Z</time>
      </trkpt>
      <trkpt lat="35.94908590105795" lon="120.211149435333">
        <ele>5.713623040355742</ele>
        <time>2025-05-24T13:41:24Z</time>
      </trkpt>
      <trkpt lat="35.94919450844149" lon="120.21114849545103">
        <ele>6.302319715730846</ele>
        <time>2025-05-24T13:41:27Z</time>
      </trkpt>
      <trkpt lat="35.94930148564425" lon="120.21111817776968">
        <ele>5.472928626462817</ele>
        <time>2025-05-24T13:41:32Z</time>
      </trkpt>
      <trkpt lat="35.949398593218135" lon="120.21109053348255">
        <ele>4.784593832679093</ele>
        <time>2025-05-24T13:41:36Z</time>
      </trkpt>
      <trkpt lat="35.94949485406091" lon="120.21105005348355">
        <ele>6.194333244115114</ele>
        <time>2025-05-24T13:41:41Z</time>
      </trkpt>
      <trkpt lat="35.94958395433426" lon="120.2110215112181">
        <ele>7.225061886012554</ele>
        <time>2025-05-24T13:41:45Z</time>
      </trkpt>
      <trkpt lat="35.949689172683186" lon="120.21099255287196">
        <ele>6.458573683165014</ele>
        <time>2025-05-24T13:41:49Z</time>
      </trkpt>
      <trkpt lat="35.9497836112912" lon="120.21099824132556">
        <ele>6.937054776586592</ele>
        <time>2025-05-24T13:41:52Z</time>
      </trkpt>
      <trkpt lat="35.94989293002175" lon="120.21098471758">
        <ele>6.935018661431968</ele>
        <time>2025-05-24T13:41:55Z</time>
      </trkpt>
      <trkpt lat="35.94999801051028" lon="120.21094592655463">
        <ele>6.580790160223842</ele>
        <time>2025-05-24T13:41:59Z</time>
      </trkpt>
      <trkpt lat="35.950099489662485" lon="120.21090759762752">
        <ele>6.919144648127258</ele>
        <time>2025-05-24T13:42:05Z</time>
      </trkpt>
      <trkpt lat="35.950199654489886" lon="120.21091095364605">
        <ele>4.875168319791555</ele>
        <time>2025-05-24T13:42:13Z</time>
      </trkpt>
      <trkpt lat="35.95029648440394" lon="120.21089925002717">
        <ele>6.1199887888506055</ele>
        <time>2025-05-24T13:42:21Z</time>
      </trkpt>
      <trkpt lat="35.95039711029907" lon="120.2108893949065">
        <ele>5.019270373508334</ele>
        <time>2025-05-24T13:42:27Z</time>
      </trkpt>
      <trkpt lat="35.95048349542507" lon="120.21082494123843">
        <ele>5.988840797916055</ele>
        <time>2025-05-24T13:42:32Z</time>
      </trkpt>
      <trkpt lat="35.950580368144664" lon="120.21078473788228">
        <ele>6.051703094504774</ele>
        <time>2025-05-24T13:42:37Z</time>
      </trkpt>
      <trkpt lat="35.950679460410946" lon="120.2107626354783">
        <ele>6.878529962152243</ele>
        <time>2025-05-24T13:42:41Z</time>
      </trkpt>
      <trkpt lat="35.95077418261174" lon="120.21074536116987">
        <ele>5.983348409645259</ele>
        <time>2025-05-24T13:42:46Z</time>
      </trkpt>
      <trkpt lat="35.95087600430124" lon="120.21072560374698">
        <ele>6.494938515126705</ele>
        <time>2025-05-24T13:42:51Z</time>
      </trkpt>
      <trkpt lat="35.95098868539915" lon="120.2107119633457">
        <ele>6.82503795158118</ele>
        <time>2025-05-24T13:42:55Z</time>
      </trkpt>
      <trkpt lat="35.95109170661806" lon="120.2106679030229">
        <ele>7.267731403000653</ele>
        <time>2025-05-24T13:43:00Z</time>
      </trkpt>
      <trkpt lat="35.95118359045651" lon="120.21064000884162">
        <ele>7.015558374114335</ele>
        <time>2025-05-24T13:43:04Z</time>
      </trkpt>
      <trkpt lat="35.95129825341484" lon="120.21061662156968">
        <ele>8.101021214388311</ele>
        <time>2025-05-24T13:43:09Z</time>
      </trkpt>
      <trkpt lat="35.95139235191664" lon="120.21060602851314">
        <ele>7.144677725620568</ele>
        <time>2025-05-24T13:43:14Z</time>
      </trkpt>
      <trkpt lat="35.951495467660145" lon="120.21057973288593">
        <ele>7.479377800598741</ele>
        <time>2025-05-24T13:43:21Z</time>
      </trkpt>
      <trkpt lat="35.95159472338713" lon="120.21057964466256">
        <ele>7.379208751954138</ele>
        <time>2025-05-24T13:43:28Z</time>
      </trkpt>
      <trkpt lat="35.95169028613405" lon="120.21053489496288">
        <ele>8.059142438694835</ele>
        <time>2025-05-24T13:43:36Z</time>
      </trkpt>
      <trkpt lat="35.951750915681316" lon="120.2104516453902">
        <ele>9.76182250957936</ele>
        <time>2025-05-24T13:43:43Z</time>
      </trkpt>
      <trkpt lat="35.95175516221905" lon="120.21057926926252">
        <ele>10.156145125627518</ele>
        <time>2025-05-24T13:43:48Z</time>
      </trkpt>
      <trkpt lat="35.95176576753625" lon="120.21069272006912">
        <ele>7.984510109759867</ele>
        <time>2025-05-24T13:43:52Z</time>
      </trkpt>
      <trkpt lat="35.95179370539633" lon="120.21080447790926">
        <ele>6.948202373459935</ele>
        <time>2025-05-24T13:43:56Z</time>
      </trkpt>
      <trkpt lat="35.95188457990953" lon="120.2107914951142">
        <ele>7.29985301848501</ele>
        <time>2025-05-24T13:43:59Z</time>
      </trkpt>
      <trkpt lat="35.95200525326536" lon="120.21077179023135">
        <ele>7.752771059982479</ele>
        <time>2025-05-24T13:44:03Z</time>
      </trkpt>
      <trkpt lat="35.95209529570909" lon="120.210729889818">
        <ele>7.414721495471895</ele>
        <time>2025-05-24T13:44:06Z</time>
      </trkpt>
      <trkpt lat="35.95217894930786" lon="120.2106772992899">
        <ele>7.93378681037575</ele>
        <time>2025-05-24T13:44:09Z</time>
      </trkpt>
      <trkpt lat="35.95229476792676" lon="120.21064007711132">
        <ele>6.375530590303242</ele>
        <time>2025-05-24T13:44:13Z</time>
      </trkpt>
      <trkpt lat="35.952384519821656" lon="120.21061206896358">
        <ele>6.923570899292827</ele>
        <time>2025-05-24T13:44:17Z</time>
      </trkpt>
      <trkpt lat="35.95247315024283" lon="120.21056252774876">
        <ele>7.3462803568691015</ele>
        <time>2025-05-24T13:44:24Z</time>
      </trkpt>
      <trkpt lat="35.95257096534152" lon="120.21052163738463">
        <ele>7.6200463976711035</ele>
        <time>2025-05-24T13:44:31Z</time>
      </trkpt>
      <trkpt lat="35.9526735676406" lon="120.21047574131867">
        <ele>7.343021586537361</ele>
        <time>2025-05-24T13:44:38Z</time>
      </trkpt>
      <trkpt lat="35.95276511011546" lon="120.21041443678826">
        <ele>4.242021990008652</ele>
        <time>2025-05-24T13:44:43Z</time>
      </trkpt>
      <trkpt lat="35.952863190108" lon="120.21034314688731">
        <ele>5.64972990937531</ele>
        <time>2025-05-24T13:44:48Z</time>
      </trkpt>
      <trkpt lat="35.95294821939065" lon="120.2102492993775">
        <ele>6.277450608089566</ele>
        <time>2025-05-24T13:44:53Z</time>
      </trkpt>
      <trkpt lat="35.95301449377481" lon="120.21013893906726">
        <ele>6.65034206956625</ele>
        <time>2025-05-24T13:44:58Z</time>
      </trkpt>
      <trkpt lat="35.95309622224725" lon="120.21004740141517">
        <ele>7.650713223963976</ele>
        <time>2025-05-24T13:45:03Z</time>
      </trkpt>
      <trkpt lat="35.953155562813734" lon="120.2099598747825">
        <ele>8.0205141864717</ele>
        <time>2025-05-24T13:45:09Z</time>
      </trkpt>
      <trkpt lat="35.95323842178002" lon="120.20989068033238">
        <ele>8.866645756177604</ele>
        <time>2025-05-24T13:45:16Z</time>
      </trkpt>
      <trkpt lat="35.953295904257864" lon="120.20979221150331">
        <ele>7.971405421383679</ele>
        <time>2025-05-24T13:45:24Z</time>
      </trkpt>
      <trkpt lat="35.953354439943304" lon="120.20968902684069">
        <ele>8.040480537340045</ele>
        <time>2025-05-24T13:45:33Z</time>
      </trkpt>
      <trkpt lat="35.953400636439014" lon="120.20958051068838">
        <ele>8.6113889105618</ele>
        <time>2025-05-24T13:45:40Z</time>
      </trkpt>
      <trkpt lat="35.953449903866435" lon="120.2094820336466">
        <ele>7.26810332108289</ele>
        <time>2025-05-24T13:45:49Z</time>
      </trkpt>
      <trkpt lat="35.95350233986999" lon="120.20938887096429">
        <ele>7.1302883345633745</ele>
        <time>2025-05-24T13:45:57Z</time>
      </trkpt>
      <trkpt lat="35.95355130540818" lon="120.20928988856134">
        <ele>7.847735247574747</ele>
        <time>2025-05-24T13:46:05Z</time>
      </trkpt>
      <trkpt lat="35.953603490157086" lon="120.20919160630439">
        <ele>8.046802089549601</ele>
        <time>2025-05-24T13:46:13Z</time>
      </trkpt>
      <trkpt lat="35.95365880995698" lon="120.20909664834018">
        <ele>7.752871830947697</ele>
        <time>2025-05-24T13:46:21Z</time>
      </trkpt>
      <trkpt lat="35.953709327418984" lon="120.20898812956432">
        <ele>6.964672303758562</ele>
        <time>2025-05-24T13:46:30Z</time>
      </trkpt>
      <trkpt lat="35.95376759459809" lon="120.20888292346515">
        <ele>7.173765572719276</ele>
        <time>2025-05-24T13:46:37Z</time>
      </trkpt>
      <trkpt lat="35.953837543133126" lon="120.20880195401242">
        <ele>7.913877800107002</ele>
        <time>2025-05-24T13:46:42Z</time>
      </trkpt>
      <trkpt lat="35.95388574776124" lon="120.20870639397472">
        <ele>8.349921165034175</ele>
        <time>2025-05-24T13:46:46Z</time>
      </trkpt>
      <trkpt lat="35.953946263215656" lon="120.2086152411736">
        <ele>10.134077775292099</ele>
        <time>2025-05-24T13:46:50Z</time>
      </trkpt>
      <trkpt lat="35.954016739350806" lon="120.2085221252967">
        <ele>9.177221595309675</ele>
        <time>2025-05-24T13:46:55Z</time>
      </trkpt>
      <trkpt lat="35.95410100234716" lon="120.20843304490991">
        <ele>8.801432539708912</ele>
        <time>2025-05-24T13:47:00Z</time>
      </trkpt>
      <trkpt lat="35.95419051154885" lon="120.20834673908219">
        <ele>8.197000676766038</ele>
        <time>2025-05-24T13:47:05Z</time>
      </trkpt>
      <trkpt lat="35.95427026000091" lon="120.20825432250228">
        <ele>8.203589161857963</ele>
        <time>2025-05-24T13:47:10Z</time>
      </trkpt>
      <trkpt lat="35.954354736675526" lon="120.2082034496275">
        <ele>8.005069119855762</ele>
        <time>2025-05-24T13:47:14Z</time>
      </trkpt>
      <trkpt lat="35.95445535053979" lon="120.20815409853995">
        <ele>7.484286348335445</ele>
        <time>2025-05-24T13:47:19Z</time>
      </trkpt>
      <trkpt lat="35.95455072360152" lon="120.20810505496593">
        <ele>9.621737005189061</ele>
        <time>2025-05-24T13:47:24Z</time>
      </trkpt>
      <trkpt lat="35.954636533290284" lon="120.20806308703354">
        <ele>9.88768851198256</ele>
        <time>2025-05-24T13:47:30Z</time>
      </trkpt>
      <trkpt lat="35.95473492518123" lon="120.20803851456697">
        <ele>10.589646507054567</ele>
        <time>2025-05-24T13:47:37Z</time>
      </trkpt>
      <trkpt lat="35.95482618632819" lon="120.20800952059601">
        <ele>11.64140832517296</ele>
        <time>2025-05-24T13:47:43Z</time>
      </trkpt>
      <trkpt lat="35.95492122673345" lon="120.20799360416268">
        <ele>12.263049917295575</ele>
        <time>2025-05-24T13:47:50Z</time>
      </trkpt>
      <trkpt lat="35.955023595904706" lon="120.20796876379515">
        <ele>11.877708841115236</ele>
        <time>2025-05-24T13:47:58Z</time>
      </trkpt>
      <trkpt lat="35.955132071882055" lon="120.2079464421353">
        <ele>11.58416123315692</ele>
        <time>2025-05-24T13:48:04Z</time>
      </trkpt>
      <trkpt lat="35.95522799369898" lon="120.20791712851987">
        <ele>11.888381744734943</ele>
        <time>2025-05-24T13:48:08Z</time>
      </trkpt>
      <trkpt lat="35.95533167030945" lon="120.20790671058586">
        <ele>11.880361766554415</ele>
        <time>2025-05-24T13:48:12Z</time>
      </trkpt>
      <trkpt lat="35.95542514803315" lon="120.20788613742151">
        <ele>12.087351432070136</ele>
        <time>2025-05-24T13:48:16Z</time>
      </trkpt>
      <trkpt lat="35.955518542804015" lon="120.20786085440776">
        <ele>12.115353011526167</ele>
        <time>2025-05-24T13:48:20Z</time>
      </trkpt>
      <trkpt lat="35.95561465681154" lon="120.20783397314698">
        <ele>11.965820515528321</ele>
        <time>2025-05-24T13:48:24Z</time>
      </trkpt>
      <trkpt lat="35.95570044107716" lon="120.20777766623478">
        <ele>11.706942971795797</ele>
        <time>2025-05-24T13:48:28Z</time>
      </trkpt>
      <trkpt lat="35.955783176377366" lon="120.20772035363392">
        <ele>13.491224562749267</ele>
        <time>2025-05-24T13:48:36Z</time>
      </trkpt>
      <trkpt lat="35.95588196212465" lon="120.20770563529645">
        <ele>14.180050995200872</ele>
        <time>2025-05-24T13:48:43Z</time>
      </trkpt>
      <trkpt lat="35.95597391743569" lon="120.2076815574078">
        <ele>14.330019592307508</ele>
        <time>2025-05-24T13:48:50Z</time>
      </trkpt>
      <trkpt lat="35.95606720591223" lon="120.20765019361639">
        <ele>14.076382437720895</ele>
        <time>2025-05-24T13:48:57Z</time>
      </trkpt>
      <trkpt lat="35.956163088562356" lon="120.20764498223949">
        <ele>14.492925589904189</ele>
        <time>2025-05-24T13:49:04Z</time>
      </trkpt>
      <trkpt lat="35.956251909877246" lon="120.20758120951882">
        <ele>15.53256627265364</ele>
        <time>2025-05-24T13:49:11Z</time>
      </trkpt>
      <trkpt lat="35.95634649634529" lon="120.20756586755361">
        <ele>15.05219707544893</ele>
        <time>2025-05-24T13:49:16Z</time>
      </trkpt>
      <trkpt lat="35.95643573974738" lon="120.20753928924513">
        <ele>14.315117285586894</ele>
        <time>2025-05-24T13:49:21Z</time>
      </trkpt>
      <trkpt lat="35.95652044829819" lon="120.20758934331464">
        <ele>14.373119064606726</ele>
        <time>2025-05-24T13:49:27Z</time>
      </trkpt>
      <trkpt lat="35.95654332453219" lon="120.20769849652174">
        <ele>16.141161584295332</ele>
        <time>2025-05-24T13:49:31Z</time>
      </trkpt>
      <trkpt lat="35.9565849818247" lon="120.2078286268666">
        <ele>16.977237093262374</ele>
        <time>2025-05-24T13:49:36Z</time>
      </trkpt>
      <trkpt lat="35.95658272493194" lon="120.20795503661802">
        <ele>18.38734982535243</ele>
        <time>2025-05-24T13:49:41Z</time>
      </trkpt>
      <trkpt lat="35.956622206027404" lon="120.20808237107389">
        <ele>16.714150989428163</ele>
        <time>2025-05-24T13:49:46Z</time>
      </trkpt>
      <trkpt lat="35.956665177396545" lon="120.20819839215353">
        <ele>15.691291172988713</ele>
        <time>2025-05-24T13:49:51Z</time>
      </trkpt>
      <trkpt lat="35.956682649069954" lon="120.2083235710482">
        <ele>15.534992845728993</ele>
        <time>2025-05-24T13:49:55Z</time>
      </trkpt>
      <trkpt lat="35.956702515781714" lon="120.20844612824385">
        <ele>15.724220843054354</ele>
        <time>2025-05-24T13:49:59Z</time>
      </trkpt>
      <trkpt lat="35.95665890990823" lon="120.20854613433447">
        <ele>13.68545068334788</ele>
        <time>2025-05-24T13:50:04Z</time>
      </trkpt>
      <trkpt lat="35.95657660243701" lon="120.20859254207049">
        <ele>13.761079758405685</ele>
        <time>2025-05-24T13:50:07Z</time>
      </trkpt>
      <trkpt lat="35.956469358502225" lon="120.20862900752837">
        <ele>13.346462488174438</ele>
        <time>2025-05-24T13:50:11Z</time>
      </trkpt>
      <trkpt lat="35.95638305235577" lon="120.20866400340554">
        <ele>12.968014916405082</ele>
        <time>2025-05-24T13:50:15Z</time>
      </trkpt>
      <trkpt lat="35.95628971364172" lon="120.20872490142169">
        <ele>13.04869155306369</ele>
        <time>2025-05-24T13:50:20Z</time>
      </trkpt>
      <trkpt lat="35.95627930545121" lon="120.20885822995096">
        <ele>12.224159334786236</ele>
        <time>2025-05-24T13:50:25Z</time>
      </trkpt>
      <trkpt lat="35.956292140945116" lon="120.20898373809752">
        <ele>12.152086479589343</ele>
        <time>2025-05-24T13:50:30Z</time>
      </trkpt>
      <trkpt lat="35.956298184499445" lon="120.20909739265085">
        <ele>11.102780917659402</ele>
        <time>2025-05-24T13:50:35Z</time>
      </trkpt>
      <trkpt lat="35.95630173637508" lon="120.20922220605736">
        <ele>11.618211762048304</ele>
        <time>2025-05-24T13:50:40Z</time>
      </trkpt>
      <trkpt lat="35.95630548463342" lon="120.20936281419976">
        <ele>11.852391649968922</ele>
        <time>2025-05-24T13:50:45Z</time>
      </trkpt>
      <trkpt lat="35.95631137106551" lon="120.20948511321329">
        <ele>11.68514102883637</ele>
        <time>2025-05-24T13:50:50Z</time>
      </trkpt>
      <trkpt lat="35.956302081439304" lon="120.20961431848197">
        <ele>10.982547624967992</ele>
        <time>2025-05-24T13:50:54Z</time>
      </trkpt>
      <trkpt lat="35.95629937783837" lon="120.20975290119421">
        <ele>9.985660567879677</ele>
        <time>2025-05-24T13:51:00Z</time>
      </trkpt>
      <trkpt lat="35.956392105006834" lon="120.2098052332302">
        <ele>11.423387969844043</ele>
        <time>2025-05-24T13:51:06Z</time>
      </trkpt>
      <trkpt lat="35.95646878910008" lon="120.20987332392377">
        <ele>10.249188103713095</ele>
        <time>2025-05-24T13:51:11Z</time>
      </trkpt>
      <trkpt lat="35.956543641043886" lon="120.20997843194627">
        <ele>11.189712486229837</ele>
        <time>2025-05-24T13:51:16Z</time>
      </trkpt>
      <trkpt lat="35.9566355765995" lon="120.21000229157798">
        <ele>11.440227943472564</ele>
        <time>2025-05-24T13:51:22Z</time>
      </trkpt>
      <trkpt lat="35.956732899998194" lon="120.20996042121075">
        <ele>12.056189324706793</ele>
        <time>2025-05-24T13:51:28Z</time>
      </trkpt>
      <trkpt lat="35.95682219205005" lon="120.21001212685717">
        <ele>12.395102912560105</ele>
        <time>2025-05-24T13:51:33Z</time>
      </trkpt>
      <trkpt lat="35.95693251105479" lon="120.20998345288452">
        <ele>12.19654845353216</ele>
        <time>2025-05-24T13:51:38Z</time>
      </trkpt>
      <trkpt lat="35.957038722817146" lon="120.20998028351852">
        <ele>12.988958499394357</ele>
        <time>2025-05-24T13:51:43Z</time>
      </trkpt>
      <trkpt lat="35.95710245236084" lon="120.21006629196694">
        <ele>12.830074222758412</ele>
        <time>2025-05-24T13:51:48Z</time>
      </trkpt>
      <trkpt lat="35.957155036659394" lon="120.21018054391007">
        <ele>12.509835794568062</ele>
        <time>2025-05-24T13:51:53Z</time>
      </trkpt>
      <trkpt lat="35.957186802716535" lon="120.21028630712229">
        <ele>14.53506225347519</ele>
        <time>2025-05-24T13:51:57Z</time>
      </trkpt>
      <trkpt lat="35.95726159187363" lon="120.21036062974261">
        <ele>15.1649717008695</ele>
        <time>2025-05-24T13:52:01Z</time>
      </trkpt>
      <trkpt lat="35.95726943403434" lon="120.21024560462826">
        <time>2025-05-24T13:52:10Z</time>
      </trkpt>
    </trkseg>
  </trk>
</gpx>