<?xml version="1.0" encoding="UTF-8"?>
<gpx xmlns="http://www.topografix.com/GPX/1/1" xmlns:gpxtpx="http://www.garmin.com/xmlschemas/TrackPointExtension/v1" xmlns:xsi="http://www.w3.org/2001/XMLSchema-instance" xsi:schemaLocation="http://www.topografix.com/GPX/1/1 http://www.topografix.com/GPX/1/1/gpx.xsd" version="1.1" creator="gpx.py -- https://github.com/tkrajina/gpxpy">
  <trk>
    <name>星期三 上午跑</name>
    <trkseg>
      <trkpt lat="35.95722552" lon="120.21009173">
        <ele>45.755718428490866</ele>
        <time>2026-05-26T21:43:33.997000Z</time>
      </trkpt>
      <trkpt lat="35.95722552" lon="120.21009173">
        <time>2026-05-26T21:43:34.983000Z</time>
      </trkpt>
      <trkpt lat="35.95722552" lon="120.21009173">
        <ele>45.69351776115428</ele>
        <time>2026-05-26T21:43:40.987000Z</time>
      </trkpt>
      <trkpt lat="35.95717648" lon="120.20996204">
        <time>2026-05-26T21:43:41Z</time>
      </trkpt>
      <trkpt lat="35.95707805" lon="120.20993799">
        <ele>45.69351776115428</ele>
        <time>2026-05-26T21:43:44.971000Z</time>
      </trkpt>
      <trkpt lat="35.9569775" lon="120.20996721">
        <time>2026-05-26T21:43:47.994000Z</time>
      </trkpt>
      <trkpt lat="35.95686853" lon="120.20999423">
        <time>2026-05-26T21:43:51.996000Z</time>
      </trkpt>
      <trkpt lat="35.95679308" lon="120.20991168">
        <ele>46.26375393926929</ele>
        <time>2026-05-26T21:43:56.996000Z</time>
      </trkpt>
      <trkpt lat="35.95679016" lon="120.20978701">
        <time>2026-05-26T21:44:01.972000Z</time>
      </trkpt>
      <trkpt lat="35.95678643" lon="120.20966967">
        <ele>47.09051166832279</ele>
        <time>2026-05-26T21:44:06.979000Z</time>
      </trkpt>
      <trkpt lat="35.95677139" lon="120.20954141">
        <time>2026-05-26T21:44:12.986000Z</time>
      </trkpt>
      <trkpt lat="35.95675935" lon="120.20941738">
        <ele>47.265747535823095</ele>
        <time>2026-05-26T21:44:18.005000Z</time>
      </trkpt>
      <trkpt lat="35.95673231" lon="120.2093011">
        <time>2026-05-26T21:44:22.984000Z</time>
      </trkpt>
      <trkpt lat="35.95670708" lon="120.2091767">
        <ele>47.406486499903906</ele>
        <time>2026-05-26T21:44:28.024000Z</time>
      </trkpt>
      <trkpt lat="35.95668585" lon="120.20905051">
        <time>2026-05-26T21:44:32.975000Z</time>
      </trkpt>
      <trkpt lat="35.956677" lon="120.20892932">
        <time>2026-05-26T21:44:37.987000Z</time>
      </trkpt>
      <trkpt lat="35.95666817" lon="120.20881753">
        <ele>47.588950265048254</ele>
        <time>2026-05-26T21:44:42.978000Z</time>
      </trkpt>
      <trkpt lat="35.95663926" lon="120.20870679">
        <time>2026-05-26T21:44:47.009000Z</time>
      </trkpt>
      <trkpt lat="35.9566337" lon="120.20859281">
        <ele>47.80637692272495</ele>
        <time>2026-05-26T21:44:53.015000Z</time>
      </trkpt>
      <trkpt lat="35.9566218" lon="120.20847189">
        <time>2026-05-26T21:44:57.982000Z</time>
      </trkpt>
      <trkpt lat="35.95658492" lon="120.20834977">
        <ele>47.959372747538794</ele>
        <time>2026-05-26T21:45:02.978000Z</time>
      </trkpt>
      <trkpt lat="35.95656246" lon="120.20822921">
        <time>2026-05-26T21:45:07.974000Z</time>
      </trkpt>
      <trkpt lat="35.95655458" lon="120.20811087">
        <ele>48.25866888820957</ele>
        <time>2026-05-26T21:45:13.030000Z</time>
      </trkpt>
      <trkpt lat="35.95654119" lon="120.20797327">
        <time>2026-05-26T21:45:17.968000Z</time>
      </trkpt>
      <trkpt lat="35.95650819" lon="120.20785112">
        <ele>48.32773708164524</ele>
        <time>2026-05-26T21:45:22.998000Z</time>
      </trkpt>
      <trkpt lat="35.9564966" lon="120.20772383">
        <time>2026-05-26T21:45:29.014000Z</time>
      </trkpt>
      <trkpt lat="35.95650849" lon="120.20759821">
        <ele>48.517101038096655</ele>
        <time>2026-05-26T21:45:33.980000Z</time>
      </trkpt>
      <trkpt lat="35.95647798" lon="120.20748318">
        <time>2026-05-26T21:45:40.991000Z</time>
      </trkpt>
      <trkpt lat="35.95637239" lon="120.20745603">
        <ele>48.70533489048313</ele>
        <time>2026-05-26T21:45:45.963000Z</time>
      </trkpt>
      <trkpt lat="35.95627685" lon="120.20748003">
        <time>2026-05-26T21:45:50.003000Z</time>
      </trkpt>
      <trkpt lat="35.95618777" lon="120.20750084">
        <time>2026-05-26T21:45:53.981000Z</time>
      </trkpt>
      <trkpt lat="35.95610004" lon="120.20752863">
        <ele>48.325630891917456</ele>
        <time>2026-05-26T21:45:57.991000Z</time>
      </trkpt>
      <trkpt lat="35.95599465" lon="120.20755458">
        <time>2026-05-26T21:46:02.982000Z</time>
      </trkpt>
      <trkpt lat="35.95588975" lon="120.20759107">
        <ele>48.0453455334885</ele>
        <time>2026-05-26T21:46:08.005000Z</time>
      </trkpt>
      <trkpt lat="35.95579142" lon="120.20760951">
        <time>2026-05-26T21:46:12.986000Z</time>
      </trkpt>
      <trkpt lat="35.95569412" lon="120.20760802">
        <ele>45.58721842974256</ele>
        <time>2026-05-26T21:46:18.017000Z</time>
      </trkpt>
      <trkpt lat="35.95558639" lon="120.20761211">
        <time>2026-05-26T21:46:23.024000Z</time>
      </trkpt>
      <trkpt lat="35.95547892" lon="120.20763873">
        <ele>45.38344671189617</ele>
        <time>2026-05-26T21:46:27.986000Z</time>
      </trkpt>
      <trkpt lat="35.95538976" lon="120.20768273">
        <time>2026-05-26T21:46:32.981000Z</time>
      </trkpt>
      <trkpt lat="35.95528662" lon="120.20771249">
        <ele>44.9990062004311</ele>
        <time>2026-05-26T21:46:38.015000Z</time>
      </trkpt>
      <trkpt lat="35.9551828" lon="120.20776214">
        <time>2026-05-26T21:46:42.991000Z</time>
      </trkpt>
      <trkpt lat="35.95508875" lon="120.20778509">
        <time>2026-05-26T21:46:47.978000Z</time>
      </trkpt>
      <trkpt lat="35.95498144" lon="120.20779802">
        <ele>44.544197905657995</ele>
        <time>2026-05-26T21:46:53.003000Z</time>
      </trkpt>
      <trkpt lat="35.95488281" lon="120.20783341">
        <time>2026-05-26T21:46:58.008000Z</time>
      </trkpt>
      <trkpt lat="35.95477526" lon="120.20786464">
        <ele>44.02216647922825</ele>
        <time>2026-05-26T21:47:03.976000Z</time>
      </trkpt>
      <trkpt lat="35.95468602" lon="120.20788997">
        <time>2026-05-26T21:47:07.990000Z</time>
      </trkpt>
      <trkpt lat="35.95457892" lon="120.20791595">
        <ele>43.696257460711706</ele>
        <time>2026-05-26T21:47:13.032000Z</time>
      </trkpt>
      <trkpt lat="35.95448395" lon="120.20793928">
        <time>2026-05-26T21:47:16.993000Z</time>
      </trkpt>
      <trkpt lat="35.95439035" lon="120.20797757">
        <ele>43.338873375056494</ele>
        <time>2026-05-26T21:47:20.981000Z</time>
      </trkpt>
      <trkpt lat="35.95430961" lon="120.20802816">
        <time>2026-05-26T21:47:24.995000Z</time>
      </trkpt>
      <trkpt lat="35.95422014" lon="120.20810213">
        <time>2026-05-26T21:47:30.019000Z</time>
      </trkpt>
      <trkpt lat="35.95413627" lon="120.20816562">
        <ele>42.572953451274145</ele>
        <time>2026-05-26T21:47:34.054000Z</time>
      </trkpt>
      <trkpt lat="35.95404827" lon="120.20822973">
        <time>2026-05-26T21:47:37.986000Z</time>
      </trkpt>
      <trkpt lat="35.95398033" lon="120.20830695">
        <time>2026-05-26T21:47:41.977000Z</time>
      </trkpt>
      <trkpt lat="35.95389883" lon="120.20839826">
        <ele>42.26452373325657</ele>
        <time>2026-05-26T21:47:47.024000Z</time>
      </trkpt>
      <trkpt lat="35.95382573" lon="120.20849893">
        <time>2026-05-26T21:47:52.029000Z</time>
      </trkpt>
      <trkpt lat="35.95377306" lon="120.2085903">
        <ele>41.6520874387009</ele>
        <time>2026-05-26T21:47:55.960000Z</time>
      </trkpt>
      <trkpt lat="35.95371832" lon="120.20870383">
        <time>2026-05-26T21:48:00.970000Z</time>
      </trkpt>
      <trkpt lat="35.95365696" lon="120.20881119">
        <ele>41.285761583445776</ele>
        <time>2026-05-26T21:48:05.993000Z</time>
      </trkpt>
      <trkpt lat="35.95359327" lon="120.20892405">
        <time>2026-05-26T21:48:11.018000Z</time>
      </trkpt>
      <trkpt lat="35.95354292" lon="120.20903851">
        <ele>41.02153419315647</ele>
        <time>2026-05-26T21:48:15.987000Z</time>
      </trkpt>
      <trkpt lat="35.95349182" lon="120.20913261">
        <time>2026-05-26T21:48:22.032000Z</time>
      </trkpt>
      <trkpt lat="35.95349182" lon="120.20913261">
        <time>2026-05-26T21:48:25.808000Z</time>
      </trkpt>
      <trkpt lat="35.95344395" lon="120.20922846">
        <ele>40.671652544139135</ele>
        <time>2026-05-26T21:48:29.995000Z</time>
      </trkpt>
      <trkpt lat="35.95337927" lon="120.20933374">
        <time>2026-05-26T21:48:36.996000Z</time>
      </trkpt>
      <trkpt lat="35.95330982" lon="120.209422">
        <ele>40.327964056132544</ele>
        <time>2026-05-26T21:48:45.058000Z</time>
      </trkpt>
      <trkpt lat="35.95323925" lon="120.20953277">
        <ele>40.43467592060398</ele>
        <time>2026-05-26T21:48:50.992000Z</time>
      </trkpt>
      <trkpt lat="35.95323925" lon="120.20953277">
        <time>2026-05-26T21:48:51.811000Z</time>
      </trkpt>
      <trkpt lat="35.95318008" lon="120.20963692">
        <time>2026-05-26T21:48:56.005000Z</time>
      </trkpt>
      <trkpt lat="35.95311854" lon="120.20972579">
        <ele>40.534918058512915</ele>
        <time>2026-05-26T21:49:00.992000Z</time>
      </trkpt>
      <trkpt lat="35.95305609" lon="120.20982726">
        <time>2026-05-26T21:49:05.986000Z</time>
      </trkpt>
      <trkpt lat="35.95300326" lon="120.20992174">
        <ele>40.26458572208713</ele>
        <time>2026-05-26T21:49:11.018000Z</time>
      </trkpt>
      <trkpt lat="35.95293285" lon="120.21002287">
        <time>2026-05-26T21:49:15.968000Z</time>
      </trkpt>
      <trkpt lat="35.95283923" lon="120.21008573">
        <time>2026-05-26T21:49:21.037000Z</time>
      </trkpt>
      <trkpt lat="35.95275069" lon="120.21015768">
        <ele>40.110360372660864</ele>
        <time>2026-05-26T21:49:27.991000Z</time>
      </trkpt>
      <trkpt lat="35.95267302" lon="120.2102162">
        <ele>39.88821719944309</ele>
        <time>2026-05-26T21:49:33.023000Z</time>
      </trkpt>
      <trkpt lat="35.95258308" lon="120.21027606">
        <time>2026-05-26T21:49:38.068000Z</time>
      </trkpt>
      <trkpt lat="35.95249986" lon="120.21033659">
        <time>2026-05-26T21:49:43.007000Z</time>
      </trkpt>
      <trkpt lat="35.95241574" lon="120.21038637">
        <ele>39.75075649082493</ele>
        <time>2026-05-26T21:49:47.019000Z</time>
      </trkpt>
      <trkpt lat="35.95231549" lon="120.21042572">
        <time>2026-05-26T21:49:52.029000Z</time>
      </trkpt>
      <trkpt lat="35.95222738" lon="120.21045833">
        <ele>39.65715764820408</ele>
        <time>2026-05-26T21:49:56.997000Z</time>
      </trkpt>
      <trkpt lat="35.95222738" lon="120.21045833">
        <time>2026-05-26T21:50:01.823000Z</time>
      </trkpt>
      <trkpt lat="35.9521364" lon="120.21045287">
        <time>2026-05-26T21:50:02.987000Z</time>
      </trkpt>
      <trkpt lat="35.95205411" lon="120.21039092">
        <ele>39.55890630543064</ele>
        <time>2026-05-26T21:50:09.028000Z</time>
      </trkpt>
      <trkpt lat="35.95196105" lon="120.21037451">
        <ele>39.530151594279516</ele>
        <time>2026-05-26T21:50:16.990000Z</time>
      </trkpt>
      <trkpt lat="35.95186487" lon="120.2104127">
        <ele>39.87775110065769</ele>
        <time>2026-05-26T21:50:29.050000Z</time>
      </trkpt>
      <trkpt lat="35.95186487" lon="120.2104127">
        <time>2026-05-26T21:50:29.830000Z</time>
      </trkpt>
      <trkpt lat="35.95176471" lon="120.21045552">
        <time>2026-05-26T21:50:32.987000Z</time>
      </trkpt>
      <trkpt lat="35.95168148" lon="120.2105124">
        <time>2026-05-26T21:50:37.008000Z</time>
      </trkpt>
      <trkpt lat="35.95158237" lon="120.21056335">
        <ele>39.74491761982273</ele>
        <time>2026-05-26T21:50:42.026000Z</time>
      </trkpt>
      <trkpt lat="35.95147624" lon="120.21056057">
        <time>2026-05-26T21:50:47.052000Z</time>
      </trkpt>
      <trkpt lat="35.95138239" lon="120.21059558">
        <ele>39.9539525395615</ele>
        <time>2026-05-26T21:50:51.998000Z</time>
      </trkpt>
      <trkpt lat="35.95128087" lon="120.21060901">
        <time>2026-05-26T21:50:56.013000Z</time>
      </trkpt>
      <trkpt lat="35.95118597" lon="120.21063518">
        <ele>39.881576288340796</ele>
        <time>2026-05-26T21:51:00.027000Z</time>
      </trkpt>
      <trkpt lat="35.95108999" lon="120.21065311">
        <time>2026-05-26T21:51:03.972000Z</time>
      </trkpt>
      <trkpt lat="35.95098352" lon="120.21067522">
        <time>2026-05-26T21:51:08.989000Z</time>
      </trkpt>
      <trkpt lat="35.95088817" lon="120.21071102">
        <ele>39.35430311024021</ele>
        <time>2026-05-26T21:51:14.020000Z</time>
      </trkpt>
      <trkpt lat="35.95079374" lon="120.21075344">
        <time>2026-05-26T21:51:19.043000Z</time>
      </trkpt>
      <trkpt lat="35.95068874" lon="120.21076862">
        <ele>38.877786863444555</ele>
        <time>2026-05-26T21:51:22.970000Z</time>
      </trkpt>
      <trkpt lat="35.95059563" lon="120.21078496">
        <time>2026-05-26T21:51:26.972000Z</time>
      </trkpt>
      <trkpt lat="35.95048223" lon="120.21081483">
        <time>2026-05-26T21:51:30.986000Z</time>
      </trkpt>
      <trkpt lat="35.95038795" lon="120.21083803">
        <ele>38.14346669971775</ele>
        <time>2026-05-26T21:51:37.023000Z</time>
      </trkpt>
      <trkpt lat="35.95038795" lon="120.21083803">
        <time>2026-05-26T21:51:37.862000Z</time>
      </trkpt>
      <trkpt lat="35.95028885" lon="120.21083362">
        <ele>38.19484494983982</ele>
        <time>2026-05-26T21:51:44.977000Z</time>
      </trkpt>
      <trkpt lat="35.95020341" lon="120.2108719">
        <time>2026-05-26T21:51:53.036000Z</time>
      </trkpt>
      <trkpt lat="35.95009201" lon="120.21088606">
        <ele>38.277150858042944</ele>
        <time>2026-05-26T21:51:59.989000Z</time>
      </trkpt>
      <trkpt lat="35.95009201" lon="120.21088606">
        <time>2026-05-26T21:52:00.869000Z</time>
      </trkpt>
      <trkpt lat="35.94999943" lon="120.21089483">
        <time>2026-05-26T21:52:02.984000Z</time>
      </trkpt>
      <trkpt lat="35.94990791" lon="120.21091481">
        <ele>38.584833849070776</ele>
        <time>2026-05-26T21:52:07.022000Z</time>
      </trkpt>
      <trkpt lat="35.94981247" lon="120.21091188">
        <time>2026-05-26T21:52:12.019000Z</time>
      </trkpt>
      <trkpt lat="35.9497237" lon="120.21092991">
        <ele>38.60461639225315</ele>
        <time>2026-05-26T21:52:15.978000Z</time>
      </trkpt>
      <trkpt lat="35.9496315" lon="120.21097693">
        <time>2026-05-26T21:52:19.975000Z</time>
      </trkpt>
      <trkpt lat="35.94954825" lon="120.21102432">
        <time>2026-05-26T21:52:24.016000Z</time>
      </trkpt>
      <trkpt lat="35.94945566" lon="120.21104966">
        <ele>38.61389707386326</ele>
        <time>2026-05-26T21:52:28.026000Z</time>
      </trkpt>
      <trkpt lat="35.94934677" lon="120.211076">
        <time>2026-05-26T21:52:33.037000Z</time>
      </trkpt>
      <trkpt lat="35.94925044" lon="120.2111175">
        <ele>38.76355384647678</ele>
        <time>2026-05-26T21:52:37.994000Z</time>
      </trkpt>
      <trkpt lat="35.94915349" lon="120.21113822">
        <time>2026-05-26T21:52:43.980000Z</time>
      </trkpt>
      <trkpt lat="35.94915349" lon="120.21113822">
        <time>2026-05-26T21:52:46.876000Z</time>
      </trkpt>
      <trkpt lat="35.94905347" lon="120.21114774">
        <ele>38.54407428562473</ele>
        <time>2026-05-26T21:52:50.984000Z</time>
      </trkpt>
      <trkpt lat="35.94905347" lon="120.21114774">
        <time>2026-05-26T21:52:56.878000Z</time>
      </trkpt>
      <trkpt lat="35.94895561" lon="120.21115856">
        <time>2026-05-26T21:52:56.981000Z</time>
      </trkpt>
      <trkpt lat="35.94884496" lon="120.21119559">
        <ele>38.744891870616186</ele>
        <time>2026-05-26T21:53:01.978000Z</time>
      </trkpt>
      <trkpt lat="35.94875607" lon="120.2112395">
        <time>2026-05-26T21:53:06.003000Z</time>
      </trkpt>
      <trkpt lat="35.94866698" lon="120.21125632">
        <time>2026-05-26T21:53:09.962000Z</time>
      </trkpt>
      <trkpt lat="35.94857731" lon="120.21128283">
        <ele>38.73361467182468</ele>
        <time>2026-05-26T21:53:14Z</time>
      </trkpt>
      <trkpt lat="35.94847187" lon="120.21130913">
        <time>2026-05-26T21:53:18.989000Z</time>
      </trkpt>
      <trkpt lat="35.94837883" lon="120.21132999">
        <ele>38.42564033329319</ele>
        <time>2026-05-26T21:53:24.996000Z</time>
      </trkpt>
      <trkpt lat="35.94837883" lon="120.21132999">
        <time>2026-05-26T21:53:27.884000Z</time>
      </trkpt>
      <trkpt lat="35.94827933" lon="120.21133189">
        <ele>38.448702085612524</ele>
        <time>2026-05-26T21:53:33.012000Z</time>
      </trkpt>
      <trkpt lat="35.94818506" lon="120.21135861">
        <time>2026-05-26T21:53:40.001000Z</time>
      </trkpt>
      <trkpt lat="35.94808995" lon="120.21139875">
        <ele>38.627442110179175</ele>
        <time>2026-05-26T21:53:46.990000Z</time>
      </trkpt>
      <trkpt lat="35.94808995" lon="120.21139875">
        <time>2026-05-26T21:53:48.887000Z</time>
      </trkpt>
      <trkpt lat="35.94799778" lon="120.2114102">
        <time>2026-05-26T21:53:51.973000Z</time>
      </trkpt>
      <trkpt lat="35.94790668" lon="120.2114443">
        <ele>38.55889486133884</ele>
        <time>2026-05-26T21:53:55.996000Z</time>
      </trkpt>
      <trkpt lat="35.947805" lon="120.2114815">
        <time>2026-05-26T21:54:00.982000Z</time>
      </trkpt>
      <trkpt lat="35.94769934" lon="120.21152522">
        <time>2026-05-26T21:54:04.989000Z</time>
      </trkpt>
      <trkpt lat="35.94760677" lon="120.21154149">
        <ele>38.46155237018894</ele>
        <time>2026-05-26T21:54:09.999000Z</time>
      </trkpt>
      <trkpt lat="35.94750996" lon="120.2115472">
        <time>2026-05-26T21:54:15.012000Z</time>
      </trkpt>
      <trkpt lat="35.94750996" lon="120.2115472">
        <ele>38.13335870563816</ele>
        <time>2026-05-26T21:54:18.894000Z</time>
      </trkpt>
      <trkpt lat="35.94741161" lon="120.21156642">
        <time>2026-05-26T21:54:21.981000Z</time>
      </trkpt>
      <trkpt lat="35.94731717" lon="120.2115874">
        <time>2026-05-26T21:54:25.988000Z</time>
      </trkpt>
      <trkpt lat="35.94722602" lon="120.21161201">
        <ele>38.21449254810642</ele>
        <time>2026-05-26T21:54:30.019000Z</time>
      </trkpt>
      <trkpt lat="35.94722602" lon="120.21161201">
        <time>2026-05-26T21:54:33.021000Z</time>
      </trkpt>
      <trkpt lat="35.94712055" lon="120.21163784">
        <time>2026-05-26T21:54:35.043000Z</time>
      </trkpt>
      <trkpt lat="35.94703159" lon="120.21166641">
        <ele>37.9368193036301</ele>
        <time>2026-05-26T21:54:38.984000Z</time>
      </trkpt>
      <trkpt lat="35.94703159" lon="120.21166641">
        <time>2026-05-26T21:54:44.904000Z</time>
      </trkpt>
      <trkpt lat="35.94692932" lon="120.21167965">
        <time>2026-05-26T21:54:46.985000Z</time>
      </trkpt>
      <trkpt lat="35.94683277" lon="120.21171588">
        <ele>37.950644243357885</ele>
        <time>2026-05-26T21:54:55.079000Z</time>
      </trkpt>
      <trkpt lat="35.94673505" lon="120.21173735">
        <ele>37.788452375529516</ele>
        <time>2026-05-26T21:55:02.995000Z</time>
      </trkpt>
      <trkpt lat="35.94673505" lon="120.21173735">
        <time>2026-05-26T21:55:04.981000Z</time>
      </trkpt>
      <trkpt lat="35.94664442" lon="120.21178279">
        <time>2026-05-26T21:55:09.003000Z</time>
      </trkpt>
      <trkpt lat="35.94656586" lon="120.21183784">
        <ele>38.00268386661838</ele>
        <time>2026-05-26T21:55:13.032000Z</time>
      </trkpt>
      <trkpt lat="35.94645543" lon="120.21185613">
        <time>2026-05-26T21:55:16.995000Z</time>
      </trkpt>
      <trkpt lat="35.94634663" lon="120.2118654">
        <time>2026-05-26T21:55:20.977000Z</time>
      </trkpt>
      <trkpt lat="35.94624657" lon="120.21190707">
        <ele>38.12784122288059</ele>
        <time>2026-05-26T21:55:25.027000Z</time>
      </trkpt>
      <trkpt lat="35.94614781" lon="120.21194229">
        <time>2026-05-26T21:55:30.045000Z</time>
      </trkpt>
      <trkpt lat="35.94606144" lon="120.21197511">
        <ele>38.19336961567234</ele>
        <time>2026-05-26T21:55:33.982000Z</time>
      </trkpt>
      <trkpt lat="35.94596017" lon="120.21200552">
        <time>2026-05-26T21:55:39Z</time>
      </trkpt>
      <trkpt lat="35.94596017" lon="120.21200552">
        <ele>37.72105001270603</ele>
        <time>2026-05-26T21:55:44.922000Z</time>
      </trkpt>
      <trkpt lat="35.9458659" lon="120.21204174">
        <time>2026-05-26T21:55:46.059000Z</time>
      </trkpt>
      <trkpt lat="35.94577982" lon="120.21207928">
        <time>2026-05-26T21:55:52.988000Z</time>
      </trkpt>
      <trkpt lat="35.94569219" lon="120.21211172">
        <ele>38.012279260752905</ele>
        <time>2026-05-26T21:56:00.020000Z</time>
      </trkpt>
      <trkpt lat="35.94559683" lon="120.21214157">
        <ele>37.663075674174536</ele>
        <time>2026-05-26T21:56:08.005000Z</time>
      </trkpt>
      <trkpt lat="35.94549904" lon="120.2121776">
        <time>2026-05-26T21:56:14.991000Z</time>
      </trkpt>
      <trkpt lat="35.94549904" lon="120.2121776">
        <ele>38.65498946964573</ele>
        <time>2026-05-26T21:56:17.930000Z</time>
      </trkpt>
      <trkpt lat="35.94539598" lon="120.21223696">
        <time>2026-05-26T21:56:20.029000Z</time>
      </trkpt>
      <trkpt lat="35.94528838" lon="120.21227616">
        <time>2026-05-26T21:56:23.984000Z</time>
      </trkpt>
      <trkpt lat="35.94519268" lon="120.21231392">
        <ele>38.475164640544165</ele>
        <time>2026-05-26T21:56:28Z</time>
      </trkpt>
      <trkpt lat="35.94509338" lon="120.21237068">
        <time>2026-05-26T21:56:33.018000Z</time>
      </trkpt>
      <trkpt lat="35.94500838" lon="120.21242316">
        <time>2026-05-26T21:56:37.054000Z</time>
      </trkpt>
      <trkpt lat="35.9449036" lon="120.2124676">
        <ele>38.63160775959324</ele>
        <time>2026-05-26T21:56:41.985000Z</time>
      </trkpt>
      <trkpt lat="35.94480604" lon="120.21251798">
        <time>2026-05-26T21:56:47Z</time>
      </trkpt>
      <trkpt lat="35.94470793" lon="120.21255891">
        <ele>38.20759605228733</ele>
        <time>2026-05-26T21:56:52.034000Z</time>
      </trkpt>
      <trkpt lat="35.94470793" lon="120.21255891">
        <time>2026-05-26T21:56:55.934000Z</time>
      </trkpt>
      <trkpt lat="35.94461617" lon="120.21259474">
        <time>2026-05-26T21:56:57.994000Z</time>
      </trkpt>
      <trkpt lat="35.94452792" lon="120.2126499">
        <ele>38.48220371067356</ele>
        <time>2026-05-26T21:57:06.982000Z</time>
      </trkpt>
      <trkpt lat="35.94445207" lon="120.21270947">
        <ele>38.45482848942112</ele>
        <time>2026-05-26T21:57:15.006000Z</time>
      </trkpt>
      <trkpt lat="35.94436788" lon="120.21275434">
        <time>2026-05-26T21:57:20.960000Z</time>
      </trkpt>
      <trkpt lat="35.94436788" lon="120.21275434">
        <ele>38.845298040507544</ele>
        <time>2026-05-26T21:57:23.193000Z</time>
      </trkpt>
      <trkpt lat="35.94427959" lon="120.21278101">
        <time>2026-05-26T21:57:24.969000Z</time>
      </trkpt>
      <trkpt lat="35.94417774" lon="120.21283269">
        <time>2026-05-26T21:57:27.975000Z</time>
      </trkpt>
      <trkpt lat="35.94409577" lon="120.21288871">
        <ele>39.39052890598606</ele>
        <time>2026-05-26T21:57:31.984000Z</time>
      </trkpt>
      <trkpt lat="35.94399539" lon="120.2129476">
        <time>2026-05-26T21:57:36.986000Z</time>
      </trkpt>
      <trkpt lat="35.94390459" lon="120.21297927">
        <time>2026-05-26T21:57:40.983000Z</time>
      </trkpt>
      <trkpt lat="35.94383076" lon="120.21306015">
        <ele>39.907717931864966</ele>
        <time>2026-05-26T21:57:45.007000Z</time>
      </trkpt>
      <trkpt lat="35.94373729" lon="120.2130547">
        <time>2026-05-26T21:57:50.004000Z</time>
      </trkpt>
      <trkpt lat="35.94367906" lon="120.21294449">
        <ele>39.900807607768286</ele>
        <time>2026-05-26T21:57:56Z</time>
      </trkpt>
      <trkpt lat="35.94362051" lon="120.21285532">
        <time>2026-05-26T21:57:59.986000Z</time>
      </trkpt>
      <trkpt lat="35.94356646" lon="120.21275164">
        <time>2026-05-26T21:58:02.986000Z</time>
      </trkpt>
      <trkpt lat="35.94350612" lon="120.21264231">
        <ele>39.961198080180395</ele>
        <time>2026-05-26T21:58:07.998000Z</time>
      </trkpt>
      <trkpt lat="35.9434315" lon="120.21255121">
        <time>2026-05-26T21:58:13.033000Z</time>
      </trkpt>
      <trkpt lat="35.9434315" lon="120.21255121">
        <ele>39.64304422199558</ele>
        <time>2026-05-26T21:58:19.239000Z</time>
      </trkpt>
      <trkpt lat="35.94335418" lon="120.21247291">
        <time>2026-05-26T21:58:20.001000Z</time>
      </trkpt>
      <trkpt lat="35.94330113" lon="120.21235925">
        <ele>39.58533738910984</ele>
        <time>2026-05-26T21:58:26.998000Z</time>
      </trkpt>
      <trkpt lat="35.94325674" lon="120.21226237">
        <time>2026-05-26T21:58:33.974000Z</time>
      </trkpt>
      <trkpt lat="35.94320602" lon="120.21214342">
        <ele>39.75656007587742</ele>
        <time>2026-05-26T21:58:39.981000Z</time>
      </trkpt>
      <trkpt lat="35.94320602" lon="120.21214342">
        <time>2026-05-26T21:58:40.979000Z</time>
      </trkpt>
      <trkpt lat="35.94316472" lon="120.2120443">
        <time>2026-05-26T21:58:43.972000Z</time>
      </trkpt>
      <trkpt lat="35.94310597" lon="120.21193728">
        <time>2026-05-26T21:58:48.022000Z</time>
      </trkpt>
      <trkpt lat="35.94304283" lon="120.21183499">
        <ele>39.67758821308445</ele>
        <time>2026-05-26T21:58:54.965000Z</time>
      </trkpt>
      <trkpt lat="35.94298573" lon="120.2117438">
        <time>2026-05-26T21:58:59.006000Z</time>
      </trkpt>
      <trkpt lat="35.94291993" lon="120.21164767">
        <ele>39.59962152302097</ele>
        <time>2026-05-26T21:59:02.996000Z</time>
      </trkpt>
      <trkpt lat="35.94285832" lon="120.21154982">
        <time>2026-05-26T21:59:06.975000Z</time>
      </trkpt>
      <trkpt lat="35.94279375" lon="120.2114636">
        <time>2026-05-26T21:59:10.987000Z</time>
      </trkpt>
      <trkpt lat="35.94272945" lon="120.21137552">
        <ele>39.32910369694065</ele>
        <time>2026-05-26T21:59:14.987000Z</time>
      </trkpt>
      <trkpt lat="35.94266833" lon="120.21127297">
        <time>2026-05-26T21:59:19.015000Z</time>
      </trkpt>
      <trkpt lat="35.94262126" lon="120.21115975">
        <ele>38.977764833567846</ele>
        <time>2026-05-26T21:59:23.008000Z</time>
      </trkpt>
      <trkpt lat="35.94257715" lon="120.21104975">
        <time>2026-05-26T21:59:29.998000Z</time>
      </trkpt>
      <trkpt lat="35.94257715" lon="120.21104975">
        <time>2026-05-26T21:59:30.993000Z</time>
      </trkpt>
      <trkpt lat="35.94251998" lon="120.21096333">
        <ele>38.668322313426245</ele>
        <time>2026-05-26T21:59:34.985000Z</time>
      </trkpt>
      <trkpt lat="35.94246136" lon="120.21087563">
        <time>2026-05-26T21:59:41.996000Z</time>
      </trkpt>
      <trkpt lat="35.94239931" lon="120.21076722">
        <ele>38.716580141185034</ele>
        <time>2026-05-26T21:59:49.977000Z</time>
      </trkpt>
      <trkpt lat="35.94239931" lon="120.21076722">
        <time>2026-05-26T21:59:50.976000Z</time>
      </trkpt>
      <trkpt lat="35.94233352" lon="120.21068054">
        <ele>38.916053045390356</ele>
        <time>2026-05-26T21:59:55.018000Z</time>
      </trkpt>
      <trkpt lat="35.9422791" lon="120.21057564">
        <time>2026-05-26T21:59:59.023000Z</time>
      </trkpt>
      <trkpt lat="35.9422791" lon="120.21057564">
        <time>2026-05-26T22:00:03.978000Z</time>
      </trkpt>
      <trkpt lat="35.94221045" lon="120.21047591">
        <time>2026-05-26T22:00:04.984000Z</time>
      </trkpt>
      <trkpt lat="35.94216178" lon="120.21037143">
        <ele>38.48740171253513</ele>
        <time>2026-05-26T22:00:11.963000Z</time>
      </trkpt>
      <trkpt lat="35.94210867" lon="120.21025892">
        <ele>38.59232972919773</ele>
        <time>2026-05-26T22:00:19.010000Z</time>
      </trkpt>
      <trkpt lat="35.94210867" lon="120.21025892">
        <time>2026-05-26T22:00:19.988000Z</time>
      </trkpt>
      <trkpt lat="35.94205084" lon="120.21014153">
        <time>2026-05-26T22:00:23.989000Z</time>
      </trkpt>
      <trkpt lat="35.94200055" lon="120.2100452">
        <ele>38.63270257770847</ele>
        <time>2026-05-26T22:00:27.980000Z</time>
      </trkpt>
      <trkpt lat="35.94193367" lon="120.20993464">
        <time>2026-05-26T22:00:33.129000Z</time>
      </trkpt>
      <trkpt lat="35.94187561" lon="120.20983809">
        <ele>38.540201414225805</ele>
        <time>2026-05-26T22:00:37.024000Z</time>
      </trkpt>
      <trkpt lat="35.94181974" lon="120.20974705">
        <time>2026-05-26T22:00:40.981000Z</time>
      </trkpt>
      <trkpt lat="35.94177629" lon="120.20963795">
        <time>2026-05-26T22:00:44.987000Z</time>
      </trkpt>
      <trkpt lat="35.94172951" lon="120.20953901">
        <ele>38.057132471202124</ele>
        <time>2026-05-26T22:00:49.021000Z</time>
      </trkpt>
      <trkpt lat="35.94171835" lon="120.20942004">
        <time>2026-05-26T22:00:53.993000Z</time>
      </trkpt>
      <trkpt lat="35.94171835" lon="120.20942004">
        <ele>37.10051654636692</ele>
        <time>2026-05-26T22:01:00.977000Z</time>
      </trkpt>
      <trkpt lat="35.94174403" lon="120.20929813">
        <time>2026-05-26T22:01:00.988000Z</time>
      </trkpt>
      <trkpt lat="35.94206078" lon="120.20930104">
        <ele>36.951544035075415</ele>
        <time>2026-05-26T22:01:51.028000Z</time>
      </trkpt>
      <trkpt lat="35.94215377" lon="120.20928447">
        <ele>36.8201897031052</ele>
        <time>2026-05-26T22:01:55.072000Z</time>
      </trkpt>
      <trkpt lat="35.94215377" lon="120.20928447">
        <time>2026-05-26T22:01:59.778000Z</time>
      </trkpt>
      <trkpt lat="35.94226062" lon="120.20924408">
        <time>2026-05-26T22:01:59.981000Z</time>
      </trkpt>
      <trkpt lat="35.94235949" lon="120.2091927">
        <ele>36.80770992100071</ele>
        <time>2026-05-26T22:02:04.963000Z</time>
      </trkpt>
      <trkpt lat="35.94245852" lon="120.20913825">
        <time>2026-05-26T22:02:09.957000Z</time>
      </trkpt>
      <trkpt lat="35.94254306" lon="120.2090898">
        <ele>36.782612074015844</ele>
        <time>2026-05-26T22:02:13.991000Z</time>
      </trkpt>
      <trkpt lat="35.94262549" lon="120.20904561">
        <time>2026-05-26T22:02:17.971000Z</time>
      </trkpt>
      <trkpt lat="35.94271492" lon="120.20901518">
        <time>2026-05-26T22:02:21.981000Z</time>
      </trkpt>
      <trkpt lat="35.9428096" lon="120.20899925">
        <ele>36.837482679484594</ele>
        <time>2026-05-26T22:02:25.957000Z</time>
      </trkpt>
      <trkpt lat="35.94290211" lon="120.20899058">
        <time>2026-05-26T22:02:29.976000Z</time>
      </trkpt>
      <trkpt lat="35.94300949" lon="120.20898619">
        <ele>36.76082919895481</ele>
        <time>2026-05-26T22:02:34.987000Z</time>
      </trkpt>
      <trkpt lat="35.94310164" lon="120.2089793">
        <time>2026-05-26T22:02:38.980000Z</time>
      </trkpt>
      <trkpt lat="35.94319294" lon="120.20896399">
        <time>2026-05-26T22:02:42.985000Z</time>
      </trkpt>
      <trkpt lat="35.94328834" lon="120.20893474">
        <ele>37.016838300822485</ele>
        <time>2026-05-26T22:02:47.149000Z</time>
      </trkpt>
      <trkpt lat="35.94338382" lon="120.20889658">
        <time>2026-05-26T22:02:50.992000Z</time>
      </trkpt>
      <trkpt lat="35.94347972" lon="120.20885691">
        <ele>36.79444145023655</ele>
        <time>2026-05-26T22:02:54.978000Z</time>
      </trkpt>
      <trkpt lat="35.94356676" lon="120.20882628">
        <time>2026-05-26T22:02:59.994000Z</time>
      </trkpt>
      <trkpt lat="35.94356676" lon="120.20882628">
        <time>2026-05-26T22:03:01.803000Z</time>
      </trkpt>
      <trkpt lat="35.94365116" lon="120.20878717">
        <ele>36.600666273234594</ele>
        <time>2026-05-26T22:03:05.983000Z</time>
      </trkpt>
      <trkpt lat="35.94374691" lon="120.20878905">
        <time>2026-05-26T22:03:14.979000Z</time>
      </trkpt>
      <trkpt lat="35.94383603" lon="120.20880789">
        <ele>36.46586726963352</ele>
        <time>2026-05-26T22:03:21.989000Z</time>
      </trkpt>
      <trkpt lat="35.94383603" lon="120.20880789">
        <ele>36.73098205387424</ele>
        <time>2026-05-26T22:03:26.817000Z</time>
      </trkpt>
      <trkpt lat="35.94393594" lon="120.20882418">
        <time>2026-05-26T22:03:27.983000Z</time>
      </trkpt>
      <trkpt lat="35.94403254" lon="120.20885996">
        <time>2026-05-26T22:03:31.990000Z</time>
      </trkpt>
      <trkpt lat="35.94412681" lon="120.20889885">
        <time>2026-05-26T22:03:35.971000Z</time>
      </trkpt>
      <trkpt lat="35.94422381" lon="120.20892507">
        <ele>36.80612777530979</ele>
        <time>2026-05-26T22:03:39.974000Z</time>
      </trkpt>
      <trkpt lat="35.94432009" lon="120.20893401">
        <time>2026-05-26T22:03:43.972000Z</time>
      </trkpt>
      <trkpt lat="35.94441971" lon="120.20892929">
        <time>2026-05-26T22:03:47.994000Z</time>
      </trkpt>
      <trkpt lat="35.94451019" lon="120.20891578">
        <ele>36.79443763553928</ele>
        <time>2026-05-26T22:03:51.986000Z</time>
      </trkpt>
      <trkpt lat="35.94460718" lon="120.20890251">
        <time>2026-05-26T22:03:55.978000Z</time>
      </trkpt>
      <trkpt lat="35.94469688" lon="120.20889002">
        <ele>36.64706252872776</ele>
        <time>2026-05-26T22:03:59.978000Z</time>
      </trkpt>
      <trkpt lat="35.94478872" lon="120.20887609">
        <time>2026-05-26T22:04:03.976000Z</time>
      </trkpt>
      <trkpt lat="35.94488944" lon="120.20885811">
        <time>2026-05-26T22:04:07.985000Z</time>
      </trkpt>
      <trkpt lat="35.94498499" lon="120.20883992">
        <ele>36.695663679240454</ele>
        <time>2026-05-26T22:04:11.979000Z</time>
      </trkpt>
      <trkpt lat="35.94508547" lon="120.20882954">
        <time>2026-05-26T22:04:17.974000Z</time>
      </trkpt>
      <trkpt lat="35.94508547" lon="120.20882954">
        <time>2026-05-26T22:04:19.816000Z</time>
      </trkpt>
      <trkpt lat="35.94517606" lon="120.20880257">
        <ele>36.45798610508274</ele>
        <time>2026-05-26T22:04:24.972000Z</time>
      </trkpt>
      <trkpt lat="35.94527711" lon="120.20880403">
        <time>2026-05-26T22:04:29.971000Z</time>
      </trkpt>
      <trkpt lat="35.94527711" lon="120.20880403">
        <time>2026-05-26T22:04:31.817000Z</time>
      </trkpt>
      <trkpt lat="35.94537771" lon="120.20879358">
        <ele>36.48597167789768</ele>
        <time>2026-05-26T22:04:33.967000Z</time>
      </trkpt>
      <trkpt lat="35.9454725" lon="120.20878033">
        <time>2026-05-26T22:04:37.975000Z</time>
      </trkpt>
      <trkpt lat="35.94557208" lon="120.20876879">
        <time>2026-05-26T22:04:41.970000Z</time>
      </trkpt>
      <trkpt lat="35.94566882" lon="120.20875918">
        <ele>36.891296613810766</ele>
        <time>2026-05-26T22:04:45.981000Z</time>
      </trkpt>
      <trkpt lat="35.9457634" lon="120.2087473">
        <time>2026-05-26T22:04:49.969000Z</time>
      </trkpt>
      <trkpt lat="35.94586091" lon="120.20873235">
        <ele>37.06270049869846</ele>
        <time>2026-05-26T22:04:53.969000Z</time>
      </trkpt>
      <trkpt lat="35.94596926" lon="120.20872187">
        <time>2026-05-26T22:04:57.987000Z</time>
      </trkpt>
      <trkpt lat="35.94606471" lon="120.20871248">
        <time>2026-05-26T22:05:01.967000Z</time>
      </trkpt>
      <trkpt lat="35.94616223" lon="120.20870189">
        <ele>36.9791252499802</ele>
        <time>2026-05-26T22:05:05.991000Z</time>
      </trkpt>
      <trkpt lat="35.9462577" lon="120.20868889">
        <time>2026-05-26T22:05:10.006000Z</time>
      </trkpt>
      <trkpt lat="35.94635007" lon="120.20867504">
        <time>2026-05-26T22:05:13.961000Z</time>
      </trkpt>
      <trkpt lat="35.94644153" lon="120.20866367">
        <ele>36.89461349308323</ele>
        <time>2026-05-26T22:05:17.968000Z</time>
      </trkpt>
      <trkpt lat="35.94653988" lon="120.20865367">
        <time>2026-05-26T22:05:21.962000Z</time>
      </trkpt>
      <trkpt lat="35.9466502" lon="120.20863933">
        <ele>36.990744817851294</ele>
        <time>2026-05-26T22:05:26.978000Z</time>
      </trkpt>
      <trkpt lat="35.94674741" lon="120.2086286">
        <time>2026-05-26T22:05:30.980000Z</time>
      </trkpt>
      <trkpt lat="35.94684978" lon="120.20862232">
        <ele>36.750494230387915</ele>
        <time>2026-05-26T22:05:36.998000Z</time>
      </trkpt>
      <trkpt lat="35.94684978" lon="120.20862232">
        <time>2026-05-26T22:05:39.852000Z</time>
      </trkpt>
      <trkpt lat="35.94694375" lon="120.20861382">
        <time>2026-05-26T22:05:43.990000Z</time>
      </trkpt>
      <trkpt lat="35.94703139" lon="120.20857027">
        <ele>36.779767263530005</ele>
        <time>2026-05-26T22:05:50.980000Z</time>
      </trkpt>
      <trkpt lat="35.9470566" lon="120.20845949">
        <time>2026-05-26T22:05:56.994000Z</time>
      </trkpt>
      <trkpt lat="35.94705122" lon="120.20833768">
        <ele>36.998995054362524</ele>
        <time>2026-05-26T22:06:03.973000Z</time>
      </trkpt>
      <trkpt lat="35.94705122" lon="120.20833768">
        <ele>37.01269744694065</ele>
        <time>2026-05-26T22:06:09.918000Z</time>
      </trkpt>
      <trkpt lat="35.94703692" lon="120.20820829">
        <time>2026-05-26T22:06:09.988000Z</time>
      </trkpt>
      <trkpt lat="35.94702877" lon="120.20808552">
        <time>2026-05-26T22:06:13.994000Z</time>
      </trkpt>
      <trkpt lat="35.9470196" lon="120.20796433">
        <time>2026-05-26T22:06:17.999000Z</time>
      </trkpt>
      <trkpt lat="35.94700594" lon="120.20782481">
        <ele>37.08478187382053</ele>
        <time>2026-05-26T22:06:23.023000Z</time>
      </trkpt>
      <trkpt lat="35.94700309" lon="120.20771012">
        <time>2026-05-26T22:06:26.979000Z</time>
      </trkpt>
      <trkpt lat="35.94699457" lon="120.20758804">
        <ele>37.09629653751682</ele>
        <time>2026-05-26T22:06:31.036000Z</time>
      </trkpt>
      <trkpt lat="35.94698542" lon="120.20747235">
        <time>2026-05-26T22:06:35.002000Z</time>
      </trkpt>
      <trkpt lat="35.94697944" lon="120.20735254">
        <time>2026-05-26T22:06:38.994000Z</time>
      </trkpt>
      <trkpt lat="35.946969" lon="120.20724231">
        <ele>37.131282079814184</ele>
        <time>2026-05-26T22:06:42.979000Z</time>
      </trkpt>
      <trkpt lat="35.94699961" lon="120.20713655">
        <time>2026-05-26T22:06:46.989000Z</time>
      </trkpt>
      <trkpt lat="35.94704367" lon="120.2070369">
        <time>2026-05-26T22:06:50.967000Z</time>
      </trkpt>
      <trkpt lat="35.94708732" lon="120.20693773">
        <ele>37.176601637004126</ele>
        <time>2026-05-26T22:06:54.980000Z</time>
      </trkpt>
      <trkpt lat="35.9471303" lon="120.20683354">
        <time>2026-05-26T22:06:58.999000Z</time>
      </trkpt>
      <trkpt lat="35.94717045" lon="120.2067297">
        <ele>37.12630008518528</ele>
        <time>2026-05-26T22:07:04.984000Z</time>
      </trkpt>
      <trkpt lat="35.94717045" lon="120.2067297">
        <ele>37.01177429020237</ele>
        <time>2026-05-26T22:07:12.896000Z</time>
      </trkpt>
      <trkpt lat="35.9472176" lon="120.20662235">
        <time>2026-05-26T22:07:12.995000Z</time>
      </trkpt>
      <trkpt lat="35.94726649" lon="120.20651294">
        <time>2026-05-26T22:07:20Z</time>
      </trkpt>
      <trkpt lat="35.94730765" lon="120.20641238">
        <ele>37.02134631931614</ele>
        <time>2026-05-26T22:07:25.978000Z</time>
      </trkpt>
      <trkpt lat="35.94735275" lon="120.20630038">
        <time>2026-05-26T22:07:32.993000Z</time>
      </trkpt>
      <trkpt lat="35.94739534" lon="120.20619092">
        <ele>36.91135047733616</ele>
        <time>2026-05-26T22:07:38.977000Z</time>
      </trkpt>
      <trkpt lat="35.94739534" lon="120.20619092">
        <time>2026-05-26T22:07:40.894000Z</time>
      </trkpt>
      <trkpt lat="35.94744531" lon="120.20607115">
        <time>2026-05-26T22:07:43.979000Z</time>
      </trkpt>
      <trkpt lat="35.94749193" lon="120.20595239">
        <ele>37.09640239536594</ele>
        <time>2026-05-26T22:07:48.986000Z</time>
      </trkpt>
      <trkpt lat="35.94754466" lon="120.20583203">
        <time>2026-05-26T22:07:53.985000Z</time>
      </trkpt>
      <trkpt lat="35.94758486" lon="120.20573128">
        <ele>37.10951160251926</ele>
        <time>2026-05-26T22:07:57.987000Z</time>
      </trkpt>
      <trkpt lat="35.94763438" lon="120.20560717">
        <time>2026-05-26T22:08:02.976000Z</time>
      </trkpt>
      <trkpt lat="35.94768398" lon="120.20548505">
        <ele>37.103616941569555</ele>
        <time>2026-05-26T22:08:07.983000Z</time>
      </trkpt>
      <trkpt lat="35.94772021" lon="120.20537325">
        <time>2026-05-26T22:08:11.979000Z</time>
      </trkpt>
      <trkpt lat="35.94776542" lon="120.20526834">
        <time>2026-05-26T22:08:15.988000Z</time>
      </trkpt>
      <trkpt lat="35.9478114" lon="120.20515952">
        <ele>37.074410665629614</ele>
        <time>2026-05-26T22:08:19.955000Z</time>
      </trkpt>
      <trkpt lat="35.94785696" lon="120.20505048">
        <time>2026-05-26T22:08:23.975000Z</time>
      </trkpt>
      <trkpt lat="35.94790769" lon="120.20494044">
        <ele>36.88084052860569</ele>
        <time>2026-05-26T22:08:27.975000Z</time>
      </trkpt>
      <trkpt lat="35.94790769" lon="120.20494044">
        <time>2026-05-26T22:08:33.914000Z</time>
      </trkpt>
      <trkpt lat="35.94793848" lon="120.20482062">
        <time>2026-05-26T22:08:33.995000Z</time>
      </trkpt>
      <trkpt lat="35.94791717" lon="120.20469608">
        <ele>37.111052740214575</ele>
        <time>2026-05-26T22:08:41.979000Z</time>
      </trkpt>
      <trkpt lat="35.947926" lon="120.20457859">
        <time>2026-05-26T22:08:48.998000Z</time>
      </trkpt>
      <trkpt lat="35.94792325" lon="120.20446766">
        <ele>37.03337405979465</ele>
        <time>2026-05-26T22:08:55.001000Z</time>
      </trkpt>
      <trkpt lat="35.94790614" lon="120.20434216">
        <ele>36.98086379825901</ele>
        <time>2026-05-26T22:09:01.978000Z</time>
      </trkpt>
      <trkpt lat="35.94792003" lon="120.20423247">
        <time>2026-05-26T22:09:09.998000Z</time>
      </trkpt>
      <trkpt lat="35.94801539" lon="120.20426122">
        <ele>37.14067291080784</ele>
        <time>2026-05-26T22:09:14.985000Z</time>
      </trkpt>
      <trkpt lat="35.94801539" lon="120.20426122">
        <time>2026-05-26T22:09:16.923000Z</time>
      </trkpt>
      <trkpt lat="35.94809632" lon="120.20431855">
        <time>2026-05-26T22:09:18.960000Z</time>
      </trkpt>
      <trkpt lat="35.94817179" lon="120.20437957">
        <ele>37.300874937175024</ele>
        <time>2026-05-26T22:09:22.974000Z</time>
      </trkpt>
      <trkpt lat="35.94825051" lon="120.20445042">
        <time>2026-05-26T22:09:26.990000Z</time>
      </trkpt>
      <trkpt lat="35.94832802" lon="120.20452401">
        <time>2026-05-26T22:09:30.995000Z</time>
      </trkpt>
      <trkpt lat="35.94840465" lon="120.20459881">
        <ele>37.53588603794407</ele>
        <time>2026-05-26T22:09:34.995000Z</time>
      </trkpt>
      <trkpt lat="35.94848371" lon="120.20467515">
        <time>2026-05-26T22:09:38.969000Z</time>
      </trkpt>
      <trkpt lat="35.94855435" lon="120.20475222">
        <time>2026-05-26T22:09:42.979000Z</time>
      </trkpt>
      <trkpt lat="35.94863533" lon="120.20483249">
        <ele>37.30863307773899</ele>
        <time>2026-05-26T22:09:48.999000Z</time>
      </trkpt>
      <trkpt lat="35.94872414" lon="120.20488822">
        <time>2026-05-26T22:09:54.001000Z</time>
      </trkpt>
      <trkpt lat="35.94872414" lon="120.20488822">
        <time>2026-05-26T22:09:55.006000Z</time>
      </trkpt>
      <trkpt lat="35.94882051" lon="120.20486055">
        <ele>37.174163091777075</ele>
        <time>2026-05-26T22:10:01.975000Z</time>
      </trkpt>
      <trkpt lat="35.94882051" lon="120.20486055">
        <ele>37.74016689121555</ele>
        <time>2026-05-26T22:10:20.957000Z</time>
      </trkpt>
      <trkpt lat="35.94882051" lon="120.20486055">
        <time>2026-05-26T22:10:20.960000Z</time>
      </trkpt>
      <trkpt lat="35.94885552" lon="120.20497931">
        <time>2026-05-26T22:10:22.965000Z</time>
      </trkpt>
      <trkpt lat="35.94888804" lon="120.20508333">
        <ele>37.237944830058325</ele>
        <time>2026-05-26T22:10:30.967000Z</time>
      </trkpt>
      <trkpt lat="35.94895346" lon="120.20516173">
        <time>2026-05-26T22:10:37.274000Z</time>
      </trkpt>
      <trkpt lat="35.94895346" lon="120.20516173">
        <time>2026-05-26T22:10:38.970000Z</time>
      </trkpt>
      <trkpt lat="35.949019" lon="120.20524815">
        <ele>37.15749858677219</ele>
        <time>2026-05-26T22:10:40.971000Z</time>
      </trkpt>
      <trkpt lat="35.9490861" lon="120.20533359">
        <time>2026-05-26T22:10:44.988000Z</time>
      </trkpt>
      <trkpt lat="35.94915678" lon="120.20540438">
        <time>2026-05-26T22:10:48.969000Z</time>
      </trkpt>
      <trkpt lat="35.94923741" lon="120.20550121">
        <ele>37.24721645176243</ele>
        <time>2026-05-26T22:10:54.005000Z</time>
      </trkpt>
      <trkpt lat="35.94932234" lon="120.20558257">
        <time>2026-05-26T22:10:59.118000Z</time>
      </trkpt>
      <trkpt lat="35.94939921" lon="120.20567103">
        <ele>37.46445583164524</ele>
        <time>2026-05-26T22:11:03.973000Z</time>
      </trkpt>
      <trkpt lat="35.94946745" lon="120.20574779">
        <time>2026-05-26T22:11:07.980000Z</time>
      </trkpt>
      <trkpt lat="35.94955107" lon="120.20581884">
        <ele>37.55159019291233</ele>
        <time>2026-05-26T22:11:12.996000Z</time>
      </trkpt>
      <trkpt lat="35.94955107" lon="120.20581884">
        <time>2026-05-26T22:11:18.978000Z</time>
      </trkpt>
      <trkpt lat="35.94962657" lon="120.20588187">
        <time>2026-05-26T22:11:18.985000Z</time>
      </trkpt>
      <trkpt lat="35.9496939" lon="120.20596131">
        <ele>37.715942609904516</ele>
        <time>2026-05-26T22:11:23.986000Z</time>
      </trkpt>
      <trkpt lat="35.9496939" lon="120.20596131">
        <time>2026-05-26T22:11:28.978000Z</time>
      </trkpt>
      <trkpt lat="35.94978597" lon="120.2059894">
        <time>2026-05-26T22:11:28.991000Z</time>
      </trkpt>
      <trkpt lat="35.94989372" lon="120.20600426">
        <ele>37.81040881931614</ele>
        <time>2026-05-26T22:11:33.973000Z</time>
      </trkpt>
      <trkpt lat="35.94998084" lon="120.20597241">
        <time>2026-05-26T22:11:37.976000Z</time>
      </trkpt>
      <trkpt lat="35.95008508" lon="120.20593843">
        <time>2026-05-26T22:11:42.977000Z</time>
      </trkpt>
      <trkpt lat="35.95018741" lon="120.20590299">
        <ele>38.00919174015354</ele>
        <time>2026-05-26T22:11:47.983000Z</time>
      </trkpt>
      <trkpt lat="35.95027414" lon="120.20587052">
        <time>2026-05-26T22:11:52.985000Z</time>
      </trkpt>
      <trkpt lat="35.95027414" lon="120.20587052">
        <ele>37.87646650135349</ele>
        <time>2026-05-26T22:11:57.988000Z</time>
      </trkpt>
      <trkpt lat="35.95037009" lon="120.20583615">
        <time>2026-05-26T22:11:59.984000Z</time>
      </trkpt>
      <trkpt lat="35.95043156" lon="120.20575342">
        <ele>37.88134597599338</ele>
        <time>2026-05-26T22:12:07.977000Z</time>
      </trkpt>
      <trkpt lat="35.95043156" lon="120.20575342">
        <time>2026-05-26T22:12:08.984000Z</time>
      </trkpt>
      <trkpt lat="35.95050391" lon="120.20568315">
        <time>2026-05-26T22:12:12.137000Z</time>
      </trkpt>
      <trkpt lat="35.95058355" lon="120.20560935">
        <ele>38.20630859196018</ele>
        <time>2026-05-26T22:12:15.981000Z</time>
      </trkpt>
      <trkpt lat="35.95062985" lon="120.20549735">
        <time>2026-05-26T22:12:19.977000Z</time>
      </trkpt>
      <trkpt lat="35.95064081" lon="120.20538036">
        <time>2026-05-26T22:12:23.987000Z</time>
      </trkpt>
      <trkpt lat="35.95062792" lon="120.2052496">
        <ele>38.37270664036106</ele>
        <time>2026-05-26T22:12:29.004000Z</time>
      </trkpt>
      <trkpt lat="35.95061091" lon="120.20511714">
        <time>2026-05-26T22:12:33.972000Z</time>
      </trkpt>
      <trkpt lat="35.95058725" lon="120.20500205">
        <ele>38.60334180652927</ele>
        <time>2026-05-26T22:12:38.980000Z</time>
      </trkpt>
      <trkpt lat="35.95057343" lon="120.20488819">
        <time>2026-05-26T22:12:45.990000Z</time>
      </trkpt>
      <trkpt lat="35.95057343" lon="120.20488819">
        <ele>38.28441022693943</ele>
        <time>2026-05-26T22:12:48.990000Z</time>
      </trkpt>
      <trkpt lat="35.95066356" lon="120.20484297">
        <time>2026-05-26T22:12:53.971000Z</time>
      </trkpt>
      <trkpt lat="35.95075474" lon="120.20479156">
        <time>2026-05-26T22:12:57.966000Z</time>
      </trkpt>
      <trkpt lat="35.95075474" lon="120.20479156">
        <time>2026-05-26T22:12:58.994000Z</time>
      </trkpt>
      <trkpt lat="35.9508322" lon="120.20469994">
        <ele>38.648814428447</ele>
        <time>2026-05-26T22:13:01.976000Z</time>
      </trkpt>
      <trkpt lat="35.95092174" lon="120.20463102">
        <time>2026-05-26T22:13:05.992000Z</time>
      </trkpt>
      <trkpt lat="35.95101668" lon="120.20458717">
        <ele>38.39633439838718</ele>
        <time>2026-05-26T22:13:10.966000Z</time>
      </trkpt>
      <trkpt lat="35.95101668" lon="120.20458717">
        <time>2026-05-26T22:13:15.964000Z</time>
      </trkpt>
      <trkpt lat="35.95111643" lon="120.20457392">
        <time>2026-05-26T22:13:18.989000Z</time>
      </trkpt>
      <trkpt lat="35.95122423" lon="120.20455378">
        <ele>38.19301103412937</ele>
        <time>2026-05-26T22:13:23.991000Z</time>
      </trkpt>
      <trkpt lat="35.9513263" lon="120.20454166">
        <time>2026-05-26T22:13:27.985000Z</time>
      </trkpt>
      <trkpt lat="35.9513263" lon="120.20454166">
        <time>2026-05-26T22:13:28.970000Z</time>
      </trkpt>
      <trkpt lat="35.95141346" lon="120.20448634">
        <ele>37.64058421909641</ele>
        <time>2026-05-26T22:13:32.956000Z</time>
      </trkpt>
      <trkpt lat="35.95151099" lon="120.2044736">
        <time>2026-05-26T22:13:39.003000Z</time>
      </trkpt>
      <trkpt lat="35.95161348" lon="120.20447882">
        <ele>37.3151323682053</ele>
        <time>2026-05-26T22:13:42.965000Z</time>
      </trkpt>
      <trkpt lat="35.95170387" lon="120.2044667">
        <time>2026-05-26T22:13:46.981000Z</time>
      </trkpt>
      <trkpt lat="35.95179695" lon="120.20445847">
        <ele>37.19465373813938</ele>
        <time>2026-05-26T22:13:53.002000Z</time>
      </trkpt>
      <trkpt lat="35.95179695" lon="120.20445847">
        <time>2026-05-26T22:14:00.415000Z</time>
      </trkpt>
      <trkpt lat="35.95189511" lon="120.20443606">
        <time>2026-05-26T22:14:00.980000Z</time>
      </trkpt>
      <trkpt lat="35.95199494" lon="120.20441786">
        <ele>37.262634504435766</ele>
        <time>2026-05-26T22:14:08.978000Z</time>
      </trkpt>
      <trkpt lat="35.95209234" lon="120.20440238">
        <ele>37.232773054240454</ele>
        <time>2026-05-26T22:14:15.982000Z</time>
      </trkpt>
      <trkpt lat="35.95219046" lon="120.20438601">
        <time>2026-05-26T22:14:23.018000Z</time>
      </trkpt>
      <trkpt lat="35.95229468" lon="120.20438531">
        <ele>37.36982940494846</ele>
        <time>2026-05-26T22:14:29.985000Z</time>
      </trkpt>
      <trkpt lat="35.95239301" lon="120.2043587">
        <ele>37.60362075626682</ele>
        <time>2026-05-26T22:14:37.031000Z</time>
      </trkpt>
      <trkpt lat="35.95239301" lon="120.2043587">
        <time>2026-05-26T22:14:43.012000Z</time>
      </trkpt>
      <trkpt lat="35.95250397" lon="120.20433377">
        <time>2026-05-26T22:14:43.028000Z</time>
      </trkpt>
      <trkpt lat="35.95259379" lon="120.20432648">
        <ele>37.39868568241428</ele>
        <time>2026-05-26T22:14:46.981000Z</time>
      </trkpt>
      <trkpt lat="35.95269512" lon="120.20431023">
        <time>2026-05-26T22:14:50.987000Z</time>
      </trkpt>
      <trkpt lat="35.95278084" lon="120.2042688">
        <time>2026-05-26T22:14:55.017000Z</time>
      </trkpt>
      <trkpt lat="35.95287553" lon="120.20423694">
        <ele>37.65463088810276</ele>
        <time>2026-05-26T22:14:59.031000Z</time>
      </trkpt>
      <trkpt lat="35.95297993" lon="120.20424678">
        <time>2026-05-26T22:15:03.977000Z</time>
      </trkpt>
      <trkpt lat="35.95308725" lon="120.2042359">
        <ele>37.95445178806614</ele>
        <time>2026-05-26T22:15:08.999000Z</time>
      </trkpt>
      <trkpt lat="35.95318827" lon="120.20423247">
        <time>2026-05-26T22:15:14.019000Z</time>
      </trkpt>
      <trkpt lat="35.95328529" lon="120.20421925">
        <time>2026-05-26T22:15:18.040000Z</time>
      </trkpt>
      <trkpt lat="35.95337511" lon="120.20419088">
        <ele>38.04807590305637</ele>
        <time>2026-05-26T22:15:21.982000Z</time>
      </trkpt>
      <trkpt lat="35.95346925" lon="120.2041768">
        <time>2026-05-26T22:15:26.978000Z</time>
      </trkpt>
      <trkpt lat="35.95346925" lon="120.2041768">
        <ele>38.34035466968845</ele>
        <time>2026-05-26T22:15:31.220000Z</time>
      </trkpt>
      <trkpt lat="35.95356467" lon="120.2041718">
        <time>2026-05-26T22:15:33.062000Z</time>
      </trkpt>
      <trkpt lat="35.95365848" lon="120.20416397">
        <time>2026-05-26T22:15:38.984000Z</time>
      </trkpt>
      <trkpt lat="35.95365848" lon="120.20416397">
        <time>2026-05-26T22:15:40.978000Z</time>
      </trkpt>
      <trkpt lat="35.95375508" lon="120.20416601">
        <ele>38.66499637424778</ele>
        <time>2026-05-26T22:15:45.014000Z</time>
      </trkpt>
      <trkpt lat="35.9538427" lon="120.20413857">
        <time>2026-05-26T22:15:50.002000Z</time>
      </trkpt>
      <trkpt lat="35.9538427" lon="120.20413857">
        <time>2026-05-26T22:15:51.025000Z</time>
      </trkpt>
      <trkpt lat="35.95394089" lon="120.20412022">
        <ele>38.802140462992895</ele>
        <time>2026-05-26T22:15:57.985000Z</time>
      </trkpt>
      <trkpt lat="35.95403869" lon="120.20410647">
        <ele>39.18457483112644</ele>
        <time>2026-05-26T22:16:05.995000Z</time>
      </trkpt>
      <trkpt lat="35.95413074" lon="120.20409412">
        <time>2026-05-26T22:16:13.031000Z</time>
      </trkpt>
      <trkpt lat="35.95422401" lon="120.20409012">
        <ele>39.28978132068943</ele>
        <time>2026-05-26T22:16:19.999000Z</time>
      </trkpt>
      <trkpt lat="35.95431252" lon="120.20405239">
        <ele>39.44115136921238</ele>
        <time>2026-05-26T22:16:26.993000Z</time>
      </trkpt>
      <trkpt lat="35.95431252" lon="120.20405239">
        <time>2026-05-26T22:16:34.962000Z</time>
      </trkpt>
      <trkpt lat="35.95440911" lon="120.20405502">
        <time>2026-05-26T22:16:34.971000Z</time>
      </trkpt>
      <trkpt lat="35.95452077" lon="120.20405391">
        <ele>39.97252343952488</ele>
        <time>2026-05-26T22:16:38.980000Z</time>
      </trkpt>
      <trkpt lat="35.95463031" lon="120.20405999">
        <time>2026-05-26T22:16:42.982000Z</time>
      </trkpt>
      <trkpt lat="35.95473972" lon="120.20404253">
        <ele>40.45525525867771</ele>
        <time>2026-05-26T22:16:46.982000Z</time>
      </trkpt>
      <trkpt lat="35.95483248" lon="120.20402018">
        <time>2026-05-26T22:16:50.980000Z</time>
      </trkpt>
      <trkpt lat="35.95492314" lon="120.20402024">
        <time>2026-05-26T22:16:54.979000Z</time>
      </trkpt>
      <trkpt lat="35.95492314" lon="120.20402024">
        <ele>41.19380449116062</ele>
        <time>2026-05-26T22:17:01.970000Z</time>
      </trkpt>
      <trkpt lat="35.95502325" lon="120.20406182">
        <time>2026-05-26T22:17:01.979000Z</time>
      </trkpt>
      <trkpt lat="35.95511887" lon="120.20402301">
        <time>2026-05-26T22:17:05.971000Z</time>
      </trkpt>
      <trkpt lat="35.95522681" lon="120.20400772">
        <ele>41.65136026203464</ele>
        <time>2026-05-26T22:17:09.983000Z</time>
      </trkpt>
      <trkpt lat="35.95522681" lon="120.20400772">
        <time>2026-05-26T22:17:11.975000Z</time>
      </trkpt>
      <trkpt lat="35.95531167" lon="120.20406104">
        <time>2026-05-26T22:17:13.978000Z</time>
      </trkpt>
      <trkpt lat="35.95533289" lon="120.20417351">
        <ele>42.13810895740818</ele>
        <time>2026-05-26T22:17:18.982000Z</time>
      </trkpt>
      <trkpt lat="35.95533289" lon="120.20417351">
        <time>2026-05-26T22:17:25.999000Z</time>
      </trkpt>
      <trkpt lat="35.95535017" lon="120.20428581">
        <time>2026-05-26T22:17:26.014000Z</time>
      </trkpt>
      <trkpt lat="35.95537286" lon="120.20439328">
        <ele>43.098222244380224</ele>
        <time>2026-05-26T22:17:31.968000Z</time>
      </trkpt>
      <trkpt lat="35.95537286" lon="120.20439328">
        <time>2026-05-26T22:17:35.979000Z</time>
      </trkpt>
      <trkpt lat="35.95539614" lon="120.20451786">
        <time>2026-05-26T22:17:36.978000Z</time>
      </trkpt>
      <trkpt lat="35.95541361" lon="120.20463166">
        <ele>43.914797771571386</ele>
        <time>2026-05-26T22:17:40.989000Z</time>
      </trkpt>
      <trkpt lat="35.95543695" lon="120.20476523">
        <time>2026-05-26T22:17:45.987000Z</time>
      </trkpt>
      <trkpt lat="35.95545525" lon="120.20487414">
        <time>2026-05-26T22:17:49.976000Z</time>
      </trkpt>
      <trkpt lat="35.95546476" lon="120.20498653">
        <ele>44.801144290564764</ele>
        <time>2026-05-26T22:17:53.969000Z</time>
      </trkpt>
      <trkpt lat="35.95546519" lon="120.20512576">
        <time>2026-05-26T22:17:58.992000Z</time>
      </trkpt>
      <trkpt lat="35.95546343" lon="120.2052412">
        <ele>45.05717014133762</ele>
        <time>2026-05-26T22:18:04.989000Z</time>
      </trkpt>
      <trkpt lat="35.95546343" lon="120.2052412">
        <time>2026-05-26T22:18:05.978000Z</time>
      </trkpt>
      <trkpt lat="35.95546003" lon="120.20535895">
        <time>2026-05-26T22:18:09.982000Z</time>
      </trkpt>
      <trkpt lat="35.9554749" lon="120.20549174">
        <ele>45.43636778354477</ele>
        <time>2026-05-26T22:18:14.981000Z</time>
      </trkpt>
      <trkpt lat="35.9554749" lon="120.20549174">
        <time>2026-05-26T22:18:15.969000Z</time>
      </trkpt>
      <trkpt lat="35.95551457" lon="120.20559253">
        <time>2026-05-26T22:18:18.976000Z</time>
      </trkpt>
      <trkpt lat="35.95554455" lon="120.20570571">
        <time>2026-05-26T22:18:22.987000Z</time>
      </trkpt>
      <trkpt lat="35.95558557" lon="120.20580733">
        <ele>45.54660401850771</ele>
        <time>2026-05-26T22:18:26.989000Z</time>
      </trkpt>
      <trkpt lat="35.95559784" lon="120.20591789">
        <time>2026-05-26T22:18:30.978000Z</time>
      </trkpt>
      <trkpt lat="35.95561361" lon="120.2060356">
        <ele>44.86639802515339</ele>
        <time>2026-05-26T22:18:35.977000Z</time>
      </trkpt>
      <trkpt lat="35.95564147" lon="120.20616823">
        <time>2026-05-26T22:18:40.995000Z</time>
      </trkpt>
      <trkpt lat="35.95567143" lon="120.20628324">
        <time>2026-05-26T22:18:44.979000Z</time>
      </trkpt>
      <trkpt lat="35.95567143" lon="120.20628324">
        <ele>44.19058739006351</ele>
        <time>2026-05-26T22:18:51.566000Z</time>
      </trkpt>
      <trkpt lat="35.95569817" lon="120.20640457">
        <time>2026-05-26T22:18:51.976000Z</time>
      </trkpt>
      <trkpt lat="35.95571326" lon="120.20652911">
        <ele>43.65521978199314</ele>
        <time>2026-05-26T22:18:57.977000Z</time>
      </trkpt>
      <trkpt lat="35.95571326" lon="120.20652911">
        <time>2026-05-26T22:19:01.590000Z</time>
      </trkpt>
      <trkpt lat="35.95572792" lon="120.2066432">
        <time>2026-05-26T22:19:01.974000Z</time>
      </trkpt>
      <trkpt lat="35.95572895" lon="120.20675598">
        <time>2026-05-26T22:19:05.975000Z</time>
      </trkpt>
      <trkpt lat="35.95571206" lon="120.20687577">
        <ele>43.140229929087866</ele>
        <time>2026-05-26T22:19:09.974000Z</time>
      </trkpt>
      <trkpt lat="35.95571713" lon="120.20700223">
        <time>2026-05-26T22:19:13.970000Z</time>
      </trkpt>
      <trkpt lat="35.95572652" lon="120.20711736">
        <ele>43.190175760386694</ele>
        <time>2026-05-26T22:19:18.979000Z</time>
      </trkpt>
      <trkpt lat="35.95573139" lon="120.20724817">
        <time>2026-05-26T22:19:24.981000Z</time>
      </trkpt>
      <trkpt lat="35.95573139" lon="120.20724817">
        <ele>43.1392769700272</ele>
        <time>2026-05-26T22:19:29.989000Z</time>
      </trkpt>
      <trkpt lat="35.95573399" lon="120.2073832">
        <time>2026-05-26T22:19:30.003000Z</time>
      </trkpt>
      <trkpt lat="35.95572583" lon="120.20750388">
        <time>2026-05-26T22:19:34.994000Z</time>
      </trkpt>
      <trkpt lat="35.95573395" lon="120.20762381">
        <ele>43.281367052195776</ele>
        <time>2026-05-26T22:19:40.991000Z</time>
      </trkpt>
      <trkpt lat="35.95582126" lon="120.2076824">
        <time>2026-05-26T22:19:48.972000Z</time>
      </trkpt>
      <trkpt lat="35.95582126" lon="120.2076824">
        <ele>45.262672055361975</ele>
        <time>2026-05-26T22:19:53.285000Z</time>
      </trkpt>
      <trkpt lat="35.95591334" lon="120.20765747">
        <time>2026-05-26T22:19:53.995000Z</time>
      </trkpt>
      <trkpt lat="35.95600631" lon="120.20763355">
        <time>2026-05-26T22:19:58.989000Z</time>
      </trkpt>
      <trkpt lat="35.95610295" lon="120.2076056">
        <ele>45.95974631964992</ele>
        <time>2026-05-26T22:20:04.982000Z</time>
      </trkpt>
      <trkpt lat="35.9561937" lon="120.20759322">
        <time>2026-05-26T22:20:08.973000Z</time>
      </trkpt>
      <trkpt lat="35.95629922" lon="120.20756466">
        <ele>46.18531202137302</ele>
        <time>2026-05-26T22:20:14.002000Z</time>
      </trkpt>
      <trkpt lat="35.9563927" lon="120.20754767">
        <time>2026-05-26T22:20:16.993000Z</time>
      </trkpt>
      <trkpt lat="35.9564831" lon="120.20753594">
        <time>2026-05-26T22:20:20.998000Z</time>
      </trkpt>
      <trkpt lat="35.95653873" lon="120.20764023">
        <ele>46.524220693705786</ele>
        <time>2026-05-26T22:20:28.977000Z</time>
      </trkpt>
      <trkpt lat="35.95654722" lon="120.20777705">
        <time>2026-05-26T22:20:34.004000Z</time>
      </trkpt>
      <trkpt lat="35.9565621" lon="120.20788705">
        <ele>46.2879586106522</ele>
        <time>2026-05-26T22:20:37.969000Z</time>
      </trkpt>
      <trkpt lat="35.95657448" lon="120.20800401">
        <time>2026-05-26T22:20:41.968000Z</time>
      </trkpt>
      <trkpt lat="35.95657826" lon="120.20812124">
        <ele>46.03939538061451</ele>
        <time>2026-05-26T22:20:45.977000Z</time>
      </trkpt>
      <trkpt lat="35.95660304" lon="120.20825694">
        <time>2026-05-26T22:20:50.973000Z</time>
      </trkpt>
      <trkpt lat="35.95662307" lon="120.20836581">
        <time>2026-05-26T22:20:54.974000Z</time>
      </trkpt>
      <trkpt lat="35.95665176" lon="120.208477">
        <ele>45.92324041187595</ele>
        <time>2026-05-26T22:20:58.988000Z</time>
      </trkpt>
      <trkpt lat="35.95667021" lon="120.2086144">
        <time>2026-05-26T22:21:03.970000Z</time>
      </trkpt>
      <trkpt lat="35.95669221" lon="120.20874575">
        <ele>45.81535143017601</ele>
        <time>2026-05-26T22:21:09.969000Z</time>
      </trkpt>
      <trkpt lat="35.95670531" lon="120.20887933">
        <time>2026-05-26T22:21:14.969000Z</time>
      </trkpt>
      <trkpt lat="35.95672479" lon="120.20901409">
        <ele>45.493057180045355</ele>
        <time>2026-05-26T22:21:19.997000Z</time>
      </trkpt>
      <trkpt lat="35.95673083" lon="120.20912563">
        <time>2026-05-26T22:21:26.978000Z</time>
      </trkpt>
      <trkpt lat="35.95673083" lon="120.20912563">
        <time>2026-05-26T22:21:28.309000Z</time>
      </trkpt>
      <trkpt lat="35.95674845" lon="120.20924718">
        <ele>45.02338783800434</ele>
        <time>2026-05-26T22:21:35.985000Z</time>
      </trkpt>
      <trkpt lat="35.95674845" lon="120.20924718">
        <ele>45.0509944444878</ele>
        <time>2026-05-26T22:21:41.686000Z</time>
      </trkpt>
      <trkpt lat="35.95677177" lon="120.20935651">
        <time>2026-05-26T22:21:41.980000Z</time>
      </trkpt>
      <trkpt lat="35.95678882" lon="120.20947615">
        <time>2026-05-26T22:21:45.973000Z</time>
      </trkpt>
      <trkpt lat="35.95680567" lon="120.20959317">
        <time>2026-05-26T22:21:49.975000Z</time>
      </trkpt>
      <trkpt lat="35.95682187" lon="120.20970486">
        <ele>44.92205147802662</ele>
        <time>2026-05-26T22:21:53.994000Z</time>
      </trkpt>
      <trkpt lat="35.95682327" lon="120.20983773">
        <time>2026-05-26T22:21:59.023000Z</time>
      </trkpt>
      <trkpt lat="35.95682738" lon="120.20996383">
        <ele>44.029300439952124</ele>
        <time>2026-05-26T22:22:03.978000Z</time>
      </trkpt>
      <trkpt lat="35.95692555" lon="120.21000492">
        <time>2026-05-26T22:22:12.003000Z</time>
      </trkpt>
      <trkpt lat="35.95702309" lon="120.20998527">
        <ele>43.32755636036228</ele>
        <time>2026-05-26T22:22:16.987000Z</time>
      </trkpt>
      <trkpt lat="35.95708725" lon="120.21009978">
        <time>2026-05-26T22:22:22.224000Z</time>
      </trkpt>
      <trkpt lat="35.95711445" lon="120.21022196">
        <ele>43.229705083964575</ele>
        <time>2026-05-26T22:22:26.995000Z</time>
      </trkpt>
      <trkpt lat="35.95713865" lon="120.21035785">
        <time>2026-05-26T22:22:30.960000Z</time>
      </trkpt>
      <trkpt lat="35.95716534" lon="120.21048256">
        <ele>43.204507816432226</ele>
        <time>2026-05-26T22:22:35.983000Z</time>
      </trkpt>
      <trkpt lat="35.95717719" lon="120.21060479">
        <time>2026-05-26T22:22:40.979000Z</time>
      </trkpt>
      <trkpt lat="35.95714613" lon="120.21048617">
        <ele>43.22894166767429</ele>
        <time>2026-05-26T22:22:50.996000Z</time>
      </trkpt>
      <trkpt lat="35.95713204" lon="120.21038633">
        <ele>43.22481917202305</ele>
        <time>2026-05-26T22:22:57.444000Z</time>
      </trkpt>
    </trkseg>
  </trk>
</gpx>