<?xml version="1.0" encoding="UTF-8"?>
<gpx xmlns="http://www.topografix.com/GPX/1/1" xmlns:gpxtpx="http://www.garmin.com/xmlschemas/TrackPointExtension/v1" xmlns:xsi="http://www.w3.org/2001/XMLSchema-instance" xsi:schemaLocation="http://www.topografix.com/GPX/1/1 http://www.topografix.com/GPX/1/1/gpx.xsd" version="1.1" creator="gpx.py -- https://github.com/tkrajina/gpxpy">
  <trk>
    <name>星期五 上午跑</name>
    <trkseg>
      <trkpt lat="35.95680857" lon="120.20987267">
        <time>2026-05-28T21:44:22.083000Z</time>
      </trkpt>
      <trkpt lat="35.95680857" lon="120.20987267">
        <ele>0.2519121617078781</ele>
        <time>2026-05-28T21:44:26.013000Z</time>
      </trkpt>
      <trkpt lat="35.95676881" lon="120.20968711">
        <time>2026-05-28T21:44:26.019000Z</time>
      </trkpt>
      <trkpt lat="35.95676118" lon="120.20957395">
        <ele>0.2519121617078781</ele>
        <time>2026-05-28T21:44:31.013000Z</time>
      </trkpt>
      <trkpt lat="35.95676118" lon="120.20957395">
        <time>2026-05-28T21:44:32.549000Z</time>
      </trkpt>
      <trkpt lat="35.95674493" lon="120.20944001">
        <time>2026-05-28T21:44:36.029000Z</time>
      </trkpt>
      <trkpt lat="35.95672409" lon="120.20930855">
        <ele>0.6764643043279648</ele>
        <time>2026-05-28T21:44:41.040000Z</time>
      </trkpt>
      <trkpt lat="35.95669203" lon="120.20919376">
        <time>2026-05-28T21:44:46.035000Z</time>
      </trkpt>
      <trkpt lat="35.956678" lon="120.20907062">
        <ele>0.9844266623258591</ele>
        <time>2026-05-28T21:44:51.036000Z</time>
      </trkpt>
      <trkpt lat="35.95666282" lon="120.20894068">
        <time>2026-05-28T21:44:56.027000Z</time>
      </trkpt>
      <trkpt lat="35.95665181" lon="120.20881995">
        <ele>1.2592448443174362</ele>
        <time>2026-05-28T21:45:01.029000Z</time>
      </trkpt>
      <trkpt lat="35.95663522" lon="120.20870355">
        <time>2026-05-28T21:45:06.029000Z</time>
      </trkpt>
      <trkpt lat="35.95661999" lon="120.20857782">
        <ele>1.4402919262647629</ele>
        <time>2026-05-28T21:45:12.035000Z</time>
      </trkpt>
      <trkpt lat="35.95660729" lon="120.20844059">
        <time>2026-05-28T21:45:17.031000Z</time>
      </trkpt>
      <trkpt lat="35.9565948" lon="120.20831841">
        <ele>1.5125432461500168</ele>
        <time>2026-05-28T21:45:23.018000Z</time>
      </trkpt>
      <trkpt lat="35.95656651" lon="120.20820973">
        <time>2026-05-28T21:45:27.034000Z</time>
      </trkpt>
      <trkpt lat="35.95655242" lon="120.20809328">
        <time>2026-05-28T21:45:31.038000Z</time>
      </trkpt>
      <trkpt lat="35.95653019" lon="120.20797295">
        <ele>1.8327862471342087</ele>
        <time>2026-05-28T21:45:35.032000Z</time>
      </trkpt>
      <trkpt lat="35.95654041" lon="120.20785316">
        <time>2026-05-28T21:45:41.066000Z</time>
      </trkpt>
      <trkpt lat="35.95651221" lon="120.20773395">
        <ele>2.156135007739067</ele>
        <time>2026-05-28T21:45:45.024000Z</time>
      </trkpt>
      <trkpt lat="35.95648192" lon="120.20761002">
        <time>2026-05-28T21:45:49.022000Z</time>
      </trkpt>
      <trkpt lat="35.95648861" lon="120.20748201">
        <ele>2.407998964190483</ele>
        <time>2026-05-28T21:45:54.042000Z</time>
      </trkpt>
      <trkpt lat="35.956408" lon="120.2074168">
        <time>2026-05-28T21:46:00.012000Z</time>
      </trkpt>
      <trkpt lat="35.95629974" lon="120.20742892">
        <ele>2.1876343935728073</ele>
        <time>2026-05-28T21:46:05.030000Z</time>
      </trkpt>
      <trkpt lat="35.9561927" lon="120.20746374">
        <time>2026-05-28T21:46:10.036000Z</time>
      </trkpt>
      <trkpt lat="35.95610248" lon="120.207493">
        <time>2026-05-28T21:46:14.044000Z</time>
      </trkpt>
      <trkpt lat="35.95599703" lon="120.20752153">
        <ele>1.8912367075681686</ele>
        <time>2026-05-28T21:46:19.035000Z</time>
      </trkpt>
      <trkpt lat="35.95589946" lon="120.20755411">
        <time>2026-05-28T21:46:24.040000Z</time>
      </trkpt>
      <trkpt lat="35.95580083" lon="120.20757364">
        <ele>1.3751259297132492</ele>
        <time>2026-05-28T21:46:29.026000Z</time>
      </trkpt>
      <trkpt lat="35.95569925" lon="120.20759039">
        <time>2026-05-28T21:46:34.044000Z</time>
      </trkpt>
      <trkpt lat="35.95560334" lon="120.20758378">
        <ele>-0.6558739691972733</ele>
        <time>2026-05-28T21:46:38.043000Z</time>
      </trkpt>
      <trkpt lat="35.95549797" lon="120.20759577">
        <time>2026-05-28T21:46:43.038000Z</time>
      </trkpt>
      <trkpt lat="35.95541146" lon="120.20765172">
        <ele>-0.7740786820650101</ele>
        <time>2026-05-28T21:46:48.037000Z</time>
      </trkpt>
      <trkpt lat="35.95531102" lon="120.20768875">
        <time>2026-05-28T21:46:53.043000Z</time>
      </trkpt>
      <trkpt lat="35.95520425" lon="120.20772125">
        <time>2026-05-28T21:46:58.060000Z</time>
      </trkpt>
      <trkpt lat="35.95510113" lon="120.20775051">
        <ele>-1.3183927088975906</ele>
        <time>2026-05-28T21:47:03.034000Z</time>
      </trkpt>
      <trkpt lat="35.95500003" lon="120.20777423">
        <time>2026-05-28T21:47:08.036000Z</time>
      </trkpt>
      <trkpt lat="35.95490507" lon="120.20781455">
        <ele>-1.853183701634407</ele>
        <time>2026-05-28T21:47:13.021000Z</time>
      </trkpt>
      <trkpt lat="35.95480752" lon="120.20784146">
        <time>2026-05-28T21:47:18.047000Z</time>
      </trkpt>
      <trkpt lat="35.95470984" lon="120.20785575">
        <ele>-2.0182733088731766</ele>
        <time>2026-05-28T21:47:23.025000Z</time>
      </trkpt>
      <trkpt lat="35.95462217" lon="120.20788177">
        <time>2026-05-28T21:47:27.027000Z</time>
      </trkpt>
      <trkpt lat="35.95452858" lon="120.20790823">
        <time>2026-05-28T21:47:31.060000Z</time>
      </trkpt>
      <trkpt lat="35.95444332" lon="120.20794487">
        <ele>-2.2437780648469925</ele>
        <time>2026-05-28T21:47:35.015000Z</time>
      </trkpt>
      <trkpt lat="35.95434246" lon="120.20798784">
        <time>2026-05-28T21:47:40.022000Z</time>
      </trkpt>
      <trkpt lat="35.95425759" lon="120.20805161">
        <ele>-2.6913138180971146</ele>
        <time>2026-05-28T21:47:45.035000Z</time>
      </trkpt>
      <trkpt lat="35.95425759" lon="120.20805161">
        <time>2026-05-28T21:47:49.657000Z</time>
      </trkpt>
      <trkpt lat="35.95418382" lon="120.20811671">
        <time>2026-05-28T21:47:53.028000Z</time>
      </trkpt>
      <trkpt lat="35.95408626" lon="120.20815861">
        <ele>-3.3931029587984085</ele>
        <time>2026-05-28T21:48:00.017000Z</time>
      </trkpt>
      <trkpt lat="35.95408626" lon="120.20815861">
        <time>2026-05-28T21:48:03.688000Z</time>
      </trkpt>
      <trkpt lat="35.95401845" lon="120.20823271">
        <time>2026-05-28T21:48:04.030000Z</time>
      </trkpt>
      <trkpt lat="35.95395505" lon="120.20831317">
        <ele>-3.696265771985054</ele>
        <time>2026-05-28T21:48:08.034000Z</time>
      </trkpt>
      <trkpt lat="35.9538899" lon="120.20840787">
        <time>2026-05-28T21:48:13.060000Z</time>
      </trkpt>
      <trkpt lat="35.95382157" lon="120.20850858">
        <ele>-4.129514530301094</ele>
        <time>2026-05-28T21:48:18.072000Z</time>
      </trkpt>
      <trkpt lat="35.95375375" lon="120.20861091">
        <time>2026-05-28T21:48:23.023000Z</time>
      </trkpt>
      <trkpt lat="35.95369878" lon="120.20872609">
        <ele>-4.678861930966377</ele>
        <time>2026-05-28T21:48:28.107000Z</time>
      </trkpt>
      <trkpt lat="35.95363868" lon="120.20881752">
        <time>2026-05-28T21:48:33.077000Z</time>
      </trkpt>
      <trkpt lat="35.95358199" lon="120.20892708">
        <time>2026-05-28T21:48:38.019000Z</time>
      </trkpt>
      <trkpt lat="35.95353312" lon="120.20904758">
        <ele>-4.84694941341877</ele>
        <time>2026-05-28T21:48:43.024000Z</time>
      </trkpt>
      <trkpt lat="35.9534812" lon="120.20916385">
        <time>2026-05-28T21:48:48.074000Z</time>
      </trkpt>
      <trkpt lat="35.95342919" lon="120.20927262">
        <ele>-4.943767860531807</ele>
        <time>2026-05-28T21:48:53.055000Z</time>
      </trkpt>
      <trkpt lat="35.95334783" lon="120.20934229">
        <ele>-5.373039081692696</ele>
        <time>2026-05-28T21:49:00.035000Z</time>
      </trkpt>
      <trkpt lat="35.95329478" lon="120.20945199">
        <time>2026-05-28T21:49:07.061000Z</time>
      </trkpt>
      <trkpt lat="35.95329478" lon="120.20945199">
        <time>2026-05-28T21:49:08.044000Z</time>
      </trkpt>
      <trkpt lat="35.95324994" lon="120.20956541">
        <ele>-5.324502304196358</ele>
        <time>2026-05-28T21:49:13.065000Z</time>
      </trkpt>
      <trkpt lat="35.95324994" lon="120.20956541">
        <time>2026-05-28T21:49:18.034000Z</time>
      </trkpt>
      <trkpt lat="35.95317917" lon="120.20966547">
        <time>2026-05-28T21:49:18.045000Z</time>
      </trkpt>
      <trkpt lat="35.9531168" lon="120.20977">
        <ele>-5.311441257596016</ele>
        <time>2026-05-28T21:49:23.051000Z</time>
      </trkpt>
      <trkpt lat="35.95305588" lon="120.20988339">
        <time>2026-05-28T21:49:28.046000Z</time>
      </trkpt>
      <trkpt lat="35.95296958" lon="120.20996405">
        <ele>-5.435519531369209</ele>
        <time>2026-05-28T21:49:33.055000Z</time>
      </trkpt>
      <trkpt lat="35.95288238" lon="120.21004616">
        <time>2026-05-28T21:49:38.054000Z</time>
      </trkpt>
      <trkpt lat="35.95281026" lon="120.2101178">
        <time>2026-05-28T21:49:42.066000Z</time>
      </trkpt>
      <trkpt lat="35.95272168" lon="120.2101984">
        <ele>-5.625428035855293</ele>
        <time>2026-05-28T21:49:47.034000Z</time>
      </trkpt>
      <trkpt lat="35.95263448" lon="120.21026185">
        <time>2026-05-28T21:49:52.026000Z</time>
      </trkpt>
      <trkpt lat="35.95254127" lon="120.21031174">
        <ele>-5.661629036068916</ele>
        <time>2026-05-28T21:49:57.044000Z</time>
      </trkpt>
      <trkpt lat="35.95245959" lon="120.21036499">
        <time>2026-05-28T21:50:03.042000Z</time>
      </trkpt>
      <trkpt lat="35.95245959" lon="120.21036499">
        <time>2026-05-28T21:50:04.027000Z</time>
      </trkpt>
      <trkpt lat="35.95237336" lon="120.21040948">
        <ele>-6.044638946652412</ele>
        <time>2026-05-28T21:50:10.056000Z</time>
      </trkpt>
      <trkpt lat="35.95227114" lon="120.21044159">
        <ele>-6.087296321988106</ele>
        <time>2026-05-28T21:50:18.033000Z</time>
      </trkpt>
      <trkpt lat="35.95217314" lon="120.21045097">
        <time>2026-05-28T21:50:25.056000Z</time>
      </trkpt>
      <trkpt lat="35.95208847" lon="120.21040643">
        <ele>-5.9714625626802444</ele>
        <time>2026-05-28T21:50:32.033000Z</time>
      </trkpt>
      <trkpt lat="35.95199597" lon="120.21039638">
        <ele>-5.617141559720039</ele>
        <time>2026-05-28T21:50:38.051000Z</time>
      </trkpt>
      <trkpt lat="35.95199597" lon="120.21039638">
        <time>2026-05-28T21:50:43.779000Z</time>
      </trkpt>
      <trkpt lat="35.95189956" lon="120.21043432">
        <time>2026-05-28T21:50:44.075000Z</time>
      </trkpt>
      <trkpt lat="35.95179542" lon="120.21046849">
        <ele>-5.49335940182209</ele>
        <time>2026-05-28T21:50:48.081000Z</time>
      </trkpt>
      <trkpt lat="35.95170259" lon="120.21051817">
        <time>2026-05-28T21:50:52.068000Z</time>
      </trkpt>
      <trkpt lat="35.95162313" lon="120.21057105">
        <time>2026-05-28T21:50:56.042000Z</time>
      </trkpt>
      <trkpt lat="35.95151699" lon="120.21057513">
        <ele>-5.455561950802803</ele>
        <time>2026-05-28T21:51:01.031000Z</time>
      </trkpt>
      <trkpt lat="35.95140862" lon="120.21057674">
        <time>2026-05-28T21:51:06.037000Z</time>
      </trkpt>
      <trkpt lat="35.95130333" lon="120.21060161">
        <ele>-5.240456894040108</ele>
        <time>2026-05-28T21:51:12.044000Z</time>
      </trkpt>
      <trkpt lat="35.95119655" lon="120.21064354">
        <time>2026-05-28T21:51:17.028000Z</time>
      </trkpt>
      <trkpt lat="35.95108194" lon="120.21066811">
        <ele>-5.508154705166817</ele>
        <time>2026-05-28T21:51:22.085000Z</time>
      </trkpt>
      <trkpt lat="35.95097822" lon="120.21068169">
        <time>2026-05-28T21:51:26.087000Z</time>
      </trkpt>
      <trkpt lat="35.95088221" lon="120.21069592">
        <time>2026-05-28T21:51:31.035000Z</time>
      </trkpt>
      <trkpt lat="35.9507719" lon="120.21073208">
        <ele>-5.679415062069893</ele>
        <time>2026-05-28T21:51:36.045000Z</time>
      </trkpt>
      <trkpt lat="35.95066204" lon="120.21075348">
        <time>2026-05-28T21:51:41.074000Z</time>
      </trkpt>
      <trkpt lat="35.95057293" lon="120.2107719">
        <ele>-6.025490120053291</ele>
        <time>2026-05-28T21:51:45.058000Z</time>
      </trkpt>
      <trkpt lat="35.95046878" lon="120.21081145">
        <time>2026-05-28T21:51:50.031000Z</time>
      </trkpt>
      <trkpt lat="35.95037801" lon="120.21085041">
        <ele>-6.394212082028389</ele>
        <time>2026-05-28T21:51:56.064000Z</time>
      </trkpt>
      <trkpt lat="35.95037801" lon="120.21085041">
        <time>2026-05-28T21:51:59.837000Z</time>
      </trkpt>
      <trkpt lat="35.95028271" lon="120.21086819">
        <ele>-6.288872554898262</ele>
        <time>2026-05-28T21:52:04.034000Z</time>
      </trkpt>
      <trkpt lat="35.95019273" lon="120.21089207">
        <time>2026-05-28T21:52:10.041000Z</time>
      </trkpt>
      <trkpt lat="35.95019273" lon="120.21089207">
        <time>2026-05-28T21:52:11.041000Z</time>
      </trkpt>
      <trkpt lat="35.95009643" lon="120.21089819">
        <ele>-6.313268020749092</ele>
        <time>2026-05-28T21:52:15.035000Z</time>
      </trkpt>
      <trkpt lat="35.94999019" lon="120.21091826">
        <time>2026-05-28T21:52:21.091000Z</time>
      </trkpt>
      <trkpt lat="35.94999019" lon="120.21091826">
        <time>2026-05-28T21:52:23.870000Z</time>
      </trkpt>
      <trkpt lat="35.94988278" lon="120.21094876">
        <ele>-5.91130430996418</ele>
        <time>2026-05-28T21:52:26.038000Z</time>
      </trkpt>
      <trkpt lat="35.94977566" lon="120.21096587">
        <time>2026-05-28T21:52:32.047000Z</time>
      </trkpt>
      <trkpt lat="35.94977566" lon="120.21096587">
        <time>2026-05-28T21:52:33.895000Z</time>
      </trkpt>
      <trkpt lat="35.94969039" lon="120.21100522">
        <ele>-5.806247070431709</ele>
        <time>2026-05-28T21:52:36.045000Z</time>
      </trkpt>
      <trkpt lat="35.94959223" lon="120.21103439">
        <time>2026-05-28T21:52:41.051000Z</time>
      </trkpt>
      <trkpt lat="35.94949892" lon="120.2110637">
        <time>2026-05-28T21:52:46.030000Z</time>
      </trkpt>
      <trkpt lat="35.94949892" lon="120.2110637">
        <ele>-6.008155658841133</ele>
        <time>2026-05-28T21:52:50.934000Z</time>
      </trkpt>
      <trkpt lat="35.94939909" lon="120.21106609">
        <time>2026-05-28T21:52:52.029000Z</time>
      </trkpt>
      <trkpt lat="35.94930591" lon="120.21108591">
        <ele>-5.962793186306953</ele>
        <time>2026-05-28T21:53:00.030000Z</time>
      </trkpt>
      <trkpt lat="35.94921378" lon="120.21112163">
        <time>2026-05-28T21:53:07.033000Z</time>
      </trkpt>
      <trkpt lat="35.94912072" lon="120.21113989">
        <ele>-5.523289039731026</ele>
        <time>2026-05-28T21:53:12.065000Z</time>
      </trkpt>
      <trkpt lat="35.94912072" lon="120.21113989">
        <time>2026-05-28T21:53:13.963000Z</time>
      </trkpt>
      <trkpt lat="35.9490212" lon="120.2111617">
        <time>2026-05-28T21:53:16.134000Z</time>
      </trkpt>
      <trkpt lat="35.94891243" lon="120.21118266">
        <ele>-5.264174774289131</ele>
        <time>2026-05-28T21:53:21.046000Z</time>
      </trkpt>
      <trkpt lat="35.94882394" lon="120.21120183">
        <time>2026-05-28T21:53:25.036000Z</time>
      </trkpt>
      <trkpt lat="35.94873264" lon="120.21122362">
        <ele>-5.253653839230537</ele>
        <time>2026-05-28T21:53:30.065000Z</time>
      </trkpt>
      <trkpt lat="35.94862384" lon="120.21124895">
        <time>2026-05-28T21:53:35.048000Z</time>
      </trkpt>
      <trkpt lat="35.94853337" lon="120.21126218">
        <ele>-5.769468143582344</ele>
        <time>2026-05-28T21:53:41.034000Z</time>
      </trkpt>
      <trkpt lat="35.94853337" lon="120.21126218">
        <time>2026-05-28T21:53:42.995000Z</time>
      </trkpt>
      <trkpt lat="35.9484408" lon="120.2113089">
        <time>2026-05-28T21:53:47.045000Z</time>
      </trkpt>
      <trkpt lat="35.94833803" lon="120.21132723">
        <ele>-5.684278801083565</ele>
        <time>2026-05-28T21:53:54.055000Z</time>
      </trkpt>
      <trkpt lat="35.94824203" lon="120.2113437">
        <time>2026-05-28T21:54:01.026000Z</time>
      </trkpt>
      <trkpt lat="35.94814699" lon="120.21138169">
        <ele>-5.401240184903145</ele>
        <time>2026-05-28T21:54:07.042000Z</time>
      </trkpt>
      <trkpt lat="35.94804381" lon="120.21139219">
        <time>2026-05-28T21:54:12.062000Z</time>
      </trkpt>
      <trkpt lat="35.94804381" lon="120.21139219">
        <ele>-5.389060333371162</ele>
        <time>2026-05-28T21:54:14.129000Z</time>
      </trkpt>
      <trkpt lat="35.94795455" lon="120.21141104">
        <time>2026-05-28T21:54:16.056000Z</time>
      </trkpt>
      <trkpt lat="35.947858" lon="120.21143308">
        <time>2026-05-28T21:54:20.035000Z</time>
      </trkpt>
      <trkpt lat="35.9477592" lon="120.21145627">
        <ele>-5.461360767483711</ele>
        <time>2026-05-28T21:54:25.028000Z</time>
      </trkpt>
      <trkpt lat="35.94766474" lon="120.21148903">
        <time>2026-05-28T21:54:30.034000Z</time>
      </trkpt>
      <trkpt lat="35.94756521" lon="120.21150972">
        <ele>-5.680301979184151</ele>
        <time>2026-05-28T21:54:36.094000Z</time>
      </trkpt>
      <trkpt lat="35.94756521" lon="120.21150972">
        <time>2026-05-28T21:54:39.027000Z</time>
      </trkpt>
      <trkpt lat="35.94746967" lon="120.21153206">
        <time>2026-05-28T21:54:43.041000Z</time>
      </trkpt>
      <trkpt lat="35.94738013" lon="120.21156521">
        <ele>-5.876298740506172</ele>
        <time>2026-05-28T21:54:50.074000Z</time>
      </trkpt>
      <trkpt lat="35.94738013" lon="120.21156521">
        <time>2026-05-28T21:54:52.059000Z</time>
      </trkpt>
      <trkpt lat="35.94727876" lon="120.21160924">
        <time>2026-05-28T21:54:55.052000Z</time>
      </trkpt>
      <trkpt lat="35.94717382" lon="120.21162744">
        <ele>-5.743507698178291</ele>
        <time>2026-05-28T21:55:00.028000Z</time>
      </trkpt>
      <trkpt lat="35.94707794" lon="120.2116328">
        <time>2026-05-28T21:55:04.033000Z</time>
      </trkpt>
      <trkpt lat="35.94698096" lon="120.21166511">
        <ele>-6.0670483857393265</ele>
        <time>2026-05-28T21:55:10.040000Z</time>
      </trkpt>
      <trkpt lat="35.94698096" lon="120.21166511">
        <time>2026-05-28T21:55:12.038000Z</time>
      </trkpt>
      <trkpt lat="35.94688516" lon="120.21167941">
        <time>2026-05-28T21:55:16.027000Z</time>
      </trkpt>
      <trkpt lat="35.94679352" lon="120.21170675">
        <ele>-5.989389255642891</ele>
        <time>2026-05-28T21:55:23.047000Z</time>
      </trkpt>
      <trkpt lat="35.94679352" lon="120.21170675">
        <time>2026-05-28T21:55:28.082000Z</time>
      </trkpt>
      <trkpt lat="35.94670756" lon="120.21174845">
        <time>2026-05-28T21:55:28.116000Z</time>
      </trkpt>
      <trkpt lat="35.94659987" lon="120.21176658">
        <ele>-5.839729622006416</ele>
        <time>2026-05-28T21:55:33.051000Z</time>
      </trkpt>
      <trkpt lat="35.94651086" lon="120.21179766">
        <time>2026-05-28T21:55:38.031000Z</time>
      </trkpt>
      <trkpt lat="35.94640823" lon="120.21184842">
        <ele>-5.769930198788643</ele>
        <time>2026-05-28T21:55:43.058000Z</time>
      </trkpt>
      <trkpt lat="35.94631055" lon="120.21188145">
        <time>2026-05-28T21:55:48.083000Z</time>
      </trkpt>
      <trkpt lat="35.94620923" lon="120.21191081">
        <ele>-5.83101923763752</ele>
        <time>2026-05-28T21:55:53.033000Z</time>
      </trkpt>
      <trkpt lat="35.9461115" lon="120.21195163">
        <time>2026-05-28T21:55:58.034000Z</time>
      </trkpt>
      <trkpt lat="35.94602095" lon="120.21199551">
        <ele>-5.798340156674385</ele>
        <time>2026-05-28T21:56:04.057000Z</time>
      </trkpt>
      <trkpt lat="35.94602095" lon="120.21199551">
        <time>2026-05-28T21:56:08.037000Z</time>
      </trkpt>
      <trkpt lat="35.94591355" lon="120.21200849">
        <time>2026-05-28T21:56:10.043000Z</time>
      </trkpt>
      <trkpt lat="35.94582798" lon="120.21204453">
        <ele>-6.122809246182442</ele>
        <time>2026-05-28T21:56:17.029000Z</time>
      </trkpt>
      <trkpt lat="35.94574617" lon="120.2121067">
        <ele>-6.141836002469063</ele>
        <time>2026-05-28T21:56:25.039000Z</time>
      </trkpt>
      <trkpt lat="35.94565547" lon="120.21212186">
        <time>2026-05-28T21:56:32.028000Z</time>
      </trkpt>
      <trkpt lat="35.94565547" lon="120.21212186">
        <ele>-5.6368420869112015</ele>
        <time>2026-05-28T21:56:36.168000Z</time>
      </trkpt>
      <trkpt lat="35.94556284" lon="120.21216432">
        <time>2026-05-28T21:56:38.034000Z</time>
      </trkpt>
      <trkpt lat="35.94547352" lon="120.21220737">
        <time>2026-05-28T21:56:43.093000Z</time>
      </trkpt>
      <trkpt lat="35.94538298" lon="120.21223675">
        <ele>-5.4245737344026566</ele>
        <time>2026-05-28T21:56:48.100000Z</time>
      </trkpt>
      <trkpt lat="35.94529097" lon="120.21226422">
        <time>2026-05-28T21:56:52.042000Z</time>
      </trkpt>
      <trkpt lat="35.94518805" lon="120.21230742">
        <ele>-5.721734836697578</ele>
        <time>2026-05-28T21:56:57.042000Z</time>
      </trkpt>
      <trkpt lat="35.94509658" lon="120.21235297">
        <time>2026-05-28T21:57:03.040000Z</time>
      </trkpt>
      <trkpt lat="35.94501327" lon="120.21240101">
        <ele>-5.574779823422432</ele>
        <time>2026-05-28T21:57:09.011000Z</time>
      </trkpt>
      <trkpt lat="35.94493275" lon="120.21246564">
        <time>2026-05-28T21:57:15.022000Z</time>
      </trkpt>
      <trkpt lat="35.944831" lon="120.21250863">
        <ele>-5.402673080563545</ele>
        <time>2026-05-28T21:57:21.038000Z</time>
      </trkpt>
      <trkpt lat="35.94473533" lon="120.21255529">
        <time>2026-05-28T21:57:25.044000Z</time>
      </trkpt>
      <trkpt lat="35.94463189" lon="120.21259679">
        <ele>-5.275677040219307</ele>
        <time>2026-05-28T21:57:30.035000Z</time>
      </trkpt>
      <trkpt lat="35.94453723" lon="120.21265279">
        <time>2026-05-28T21:57:35.036000Z</time>
      </trkpt>
      <trkpt lat="35.94445254" lon="120.21270148">
        <time>2026-05-28T21:57:40.046000Z</time>
      </trkpt>
      <trkpt lat="35.94434864" lon="120.21276259">
        <ele>-5.004345253109932</ele>
        <time>2026-05-28T21:57:45.028000Z</time>
      </trkpt>
      <trkpt lat="35.94424778" lon="120.21280997">
        <time>2026-05-28T21:57:51.123000Z</time>
      </trkpt>
      <trkpt lat="35.94424778" lon="120.21280997">
        <ele>-4.841031387448311</ele>
        <time>2026-05-28T21:57:55.021000Z</time>
      </trkpt>
      <trkpt lat="35.9441707" lon="120.21287242">
        <time>2026-05-28T21:57:59.067000Z</time>
      </trkpt>
      <trkpt lat="35.94408777" lon="120.21292951">
        <ele>-4.2196114808321</ele>
        <time>2026-05-28T21:58:04.045000Z</time>
      </trkpt>
      <trkpt lat="35.94408777" lon="120.21292951">
        <time>2026-05-28T21:58:07.162000Z</time>
      </trkpt>
      <trkpt lat="35.94400306" lon="120.21297796">
        <time>2026-05-28T21:58:09.045000Z</time>
      </trkpt>
      <trkpt lat="35.94392007" lon="120.21304437">
        <ele>-3.826313093304634</ele>
        <time>2026-05-28T21:58:15.048000Z</time>
      </trkpt>
      <trkpt lat="35.94392007" lon="120.21304437">
        <time>2026-05-28T21:58:18.071000Z</time>
      </trkpt>
      <trkpt lat="35.94382793" lon="120.21306333">
        <time>2026-05-28T21:58:22.101000Z</time>
      </trkpt>
      <trkpt lat="35.94373599" lon="120.2130152">
        <ele>-4.267382934689522</ele>
        <time>2026-05-28T21:58:30.029000Z</time>
      </trkpt>
      <trkpt lat="35.94367354" lon="120.21292062">
        <ele>-4.067918851971626</ele>
        <time>2026-05-28T21:58:38.022000Z</time>
      </trkpt>
      <trkpt lat="35.94360632" lon="120.21283015">
        <time>2026-05-28T21:58:43.049000Z</time>
      </trkpt>
      <trkpt lat="35.94360632" lon="120.21283015">
        <ele>-4.30255301296711</ele>
        <time>2026-05-28T21:58:47.037000Z</time>
      </trkpt>
      <trkpt lat="35.9435482" lon="120.21274551">
        <time>2026-05-28T21:58:47.068000Z</time>
      </trkpt>
      <trkpt lat="35.94347751" lon="120.21267479">
        <time>2026-05-28T21:58:52.040000Z</time>
      </trkpt>
      <trkpt lat="35.94343071" lon="120.21257881">
        <time>2026-05-28T21:58:56.039000Z</time>
      </trkpt>
      <trkpt lat="35.94339545" lon="120.21245801">
        <ele>-4.351003959774971</ele>
        <time>2026-05-28T21:59:01.025000Z</time>
      </trkpt>
      <trkpt lat="35.94331344" lon="120.21236972">
        <time>2026-05-28T21:59:06.027000Z</time>
      </trkpt>
      <trkpt lat="35.94325485" lon="120.21224019">
        <ele>-4.211192920804024</ele>
        <time>2026-05-28T21:59:11.037000Z</time>
      </trkpt>
      <trkpt lat="35.94321078" lon="120.21213998">
        <time>2026-05-28T21:59:15.063000Z</time>
      </trkpt>
      <trkpt lat="35.94315678" lon="120.21204477">
        <ele>-4.362968280911446</ele>
        <time>2026-05-28T21:59:20.071000Z</time>
      </trkpt>
      <trkpt lat="35.94309802" lon="120.2119519">
        <time>2026-05-28T21:59:26.020000Z</time>
      </trkpt>
      <trkpt lat="35.94302943" lon="120.21184446">
        <ele>-4.38490803539753</ele>
        <time>2026-05-28T21:59:31.046000Z</time>
      </trkpt>
      <trkpt lat="35.94296713" lon="120.21173751">
        <time>2026-05-28T21:59:36.056000Z</time>
      </trkpt>
      <trkpt lat="35.9428978" lon="120.21164918">
        <time>2026-05-28T21:59:41.091000Z</time>
      </trkpt>
      <trkpt lat="35.94282589" lon="120.21155306">
        <ele>-4.554645851254463</ele>
        <time>2026-05-28T21:59:46.048000Z</time>
      </trkpt>
      <trkpt lat="35.94277294" lon="120.211451">
        <time>2026-05-28T21:59:52.040000Z</time>
      </trkpt>
      <trkpt lat="35.94277294" lon="120.211451">
        <ele>-4.889733150601387</ele>
        <time>2026-05-28T21:59:55.037000Z</time>
      </trkpt>
      <trkpt lat="35.94270477" lon="120.21134509">
        <time>2026-05-28T21:59:58.083000Z</time>
      </trkpt>
      <trkpt lat="35.94265422" lon="120.21124084">
        <time>2026-05-28T22:00:02.029000Z</time>
      </trkpt>
      <trkpt lat="35.94265422" lon="120.21124084">
        <ele>-4.892433479428291</ele>
        <time>2026-05-28T22:00:06.028000Z</time>
      </trkpt>
      <trkpt lat="35.94260549" lon="120.21113447">
        <time>2026-05-28T22:00:06.038000Z</time>
      </trkpt>
      <trkpt lat="35.94255139" lon="120.21102056">
        <time>2026-05-28T22:00:11.053000Z</time>
      </trkpt>
      <trkpt lat="35.94249302" lon="120.21090466">
        <ele>-5.204478099942207</ele>
        <time>2026-05-28T22:00:16.070000Z</time>
      </trkpt>
      <trkpt lat="35.94243325" lon="120.21081279">
        <time>2026-05-28T22:00:24.012000Z</time>
      </trkpt>
      <trkpt lat="35.94236834" lon="120.21071946">
        <ele>-5.03120930492878</ele>
        <time>2026-05-28T22:00:29.018000Z</time>
      </trkpt>
      <trkpt lat="35.94230616" lon="120.21061885">
        <time>2026-05-28T22:00:34.038000Z</time>
      </trkpt>
      <trkpt lat="35.94225273" lon="120.21052498">
        <ele>-5.210182502865791</ele>
        <time>2026-05-28T22:00:39.047000Z</time>
      </trkpt>
      <trkpt lat="35.94220542" lon="120.21041332">
        <time>2026-05-28T22:00:46.032000Z</time>
      </trkpt>
      <trkpt lat="35.94213683" lon="120.21032588">
        <ele>-4.894985988736153</ele>
        <time>2026-05-28T22:00:53.027000Z</time>
      </trkpt>
      <trkpt lat="35.94208703" lon="120.21023228">
        <time>2026-05-28T22:00:57.033000Z</time>
      </trkpt>
      <trkpt lat="35.94203467" lon="120.21013251">
        <ele>-4.687393501400948</ele>
        <time>2026-05-28T22:01:01.023000Z</time>
      </trkpt>
      <trkpt lat="35.94198382" lon="120.21003622">
        <time>2026-05-28T22:01:05.037000Z</time>
      </trkpt>
      <trkpt lat="35.94192916" lon="120.20993684">
        <time>2026-05-28T22:01:09.049000Z</time>
      </trkpt>
      <trkpt lat="35.94186521" lon="120.20985073">
        <ele>-4.792745903134346</ele>
        <time>2026-05-28T22:01:15.036000Z</time>
      </trkpt>
      <trkpt lat="35.94186521" lon="120.20985073">
        <time>2026-05-28T22:01:19.249000Z</time>
      </trkpt>
      <trkpt lat="35.94182177" lon="120.20974998">
        <ele>-5.09299261868</ele>
        <time>2026-05-28T22:01:22.050000Z</time>
      </trkpt>
      <trkpt lat="35.94179481" lon="120.20964257">
        <time>2026-05-28T22:01:29.047000Z</time>
      </trkpt>
      <trkpt lat="35.94174391" lon="120.20954232">
        <ele>-5.352611854672432</ele>
        <time>2026-05-28T22:01:36.114000Z</time>
      </trkpt>
      <trkpt lat="35.94171485" lon="120.20942317">
        <ele>-6.028314903378487</ele>
        <time>2026-05-28T22:01:44.056000Z</time>
      </trkpt>
      <trkpt lat="35.94172604" lon="120.20929851">
        <time>2026-05-28T22:01:52.082000Z</time>
      </trkpt>
      <trkpt lat="35.94172604" lon="120.20929851">
        <ele>-6.431297138333321</ele>
        <time>2026-05-28T22:02:25.010000Z</time>
      </trkpt>
      <trkpt lat="35.94182726" lon="120.2093329">
        <time>2026-05-28T22:02:25.018000Z</time>
      </trkpt>
      <trkpt lat="35.94191943" lon="120.20933353">
        <time>2026-05-28T22:02:29.030000Z</time>
      </trkpt>
      <trkpt lat="35.94201018" lon="120.2093265">
        <time>2026-05-28T22:02:33.029000Z</time>
      </trkpt>
      <trkpt lat="35.94201018" lon="120.2093265">
        <time>2026-05-28T22:02:35.051000Z</time>
      </trkpt>
      <trkpt lat="35.94211615" lon="120.20930565">
        <ele>-6.456326797604561</ele>
        <time>2026-05-28T22:02:38.070000Z</time>
      </trkpt>
      <trkpt lat="35.94222093" lon="120.2092612">
        <time>2026-05-28T22:02:43.043000Z</time>
      </trkpt>
      <trkpt lat="35.94232398" lon="120.20920565">
        <ele>-6.61041958630085</ele>
        <time>2026-05-28T22:02:48.069000Z</time>
      </trkpt>
      <trkpt lat="35.94243093" lon="120.20916279">
        <time>2026-05-28T22:02:53.050000Z</time>
      </trkpt>
      <trkpt lat="35.94253243" lon="120.20910606">
        <ele>-6.494583919644356</ele>
        <time>2026-05-28T22:02:58.025000Z</time>
      </trkpt>
      <trkpt lat="35.94262797" lon="120.20904963">
        <time>2026-05-28T22:03:03.038000Z</time>
      </trkpt>
      <trkpt lat="35.94273161" lon="120.20901272">
        <time>2026-05-28T22:03:08.043000Z</time>
      </trkpt>
      <trkpt lat="35.94283802" lon="120.2089938">
        <ele>-6.6004441529512405</ele>
        <time>2026-05-28T22:03:13.063000Z</time>
      </trkpt>
      <trkpt lat="35.94292854" lon="120.20898846">
        <time>2026-05-28T22:03:17.048000Z</time>
      </trkpt>
      <trkpt lat="35.94303552" lon="120.20897901">
        <ele>-6.661706760525703</ele>
        <time>2026-05-28T22:03:22.034000Z</time>
      </trkpt>
      <trkpt lat="35.94314503" lon="120.20897044">
        <time>2026-05-28T22:03:27.016000Z</time>
      </trkpt>
      <trkpt lat="35.94325202" lon="120.20894767">
        <ele>-6.6523192673921585</ele>
        <time>2026-05-28T22:03:32.042000Z</time>
      </trkpt>
      <trkpt lat="35.94335672" lon="120.20890608">
        <time>2026-05-28T22:03:37.037000Z</time>
      </trkpt>
      <trkpt lat="35.94344629" lon="120.20886453">
        <ele>-6.524265602231026</ele>
        <time>2026-05-28T22:03:43.060000Z</time>
      </trkpt>
      <trkpt lat="35.94344629" lon="120.20886453">
        <time>2026-05-28T22:03:47.067000Z</time>
      </trkpt>
      <trkpt lat="35.94353454" lon="120.20882229">
        <time>2026-05-28T22:03:50.079000Z</time>
      </trkpt>
      <trkpt lat="35.94362515" lon="120.20880172">
        <ele>-6.639267280697823</ele>
        <time>2026-05-28T22:03:57.040000Z</time>
      </trkpt>
      <trkpt lat="35.94372538" lon="120.20878553">
        <ele>-6.824130371212959</ele>
        <time>2026-05-28T22:04:03.033000Z</time>
      </trkpt>
      <trkpt lat="35.94372538" lon="120.20878553">
        <time>2026-05-28T22:04:05.041000Z</time>
      </trkpt>
      <trkpt lat="35.94382003" lon="120.20879134">
        <time>2026-05-28T22:04:07.028000Z</time>
      </trkpt>
      <trkpt lat="35.94391208" lon="120.20881121">
        <time>2026-05-28T22:04:11.067000Z</time>
      </trkpt>
      <trkpt lat="35.94401828" lon="120.20883091">
        <ele>-6.679549053311348</ele>
        <time>2026-05-28T22:04:16.036000Z</time>
      </trkpt>
      <trkpt lat="35.94411868" lon="120.20887962">
        <time>2026-05-28T22:04:21.056000Z</time>
      </trkpt>
      <trkpt lat="35.94420551" lon="120.20891455">
        <ele>-6.64522297680378</ele>
        <time>2026-05-28T22:04:25.122000Z</time>
      </trkpt>
      <trkpt lat="35.94429824" lon="120.20892828">
        <time>2026-05-28T22:04:29.039000Z</time>
      </trkpt>
      <trkpt lat="35.94438537" lon="120.20888486">
        <ele>-7.006127193570137</ele>
        <time>2026-05-28T22:04:35.008000Z</time>
      </trkpt>
      <trkpt lat="35.94438537" lon="120.20888486">
        <time>2026-05-28T22:04:39.009000Z</time>
      </trkpt>
      <trkpt lat="35.94448622" lon="120.20888064">
        <time>2026-05-28T22:04:44.037000Z</time>
      </trkpt>
      <trkpt lat="35.94448622" lon="120.20888064">
        <ele>-7.1506922990083694</ele>
        <time>2026-05-28T22:05:19.026000Z</time>
      </trkpt>
      <trkpt lat="35.94472107" lon="120.20888769">
        <time>2026-05-28T22:05:19.057000Z</time>
      </trkpt>
      <trkpt lat="35.94481727" lon="120.20887071">
        <time>2026-05-28T22:05:23.017000Z</time>
      </trkpt>
      <trkpt lat="35.94491098" lon="120.20885692">
        <time>2026-05-28T22:05:27.027000Z</time>
      </trkpt>
      <trkpt lat="35.94500362" lon="120.2088398">
        <ele>-7.0804551392793655</ele>
        <time>2026-05-28T22:05:31.059000Z</time>
      </trkpt>
      <trkpt lat="35.94510159" lon="120.2088263">
        <time>2026-05-28T22:05:35.016000Z</time>
      </trkpt>
      <trkpt lat="35.94519598" lon="120.20881267">
        <time>2026-05-28T22:05:39.042000Z</time>
      </trkpt>
      <trkpt lat="35.94530735" lon="120.2088024">
        <ele>-7.24845726788044</ele>
        <time>2026-05-28T22:05:44.024000Z</time>
      </trkpt>
      <trkpt lat="35.94540371" lon="120.20877633">
        <time>2026-05-28T22:05:48.057000Z</time>
      </trkpt>
      <trkpt lat="35.94540371" lon="120.20877633">
        <ele>-6.9132045060396194</ele>
        <time>2026-05-28T22:06:25.014000Z</time>
      </trkpt>
      <trkpt lat="35.94564119" lon="120.20876309">
        <time>2026-05-28T22:06:25.017000Z</time>
      </trkpt>
      <trkpt lat="35.94573996" lon="120.20874768">
        <time>2026-05-28T22:06:29.030000Z</time>
      </trkpt>
      <trkpt lat="35.94585001" lon="120.20873497">
        <ele>-7.036569908261299</ele>
        <time>2026-05-28T22:06:34.066000Z</time>
      </trkpt>
      <trkpt lat="35.94594496" lon="120.20872415">
        <time>2026-05-28T22:06:38.039000Z</time>
      </trkpt>
      <trkpt lat="35.94603697" lon="120.20871536">
        <time>2026-05-28T22:06:42.073000Z</time>
      </trkpt>
      <trkpt lat="35.94614452" lon="120.20870027">
        <ele>-6.946732357144356</ele>
        <time>2026-05-28T22:06:47.070000Z</time>
      </trkpt>
      <trkpt lat="35.94624249" lon="120.20869014">
        <time>2026-05-28T22:06:51.058000Z</time>
      </trkpt>
      <trkpt lat="35.94633745" lon="120.20867889">
        <ele>-6.9123619347810745</ele>
        <time>2026-05-28T22:06:55.010000Z</time>
      </trkpt>
      <trkpt lat="35.94642773" lon="120.20866944">
        <time>2026-05-28T22:06:59.035000Z</time>
      </trkpt>
      <trkpt lat="35.94652467" lon="120.20866006">
        <time>2026-05-28T22:07:03.041000Z</time>
      </trkpt>
      <trkpt lat="35.94662209" lon="120.2086456">
        <ele>-6.87874872982502</ele>
        <time>2026-05-28T22:07:07.064000Z</time>
      </trkpt>
      <trkpt lat="35.94672429" lon="120.20861684">
        <time>2026-05-28T22:07:11.025000Z</time>
      </trkpt>
      <trkpt lat="35.94683401" lon="120.20860081">
        <time>2026-05-28T22:07:16.032000Z</time>
      </trkpt>
      <trkpt lat="35.94692847" lon="120.20860842">
        <ele>-6.804894760251045</ele>
        <time>2026-05-28T22:07:20.055000Z</time>
      </trkpt>
      <trkpt lat="35.94702388" lon="120.20858156">
        <time>2026-05-28T22:07:24.032000Z</time>
      </trkpt>
      <trkpt lat="35.94705765" lon="120.20847314">
        <ele>-6.6567185670137405</ele>
        <time>2026-05-28T22:07:28.085000Z</time>
      </trkpt>
      <trkpt lat="35.94706615" lon="120.20835897">
        <time>2026-05-28T22:07:32.039000Z</time>
      </trkpt>
      <trkpt lat="35.94705887" lon="120.2082464">
        <time>2026-05-28T22:07:38.055000Z</time>
      </trkpt>
      <trkpt lat="35.94704245" lon="120.20813628">
        <ele>-6.96135838329792</ele>
        <time>2026-05-28T22:07:45.112000Z</time>
      </trkpt>
      <trkpt lat="35.94704245" lon="120.20813628">
        <time>2026-05-28T22:07:46.522000Z</time>
      </trkpt>
      <trkpt lat="35.94703547" lon="120.20801304">
        <ele>-6.898157432675362</ele>
        <time>2026-05-28T22:07:52.039000Z</time>
      </trkpt>
      <trkpt lat="35.94702732" lon="120.20789691">
        <time>2026-05-28T22:07:59.046000Z</time>
      </trkpt>
      <trkpt lat="35.94701915" lon="120.20777081">
        <ele>-6.906616047024727</ele>
        <time>2026-05-28T22:08:06.035000Z</time>
      </trkpt>
      <trkpt lat="35.94701915" lon="120.20777081">
        <time>2026-05-28T22:08:10.050000Z</time>
      </trkpt>
      <trkpt lat="35.94700829" lon="120.20765715">
        <time>2026-05-28T22:08:10.071000Z</time>
      </trkpt>
      <trkpt lat="35.94700131" lon="120.2075412">
        <ele>-6.760558918118477</ele>
        <time>2026-05-28T22:08:14.074000Z</time>
      </trkpt>
      <trkpt lat="35.94699341" lon="120.20742358">
        <time>2026-05-28T22:08:18.134000Z</time>
      </trkpt>
      <trkpt lat="35.94698259" lon="120.20730721">
        <time>2026-05-28T22:08:22.078000Z</time>
      </trkpt>
      <trkpt lat="35.94698536" lon="120.20719216">
        <ele>-6.794789627194405</ele>
        <time>2026-05-28T22:08:26.036000Z</time>
      </trkpt>
      <trkpt lat="35.94702575" lon="120.20709063">
        <time>2026-05-28T22:08:30.022000Z</time>
      </trkpt>
      <trkpt lat="35.94707266" lon="120.20698463">
        <ele>-6.624501064419746</ele>
        <time>2026-05-28T22:08:53.031000Z</time>
      </trkpt>
      <trkpt lat="35.94711963" lon="120.20688623">
        <ele>-6.894813850522041</ele>
        <time>2026-05-28T22:08:57.024000Z</time>
      </trkpt>
      <trkpt lat="35.9471635" lon="120.2067841">
        <time>2026-05-28T22:09:01.024000Z</time>
      </trkpt>
      <trkpt lat="35.94720955" lon="120.20666041">
        <ele>-6.809039905667305</ele>
        <time>2026-05-28T22:09:06.035000Z</time>
      </trkpt>
      <trkpt lat="35.94725184" lon="120.20656008">
        <time>2026-05-28T22:09:10.061000Z</time>
      </trkpt>
      <trkpt lat="35.94729429" lon="120.20645225">
        <time>2026-05-28T22:09:14.088000Z</time>
      </trkpt>
      <trkpt lat="35.94733455" lon="120.20635103">
        <ele>-6.814539268612862</ele>
        <time>2026-05-28T22:09:18.073000Z</time>
      </trkpt>
      <trkpt lat="35.94737813" lon="120.20625112">
        <time>2026-05-28T22:09:22.032000Z</time>
      </trkpt>
      <trkpt lat="35.94741759" lon="120.20615059">
        <time>2026-05-28T22:09:26.027000Z</time>
      </trkpt>
      <trkpt lat="35.94745824" lon="120.20604271">
        <ele>-6.742070510983467</ele>
        <time>2026-05-28T22:09:30.037000Z</time>
      </trkpt>
      <trkpt lat="35.94750251" lon="120.20594588">
        <time>2026-05-28T22:09:34.031000Z</time>
      </trkpt>
      <trkpt lat="35.94754744" lon="120.20584508">
        <ele>-6.771665886044502</ele>
        <time>2026-05-28T22:09:38.022000Z</time>
      </trkpt>
      <trkpt lat="35.94759283" lon="120.20573406">
        <time>2026-05-28T22:09:44.045000Z</time>
      </trkpt>
      <trkpt lat="35.94759283" lon="120.20573406">
        <time>2026-05-28T22:09:47.064000Z</time>
      </trkpt>
      <trkpt lat="35.94763169" lon="120.20562661">
        <ele>-6.909569099545479</ele>
        <time>2026-05-28T22:09:51.098000Z</time>
      </trkpt>
      <trkpt lat="35.94767907" lon="120.20551097">
        <time>2026-05-28T22:09:58.033000Z</time>
      </trkpt>
      <trkpt lat="35.94767907" lon="120.20551097">
        <ele>-6.732261016964912</ele>
        <time>2026-05-28T22:10:00.571000Z</time>
      </trkpt>
      <trkpt lat="35.94771395" lon="120.20540776">
        <time>2026-05-28T22:10:02.037000Z</time>
      </trkpt>
      <trkpt lat="35.94775607" lon="120.20530393">
        <time>2026-05-28T22:10:06.042000Z</time>
      </trkpt>
      <trkpt lat="35.94779655" lon="120.20520132">
        <ele>-6.65248616039753</ele>
        <time>2026-05-28T22:10:10.055000Z</time>
      </trkpt>
      <trkpt lat="35.94783839" lon="120.20510003">
        <time>2026-05-28T22:10:14.034000Z</time>
      </trkpt>
      <trkpt lat="35.94787935" lon="120.2050003">
        <time>2026-05-28T22:10:18.042000Z</time>
      </trkpt>
      <trkpt lat="35.94790791" lon="120.2048718">
        <ele>-6.685843780636787</ele>
        <time>2026-05-28T22:10:23.065000Z</time>
      </trkpt>
      <trkpt lat="35.9479183" lon="120.20476111">
        <time>2026-05-28T22:10:27.049000Z</time>
      </trkpt>
      <trkpt lat="35.94792215" lon="120.20464733">
        <time>2026-05-28T22:10:31.091000Z</time>
      </trkpt>
      <trkpt lat="35.94792347" lon="120.20451117">
        <ele>-6.494584873318672</ele>
        <time>2026-05-28T22:10:36.036000Z</time>
      </trkpt>
      <trkpt lat="35.94791468" lon="120.20437305">
        <time>2026-05-28T22:10:41.053000Z</time>
      </trkpt>
      <trkpt lat="35.94791057" lon="120.20425664">
        <ele>-6.334314182400703</ele>
        <time>2026-05-28T22:10:47.068000Z</time>
      </trkpt>
      <trkpt lat="35.94791057" lon="120.20425664">
        <time>2026-05-28T22:10:52.030000Z</time>
      </trkpt>
      <trkpt lat="35.94798395" lon="120.20433831">
        <ele>-6.513481453061104</ele>
        <time>2026-05-28T22:10:54.035000Z</time>
      </trkpt>
      <trkpt lat="35.94804958" lon="120.2044271">
        <ele>-6.479955509305</ele>
        <time>2026-05-28T22:11:05.038000Z</time>
      </trkpt>
      <trkpt lat="35.94812527" lon="120.20451012">
        <time>2026-05-28T22:11:11.036000Z</time>
      </trkpt>
      <trkpt lat="35.94820436" lon="120.20459566">
        <ele>-6.302731826901436</ele>
        <time>2026-05-28T22:11:16.065000Z</time>
      </trkpt>
      <trkpt lat="35.94820436" lon="120.20459566">
        <time>2026-05-28T22:11:16.598000Z</time>
      </trkpt>
      <trkpt lat="35.94827966" lon="120.2046683">
        <time>2026-05-28T22:11:21.099000Z</time>
      </trkpt>
      <trkpt lat="35.94835485" lon="120.20474795">
        <time>2026-05-28T22:11:26.030000Z</time>
      </trkpt>
      <trkpt lat="35.94843303" lon="120.20483184">
        <ele>-6.14884789288044</ele>
        <time>2026-05-28T22:11:31.053000Z</time>
      </trkpt>
      <trkpt lat="35.94851465" lon="120.20492262">
        <time>2026-05-28T22:11:36.070000Z</time>
      </trkpt>
      <trkpt lat="35.94858075" lon="120.20500516">
        <ele>-5.997500732541084</ele>
        <time>2026-05-28T22:11:40.084000Z</time>
      </trkpt>
      <trkpt lat="35.94866622" lon="120.20508856">
        <time>2026-05-28T22:11:45.024000Z</time>
      </trkpt>
      <trkpt lat="35.94873928" lon="120.20517929">
        <ele>-6.018808200955391</ele>
        <time>2026-05-28T22:11:50.046000Z</time>
      </trkpt>
      <trkpt lat="35.9488097" lon="120.20526714">
        <time>2026-05-28T22:11:56.089000Z</time>
      </trkpt>
      <trkpt lat="35.9488097" lon="120.20526714">
        <time>2026-05-28T22:11:57.609000Z</time>
      </trkpt>
      <trkpt lat="35.94889568" lon="120.2053553">
        <ele>-6.031574085354805</ele>
        <time>2026-05-28T22:12:02.031000Z</time>
      </trkpt>
      <trkpt lat="35.94896507" lon="120.20542968">
        <time>2026-05-28T22:12:06.047000Z</time>
      </trkpt>
      <trkpt lat="35.94896507" lon="120.20542968">
        <time>2026-05-28T22:12:07.052000Z</time>
      </trkpt>
      <trkpt lat="35.94904649" lon="120.20552061">
        <ele>-5.986169174313545</ele>
        <time>2026-05-28T22:12:11.069000Z</time>
      </trkpt>
      <trkpt lat="35.94912522" lon="120.20560724">
        <time>2026-05-28T22:12:16.114000Z</time>
      </trkpt>
      <trkpt lat="35.94920339" lon="120.20568978">
        <ele>-5.84847529232502</ele>
        <time>2026-05-28T22:12:22.056000Z</time>
      </trkpt>
      <trkpt lat="35.94920339" lon="120.20568978">
        <time>2026-05-28T22:12:23.068000Z</time>
      </trkpt>
      <trkpt lat="35.94927564" lon="120.20577821">
        <time>2026-05-28T22:12:30.090000Z</time>
      </trkpt>
      <trkpt lat="35.949373" lon="120.20582202">
        <ele>-6.0182579308748245</ele>
        <time>2026-05-28T22:12:37.020000Z</time>
      </trkpt>
      <trkpt lat="35.949373" lon="120.20582202">
        <time>2026-05-28T22:12:37.630000Z</time>
      </trkpt>
      <trkpt lat="35.94946422" lon="120.20585489">
        <time>2026-05-28T22:12:41.056000Z</time>
      </trkpt>
      <trkpt lat="35.94955231" lon="120.2058987">
        <ele>-5.86343939602375</ele>
        <time>2026-05-28T22:12:45.068000Z</time>
      </trkpt>
      <trkpt lat="35.94965525" lon="120.20595349">
        <time>2026-05-28T22:12:50.101000Z</time>
      </trkpt>
      <trkpt lat="35.94974222" lon="120.20599286">
        <ele>-5.910453632473946</ele>
        <time>2026-05-28T22:12:54.169000Z</time>
      </trkpt>
      <trkpt lat="35.94983016" lon="120.20596453">
        <time>2026-05-28T22:12:58.035000Z</time>
      </trkpt>
      <trkpt lat="35.94993233" lon="120.20592752">
        <time>2026-05-28T22:13:03.052000Z</time>
      </trkpt>
      <trkpt lat="35.9500359" lon="120.20589509">
        <ele>-5.989046886563301</ele>
        <time>2026-05-28T22:13:08.064000Z</time>
      </trkpt>
      <trkpt lat="35.9501239" lon="120.20586834">
        <time>2026-05-28T22:13:12.030000Z</time>
      </trkpt>
      <trkpt lat="35.9501239" lon="120.20586834">
        <ele>-5.8794639855623245</ele>
        <time>2026-05-28T22:13:18.037000Z</time>
      </trkpt>
      <trkpt lat="35.95022424" lon="120.20585978">
        <time>2026-05-28T22:13:19.041000Z</time>
      </trkpt>
      <trkpt lat="35.95031187" lon="120.20581899">
        <ele>-5.795292690396309</ele>
        <time>2026-05-28T22:13:27.090000Z</time>
      </trkpt>
      <trkpt lat="35.95039542" lon="120.2057665">
        <time>2026-05-28T22:13:32.045000Z</time>
      </trkpt>
      <trkpt lat="35.95039542" lon="120.2057665">
        <time>2026-05-28T22:13:32.641000Z</time>
      </trkpt>
      <trkpt lat="35.95048324" lon="120.2057201">
        <time>2026-05-28T22:13:36.064000Z</time>
      </trkpt>
      <trkpt lat="35.9505669" lon="120.20567382">
        <ele>-5.5644214898347855</ele>
        <time>2026-05-28T22:13:40.076000Z</time>
      </trkpt>
      <trkpt lat="35.95063751" lon="120.20557408">
        <time>2026-05-28T22:13:45.096000Z</time>
      </trkpt>
      <trkpt lat="35.95065554" lon="120.20546285">
        <ele>-5.615069225430489</ele>
        <time>2026-05-28T22:13:49.031000Z</time>
      </trkpt>
      <trkpt lat="35.95065127" lon="120.20535148">
        <time>2026-05-28T22:13:53.052000Z</time>
      </trkpt>
      <trkpt lat="35.95063247" lon="120.20521675">
        <time>2026-05-28T22:13:58.068000Z</time>
      </trkpt>
      <trkpt lat="35.95060513" lon="120.20508475">
        <ele>-5.432093933224678</ele>
        <time>2026-05-28T22:14:03.047000Z</time>
      </trkpt>
      <trkpt lat="35.95058935" lon="120.2049715">
        <time>2026-05-28T22:14:09.049000Z</time>
      </trkpt>
      <trkpt lat="35.95058935" lon="120.2049715">
        <ele>-5.618114307522774</ele>
        <time>2026-05-28T22:14:18.652000Z</time>
      </trkpt>
      <trkpt lat="35.95081718" lon="120.20475713">
        <ele>-5.491515949368477</ele>
        <time>2026-05-28T22:14:40.037000Z</time>
      </trkpt>
      <trkpt lat="35.95089347" lon="120.20466921">
        <ele>-5.7514122277498245</ele>
        <time>2026-05-28T22:14:45.035000Z</time>
      </trkpt>
      <trkpt lat="35.95097693" lon="120.20461667">
        <time>2026-05-28T22:14:49.031000Z</time>
      </trkpt>
      <trkpt lat="35.9510791" lon="120.20458925">
        <ele>-6.22875340282917</ele>
        <time>2026-05-28T22:14:55.044000Z</time>
      </trkpt>
      <trkpt lat="35.95117258" lon="120.20458361">
        <time>2026-05-28T22:14:59.047000Z</time>
      </trkpt>
      <trkpt lat="35.9512757" lon="120.20456156">
        <time>2026-05-28T22:15:03.030000Z</time>
      </trkpt>
      <trkpt lat="35.95136685" lon="120.20454019">
        <ele>-6.575036838650703</ele>
        <time>2026-05-28T22:15:07.049000Z</time>
      </trkpt>
      <trkpt lat="35.95145733" lon="120.20453782">
        <time>2026-05-28T22:15:11.053000Z</time>
      </trkpt>
      <trkpt lat="35.95155723" lon="120.20449497">
        <time>2026-05-28T22:15:16.056000Z</time>
      </trkpt>
      <trkpt lat="35.95155723" lon="120.20449497">
        <ele>-6.836055591702461</ele>
        <time>2026-05-28T22:15:16.429000Z</time>
      </trkpt>
      <trkpt lat="35.95164558" lon="120.20447482">
        <time>2026-05-28T22:15:22.024000Z</time>
      </trkpt>
      <trkpt lat="35.95164558" lon="120.20447482">
        <time>2026-05-28T22:15:26.046000Z</time>
      </trkpt>
      <trkpt lat="35.95175681" lon="120.20446127">
        <ele>-6.992452457547188</ele>
        <time>2026-05-28T22:15:29.069000Z</time>
      </trkpt>
      <trkpt lat="35.95186521" lon="120.20446222">
        <time>2026-05-28T22:15:34.035000Z</time>
      </trkpt>
      <trkpt lat="35.95196788" lon="120.204443">
        <ele>-7.116982772946358</ele>
        <time>2026-05-28T22:15:40.026000Z</time>
      </trkpt>
      <trkpt lat="35.95206518" lon="120.20443616">
        <time>2026-05-28T22:15:46.064000Z</time>
      </trkpt>
      <trkpt lat="35.95206518" lon="120.20443616">
        <time>2026-05-28T22:15:49.038000Z</time>
      </trkpt>
      <trkpt lat="35.95215502" lon="120.20440788">
        <ele>-7.268709018826485</ele>
        <time>2026-05-28T22:15:54.095000Z</time>
      </trkpt>
      <trkpt lat="35.95224687" lon="120.20438714">
        <ele>-7.279330566525459</ele>
        <time>2026-05-28T22:16:02.017000Z</time>
      </trkpt>
      <trkpt lat="35.95224687" lon="120.20438714">
        <time>2026-05-28T22:16:02.441000Z</time>
      </trkpt>
      <trkpt lat="35.95233945" lon="120.20438721">
        <time>2026-05-28T22:16:06.033000Z</time>
      </trkpt>
      <trkpt lat="35.95243292" lon="120.20437221">
        <time>2026-05-28T22:16:09.048000Z</time>
      </trkpt>
      <trkpt lat="35.95254098" lon="120.20435393">
        <ele>-7.179383113980293</ele>
        <time>2026-05-28T22:16:14.042000Z</time>
      </trkpt>
      <trkpt lat="35.95264477" lon="120.20434078">
        <time>2026-05-28T22:16:19.042000Z</time>
      </trkpt>
      <trkpt lat="35.95274167" lon="120.20430994">
        <ele>-6.996396854519844</ele>
        <time>2026-05-28T22:16:27.054000Z</time>
      </trkpt>
      <trkpt lat="35.95274167" lon="120.20430994">
        <time>2026-05-28T22:16:30.095000Z</time>
      </trkpt>
      <trkpt lat="35.95282906" lon="120.20426499">
        <ele>-6.844320133328438</ele>
        <time>2026-05-28T22:16:35.028000Z</time>
      </trkpt>
      <trkpt lat="35.95292284" lon="120.20423537">
        <time>2026-05-28T22:16:43.031000Z</time>
      </trkpt>
      <trkpt lat="35.95301349" lon="120.20425667">
        <ele>-6.760889366269112</ele>
        <time>2026-05-28T22:16:50.022000Z</time>
      </trkpt>
      <trkpt lat="35.95301349" lon="120.20425667">
        <time>2026-05-28T22:16:52.457000Z</time>
      </trkpt>
      <trkpt lat="35.95311487" lon="120.20423706">
        <time>2026-05-28T22:16:55.064000Z</time>
      </trkpt>
      <trkpt lat="35.95322383" lon="120.20424148">
        <ele>-6.6889756470918655</ele>
        <time>2026-05-28T22:16:59.018000Z</time>
      </trkpt>
      <trkpt lat="35.95331628" lon="120.20421841">
        <time>2026-05-28T22:17:04.104000Z</time>
      </trkpt>
      <trkpt lat="35.95342184" lon="120.20421417">
        <ele>-6.710536792874336</ele>
        <time>2026-05-28T22:17:09.061000Z</time>
      </trkpt>
      <trkpt lat="35.953525" lon="120.20419846">
        <time>2026-05-28T22:17:13.069000Z</time>
      </trkpt>
      <trkpt lat="35.95362378" lon="120.20417948">
        <ele>-6.308190181851387</ele>
        <time>2026-05-28T22:17:18.033000Z</time>
      </trkpt>
      <trkpt lat="35.95372872" lon="120.20416428">
        <time>2026-05-28T22:17:23.050000Z</time>
      </trkpt>
      <trkpt lat="35.95382698" lon="120.20414874">
        <time>2026-05-28T22:17:28.039000Z</time>
      </trkpt>
      <trkpt lat="35.95392017" lon="120.20412105">
        <ele>-6.080026939511299</ele>
        <time>2026-05-28T22:17:35.035000Z</time>
      </trkpt>
      <trkpt lat="35.95401527" lon="120.20410506">
        <time>2026-05-28T22:17:39.041000Z</time>
      </trkpt>
      <trkpt lat="35.95411514" lon="120.20409583">
        <ele>-5.452812507748604</ele>
        <time>2026-05-28T22:17:45.064000Z</time>
      </trkpt>
      <trkpt lat="35.95411514" lon="120.20409583">
        <time>2026-05-28T22:17:47.063000Z</time>
      </trkpt>
      <trkpt lat="35.95420803" lon="120.20409117">
        <ele>-5.330837085843086</ele>
        <time>2026-05-28T22:17:51.198000Z</time>
      </trkpt>
      <trkpt lat="35.95431054" lon="120.20408802">
        <time>2026-05-28T22:17:57.029000Z</time>
      </trkpt>
      <trkpt lat="35.95431054" lon="120.20408802">
        <ele>-5.106064155697823</ele>
        <time>2026-05-28T22:18:01.492000Z</time>
      </trkpt>
      <trkpt lat="35.95441088" lon="120.20407948">
        <time>2026-05-28T22:18:04.029000Z</time>
      </trkpt>
      <trkpt lat="35.95450667" lon="120.20405275">
        <time>2026-05-28T22:18:11.047000Z</time>
      </trkpt>
      <trkpt lat="35.95450667" lon="120.20405275">
        <ele>-4.572087600827217</ele>
        <time>2026-05-28T22:18:14.017000Z</time>
      </trkpt>
      <trkpt lat="35.95460153" lon="120.2040531">
        <time>2026-05-28T22:18:16.036000Z</time>
      </trkpt>
      <trkpt lat="35.9546916" lon="120.20404492">
        <time>2026-05-28T22:18:20.053000Z</time>
      </trkpt>
      <trkpt lat="35.95479036" lon="120.20403402">
        <ele>-4.3196800500154495</ele>
        <time>2026-05-28T22:18:24.065000Z</time>
      </trkpt>
      <trkpt lat="35.95479036" lon="120.20403402">
        <time>2026-05-28T22:18:25.063000Z</time>
      </trkpt>
      <trkpt lat="35.95488491" lon="120.20401785">
        <time>2026-05-28T22:18:30.100000Z</time>
      </trkpt>
      <trkpt lat="35.95488491" lon="120.20401785">
        <ele>-3.7005856782197952</ele>
        <time>2026-05-28T22:18:36.049000Z</time>
      </trkpt>
      <trkpt lat="35.95498481" lon="120.20407296">
        <time>2026-05-28T22:18:38.045000Z</time>
      </trkpt>
      <trkpt lat="35.95505591" lon="120.20417394">
        <time>2026-05-28T22:18:43.061000Z</time>
      </trkpt>
      <trkpt lat="35.95505591" lon="120.20417394">
        <ele>-2.6144614964723587</ele>
        <time>2026-05-28T22:18:46.073000Z</time>
      </trkpt>
      <trkpt lat="35.95508087" lon="120.20428291">
        <time>2026-05-28T22:18:48.080000Z</time>
      </trkpt>
      <trkpt lat="35.95509581" lon="120.20441351">
        <time>2026-05-28T22:18:54.217000Z</time>
      </trkpt>
      <trkpt lat="35.95511644" lon="120.2045385">
        <ele>-1.7541369944810867</ele>
        <time>2026-05-28T22:18:59.037000Z</time>
      </trkpt>
      <trkpt lat="35.95514425" lon="120.20465706">
        <time>2026-05-28T22:19:05.025000Z</time>
      </trkpt>
      <trkpt lat="35.95514425" lon="120.20465706">
        <time>2026-05-28T22:19:07.037000Z</time>
      </trkpt>
      <trkpt lat="35.95518456" lon="120.20478194">
        <ele>-1.4710115939378738</ele>
        <time>2026-05-28T22:19:12.041000Z</time>
      </trkpt>
      <trkpt lat="35.95518456" lon="120.20478194">
        <time>2026-05-28T22:19:17.049000Z</time>
      </trkpt>
      <trkpt lat="35.95520009" lon="120.20490869">
        <time>2026-05-28T22:19:17.058000Z</time>
      </trkpt>
      <trkpt lat="35.95521636" lon="120.20502213">
        <ele>-0.41642720997333527</ele>
        <time>2026-05-28T22:19:22.036000Z</time>
      </trkpt>
      <trkpt lat="35.95523274" lon="120.20513296">
        <time>2026-05-28T22:19:27.017000Z</time>
      </trkpt>
      <trkpt lat="35.95527843" lon="120.2052551">
        <ele>-0.04845370538532734</ele>
        <time>2026-05-28T22:19:33.035000Z</time>
      </trkpt>
      <trkpt lat="35.95527843" lon="120.2052551">
        <ele>0.5337767452001572</ele>
        <time>2026-05-28T22:20:09.009000Z</time>
      </trkpt>
      <trkpt lat="35.95531072" lon="120.20550881">
        <time>2026-05-28T22:20:09.017000Z</time>
      </trkpt>
      <trkpt lat="35.95533914" lon="120.20563933">
        <ele>0.4168824106454849</ele>
        <time>2026-05-28T22:20:14.015000Z</time>
      </trkpt>
      <trkpt lat="35.95535826" lon="120.20576746">
        <time>2026-05-28T22:20:19.035000Z</time>
      </trkpt>
      <trkpt lat="35.95537543" lon="120.20587831">
        <ele>0.19969065487384796</ele>
        <time>2026-05-28T22:20:24.031000Z</time>
      </trkpt>
      <trkpt lat="35.9553889" lon="120.20599215">
        <time>2026-05-28T22:20:28.046000Z</time>
      </trkpt>
      <trkpt lat="35.95541236" lon="120.20611478">
        <ele>-0.46624617278575897</ele>
        <time>2026-05-28T22:20:34.014000Z</time>
      </trkpt>
      <trkpt lat="35.95542869" lon="120.20623355">
        <time>2026-05-28T22:20:38.041000Z</time>
      </trkpt>
      <trkpt lat="35.95544875" lon="120.2063602">
        <time>2026-05-28T22:20:43.041000Z</time>
      </trkpt>
      <trkpt lat="35.95546264" lon="120.20647533">
        <ele>-1.2135072499513626</ele>
        <time>2026-05-28T22:20:47.039000Z</time>
      </trkpt>
      <trkpt lat="35.95547674" lon="120.20660979">
        <time>2026-05-28T22:20:52.042000Z</time>
      </trkpt>
      <trkpt lat="35.95549134" lon="120.20672282">
        <ele>-1.6666770726442337</ele>
        <time>2026-05-28T22:20:57.013000Z</time>
      </trkpt>
      <trkpt lat="35.95550211" lon="120.20684193">
        <time>2026-05-28T22:21:02.026000Z</time>
      </trkpt>
      <trkpt lat="35.95551196" lon="120.20697486">
        <ele>-1.8048265725374222</ele>
        <time>2026-05-28T22:21:08.028000Z</time>
      </trkpt>
      <trkpt lat="35.95551976" lon="120.20710108">
        <time>2026-05-28T22:21:13.026000Z</time>
      </trkpt>
      <trkpt lat="35.95550822" lon="120.20723087">
        <ele>-1.8670995980501175</ele>
        <time>2026-05-28T22:21:18.034000Z</time>
      </trkpt>
      <trkpt lat="35.95550089" lon="120.20735603">
        <time>2026-05-28T22:21:23.075000Z</time>
      </trkpt>
      <trkpt lat="35.95548945" lon="120.20747672">
        <ele>-1.5092314034700394</ele>
        <time>2026-05-28T22:21:28.033000Z</time>
      </trkpt>
      <trkpt lat="35.95556339" lon="120.20755325">
        <time>2026-05-28T22:21:32.030000Z</time>
      </trkpt>
      <trkpt lat="35.95566444" lon="120.20756819">
        <time>2026-05-28T22:21:36.064000Z</time>
      </trkpt>
      <trkpt lat="35.95574483" lon="120.2076518">
        <ele>-1.3965634852647781</ele>
        <time>2026-05-28T22:21:40.043000Z</time>
      </trkpt>
      <trkpt lat="35.9558199" lon="120.20773447">
        <time>2026-05-28T22:21:47.030000Z</time>
      </trkpt>
      <trkpt lat="35.9558199" lon="120.20773447">
        <ele>-0.6273831278085709</ele>
        <time>2026-05-28T22:21:50.704000Z</time>
      </trkpt>
      <trkpt lat="35.95591444" lon="120.20771168">
        <time>2026-05-28T22:21:55.057000Z</time>
      </trkpt>
      <trkpt lat="35.95601254" lon="120.2076618">
        <ele>0.7438937872648239</ele>
        <time>2026-05-28T22:22:03.017000Z</time>
      </trkpt>
      <trkpt lat="35.95601254" lon="120.2076618">
        <time>2026-05-28T22:22:05.710000Z</time>
      </trkpt>
      <trkpt lat="35.95611959" lon="120.20763619">
        <time>2026-05-28T22:22:08.038000Z</time>
      </trkpt>
      <trkpt lat="35.9562169" lon="120.20760828">
        <ele>1.2245930880308151</ele>
        <time>2026-05-28T22:22:12.249000Z</time>
      </trkpt>
      <trkpt lat="35.95631137" lon="120.20758579">
        <time>2026-05-28T22:22:16.075000Z</time>
      </trkpt>
      <trkpt lat="35.95640353" lon="120.20757684">
        <time>2026-05-28T22:22:20.043000Z</time>
      </trkpt>
      <trkpt lat="35.95650251" lon="120.20755041">
        <ele>1.7171096056699753</ele>
        <time>2026-05-28T22:22:25.030000Z</time>
      </trkpt>
      <trkpt lat="35.95656766" lon="120.20763302">
        <time>2026-05-28T22:22:33.063000Z</time>
      </trkpt>
      <trkpt lat="35.95656714" lon="120.20776135">
        <ele>1.5519680231809616</ele>
        <time>2026-05-28T22:22:38.073000Z</time>
      </trkpt>
      <trkpt lat="35.9565574" lon="120.20787728">
        <time>2026-05-28T22:22:42.026000Z</time>
      </trkpt>
      <trkpt lat="35.95655501" lon="120.20798873">
        <ele>1.4546808451414108</ele>
        <time>2026-05-28T22:22:45.029000Z</time>
      </trkpt>
      <trkpt lat="35.95658511" lon="120.20811499">
        <time>2026-05-28T22:22:51.052000Z</time>
      </trkpt>
      <trkpt lat="35.95660266" lon="120.20823579">
        <time>2026-05-28T22:22:55.086000Z</time>
      </trkpt>
      <trkpt lat="35.95664992" lon="120.20835663">
        <ele>1.210556909441948</ele>
        <time>2026-05-28T22:23:01.017000Z</time>
      </trkpt>
      <trkpt lat="35.95666161" lon="120.20847409">
        <time>2026-05-28T22:23:05.021000Z</time>
      </trkpt>
      <trkpt lat="35.95660882" lon="120.20858521">
        <ele>0.8151246756315231</ele>
        <time>2026-05-28T22:23:13.057000Z</time>
      </trkpt>
      <trkpt lat="35.95660882" lon="120.20858521">
        <time>2026-05-28T22:23:13.732000Z</time>
      </trkpt>
      <trkpt lat="35.9565087" lon="120.20860294">
        <time>2026-05-28T22:23:17.025000Z</time>
      </trkpt>
      <trkpt lat="35.95640009" lon="120.2086182">
        <ele>0.2676455229520798</ele>
        <time>2026-05-28T22:23:22.056000Z</time>
      </trkpt>
      <trkpt lat="35.95640009" lon="120.2086182">
        <time>2026-05-28T22:23:23.044000Z</time>
      </trkpt>
      <trkpt lat="35.95630753" lon="120.20867635">
        <time>2026-05-28T22:23:27.076000Z</time>
      </trkpt>
      <trkpt lat="35.95626526" lon="120.20879192">
        <ele>-0.9815794974565506</ele>
        <time>2026-05-28T22:23:32.082000Z</time>
      </trkpt>
      <trkpt lat="35.95625956" lon="120.20892071">
        <time>2026-05-28T22:23:37.022000Z</time>
      </trkpt>
      <trkpt lat="35.95626486" lon="120.20905579">
        <ele>-1.3859120160341263</ele>
        <time>2026-05-28T22:23:42.198000Z</time>
      </trkpt>
      <trkpt lat="35.95625866" lon="120.20917053">
        <time>2026-05-28T22:23:47.025000Z</time>
      </trkpt>
      <trkpt lat="35.9562621" lon="120.20929761">
        <ele>-1.5153141766786575</ele>
        <time>2026-05-28T22:23:52.027000Z</time>
      </trkpt>
      <trkpt lat="35.95626385" lon="120.20941873">
        <time>2026-05-28T22:23:57.042000Z</time>
      </trkpt>
      <trkpt lat="35.95626573" lon="120.20954193">
        <ele>-1.7192313224077225</ele>
        <time>2026-05-28T22:24:02.031000Z</time>
      </trkpt>
      <trkpt lat="35.9562575" lon="120.20966078">
        <time>2026-05-28T22:24:09.047000Z</time>
      </trkpt>
      <trkpt lat="35.9562575" lon="120.20966078">
        <time>2026-05-28T22:24:09.745000Z</time>
      </trkpt>
      <trkpt lat="35.9562696" lon="120.20977225">
        <ele>-2.1750849038362503</ele>
        <time>2026-05-28T22:24:16.035000Z</time>
      </trkpt>
      <trkpt lat="35.95629702" lon="120.20990228">
        <time>2026-05-28T22:24:21.029000Z</time>
      </trkpt>
      <trkpt lat="35.95629702" lon="120.20990228">
        <time>2026-05-28T22:24:21.743000Z</time>
      </trkpt>
      <trkpt lat="35.95629979" lon="120.21003241">
        <ele>-2.437847211956978</ele>
        <time>2026-05-28T22:24:26.079000Z</time>
      </trkpt>
      <trkpt lat="35.95630524" lon="120.21015184">
        <time>2026-05-28T22:24:31.023000Z</time>
      </trkpt>
      <trkpt lat="35.95630688" lon="120.21028025">
        <ele>-2.799717739224434</ele>
        <time>2026-05-28T22:24:36.039000Z</time>
      </trkpt>
      <trkpt lat="35.9563082" lon="120.21041165">
        <time>2026-05-28T22:24:41.064000Z</time>
      </trkpt>
      <trkpt lat="35.95630928" lon="120.21052677">
        <time>2026-05-28T22:24:45.129000Z</time>
      </trkpt>
      <trkpt lat="35.95631075" lon="120.21064294">
        <ele>-2.995077446103096</ele>
        <time>2026-05-28T22:24:50.034000Z</time>
      </trkpt>
      <trkpt lat="35.95629638" lon="120.21075281">
        <time>2026-05-28T22:24:56.019000Z</time>
      </trkpt>
      <trkpt lat="35.95629638" lon="120.21075281">
        <ele>-2.825507715344429</ele>
        <time>2026-05-28T22:24:56.752000Z</time>
      </trkpt>
      <trkpt lat="35.95638011" lon="120.21079355">
        <time>2026-05-28T22:25:01.107000Z</time>
      </trkpt>
      <trkpt lat="35.95647083" lon="120.21079108">
        <time>2026-05-28T22:25:05.027000Z</time>
      </trkpt>
      <trkpt lat="35.95647083" lon="120.21079108">
        <ele>-2.4366064816713333</ele>
        <time>2026-05-28T22:25:06.761000Z</time>
      </trkpt>
      <trkpt lat="35.95656577" lon="120.21078436">
        <time>2026-05-28T22:25:09.031000Z</time>
      </trkpt>
      <trkpt lat="35.95667422" lon="120.21079521">
        <time>2026-05-28T22:25:14.036000Z</time>
      </trkpt>
      <trkpt lat="35.95676462" lon="120.2107821">
        <ele>-2.354675605893135</ele>
        <time>2026-05-28T22:25:18.068000Z</time>
      </trkpt>
      <trkpt lat="35.95686824" lon="120.2107507">
        <time>2026-05-28T22:25:22.223000Z</time>
      </trkpt>
      <trkpt lat="35.95696131" lon="120.2107449">
        <time>2026-05-28T22:25:26.031000Z</time>
      </trkpt>
      <trkpt lat="35.95705559" lon="120.21073926">
        <ele>-1.7166424542665482</ele>
        <time>2026-05-28T22:25:32.038000Z</time>
      </trkpt>
      <trkpt lat="35.9571502" lon="120.21067171">
        <time>2026-05-28T22:25:37.071000Z</time>
      </trkpt>
      <trkpt lat="35.95716668" lon="120.21061879">
        <ele>-1.2107636481523514</ele>
        <time>2026-05-28T22:25:40.282000Z</time>
      </trkpt>
    </trkseg>
  </trk>
</gpx>