<?xml version="1.0" encoding="UTF-8"?>
<gpx xmlns="http://www.topografix.com/GPX/1/1" xmlns:gpxtpx="http://www.garmin.com/xmlschemas/TrackPointExtension/v1" xmlns:xsi="http://www.w3.org/2001/XMLSchema-instance" xsi:schemaLocation="http://www.topografix.com/GPX/1/1 http://www.topografix.com/GPX/1/1/gpx.xsd" version="1.1" creator="gpx.py -- https://github.com/tkrajina/gpxpy">
  <trk>
    <name>gpx from keep</name>
    <trkseg>
      <trkpt lat="35.95708957248264" lon="120.21496826171875">
        <ele>4</ele>
        <time>2017-12-28T13:13:23.200000Z</time>
      </trkpt>
      <trkpt lat="35.95726182725694" lon="120.2149107530382">
        <ele>3</ele>
        <time>2017-12-28T13:13:31.100000Z</time>
      </trkpt>
      <trkpt lat="35.957478841145836" lon="120.21485975477431">
        <ele>3</ele>
        <time>2017-12-28T13:13:38.100000Z</time>
      </trkpt>
      <trkpt lat="35.95754937065972" lon="120.21485026041667">
        <ele>3</ele>
        <time>2017-12-28T13:13:41.200000Z</time>
      </trkpt>
      <trkpt lat="35.95796630859375" lon="120.2150390625">
        <ele>3</ele>
        <time>2017-12-28T13:14:03.200000Z</time>
      </trkpt>
      <trkpt lat="35.957958170572915" lon="120.21514621310764">
        <ele>3</ele>
        <time>2017-12-28T13:14:06.200000Z</time>
      </trkpt>
      <trkpt lat="35.95797824435764" lon="120.21537434895833">
        <ele>3</ele>
        <time>2017-12-28T13:14:13.200000Z</time>
      </trkpt>
      <trkpt lat="35.958003472222224" lon="120.21547281901042">
        <ele>3</ele>
        <time>2017-12-28T13:14:16.200000Z</time>
      </trkpt>
      <trkpt lat="35.958028157552086" lon="120.21557562934028">
        <ele>3</ele>
        <time>2017-12-28T13:14:19.200000Z</time>
      </trkpt>
      <trkpt lat="35.957737087673614" lon="120.21587917751737">
        <ele>3</ele>
        <time>2017-12-28T13:14:34.200000Z</time>
      </trkpt>
      <trkpt lat="35.957661675347225" lon="120.21587999131944">
        <ele>3</ele>
        <time>2017-12-28T13:14:37.200000Z</time>
      </trkpt>
      <trkpt lat="35.95737060546875" lon="120.21591444227431">
        <ele>3</ele>
        <time>2017-12-28T13:14:48.200000Z</time>
      </trkpt>
      <trkpt lat="35.9571875" lon="120.21593939887153">
        <ele>3</ele>
        <time>2017-12-28T13:14:55.200000Z</time>
      </trkpt>
      <trkpt lat="35.95709988064236" lon="120.21594211154513">
        <ele>3</ele>
        <time>2017-12-28T13:14:58.200000Z</time>
      </trkpt>
      <trkpt lat="35.956927354600694" lon="120.2159814453125">
        <ele>3</ele>
        <time>2017-12-28T13:15:05.200000Z</time>
      </trkpt>
      <trkpt lat="35.95681884765625" lon="120.21601589626736">
        <ele>3</ele>
        <time>2017-12-28T13:15:09.200000Z</time>
      </trkpt>
      <trkpt lat="35.95662706163194" lon="120.21605061848959">
        <ele>3</ele>
        <time>2017-12-28T13:15:16.200000Z</time>
      </trkpt>
      <trkpt lat="35.95653374565972" lon="120.21608344184028">
        <ele>3</ele>
        <time>2017-12-28T13:15:20.200000Z</time>
      </trkpt>
      <trkpt lat="35.95645806206597" lon="120.216103515625">
        <ele>3</ele>
        <time>2017-12-28T13:15:23.200000Z</time>
      </trkpt>
      <trkpt lat="35.95636474609375" lon="120.216123046875">
        <ele>3</ele>
        <time>2017-12-28T13:15:30.500000Z</time>
      </trkpt>
      <trkpt lat="35.95635850694445" lon="120.21613444010417">
        <ele>3</ele>
        <time>2017-12-28T13:15:34.200000Z</time>
      </trkpt>
      <trkpt lat="35.9563916015625" lon="120.21613444010417">
        <ele>3</ele>
        <time>2017-12-28T13:16:17.200000Z</time>
      </trkpt>
      <trkpt lat="35.95639133029514" lon="120.21615885416666">
        <ele>3</ele>
        <time>2017-12-28T13:16:38.200000Z</time>
      </trkpt>
      <trkpt lat="35.95639133029514" lon="120.21615885416666">
        <ele>3</ele>
        <time>2017-12-28T13:16:41.200000Z</time>
      </trkpt>
      <trkpt lat="35.95640652126736" lon="120.21615071614583">
        <ele>3</ele>
        <time>2017-12-28T13:16:45.200000Z</time>
      </trkpt>
      <trkpt lat="35.956408148871525" lon="120.21615125868055">
        <ele>3</ele>
        <time>2017-12-28T13:16:48.200000Z</time>
      </trkpt>
      <trkpt lat="35.95636040581597" lon="120.21614935980902">
        <ele>3</ele>
        <time>2017-12-28T13:17:13.200000Z</time>
      </trkpt>
      <trkpt lat="35.956319444444446" lon="120.21616427951389">
        <ele>3</ele>
        <time>2017-12-28T13:17:17.100000Z</time>
      </trkpt>
      <trkpt lat="35.9562828233507" lon="120.216181640625">
        <ele>3</ele>
        <time>2017-12-28T13:17:20.100000Z</time>
      </trkpt>
      <trkpt lat="35.956233995225695" lon="120.21618869357638">
        <ele>3</ele>
        <time>2017-12-28T13:17:23.200000Z</time>
      </trkpt>
      <trkpt lat="35.95620496961806" lon="120.21618896484375">
        <ele>3</ele>
        <time>2017-12-28T13:17:26.500000Z</time>
      </trkpt>
      <trkpt lat="35.95575086805555" lon="120.21647054036458">
        <ele>3</ele>
        <time>2017-12-28T13:17:45.300000Z</time>
      </trkpt>
      <trkpt lat="35.95562038845486" lon="120.21675048828125">
        <ele>3</ele>
        <time>2017-12-28T13:17:57.100000Z</time>
      </trkpt>
      <trkpt lat="35.95563639322916" lon="120.21685302734375">
        <ele>3</ele>
        <time>2017-12-28T13:18:00.200000Z</time>
      </trkpt>
      <trkpt lat="35.955661892361114" lon="120.21705810546875">
        <ele>3</ele>
        <time>2017-12-28T13:18:06.200000Z</time>
      </trkpt>
      <trkpt lat="35.95569878472222" lon="120.2171959092882">
        <ele>3</ele>
        <time>2017-12-28T13:18:10.200000Z</time>
      </trkpt>
      <trkpt lat="35.95574815538195" lon="120.21743869357638">
        <ele>3</ele>
        <time>2017-12-28T13:18:17.100000Z</time>
      </trkpt>
      <trkpt lat="35.95577365451389" lon="120.21752983940972">
        <ele>3</ele>
        <time>2017-12-28T13:18:20.100000Z</time>
      </trkpt>
      <trkpt lat="35.95586344401042" lon="120.21787868923612">
        <ele>3</ele>
        <time>2017-12-28T13:18:31.200000Z</time>
      </trkpt>
      <trkpt lat="35.95596842447917" lon="120.21818929036458">
        <ele>3</ele>
        <time>2017-12-28T13:18:42.200000Z</time>
      </trkpt>
      <trkpt lat="35.95568603515625" lon="120.21861300998263">
        <ele>3</ele>
        <time>2017-12-28T13:19:04.200000Z</time>
      </trkpt>
      <trkpt lat="35.95561008029514" lon="120.21862358940972">
        <ele>3</ele>
        <time>2017-12-28T13:19:07.200000Z</time>
      </trkpt>
      <trkpt lat="35.95543619791667" lon="120.2186802842882">
        <ele>3</ele>
        <time>2017-12-28T13:19:13.200000Z</time>
      </trkpt>
      <trkpt lat="35.95533718532986" lon="120.21873372395834">
        <ele>3</ele>
        <time>2017-12-28T13:19:17.200000Z</time>
      </trkpt>
      <trkpt lat="35.95505588107639" lon="120.2188134765625">
        <ele>3</ele>
        <time>2017-12-28T13:19:28.200000Z</time>
      </trkpt>
      <trkpt lat="35.954943033854164" lon="120.21881076388888">
        <ele>3</ele>
        <time>2017-12-28T13:19:32.200000Z</time>
      </trkpt>
      <trkpt lat="35.95476481119792" lon="120.21883599175347">
        <ele>3</ele>
        <time>2017-12-28T13:19:39.200000Z</time>
      </trkpt>
      <trkpt lat="35.95464925130209" lon="120.2188547092014">
        <ele>3</ele>
        <time>2017-12-28T13:19:43.200000Z</time>
      </trkpt>
      <trkpt lat="35.95444471571181" lon="120.21888807508681">
        <ele>3</ele>
        <time>2017-12-28T13:19:51.200000Z</time>
      </trkpt>
      <trkpt lat="35.95433810763889" lon="120.21891682942709">
        <ele>3</ele>
        <time>2017-12-28T13:19:55.200000Z</time>
      </trkpt>
      <trkpt lat="35.95414713541667" lon="120.21896457248263">
        <ele>3</ele>
        <time>2017-12-28T13:20:02.100000Z</time>
      </trkpt>
      <trkpt lat="35.95405517578125" lon="120.21897488064236">
        <ele>3</ele>
        <time>2017-12-28T13:20:05.200000Z</time>
      </trkpt>
      <trkpt lat="35.95387098524306" lon="120.21900770399306">
        <ele>3</ele>
        <time>2017-12-28T13:20:12.100000Z</time>
      </trkpt>
      <trkpt lat="35.95325575086805" lon="120.21904378255208">
        <ele>3</ele>
        <time>2017-12-28T13:20:38.100000Z</time>
      </trkpt>
      <trkpt lat="35.95318820529514" lon="120.21901638454861">
        <ele>3</ele>
        <time>2017-12-28T13:20:41.800000Z</time>
      </trkpt>
      <trkpt lat="35.952982313368054" lon="120.21888753255209">
        <ele>3</ele>
        <time>2017-12-28T13:20:49.100000Z</time>
      </trkpt>
      <trkpt lat="35.952845865885415" lon="120.21860514322917">
        <ele>3</ele>
        <time>2017-12-28T13:20:59.100000Z</time>
      </trkpt>
      <trkpt lat="35.95282687717014" lon="120.21849012586806">
        <ele>3</ele>
        <time>2017-12-28T13:21:02.200000Z</time>
      </trkpt>
      <trkpt lat="35.952778862847225" lon="120.21828396267361">
        <ele>3</ele>
        <time>2017-12-28T13:21:09.200000Z</time>
      </trkpt>
      <trkpt lat="35.95272216796875" lon="120.21802842881945">
        <ele>3</ele>
        <time>2017-12-28T13:21:17.200000Z</time>
      </trkpt>
      <trkpt lat="35.9526353624132" lon="120.21756673177083">
        <ele>3</ele>
        <time>2017-12-28T13:21:32.100000Z</time>
      </trkpt>
      <trkpt lat="35.95260986328125" lon="120.21748236762153">
        <ele>3</ele>
        <time>2017-12-28T13:21:35.100000Z</time>
      </trkpt>
      <trkpt lat="35.95259033203125" lon="120.21735595703124">
        <ele>3</ele>
        <time>2017-12-28T13:21:41.200000Z</time>
      </trkpt>
      <trkpt lat="35.95248291015625" lon="120.21698757595486">
        <ele>3</ele>
        <time>2017-12-28T13:21:52.100000Z</time>
      </trkpt>
      <trkpt lat="35.9524595811632" lon="120.21690999348958">
        <ele>3</ele>
        <time>2017-12-28T13:21:55.100000Z</time>
      </trkpt>
      <trkpt lat="35.95242404513889" lon="120.21666720920139">
        <ele>3</ele>
        <time>2017-12-28T13:22:02.200000Z</time>
      </trkpt>
      <trkpt lat="35.95240776909722" lon="120.2165269639757">
        <ele>3</ele>
        <time>2017-12-28T13:22:06.200000Z</time>
      </trkpt>
      <trkpt lat="35.952365180121525" lon="120.2163001844618">
        <ele>3</ele>
        <time>2017-12-28T13:22:13.200000Z</time>
      </trkpt>
      <trkpt lat="35.95233913845486" lon="120.21618815104166">
        <ele>3</ele>
        <time>2017-12-28T13:22:17.200000Z</time>
      </trkpt>
      <trkpt lat="35.95231472439236" lon="120.2160964626736">
        <ele>3</ele>
        <time>2017-12-28T13:22:20.200000Z</time>
      </trkpt>
      <trkpt lat="35.95227132161458" lon="120.21588487413194">
        <ele>3</ele>
        <time>2017-12-28T13:22:27.200000Z</time>
      </trkpt>
      <trkpt lat="35.952250705295135" lon="120.2157484266493">
        <ele>3</ele>
        <time>2017-12-28T13:22:31.200000Z</time>
      </trkpt>
      <trkpt lat="35.95219753689236" lon="120.21553059895834">
        <ele>3</ele>
        <time>2017-12-28T13:22:38.200000Z</time>
      </trkpt>
      <trkpt lat="35.95216796875" lon="120.21547064887153">
        <ele>3</ele>
        <time>2017-12-28T13:22:46.200000Z</time>
      </trkpt>
      <trkpt lat="35.952108018663196" lon="120.21550347222222">
        <ele>3</ele>
        <time>2017-12-28T13:22:49.200000Z</time>
      </trkpt>
      <trkpt lat="35.95204996744792" lon="120.21551920572917">
        <ele>3</ele>
        <time>2017-12-28T13:22:52.200000Z</time>
      </trkpt>
      <trkpt lat="35.95197455512153" lon="120.21556450737847">
        <ele>3</ele>
        <time>2017-12-28T13:22:56.200000Z</time>
      </trkpt>
      <trkpt lat="35.95178304036458" lon="120.21562798394098">
        <ele>3</ele>
        <time>2017-12-28T13:23:03.200000Z</time>
      </trkpt>
      <trkpt lat="35.95149224175347" lon="120.21569417317708">
        <ele>3</ele>
        <time>2017-12-28T13:23:14.200000Z</time>
      </trkpt>
      <trkpt lat="35.95141520182292" lon="120.21571234809028">
        <ele>4</ele>
        <time>2017-12-28T13:23:17.200000Z</time>
      </trkpt>
      <trkpt lat="35.95130235460069" lon="120.21572998046875">
        <ele>4</ele>
        <time>2017-12-28T13:23:21.200000Z</time>
      </trkpt>
      <trkpt lat="35.95109402126736" lon="120.21579020182291">
        <ele>3</ele>
        <time>2017-12-28T13:23:29.200000Z</time>
      </trkpt>
      <trkpt lat="35.95101779513889" lon="120.21580674913194">
        <ele>4</ele>
        <time>2017-12-28T13:23:32.200000Z</time>
      </trkpt>
      <trkpt lat="35.950846625434025" lon="120.21585259331597">
        <ele>4</ele>
        <time>2017-12-28T13:23:39.200000Z</time>
      </trkpt>
      <trkpt lat="35.95073269314236" lon="120.21586859809028">
        <ele>3</ele>
        <time>2017-12-28T13:23:43.200000Z</time>
      </trkpt>
      <trkpt lat="35.95042426215278" lon="120.21594075520834">
        <ele>3</ele>
        <time>2017-12-28T13:23:54.100000Z</time>
      </trkpt>
      <trkpt lat="35.95034695095486" lon="120.21598876953125">
        <ele>3</ele>
        <time>2017-12-28T13:23:57.100000Z</time>
      </trkpt>
      <trkpt lat="35.95019992404514" lon="120.21604519314236">
        <ele>4</ele>
        <time>2017-12-28T13:24:03.200000Z</time>
      </trkpt>
      <trkpt lat="35.950128580729164" lon="120.21607855902778">
        <ele>4</ele>
        <time>2017-12-28T13:24:06.200000Z</time>
      </trkpt>
      <trkpt lat="35.95005045572917" lon="120.21609375">
        <ele>4</ele>
        <time>2017-12-28T13:24:09.200000Z</time>
      </trkpt>
      <trkpt lat="35.949878472222224" lon="120.21619167751736">
        <ele>4</ele>
        <time>2017-12-28T13:24:16.200000Z</time>
      </trkpt>
      <trkpt lat="35.949565158420135" lon="120.21629991319445">
        <ele>4</ele>
        <time>2017-12-28T13:24:28.200000Z</time>
      </trkpt>
      <trkpt lat="35.94933919270834" lon="120.216376953125">
        <ele>4</ele>
        <time>2017-12-28T13:24:36.100000Z</time>
      </trkpt>
      <trkpt lat="35.94920979817709" lon="120.21642578125">
        <ele>4</ele>
        <time>2017-12-28T13:24:42.200000Z</time>
      </trkpt>
      <trkpt lat="35.949108072916665" lon="120.2164222547743">
        <ele>4</ele>
        <time>2017-12-28T13:24:46.100000Z</time>
      </trkpt>
      <trkpt lat="35.94892361111111" lon="120.21641140407986">
        <ele>3</ele>
        <time>2017-12-28T13:24:53.200000Z</time>
      </trkpt>
      <trkpt lat="35.94883707682292" lon="120.21641004774305">
        <ele>3</ele>
        <time>2017-12-28T13:24:56.200000Z</time>
      </trkpt>
      <trkpt lat="35.94864800347222" lon="120.21641438802084">
        <ele>3</ele>
        <time>2017-12-28T13:25:03.200000Z</time>
      </trkpt>
      <trkpt lat="35.94855685763889" lon="120.21641547309028">
        <ele>3</ele>
        <time>2017-12-28T13:25:06.200000Z</time>
      </trkpt>
      <trkpt lat="35.94836371527778" lon="120.21643663194445">
        <ele>3</ele>
        <time>2017-12-28T13:25:14.200000Z</time>
      </trkpt>
      <trkpt lat="35.94827039930556" lon="120.21645751953125">
        <ele>3</ele>
        <time>2017-12-28T13:25:18.100000Z</time>
      </trkpt>
      <trkpt lat="35.94820638020833" lon="120.21647596571181">
        <ele>3</ele>
        <time>2017-12-28T13:25:21.200000Z</time>
      </trkpt>
      <trkpt lat="35.94800998263889" lon="120.21652587890625">
        <ele>3</ele>
        <time>2017-12-28T13:25:29.300000Z</time>
      </trkpt>
      <trkpt lat="35.947916937934025" lon="120.21655490451388">
        <ele>3</ele>
        <time>2017-12-28T13:25:33.100000Z</time>
      </trkpt>
      <trkpt lat="35.94785237630208" lon="120.2165847439236">
        <ele>3</ele>
        <time>2017-12-28T13:25:36.100000Z</time>
      </trkpt>
      <trkpt lat="35.94766031901042" lon="120.21662434895833">
        <ele>3</ele>
        <time>2017-12-28T13:25:43.200000Z</time>
      </trkpt>
      <trkpt lat="35.9475767686632" lon="120.21664333767362">
        <ele>3</ele>
        <time>2017-12-28T13:25:46.200000Z</time>
      </trkpt>
      <trkpt lat="35.94749430338542" lon="120.21666178385416">
        <ele>3</ele>
        <time>2017-12-28T13:25:49.200000Z</time>
      </trkpt>
      <trkpt lat="35.947315266927085" lon="120.21670600043403">
        <ele>3</ele>
        <time>2017-12-28T13:25:56.200000Z</time>
      </trkpt>
      <trkpt lat="35.94720675998264" lon="120.21672770182292">
        <ele>3</ele>
        <time>2017-12-28T13:26:00.200000Z</time>
      </trkpt>
      <trkpt lat="35.9470263671875" lon="120.21678249782985">
        <ele>3</ele>
        <time>2017-12-28T13:26:07.200000Z</time>
      </trkpt>
      <trkpt lat="35.94692220052083" lon="120.21680691189236">
        <ele>3</ele>
        <time>2017-12-28T13:26:11.200000Z</time>
      </trkpt>
      <trkpt lat="35.94674750434028" lon="120.21685221354167">
        <ele>3</ele>
        <time>2017-12-28T13:26:18.200000Z</time>
      </trkpt>
      <trkpt lat="35.946649576822914" lon="120.21687364366319">
        <ele>3</ele>
        <time>2017-12-28T13:26:22.200000Z</time>
      </trkpt>
      <trkpt lat="35.94644802517361" lon="120.21694769965278">
        <ele>3</ele>
        <time>2017-12-28T13:26:30.200000Z</time>
      </trkpt>
      <trkpt lat="35.94621229383681" lon="120.21705946180556">
        <ele>3</ele>
        <time>2017-12-28T13:26:40.200000Z</time>
      </trkpt>
      <trkpt lat="35.946110297309026" lon="120.21709147135417">
        <ele>3</ele>
        <time>2017-12-28T13:26:44.200000Z</time>
      </trkpt>
      <trkpt lat="35.945942111545136" lon="120.21720838758681">
        <ele>3</ele>
        <time>2017-12-28T13:26:51.200000Z</time>
      </trkpt>
      <trkpt lat="35.94577229817708" lon="120.21730197482638">
        <ele>3</ele>
        <time>2017-12-28T13:26:58.200000Z</time>
      </trkpt>
      <trkpt lat="35.945660264756945" lon="120.21733615451389">
        <ele>3</ele>
        <time>2017-12-28T13:27:02.100000Z</time>
      </trkpt>
      <trkpt lat="35.945516221788196" lon="120.2173898654514">
        <ele>3</ele>
        <time>2017-12-28T13:27:08.200000Z</time>
      </trkpt>
      <trkpt lat="35.94541937934028" lon="120.21741861979167">
        <ele>3</ele>
        <time>2017-12-28T13:27:12.200000Z</time>
      </trkpt>
      <trkpt lat="35.94534396701389" lon="120.21745225694444">
        <ele>3</ele>
        <time>2017-12-28T13:27:15.200000Z</time>
      </trkpt>
      <trkpt lat="35.94517279730903" lon="120.21752712673612">
        <ele>3</ele>
        <time>2017-12-28T13:27:22.200000Z</time>
      </trkpt>
      <trkpt lat="35.94509982638889" lon="120.21757134331597">
        <ele>3</ele>
        <time>2017-12-28T13:27:25.200000Z</time>
      </trkpt>
      <trkpt lat="35.94503011067708" lon="120.21760904947917">
        <ele>3</ele>
        <time>2017-12-28T13:27:28.200000Z</time>
      </trkpt>
      <trkpt lat="35.94483262803819" lon="120.21771050347222">
        <ele>3</ele>
        <time>2017-12-28T13:27:36.200000Z</time>
      </trkpt>
      <trkpt lat="35.944758843315974" lon="120.21774359809028">
        <ele>3</ele>
        <time>2017-12-28T13:27:39.200000Z</time>
      </trkpt>
      <trkpt lat="35.94461100260417" lon="120.21782090928819">
        <ele>3</ele>
        <time>2017-12-28T13:27:46.200000Z</time>
      </trkpt>
      <trkpt lat="35.94455729166667" lon="120.21786241319444">
        <ele>3</ele>
        <time>2017-12-28T13:27:49.200000Z</time>
      </trkpt>
      <trkpt lat="35.94448676215278" lon="120.21790011935764">
        <ele>3</ele>
        <time>2017-12-28T13:27:52.200000Z</time>
      </trkpt>
      <trkpt lat="35.94431423611111" lon="120.21799913194444">
        <ele>3</ele>
        <time>2017-12-28T13:28:00.200000Z</time>
      </trkpt>
      <trkpt lat="35.944241536458335" lon="120.2180349392361">
        <ele>3</ele>
        <time>2017-12-28T13:28:03.200000Z</time>
      </trkpt>
      <trkpt lat="35.94408148871528" lon="120.2181334092882">
        <ele>3</ele>
        <time>2017-12-28T13:28:10.200000Z</time>
      </trkpt>
      <trkpt lat="35.94385362413195" lon="120.21806586371528">
        <ele>3</ele>
        <time>2017-12-28T13:28:21.200000Z</time>
      </trkpt>
      <trkpt lat="35.94378797743055" lon="120.21797064887153">
        <ele>3</ele>
        <time>2017-12-28T13:28:25.200000Z</time>
      </trkpt>
      <trkpt lat="35.94358181423611" lon="120.21764187282986">
        <ele>3</ele>
        <time>2017-12-28T13:28:37.200000Z</time>
      </trkpt>
      <trkpt lat="35.94348388671875" lon="120.21745876736111">
        <ele>3</ele>
        <time>2017-12-28T13:28:44.200000Z</time>
      </trkpt>
      <trkpt lat="35.94336181640625" lon="120.21726318359374">
        <ele>3</ele>
        <time>2017-12-28T13:28:52.200000Z</time>
      </trkpt>
      <trkpt lat="35.943309190538194" lon="120.21716091579862">
        <ele>3</ele>
        <time>2017-12-28T13:28:56.200000Z</time>
      </trkpt>
      <trkpt lat="35.9432533094618" lon="120.21701334635416">
        <ele>3</ele>
        <time>2017-12-28T13:29:02.200000Z</time>
      </trkpt>
      <trkpt lat="35.9431529405382" lon="120.21682210286458">
        <ele>3</ele>
        <time>2017-12-28T13:29:10.200000Z</time>
      </trkpt>
      <trkpt lat="35.943102213541664" lon="120.21674289279514">
        <ele>3</ele>
        <time>2017-12-28T13:29:13.200000Z</time>
      </trkpt>
      <trkpt lat="35.94299343532986" lon="120.21654595269098">
        <ele>3</ele>
        <time>2017-12-28T13:29:20.200000Z</time>
      </trkpt>
      <trkpt lat="35.94294406467014" lon="120.2164626736111">
        <ele>3</ele>
        <time>2017-12-28T13:29:23.200000Z</time>
      </trkpt>
      <trkpt lat="35.94283827039931" lon="120.21626600477431">
        <ele>3</ele>
        <time>2017-12-28T13:29:30.200000Z</time>
      </trkpt>
      <trkpt lat="35.94278157552083" lon="120.216162109375">
        <ele>3</ele>
        <time>2017-12-28T13:29:34.200000Z</time>
      </trkpt>
      <trkpt lat="35.9426793077257" lon="120.21598253038195">
        <ele>3</ele>
        <time>2017-12-28T13:29:41.200000Z</time>
      </trkpt>
      <trkpt lat="35.94263726128472" lon="120.21590630425347">
        <ele>3</ele>
        <time>2017-12-28T13:29:44.300000Z</time>
      </trkpt>
      <trkpt lat="35.942523328993055" lon="120.21569254557292">
        <ele>3</ele>
        <time>2017-12-28T13:29:52.200000Z</time>
      </trkpt>
      <trkpt lat="35.94247260199653" lon="120.21561306423611">
        <ele>3</ele>
        <time>2017-12-28T13:29:55.200000Z</time>
      </trkpt>
      <trkpt lat="35.942347819010415" lon="120.21543429904514">
        <ele>3</ele>
        <time>2017-12-28T13:30:02.200000Z</time>
      </trkpt>
      <trkpt lat="35.942288682725696" lon="120.21535319010417">
        <ele>3</ele>
        <time>2017-12-28T13:30:06.100000Z</time>
      </trkpt>
      <trkpt lat="35.94217475043403" lon="120.21515435112848">
        <ele>3</ele>
        <time>2017-12-28T13:30:14.100000Z</time>
      </trkpt>
      <trkpt lat="35.942132975260414" lon="120.21507432725694">
        <ele>3</ele>
        <time>2017-12-28T13:30:17.100000Z</time>
      </trkpt>
      <trkpt lat="35.942080078125" lon="120.21499186197917">
        <ele>3</ele>
        <time>2017-12-28T13:30:21.100000Z</time>
      </trkpt>
      <trkpt lat="35.94197265625" lon="120.21482096354167">
        <ele>3</ele>
        <time>2017-12-28T13:30:28.200000Z</time>
      </trkpt>
      <trkpt lat="35.941898057725695" lon="120.21471842447917">
        <ele>3</ele>
        <time>2017-12-28T13:30:32.100000Z</time>
      </trkpt>
      <trkpt lat="35.94197292751736" lon="120.2143820529514">
        <ele>3</ele>
        <time>2017-12-28T13:30:47.200000Z</time>
      </trkpt>
      <trkpt lat="35.94208387586806" lon="120.21435329861112">
        <ele>3</ele>
        <time>2017-12-28T13:30:51.200000Z</time>
      </trkpt>
      <trkpt lat="35.94225802951389" lon="120.21431884765624">
        <ele>3</ele>
        <time>2017-12-28T13:30:58.200000Z</time>
      </trkpt>
      <trkpt lat="35.942348361545136" lon="120.21428304036458">
        <ele>3</ele>
        <time>2017-12-28T13:31:02.200000Z</time>
      </trkpt>
      <trkpt lat="35.94252875434028" lon="120.21417697482639">
        <ele>3</ele>
        <time>2017-12-28T13:31:10.200000Z</time>
      </trkpt>
      <trkpt lat="35.94259847005208" lon="120.21413519965277">
        <ele>3</ele>
        <time>2017-12-28T13:31:13.200000Z</time>
      </trkpt>
      <trkpt lat="35.942667371961804" lon="120.21409342447917">
        <ele>3</ele>
        <time>2017-12-28T13:31:16.200000Z</time>
      </trkpt>
      <trkpt lat="35.942982584635416" lon="120.21400960286458">
        <ele>3</ele>
        <time>2017-12-28T13:31:28.200000Z</time>
      </trkpt>
      <trkpt lat="35.94307861328125" lon="120.21400254991319">
        <ele>3</ele>
        <time>2017-12-28T13:31:32.200000Z</time>
      </trkpt>
      <trkpt lat="35.943247884114584" lon="120.21398220486111">
        <ele>3</ele>
        <time>2017-12-28T13:31:39.100000Z</time>
      </trkpt>
      <trkpt lat="35.943317057291665" lon="120.21396674262152">
        <ele>3</ele>
        <time>2017-12-28T13:31:42.200000Z</time>
      </trkpt>
      <trkpt lat="35.94339518229167" lon="120.21395426432292">
        <ele>3</ele>
        <time>2017-12-28T13:31:45.200000Z</time>
      </trkpt>
      <trkpt lat="35.94359483506945" lon="120.21387641059027">
        <ele>3</ele>
        <time>2017-12-28T13:31:53.200000Z</time>
      </trkpt>
      <trkpt lat="35.943671875" lon="120.21384521484374">
        <ele>3</ele>
        <time>2017-12-28T13:31:56.200000Z</time>
      </trkpt>
      <trkpt lat="35.94397894965278" lon="120.21381591796874">
        <ele>3</ele>
        <time>2017-12-28T13:32:08.100000Z</time>
      </trkpt>
      <trkpt lat="35.94411566840278" lon="120.21387288411458">
        <ele>3</ele>
        <time>2017-12-28T13:32:14.200000Z</time>
      </trkpt>
      <trkpt lat="35.94421115451389" lon="120.21393012152778">
        <ele>3</ele>
        <time>2017-12-28T13:32:18.200000Z</time>
      </trkpt>
      <trkpt lat="35.94439860026041" lon="120.21398844401041">
        <ele>3</ele>
        <time>2017-12-28T13:32:25.200000Z</time>
      </trkpt>
      <trkpt lat="35.94461669921875" lon="120.21397867838542">
        <ele>3</ele>
        <time>2017-12-28T13:32:33.200000Z</time>
      </trkpt>
      <trkpt lat="35.944697808159724" lon="120.21396375868055">
        <ele>3</ele>
        <time>2017-12-28T13:32:36.200000Z</time>
      </trkpt>
      <trkpt lat="35.94484564887153" lon="120.21393174913194">
        <ele>3</ele>
        <time>2017-12-28T13:32:43.200000Z</time>
      </trkpt>
      <trkpt lat="35.944919976128475" lon="120.21391574435764">
        <ele>3</ele>
        <time>2017-12-28T13:32:46.200000Z</time>
      </trkpt>
      <trkpt lat="35.94499376085069" lon="120.21390218098958">
        <ele>3</ele>
        <time>2017-12-28T13:32:49.200000Z</time>
      </trkpt>
      <trkpt lat="35.94518202039931" lon="120.21388427734375">
        <ele>3</ele>
        <time>2017-12-28T13:32:57.200000Z</time>
      </trkpt>
      <trkpt lat="35.94529866536458" lon="120.2138707139757">
        <ele>3</ele>
        <time>2017-12-28T13:33:01.200000Z</time>
      </trkpt>
      <trkpt lat="35.94552056206597" lon="120.21383273654514">
        <ele>3</ele>
        <time>2017-12-28T13:33:08.200000Z</time>
      </trkpt>
      <trkpt lat="35.945728624131945" lon="120.21380072699652">
        <ele>3</ele>
        <time>2017-12-28T13:33:16.100000Z</time>
      </trkpt>
      <trkpt lat="35.945804307725695" lon="120.21379014756944">
        <ele>3</ele>
        <time>2017-12-28T13:33:19.200000Z</time>
      </trkpt>
      <trkpt lat="35.94601806640625" lon="120.21378933376737">
        <ele>3</ele>
        <time>2017-12-28T13:33:26.200000Z</time>
      </trkpt>
      <trkpt lat="35.94609971788194" lon="120.2137828233507">
        <ele>3</ele>
        <time>2017-12-28T13:33:29.200000Z</time>
      </trkpt>
      <trkpt lat="35.94617567274305" lon="120.21377115885417">
        <ele>3</ele>
        <time>2017-12-28T13:33:32.200000Z</time>
      </trkpt>
      <trkpt lat="35.946370171440975" lon="120.21374104817708">
        <ele>3</ele>
        <time>2017-12-28T13:33:39.200000Z</time>
      </trkpt>
      <trkpt lat="35.94652723524305" lon="120.21371446397569">
        <ele>3</ele>
        <time>2017-12-28T13:33:47.200000Z</time>
      </trkpt>
      <trkpt lat="35.946575520833335" lon="120.21369927300347">
        <ele>3</ele>
        <time>2017-12-28T13:33:50.200000Z</time>
      </trkpt>
      <trkpt lat="35.946980523003475" lon="120.21367350260417">
        <ele>3</ele>
        <time>2017-12-28T13:34:02.200000Z</time>
      </trkpt>
      <trkpt lat="35.94708224826389" lon="120.21367160373264">
        <ele>3</ele>
        <time>2017-12-28T13:34:06.200000Z</time>
      </trkpt>
      <trkpt lat="35.947184244791664" lon="120.21361083984375">
        <ele>3</ele>
        <time>2017-12-28T13:34:14.100000Z</time>
      </trkpt>
      <trkpt lat="35.947154676649305" lon="120.21348659939235">
        <ele>3</ele>
        <time>2017-12-28T13:34:18.100000Z</time>
      </trkpt>
      <trkpt lat="35.94713406032986" lon="120.21339274088541">
        <ele>3</ele>
        <time>2017-12-28T13:34:21.100000Z</time>
      </trkpt>
      <trkpt lat="35.947101236979165" lon="120.21318060980903">
        <ele>3</ele>
        <time>2017-12-28T13:34:28.100000Z</time>
      </trkpt>
      <trkpt lat="35.94709174262153" lon="120.2130796983507">
        <ele>3</ele>
        <time>2017-12-28T13:34:31.200000Z</time>
      </trkpt>
      <trkpt lat="35.947078993055555" lon="120.2128732638889">
        <ele>3</ele>
        <time>2017-12-28T13:34:38.200000Z</time>
      </trkpt>
      <trkpt lat="35.94707573784722" lon="120.21277642144098">
        <ele>3</ele>
        <time>2017-12-28T13:34:41.200000Z</time>
      </trkpt>
      <trkpt lat="35.9470591905382" lon="120.21263726128473">
        <ele>3</ele>
        <time>2017-12-28T13:34:45.200000Z</time>
      </trkpt>
      <trkpt lat="35.94704291449653" lon="120.2124107530382">
        <ele>3</ele>
        <time>2017-12-28T13:34:51.200000Z</time>
      </trkpt>
      <trkpt lat="35.947088216145836" lon="120.21221001519098">
        <ele>3</ele>
        <time>2017-12-28T13:34:59.100000Z</time>
      </trkpt>
      <trkpt lat="35.94716769748264" lon="120.21201063368055">
        <ele>3</ele>
        <time>2017-12-28T13:35:06.200000Z</time>
      </trkpt>
      <trkpt lat="35.94722222222222" lon="120.2118896484375">
        <ele>3</ele>
        <time>2017-12-28T13:35:10.200000Z</time>
      </trkpt>
      <trkpt lat="35.94730902777778" lon="120.21169704861111">
        <ele>3</ele>
        <time>2017-12-28T13:35:17.100000Z</time>
      </trkpt>
      <trkpt lat="35.94741102430555" lon="120.21147894965277">
        <ele>3</ele>
        <time>2017-12-28T13:35:24.200000Z</time>
      </trkpt>
      <trkpt lat="35.9474546983507" lon="120.21133707682291">
        <ele>3</ele>
        <time>2017-12-28T13:35:28.200000Z</time>
      </trkpt>
      <trkpt lat="35.9475634765625" lon="120.21110270182292">
        <ele>3</ele>
        <time>2017-12-28T13:35:38.200000Z</time>
      </trkpt>
      <trkpt lat="35.94762668185764" lon="120.21095187717015">
        <ele>3</ele>
        <time>2017-12-28T13:35:44.200000Z</time>
      </trkpt>
      <trkpt lat="35.94767740885417" lon="120.21079616970486">
        <ele>3</ele>
        <time>2017-12-28T13:35:48.200000Z</time>
      </trkpt>
      <trkpt lat="35.94774793836805" lon="120.21059190538195">
        <ele>3</ele>
        <time>2017-12-28T13:35:55.200000Z</time>
      </trkpt>
      <trkpt lat="35.94777669270833" lon="120.21051242404513">
        <ele>3</ele>
        <time>2017-12-28T13:35:58.200000Z</time>
      </trkpt>
      <trkpt lat="35.947864312065974" lon="120.2103529188368">
        <ele>3</ele>
        <time>2017-12-28T13:36:05.200000Z</time>
      </trkpt>
      <trkpt lat="35.94795247395833" lon="120.21014458550347">
        <ele>3</ele>
        <time>2017-12-28T13:36:12.200000Z</time>
      </trkpt>
      <trkpt lat="35.94801459418403" lon="120.20979356553819">
        <ele>3</ele>
        <time>2017-12-28T13:36:24.200000Z</time>
      </trkpt>
      <trkpt lat="35.94799913194444" lon="120.20969129774305">
        <ele>3</ele>
        <time>2017-12-28T13:36:27.200000Z</time>
      </trkpt>
      <trkpt lat="35.94796847873264" lon="120.20944525824653">
        <ele>3</ele>
        <time>2017-12-28T13:36:35.200000Z</time>
      </trkpt>
      <trkpt lat="35.948229437934025" lon="120.20945502387153">
        <ele>3</ele>
        <time>2017-12-28T13:36:50.200000Z</time>
      </trkpt>
      <trkpt lat="35.948323025173615" lon="120.20950358072916">
        <ele>3</ele>
        <time>2017-12-28T13:36:54.200000Z</time>
      </trkpt>
      <trkpt lat="35.94870768229167" lon="120.2094992404514">
        <ele>3</ele>
        <time>2017-12-28T13:37:09.200000Z</time>
      </trkpt>
      <trkpt lat="35.9488511827257" lon="120.20950602213541">
        <ele>3</ele>
        <time>2017-12-28T13:37:16.100000Z</time>
      </trkpt>
      <trkpt lat="35.94892062717014" lon="120.20951361762152">
        <ele>3</ele>
        <time>2017-12-28T13:37:19.200000Z</time>
      </trkpt>
      <trkpt lat="35.94901828342014" lon="120.2095166015625">
        <ele>3</ele>
        <time>2017-12-28T13:37:22.200000Z</time>
      </trkpt>
      <trkpt lat="35.949361165364586" lon="120.20956434461806">
        <ele>3</ele>
        <time>2017-12-28T13:37:33.200000Z</time>
      </trkpt>
      <trkpt lat="35.94943766276042" lon="120.20959581163194">
        <ele>3</ele>
        <time>2017-12-28T13:37:36.200000Z</time>
      </trkpt>
      <trkpt lat="35.94957817925347" lon="120.20964518229167">
        <ele>3</ele>
        <time>2017-12-28T13:37:42.200000Z</time>
      </trkpt>
      <trkpt lat="35.94966064453125" lon="120.20966091579861">
        <ele>3</ele>
        <time>2017-12-28T13:37:46.200000Z</time>
      </trkpt>
      <trkpt lat="35.94983751085069" lon="120.20968234592014">
        <ele>3</ele>
        <time>2017-12-28T13:37:53.200000Z</time>
      </trkpt>
      <trkpt lat="35.950023057725694" lon="120.20971571180556">
        <ele>3</ele>
        <time>2017-12-28T13:38:00.200000Z</time>
      </trkpt>
      <trkpt lat="35.950208062065975" lon="120.2097195095486">
        <ele>3</ele>
        <time>2017-12-28T13:38:07.200000Z</time>
      </trkpt>
      <trkpt lat="35.950260145399305" lon="120.20969753689236">
        <ele>3</ele>
        <time>2017-12-28T13:38:11.200000Z</time>
      </trkpt>
      <trkpt lat="35.95031087239583" lon="120.20968017578124">
        <ele>3</ele>
        <time>2017-12-28T13:38:14.200000Z</time>
      </trkpt>
      <trkpt lat="35.950474989149306" lon="120.20965087890625">
        <ele>3</ele>
        <time>2017-12-28T13:38:21.200000Z</time>
      </trkpt>
      <trkpt lat="35.950633409288194" lon="120.20974609375">
        <ele>3</ele>
        <time>2017-12-28T13:38:36.200000Z</time>
      </trkpt>
      <trkpt lat="35.950633409288194" lon="120.20974609375">
        <ele>3</ele>
        <time>2017-12-28T13:38:40.100000Z</time>
      </trkpt>
      <trkpt lat="35.95060167100694" lon="120.20974826388888">
        <ele>3</ele>
        <time>2017-12-28T13:38:49.200000Z</time>
      </trkpt>
      <trkpt lat="35.950611707899306" lon="120.20973551432292">
        <ele>3</ele>
        <time>2017-12-28T13:39:02.100000Z</time>
      </trkpt>
      <trkpt lat="35.95062337239583" lon="120.20974093967014">
        <ele>3</ele>
        <time>2017-12-28T13:39:05.100000Z</time>
      </trkpt>
      <trkpt lat="35.95062065972222" lon="120.20973795572917">
        <ele>3</ele>
        <time>2017-12-28T13:39:08.200000Z</time>
      </trkpt>
      <trkpt lat="35.95062337239583" lon="120.20974745008681">
        <ele>3</ele>
        <time>2017-12-28T13:39:12.100000Z</time>
      </trkpt>
      <trkpt lat="35.95062391493055" lon="120.209736328125">
        <ele>3</ele>
        <time>2017-12-28T13:39:15.200000Z</time>
      </trkpt>
      <trkpt lat="35.95071397569444" lon="120.20971245659722">
        <ele>3</ele>
        <time>2017-12-28T13:39:26.200000Z</time>
      </trkpt>
      <trkpt lat="35.95100477430555" lon="120.20966227213542">
        <ele>3</ele>
        <time>2017-12-28T13:39:33.100000Z</time>
      </trkpt>
      <trkpt lat="35.95124837239583" lon="120.20963406032986">
        <ele>3</ele>
        <time>2017-12-28T13:39:40.100000Z</time>
      </trkpt>
      <trkpt lat="35.95149793836806" lon="120.20955837673611">
        <ele>3</ele>
        <time>2017-12-28T13:39:50.200000Z</time>
      </trkpt>
      <trkpt lat="35.95169108072917" lon="120.2095445421007">
        <ele>3</ele>
        <time>2017-12-28T13:39:57.200000Z</time>
      </trkpt>
      <trkpt lat="35.95192572699653" lon="120.20952907986111">
        <ele>3</ele>
        <time>2017-12-28T13:40:05.100000Z</time>
      </trkpt>
      <trkpt lat="35.95203097873264" lon="120.20951090494792">
        <ele>3</ele>
        <time>2017-12-28T13:40:08.200000Z</time>
      </trkpt>
      <trkpt lat="35.9522119140625" lon="120.2094935438368">
        <ele>3</ele>
        <time>2017-12-28T13:40:15.200000Z</time>
      </trkpt>
      <trkpt lat="35.952425672743054" lon="120.20946044921875">
        <ele>3</ele>
        <time>2017-12-28T13:40:23.200000Z</time>
      </trkpt>
      <trkpt lat="35.95248969184028" lon="120.20943033854167">
        <ele>3</ele>
        <time>2017-12-28T13:40:26.200000Z</time>
      </trkpt>
      <trkpt lat="35.95264539930555" lon="120.2093994140625">
        <ele>3</ele>
        <time>2017-12-28T13:40:32.200000Z</time>
      </trkpt>
      <trkpt lat="35.95275797526042" lon="120.20938069661459">
        <ele>3</ele>
        <time>2017-12-28T13:40:36.100000Z</time>
      </trkpt>
      <trkpt lat="35.95295762803819" lon="120.20935818142361">
        <ele>3</ele>
        <time>2017-12-28T13:40:43.200000Z</time>
      </trkpt>
      <trkpt lat="35.95305202907986" lon="120.20929741753473">
        <ele>3</ele>
        <time>2017-12-28T13:40:53.100000Z</time>
      </trkpt>
      <trkpt lat="35.953021647135415" lon="120.20929904513889">
        <ele>3</ele>
        <time>2017-12-28T13:41:00.200000Z</time>
      </trkpt>
      <trkpt lat="35.95304741753472" lon="120.20936333550347">
        <ele>3</ele>
        <time>2017-12-28T13:41:31.100000Z</time>
      </trkpt>
      <trkpt lat="35.95308810763889" lon="120.20935574001736">
        <ele>3</ele>
        <time>2017-12-28T13:41:35.100000Z</time>
      </trkpt>
      <trkpt lat="35.95316216362847" lon="120.2093386501736">
        <ele>3</ele>
        <time>2017-12-28T13:41:42.900000Z</time>
      </trkpt>
      <trkpt lat="35.95328667534722" lon="120.20930691189236">
        <ele>3</ele>
        <time>2017-12-28T13:41:46.200000Z</time>
      </trkpt>
      <trkpt lat="35.953564995659725" lon="120.2092578125">
        <ele>3</ele>
        <time>2017-12-28T13:41:54.200000Z</time>
      </trkpt>
      <trkpt lat="35.9536683485243" lon="120.20924235026041">
        <ele>3</ele>
        <time>2017-12-28T13:41:58.100000Z</time>
      </trkpt>
      <trkpt lat="35.95384304470486" lon="120.20920084635416">
        <ele>3</ele>
        <time>2017-12-28T13:42:05.100000Z</time>
      </trkpt>
      <trkpt lat="35.95391981336805" lon="120.20918863932292">
        <ele>3</ele>
        <time>2017-12-28T13:42:08.200000Z</time>
      </trkpt>
      <trkpt lat="35.95413221571181" lon="120.20917046440972">
        <ele>3</ele>
        <time>2017-12-28T13:42:15.200000Z</time>
      </trkpt>
      <trkpt lat="35.95421875" lon="120.20915907118055">
        <ele>3</ele>
        <time>2017-12-28T13:42:18.200000Z</time>
      </trkpt>
      <trkpt lat="35.95445122612847" lon="120.20912299262153">
        <ele>3</ele>
        <time>2017-12-28T13:42:26.200000Z</time>
      </trkpt>
      <trkpt lat="35.95457302517361" lon="120.20910129123264">
        <ele>3</ele>
        <time>2017-12-28T13:42:30.100000Z</time>
      </trkpt>
      <trkpt lat="35.95479682074653" lon="120.20908257378473">
        <ele>3</ele>
        <time>2017-12-28T13:42:39.200000Z</time>
      </trkpt>
      <trkpt lat="35.95524793836805" lon="120.20942789713541">
        <ele>3</ele>
        <time>2017-12-28T13:43:01.200000Z</time>
      </trkpt>
      <trkpt lat="35.9552490234375" lon="120.2095130750868">
        <ele>3</ele>
        <time>2017-12-28T13:43:04.200000Z</time>
      </trkpt>
      <trkpt lat="35.955250108506945" lon="120.209638671875">
        <ele>3</ele>
        <time>2017-12-28T13:43:08.200000Z</time>
      </trkpt>
      <trkpt lat="35.95527669270833" lon="120.20987684461805">
        <ele>3</ele>
        <time>2017-12-28T13:43:15.200000Z</time>
      </trkpt>
      <trkpt lat="35.95534505208333" lon="120.2102392578125">
        <ele>3</ele>
        <time>2017-12-28T13:43:26.200000Z</time>
      </trkpt>
      <trkpt lat="35.95540500217014" lon="120.2104611545139">
        <ele>3</ele>
        <time>2017-12-28T13:43:33.200000Z</time>
      </trkpt>
      <trkpt lat="35.95542209201389" lon="120.21056315104167">
        <ele>3</ele>
        <time>2017-12-28T13:43:36.200000Z</time>
      </trkpt>
      <trkpt lat="35.95542778862847" lon="120.21065538194445">
        <ele>3</ele>
        <time>2017-12-28T13:43:39.200000Z</time>
      </trkpt>
      <trkpt lat="35.95543809678819" lon="120.21090766059028">
        <ele>3</ele>
        <time>2017-12-28T13:43:46.200000Z</time>
      </trkpt>
      <trkpt lat="35.95543511284722" lon="120.21099826388888">
        <ele>3</ele>
        <time>2017-12-28T13:43:50.200000Z</time>
      </trkpt>
      <trkpt lat="35.95554985894097" lon="120.21110053168402">
        <ele>3</ele>
        <time>2017-12-28T13:44:01.200000Z</time>
      </trkpt>
      <trkpt lat="35.95563666449653" lon="120.21107557508681">
        <ele>3</ele>
        <time>2017-12-28T13:44:04.200000Z</time>
      </trkpt>
      <trkpt lat="35.95572808159722" lon="120.21112386067708">
        <ele>3</ele>
        <time>2017-12-28T13:44:12.200000Z</time>
      </trkpt>
      <trkpt lat="35.95574652777778" lon="120.21117838541667">
        <ele>3</ele>
        <time>2017-12-28T13:44:16.200000Z</time>
      </trkpt>
      <trkpt lat="35.95575086805555" lon="120.21123833550347">
        <ele>3</ele>
        <time>2017-12-28T13:44:20.200000Z</time>
      </trkpt>
      <trkpt lat="35.95575602213542" lon="120.21147976345486">
        <ele>3</ele>
        <time>2017-12-28T13:44:27.200000Z</time>
      </trkpt>
      <trkpt lat="35.955784505208335" lon="120.21173502604167">
        <ele>3</ele>
        <time>2017-12-28T13:44:34.200000Z</time>
      </trkpt>
      <trkpt lat="35.955790473090275" lon="120.21198567708333">
        <ele>3</ele>
        <time>2017-12-28T13:44:41.200000Z</time>
      </trkpt>
      <trkpt lat="35.95582438151042" lon="120.212216796875">
        <ele>3</ele>
        <time>2017-12-28T13:44:48.200000Z</time>
      </trkpt>
      <trkpt lat="35.95581705729167" lon="120.21261583116319">
        <ele>3</ele>
        <time>2017-12-28T13:45:00.200000Z</time>
      </trkpt>
      <trkpt lat="35.95603162977431" lon="120.21271240234375">
        <ele>3</ele>
        <time>2017-12-28T13:45:12.200000Z</time>
      </trkpt>
      <trkpt lat="35.956171061197914" lon="120.21266791449652">
        <ele>3</ele>
        <time>2017-12-28T13:45:16.200000Z</time>
      </trkpt>
      <trkpt lat="35.95633544921875" lon="120.2126199001736">
        <ele>3</ele>
        <time>2017-12-28T13:45:22.200000Z</time>
      </trkpt>
      <trkpt lat="35.956455349392364" lon="120.21259114583333">
        <ele>3</ele>
        <time>2017-12-28T13:45:26.200000Z</time>
      </trkpt>
      <trkpt lat="35.956652289496525" lon="120.21285563151042">
        <ele>3</ele>
        <time>2017-12-28T13:45:41.200000Z</time>
      </trkpt>
      <trkpt lat="35.95665473090278" lon="120.21298149956597">
        <ele>3</ele>
        <time>2017-12-28T13:45:45.200000Z</time>
      </trkpt>
      <trkpt lat="35.956676703559026" lon="120.21338351779514">
        <ele>3</ele>
        <time>2017-12-28T13:45:56.200000Z</time>
      </trkpt>
      <trkpt lat="35.956706000434025" lon="120.21352810329861">
        <ele>3</ele>
        <time>2017-12-28T13:46:00.200000Z</time>
      </trkpt>
      <trkpt lat="35.95676188151042" lon="120.21379801432292">
        <ele>3</ele>
        <time>2017-12-28T13:46:10.200000Z</time>
      </trkpt>
    </trkseg>
  </trk>
</gpx>