<?xml version="1.0" encoding="UTF-8"?>
<gpx xmlns="http://www.topografix.com/GPX/1/1" xmlns:gpxtpx="http://www.garmin.com/xmlschemas/TrackPointExtension/v1" xmlns:xsi="http://www.w3.org/2001/XMLSchema-instance" xsi:schemaLocation="http://www.topografix.com/GPX/1/1 http://www.topografix.com/GPX/1/1/gpx.xsd" version="1.1" creator="gpx.py -- https://github.com/tkrajina/gpxpy">
  <trk>
    <name>gpx from keep</name>
    <trkseg>
      <trkpt lat="35.95702716521267" lon="120.21504365929145">
        <time>2020-11-16T06:05:34.707000Z</time>
      </trkpt>
      <trkpt lat="35.957003342636206" lon="120.21503384180068">
        <time>2020-11-16T06:05:37.707000Z</time>
      </trkpt>
      <trkpt lat="35.957001555451605" lon="120.21504629040146">
        <time>2020-11-16T06:05:40.707000Z</time>
      </trkpt>
      <trkpt lat="35.95699842467802" lon="120.21504630009747">
        <time>2020-11-16T06:05:43.707000Z</time>
      </trkpt>
      <trkpt lat="35.956996584364305" lon="120.21503876883203">
        <time>2020-11-16T06:05:46.707000Z</time>
      </trkpt>
      <trkpt lat="35.95699521481027" lon="120.21503819016188">
        <time>2020-11-16T06:05:49.707000Z</time>
      </trkpt>
      <trkpt lat="35.95699391379641" lon="120.21503870874426">
        <time>2020-11-16T06:05:52.707000Z</time>
      </trkpt>
      <trkpt lat="35.956993764565524" lon="120.21503811023292">
        <time>2020-11-16T06:05:55.707000Z</time>
      </trkpt>
      <trkpt lat="35.95699423527041" lon="120.2150376713763">
        <time>2020-11-16T06:05:58.807000Z</time>
      </trkpt>
      <trkpt lat="35.956995285256895" lon="120.2150378709692">
        <time>2020-11-16T06:06:01.707000Z</time>
      </trkpt>
      <trkpt lat="35.95699573519165" lon="120.21503800068388">
        <time>2020-11-16T06:06:04.707000Z</time>
      </trkpt>
      <trkpt lat="35.95699567506967" lon="120.21503808047827">
        <time>2020-11-16T06:06:07.707000Z</time>
      </trkpt>
      <trkpt lat="35.95699663532967" lon="120.21503806061389">
        <time>2020-11-16T06:06:10.707000Z</time>
      </trkpt>
      <trkpt lat="35.957097492477324" lon="120.21502123186087">
        <time>2020-11-16T06:06:13.707000Z</time>
      </trkpt>
      <trkpt lat="35.957575440048" lon="120.21491619839148">
        <time>2020-11-16T06:06:28.707000Z</time>
      </trkpt>
      <trkpt lat="35.957762273097096" lon="120.21517804803128">
        <time>2020-11-16T06:06:37.707000Z</time>
      </trkpt>
      <trkpt lat="35.95794519649913" lon="120.21586160016085">
        <time>2020-11-16T06:07:01.707000Z</time>
      </trkpt>
      <trkpt lat="35.95771035169648" lon="120.2159355757164">
        <time>2020-11-16T06:07:07.707000Z</time>
      </trkpt>
      <trkpt lat="35.95740896152558" lon="120.21591819189958">
        <time>2020-11-16T06:07:19.707000Z</time>
      </trkpt>
      <trkpt lat="35.95648079714615" lon="120.21614481799052">
        <time>2020-11-16T06:07:52.707000Z</time>
      </trkpt>
      <trkpt lat="35.95639415666997" lon="120.21616717500461">
        <time>2020-11-16T06:07:55.707000Z</time>
      </trkpt>
      <trkpt lat="35.95631118203314" lon="120.21617817042964">
        <time>2020-11-16T06:07:58.707000Z</time>
      </trkpt>
      <trkpt lat="35.95597226706796" lon="120.21624858629377">
        <time>2020-11-16T06:08:10.707000Z</time>
      </trkpt>
      <trkpt lat="35.955825194415446" lon="120.21636820818209">
        <time>2020-11-16T06:08:19.707000Z</time>
      </trkpt>
      <trkpt lat="35.95582359916315" lon="120.21700999396148">
        <time>2020-11-16T06:08:40.707000Z</time>
      </trkpt>
      <trkpt lat="35.955826748051024" lon="120.21746257292646">
        <time>2020-11-16T06:08:55.707000Z</time>
      </trkpt>
      <trkpt lat="35.955841077738874" lon="120.21765353169829">
        <time>2020-11-16T06:09:01.707000Z</time>
      </trkpt>
      <trkpt lat="35.95592415717668" lon="120.21792970251666">
        <time>2020-11-16T06:09:10.707000Z</time>
      </trkpt>
      <trkpt lat="35.955976112678385" lon="120.21800648231296">
        <time>2020-11-16T06:09:13.707000Z</time>
      </trkpt>
      <trkpt lat="35.95595868039043" lon="120.21837828866175">
        <time>2020-11-16T06:09:28.707000Z</time>
      </trkpt>
      <trkpt lat="35.955836507900905" lon="120.21850031605932">
        <time>2020-11-16T06:09:34.707000Z</time>
      </trkpt>
      <trkpt lat="35.955757201181065" lon="120.21853025749199">
        <time>2020-11-16T06:09:37.707000Z</time>
      </trkpt>
      <trkpt lat="35.95560120336887" lon="120.21857016832898">
        <time>2020-11-16T06:09:43.707000Z</time>
      </trkpt>
      <trkpt lat="35.955270225937966" lon="120.21872815234714">
        <time>2020-11-16T06:09:55.707000Z</time>
      </trkpt>
      <trkpt lat="35.955125470226434" lon="120.21877678373399">
        <time>2020-11-16T06:10:01.707000Z</time>
      </trkpt>
      <trkpt lat="35.95504441372217" lon="120.21879832528077">
        <time>2020-11-16T06:10:04.707000Z</time>
      </trkpt>
      <trkpt lat="35.95489101095633" lon="120.21881071214955">
        <time>2020-11-16T06:10:10.707000Z</time>
      </trkpt>
      <trkpt lat="35.95479714986375" lon="120.21881732805119">
        <time>2020-11-16T06:10:13.707000Z</time>
      </trkpt>
      <trkpt lat="35.95470548165539" lon="120.21882204865432">
        <time>2020-11-16T06:10:16.707000Z</time>
      </trkpt>
      <trkpt lat="35.954458959283095" lon="120.21884804489304">
        <time>2020-11-16T06:10:25.707000Z</time>
      </trkpt>
      <trkpt lat="35.954368755242506" lon="120.2188335612574">
        <time>2020-11-16T06:10:28.707000Z</time>
      </trkpt>
      <trkpt lat="35.95420191600593" lon="120.21888076425392">
        <time>2020-11-16T06:10:34.707000Z</time>
      </trkpt>
      <trkpt lat="35.95396858344741" lon="120.21894989937105">
        <time>2020-11-16T06:10:43.707000Z</time>
      </trkpt>
      <trkpt lat="35.95390094192923" lon="120.21895394374462">
        <time>2020-11-16T06:10:46.707000Z</time>
      </trkpt>
      <trkpt lat="35.953829723448735" lon="120.21895482530081">
        <time>2020-11-16T06:10:49.707000Z</time>
      </trkpt>
      <trkpt lat="35.95357299635439" lon="120.21897454563603">
        <time>2020-11-16T06:10:58.707000Z</time>
      </trkpt>
      <trkpt lat="35.95348385188336" lon="120.21897672252278">
        <time>2020-11-16T06:11:01.707000Z</time>
      </trkpt>
      <trkpt lat="35.95340108727548" lon="120.21896409508118">
        <time>2020-11-16T06:11:04.707000Z</time>
      </trkpt>
      <trkpt lat="35.9532281156429" lon="120.21893124756416">
        <time>2020-11-16T06:11:10.707000Z</time>
      </trkpt>
      <trkpt lat="35.95314426487342" lon="120.21892338873086">
        <time>2020-11-16T06:11:13.707000Z</time>
      </trkpt>
      <trkpt lat="35.95300298506401" lon="120.21885499849138">
        <time>2020-11-16T06:11:19.707000Z</time>
      </trkpt>
      <trkpt lat="35.95280728428913" lon="120.21855995343657">
        <time>2020-11-16T06:11:31.707000Z</time>
      </trkpt>
      <trkpt lat="35.952779710657865" lon="120.21846144619103">
        <time>2020-11-16T06:11:34.707000Z</time>
      </trkpt>
      <trkpt lat="35.952711978537444" lon="120.21807594400808">
        <time>2020-11-16T06:11:46.707000Z</time>
      </trkpt>
      <trkpt lat="35.9526893231554" lon="120.21798084072356">
        <time>2020-11-16T06:11:49.707000Z</time>
      </trkpt>
      <trkpt lat="35.952684140348005" lon="120.21776121971763">
        <time>2020-11-16T06:11:55.707000Z</time>
      </trkpt>
      <trkpt lat="35.95268921076038" lon="120.21765185446706">
        <time>2020-11-16T06:11:58.707000Z</time>
      </trkpt>
      <trkpt lat="35.95267518495686" lon="120.21744228086916">
        <time>2020-11-16T06:12:04.707000Z</time>
      </trkpt>
      <trkpt lat="35.95267260990558" lon="120.21733647752067">
        <time>2020-11-16T06:12:07.707000Z</time>
      </trkpt>
      <trkpt lat="35.952631537118144" lon="120.21712861966846">
        <time>2020-11-16T06:12:13.707000Z</time>
      </trkpt>
      <trkpt lat="35.95259572250408" lon="120.21703238118035">
        <time>2020-11-16T06:12:16.707000Z</time>
      </trkpt>
      <trkpt lat="35.95256930206456" lon="120.21695034914097">
        <time>2020-11-16T06:12:19.707000Z</time>
      </trkpt>
      <trkpt lat="35.952477496392746" lon="120.21669840765341">
        <time>2020-11-16T06:12:28.707000Z</time>
      </trkpt>
      <trkpt lat="35.95245225744661" lon="120.21660835636875">
        <time>2020-11-16T06:12:31.707000Z</time>
      </trkpt>
      <trkpt lat="35.95243385095328" lon="120.21652553819528">
        <time>2020-11-16T06:12:34.707000Z</time>
      </trkpt>
      <trkpt lat="35.95237028915179" lon="120.21625529811425">
        <time>2020-11-16T06:12:43.707000Z</time>
      </trkpt>
      <trkpt lat="35.95233314814813" lon="120.21616542671067">
        <time>2020-11-16T06:12:46.707000Z</time>
      </trkpt>
      <trkpt lat="35.95230195573074" lon="120.21607790031658">
        <time>2020-11-16T06:12:49.707000Z</time>
      </trkpt>
      <trkpt lat="35.95225945892751" lon="120.21585557735942">
        <time>2020-11-16T06:12:55.707000Z</time>
      </trkpt>
      <trkpt lat="35.95225347382652" lon="120.2157526623884">
        <time>2020-11-16T06:12:58.707000Z</time>
      </trkpt>
      <trkpt lat="35.9522478069974" lon="120.21567389772041">
        <time>2020-11-16T06:13:01.807000Z</time>
      </trkpt>
      <trkpt lat="35.95217745526716" lon="120.21543699175442">
        <time>2020-11-16T06:13:13.707000Z</time>
      </trkpt>
      <trkpt lat="35.95216031958154" lon="120.21543810743943">
        <time>2020-11-16T06:13:19.707000Z</time>
      </trkpt>
      <trkpt lat="35.95215962818727" lon="120.21543902508745">
        <time>2020-11-16T06:13:22.707000Z</time>
      </trkpt>
      <trkpt lat="35.95215747192057" lon="120.21543583286204">
        <time>2020-11-16T06:13:25.707000Z</time>
      </trkpt>
      <trkpt lat="35.95216962802634" lon="120.21544847240386">
        <time>2020-11-16T06:13:28.707000Z</time>
      </trkpt>
      <trkpt lat="35.95218278853176" lon="120.21545050849838">
        <time>2020-11-16T06:13:31.707000Z</time>
      </trkpt>
      <trkpt lat="35.95218320791554" lon="120.2154510471916">
        <time>2020-11-16T06:13:37.707000Z</time>
      </trkpt>
      <trkpt lat="35.95218836789861" lon="120.21544451395589">
        <time>2020-11-16T06:13:40.707000Z</time>
      </trkpt>
      <trkpt lat="35.952180538193716" lon="120.21542787478556">
        <time>2020-11-16T06:13:43.707000Z</time>
      </trkpt>
      <trkpt lat="35.95218389146841" lon="120.21541854836659">
        <time>2020-11-16T06:13:46.707000Z</time>
      </trkpt>
      <trkpt lat="35.9521920193516" lon="120.2154066488017">
        <time>2020-11-16T06:13:52.707000Z</time>
      </trkpt>
      <trkpt lat="35.952183720265026" lon="120.21540444356673">
        <time>2020-11-16T06:13:55.707000Z</time>
      </trkpt>
      <trkpt lat="35.95211992659403" lon="120.21542544543622">
        <time>2020-11-16T06:13:58.707000Z</time>
      </trkpt>
      <trkpt lat="35.95202992393488" lon="120.2154259062475">
        <time>2020-11-16T06:14:01.707000Z</time>
      </trkpt>
      <trkpt lat="35.95194827946916" lon="120.21544423321356">
        <time>2020-11-16T06:14:04.707000Z</time>
      </trkpt>
      <trkpt lat="35.951785012606386" lon="120.21548685230395">
        <time>2020-11-16T06:14:13.707000Z</time>
      </trkpt>
      <trkpt lat="35.95163175639521" lon="120.21552334761603">
        <time>2020-11-16T06:14:19.707000Z</time>
      </trkpt>
      <trkpt lat="35.95149110408541" lon="120.21558930071733">
        <time>2020-11-16T06:14:25.707000Z</time>
      </trkpt>
      <trkpt lat="35.95096394897922" lon="120.2156763968485">
        <time>2020-11-16T06:14:43.707000Z</time>
      </trkpt>
      <trkpt lat="35.9505916910599" lon="120.21580192162145">
        <time>2020-11-16T06:14:55.707000Z</time>
      </trkpt>
      <trkpt lat="35.94812317642307" lon="120.21649911830666">
        <time>2020-11-16T06:16:16.707000Z</time>
      </trkpt>
      <trkpt lat="35.94809016189467" lon="120.21649635216149">
        <time>2020-11-16T06:16:19.707000Z</time>
      </trkpt>
      <trkpt lat="35.94805864617951" lon="120.2164871220476">
        <time>2020-11-16T06:16:22.707000Z</time>
      </trkpt>
      <trkpt lat="35.94780572322778" lon="120.21654116659784">
        <time>2020-11-16T06:16:31.707000Z</time>
      </trkpt>
      <trkpt lat="35.94772113454995" lon="120.21657014783723">
        <time>2020-11-16T06:16:34.707000Z</time>
      </trkpt>
      <trkpt lat="35.94764617154934" lon="120.21661195846505">
        <time>2020-11-16T06:16:37.707000Z</time>
      </trkpt>
      <trkpt lat="35.94744590353632" lon="120.21658784978598">
        <time>2020-11-16T06:16:46.707000Z</time>
      </trkpt>
      <trkpt lat="35.94736851583032" lon="120.21659444667657">
        <time>2020-11-16T06:16:49.707000Z</time>
      </trkpt>
      <trkpt lat="35.94723054190141" lon="120.21664039156916">
        <time>2020-11-16T06:16:55.707000Z</time>
      </trkpt>
      <trkpt lat="35.94716106905329" lon="120.21669855269343">
        <time>2020-11-16T06:16:58.707000Z</time>
      </trkpt>
      <trkpt lat="35.94647810420518" lon="120.21687268527666">
        <time>2020-11-16T06:17:25.707000Z</time>
      </trkpt>
      <trkpt lat="35.9463321155131" lon="120.216882398489">
        <time>2020-11-16T06:17:31.707000Z</time>
      </trkpt>
      <trkpt lat="35.94617477290706" lon="120.21694703643968">
        <time>2020-11-16T06:17:37.707000Z</time>
      </trkpt>
      <trkpt lat="35.945856815475516" lon="120.21706989813501">
        <time>2020-11-16T06:17:49.707000Z</time>
      </trkpt>
      <trkpt lat="35.945771130478946" lon="120.21711159881042">
        <time>2020-11-16T06:17:52.707000Z</time>
      </trkpt>
      <trkpt lat="35.945515321373954" lon="120.21720924812547">
        <time>2020-11-16T06:18:01.707000Z</time>
      </trkpt>
      <trkpt lat="35.94543939514755" lon="120.21725390269229">
        <time>2020-11-16T06:18:04.707000Z</time>
      </trkpt>
      <trkpt lat="35.94535774079596" lon="120.21729603295499">
        <time>2020-11-16T06:18:07.707000Z</time>
      </trkpt>
      <trkpt lat="35.945162939235196" lon="120.21742337628659">
        <time>2020-11-16T06:18:16.707000Z</time>
      </trkpt>
      <trkpt lat="35.945114798559295" lon="120.21742239437289">
        <time>2020-11-16T06:18:19.707000Z</time>
      </trkpt>
      <trkpt lat="35.945048238670495" lon="120.21746410724707">
        <time>2020-11-16T06:18:22.707000Z</time>
      </trkpt>
      <trkpt lat="35.944974797560754" lon="120.21751330143876">
        <time>2020-11-16T06:18:25.707000Z</time>
      </trkpt>
      <trkpt lat="35.944767800893985" lon="120.21762716726845">
        <time>2020-11-16T06:18:34.707000Z</time>
      </trkpt>
      <trkpt lat="35.944699511670855" lon="120.2176760529516">
        <time>2020-11-16T06:18:37.707000Z</time>
      </trkpt>
      <trkpt lat="35.94454942231929" lon="120.2177405836308">
        <time>2020-11-16T06:18:43.707000Z</time>
      </trkpt>
      <trkpt lat="35.94432061684901" lon="120.21789710562311">
        <time>2020-11-16T06:18:52.707000Z</time>
      </trkpt>
      <trkpt lat="35.944160343288736" lon="120.21799488588375">
        <time>2020-11-16T06:18:58.707000Z</time>
      </trkpt>
      <trkpt lat="35.9439155389363" lon="120.21806893596911">
        <time>2020-11-16T06:19:07.707000Z</time>
      </trkpt>
      <trkpt lat="35.94332920729163" lon="120.21750676043497">
        <time>2020-11-16T06:19:37.707000Z</time>
      </trkpt>
      <trkpt lat="35.943211006444905" lon="120.21711058278494">
        <time>2020-11-16T06:19:52.707000Z</time>
      </trkpt>
      <trkpt lat="35.943111329205855" lon="120.21698079054931">
        <time>2020-11-16T06:20:01.707000Z</time>
      </trkpt>
      <trkpt lat="35.94305583992293" lon="120.21684598511521">
        <time>2020-11-16T06:20:07.707000Z</time>
      </trkpt>
      <trkpt lat="35.9430183142607" lon="120.21676608736873">
        <time>2020-11-16T06:20:10.707000Z</time>
      </trkpt>
      <trkpt lat="35.94297643284244" lon="120.21668222916954">
        <time>2020-11-16T06:20:13.707000Z</time>
      </trkpt>
      <trkpt lat="35.94278967160195" lon="120.21639467915611">
        <time>2020-11-16T06:20:25.707000Z</time>
      </trkpt>
      <trkpt lat="35.942746841468924" lon="120.2162112675718">
        <time>2020-11-16T06:20:31.707000Z</time>
      </trkpt>
      <trkpt lat="35.94272940407887" lon="120.21611474448116">
        <time>2020-11-16T06:20:34.707000Z</time>
      </trkpt>
      <trkpt lat="35.94271030014549" lon="120.21602305958704">
        <time>2020-11-16T06:20:37.707000Z</time>
      </trkpt>
      <trkpt lat="35.94258928660059" lon="120.21579118369391">
        <time>2020-11-16T06:20:46.707000Z</time>
      </trkpt>
      <trkpt lat="35.942538336118126" lon="120.2157216618768">
        <time>2020-11-16T06:20:49.707000Z</time>
      </trkpt>
      <trkpt lat="35.94243309869409" lon="120.21555709202676">
        <time>2020-11-16T06:20:55.707000Z</time>
      </trkpt>
      <trkpt lat="35.9423646119237" lon="120.21551183869039">
        <time>2020-11-16T06:20:58.707000Z</time>
      </trkpt>
      <trkpt lat="35.94229736295399" lon="120.21546100944406">
        <time>2020-11-16T06:21:01.707000Z</time>
      </trkpt>
      <trkpt lat="35.94216633556887" lon="120.21518800008685">
        <time>2020-11-16T06:21:10.707000Z</time>
      </trkpt>
      <trkpt lat="35.942152085750394" lon="120.2150809769933">
        <time>2020-11-16T06:21:13.707000Z</time>
      </trkpt>
      <trkpt lat="35.941979789700376" lon="120.21480141396376">
        <time>2020-11-16T06:21:25.707000Z</time>
      </trkpt>
      <trkpt lat="35.94193589735355" lon="120.21472853357741">
        <time>2020-11-16T06:21:28.707000Z</time>
      </trkpt>
      <trkpt lat="35.94187651395359" lon="120.21455788870578">
        <time>2020-11-16T06:21:34.707000Z</time>
      </trkpt>
      <trkpt lat="35.941727874695694" lon="120.21436110300947">
        <time>2020-11-16T06:21:43.707000Z</time>
      </trkpt>
      <trkpt lat="35.94143648694019" lon="120.2141671586391">
        <time>2020-11-16T06:21:58.707000Z</time>
      </trkpt>
      <trkpt lat="35.94141932244897" lon="120.21413078944342">
        <time>2020-11-16T06:22:01.707000Z</time>
      </trkpt>
      <trkpt lat="35.94140766400702" lon="120.21409833084815">
        <time>2020-11-16T06:22:04.707000Z</time>
      </trkpt>
      <trkpt lat="35.94122972544353" lon="120.2139337834453">
        <time>2020-11-16T06:22:16.707000Z</time>
      </trkpt>
      <trkpt lat="35.94115985041761" lon="120.21390293575693">
        <time>2020-11-16T06:22:19.707000Z</time>
      </trkpt>
      <trkpt lat="35.94102130762062" lon="120.21385802779407">
        <time>2020-11-16T06:22:25.707000Z</time>
      </trkpt>
      <trkpt lat="35.9408792627824" lon="120.2138648277724">
        <time>2020-11-16T06:22:31.707000Z</time>
      </trkpt>
      <trkpt lat="35.940806516349504" lon="120.21389263043511">
        <time>2020-11-16T06:22:34.707000Z</time>
      </trkpt>
      <trkpt lat="35.94073281761414" lon="120.21392922066251">
        <time>2020-11-16T06:22:37.707000Z</time>
      </trkpt>
      <trkpt lat="35.940576004039144" lon="120.2140343491588">
        <time>2020-11-16T06:22:43.707000Z</time>
      </trkpt>
      <trkpt lat="35.940474075587" lon="120.21416056937828">
        <time>2020-11-16T06:22:49.707000Z</time>
      </trkpt>
      <trkpt lat="35.94044197404932" lon="120.21424356593921">
        <time>2020-11-16T06:22:52.707000Z</time>
      </trkpt>
      <trkpt lat="35.94040712535805" lon="120.21441946730532">
        <time>2020-11-16T06:22:58.707000Z</time>
      </trkpt>
      <trkpt lat="35.940276006886556" lon="120.21457807476105">
        <time>2020-11-16T06:23:07.707000Z</time>
      </trkpt>
      <trkpt lat="35.94020461692351" lon="120.21460172867816">
        <time>2020-11-16T06:23:10.707000Z</time>
      </trkpt>
      <trkpt lat="35.94012596084325" lon="120.21460644973749">
        <time>2020-11-16T06:23:13.707000Z</time>
      </trkpt>
      <trkpt lat="35.93973935973206" lon="120.21475727496852">
        <time>2020-11-16T06:23:31.707000Z</time>
      </trkpt>
      <trkpt lat="35.93960008052594" lon="120.21481964551396">
        <time>2020-11-16T06:23:37.707000Z</time>
      </trkpt>
      <trkpt lat="35.93952757826738" lon="120.21487451102638">
        <time>2020-11-16T06:23:40.707000Z</time>
      </trkpt>
      <trkpt lat="35.939453272352864" lon="120.2149318103643">
        <time>2020-11-16T06:23:43.707000Z</time>
      </trkpt>
      <trkpt lat="35.939140656991434" lon="120.21507815510184">
        <time>2020-11-16T06:23:55.707000Z</time>
      </trkpt>
      <trkpt lat="35.93897955795616" lon="120.21511435994772">
        <time>2020-11-16T06:24:01.707000Z</time>
      </trkpt>
      <trkpt lat="35.9388978518521" lon="120.21510365947174">
        <time>2020-11-16T06:24:04.707000Z</time>
      </trkpt>
      <trkpt lat="35.93853227986258" lon="120.21505182679769">
        <time>2020-11-16T06:24:16.707000Z</time>
      </trkpt>
      <trkpt lat="35.93835653328869" lon="120.21502394106514">
        <time>2020-11-16T06:24:22.707000Z</time>
      </trkpt>
      <trkpt lat="35.93828066713575" lon="120.21498466288111">
        <time>2020-11-16T06:24:25.707000Z</time>
      </trkpt>
      <trkpt lat="35.93814201045908" lon="120.21486740513478">
        <time>2020-11-16T06:24:31.707000Z</time>
      </trkpt>
      <trkpt lat="35.937811828467495" lon="120.21459340593591">
        <time>2020-11-16T06:24:46.707000Z</time>
      </trkpt>
      <trkpt lat="35.937741463693406" lon="120.21453972518519">
        <time>2020-11-16T06:24:49.707000Z</time>
      </trkpt>
      <trkpt lat="35.93768269126817" lon="120.21447181154386">
        <time>2020-11-16T06:24:52.707000Z</time>
      </trkpt>
      <trkpt lat="35.93756157802188" lon="120.21436374411466">
        <time>2020-11-16T06:24:58.707000Z</time>
      </trkpt>
      <trkpt lat="35.93749271491137" lon="120.21432400858416">
        <time>2020-11-16T06:25:01.707000Z</time>
      </trkpt>
      <trkpt lat="35.93742291834804" lon="120.2142793355362">
        <time>2020-11-16T06:25:04.707000Z</time>
      </trkpt>
      <trkpt lat="35.937296249390634" lon="120.21417480931599">
        <time>2020-11-16T06:25:10.707000Z</time>
      </trkpt>
      <trkpt lat="35.9372184853117" lon="120.2141415867027">
        <time>2020-11-16T06:25:13.707000Z</time>
      </trkpt>
      <trkpt lat="35.9371489237218" lon="120.21410077413911">
        <time>2020-11-16T06:25:16.707000Z</time>
      </trkpt>
      <trkpt lat="35.937024700074865" lon="120.214007739526">
        <time>2020-11-16T06:25:22.707000Z</time>
      </trkpt>
      <trkpt lat="35.93688323792093" lon="120.21391062405135">
        <time>2020-11-16T06:25:28.707000Z</time>
      </trkpt>
      <trkpt lat="35.936805612141306" lon="120.2138788181312">
        <time>2020-11-16T06:25:31.707000Z</time>
      </trkpt>
      <trkpt lat="35.93670897773802" lon="120.21377723846335">
        <time>2020-11-16T06:25:37.707000Z</time>
      </trkpt>
      <trkpt lat="35.93648731623714" lon="120.21351366220149">
        <time>2020-11-16T06:25:49.707000Z</time>
      </trkpt>
      <trkpt lat="35.9364241536844" lon="120.21344632898698">
        <time>2020-11-16T06:25:52.707000Z</time>
      </trkpt>
      <trkpt lat="35.93636306861416" lon="120.2133740687405">
        <time>2020-11-16T06:25:55.707000Z</time>
      </trkpt>
      <trkpt lat="35.9362485073169" lon="120.21322486148009">
        <time>2020-11-16T06:26:01.707000Z</time>
      </trkpt>
      <trkpt lat="35.93619004341185" lon="120.2131310274754">
        <time>2020-11-16T06:26:04.707000Z</time>
      </trkpt>
      <trkpt lat="35.936033401889404" lon="120.21288937600961">
        <time>2020-11-16T06:26:13.707000Z</time>
      </trkpt>
      <trkpt lat="35.935976228976244" lon="120.21281700770041">
        <time>2020-11-16T06:26:16.707000Z</time>
      </trkpt>
      <trkpt lat="35.935923074011185" lon="120.21274691404014">
        <time>2020-11-16T06:26:19.707000Z</time>
      </trkpt>
      <trkpt lat="35.93579571892665" lon="120.21252176541172">
        <time>2020-11-16T06:26:28.707000Z</time>
      </trkpt>
      <trkpt lat="35.9356432114706" lon="120.21229471111482">
        <time>2020-11-16T06:26:37.707000Z</time>
      </trkpt>
      <trkpt lat="35.93560254376586" lon="120.2122223656038">
        <time>2020-11-16T06:26:40.707000Z</time>
      </trkpt>
      <trkpt lat="35.935563651243015" lon="120.21214677885814">
        <time>2020-11-16T06:26:43.707000Z</time>
      </trkpt>
      <trkpt lat="35.93546093954656" lon="120.21197509719048">
        <time>2020-11-16T06:26:49.707000Z</time>
      </trkpt>
      <trkpt lat="35.93543129668222" lon="120.21188769273316">
        <time>2020-11-16T06:26:52.707000Z</time>
      </trkpt>
      <trkpt lat="35.93533710505576" lon="120.21173920253919">
        <time>2020-11-16T06:26:58.707000Z</time>
      </trkpt>
      <trkpt lat="35.93521166030743" lon="120.21145544513992">
        <time>2020-11-16T06:27:07.707000Z</time>
      </trkpt>
      <trkpt lat="35.93510718693072" lon="120.21116884961732">
        <time>2020-11-16T06:27:16.707000Z</time>
      </trkpt>
      <trkpt lat="35.9350715827781" lon="120.21107558230284">
        <time>2020-11-16T06:27:19.707000Z</time>
      </trkpt>
      <trkpt lat="35.93503038657283" lon="120.21098290320522">
        <time>2020-11-16T06:27:22.707000Z</time>
      </trkpt>
      <trkpt lat="35.93493992883218" lon="120.21081400154277">
        <time>2020-11-16T06:27:28.707000Z</time>
      </trkpt>
      <trkpt lat="35.934783221063036" lon="120.2105107412891">
        <time>2020-11-16T06:27:37.707000Z</time>
      </trkpt>
      <trkpt lat="35.934688130138646" lon="120.21031721717587">
        <time>2020-11-16T06:27:43.707000Z</time>
      </trkpt>
      <trkpt lat="35.93459800175923" lon="120.21015064278832">
        <time>2020-11-16T06:27:49.707000Z</time>
      </trkpt>
      <trkpt lat="35.934447246676996" lon="120.20979566759654">
        <time>2020-11-16T06:28:01.707000Z</time>
      </trkpt>
      <trkpt lat="35.934386841131946" lon="120.20972821282335">
        <time>2020-11-16T06:28:04.707000Z</time>
      </trkpt>
      <trkpt lat="35.934133710433514" lon="120.20902011455132">
        <time>2020-11-16T06:28:28.707000Z</time>
      </trkpt>
      <trkpt lat="35.93413277796074" lon="120.20891472916836">
        <time>2020-11-16T06:28:31.707000Z</time>
      </trkpt>
      <trkpt lat="35.93412595760512" lon="120.20872054400958">
        <time>2020-11-16T06:28:37.707000Z</time>
      </trkpt>
      <trkpt lat="35.93408804889505" lon="120.20848083078873">
        <time>2020-11-16T06:28:46.707000Z</time>
      </trkpt>
      <trkpt lat="35.93409550144404" lon="120.20842074469023">
        <time>2020-11-16T06:28:49.707000Z</time>
      </trkpt>
      <trkpt lat="35.9340960704061" lon="120.2083619346107">
        <time>2020-11-16T06:28:52.707000Z</time>
      </trkpt>
      <trkpt lat="35.934096172499146" lon="120.20831425430796">
        <time>2020-11-16T06:28:55.707000Z</time>
      </trkpt>
      <trkpt lat="35.93407515797186" lon="120.20822120570415">
        <time>2020-11-16T06:29:01.707000Z</time>
      </trkpt>
      <trkpt lat="35.933963565957775" lon="120.20792714778078">
        <time>2020-11-16T06:29:13.707000Z</time>
      </trkpt>
      <trkpt lat="35.933850596387146" lon="120.20759326137906">
        <time>2020-11-16T06:29:25.707000Z</time>
      </trkpt>
      <trkpt lat="35.933824731821446" lon="120.20750695576439">
        <time>2020-11-16T06:29:28.707000Z</time>
      </trkpt>
      <trkpt lat="35.93379614377711" lon="120.20733777780484">
        <time>2020-11-16T06:29:34.707000Z</time>
      </trkpt>
      <trkpt lat="35.93378810451539" lon="120.20725127495416">
        <time>2020-11-16T06:29:37.707000Z</time>
      </trkpt>
      <trkpt lat="35.93375878795859" lon="120.20688704621072">
        <time>2020-11-16T06:29:49.707000Z</time>
      </trkpt>
      <trkpt lat="35.93373947180696" lon="120.20679077045506">
        <time>2020-11-16T06:29:52.707000Z</time>
      </trkpt>
      <trkpt lat="35.93372600328538" lon="120.20672295674798">
        <time>2020-11-16T06:29:55.707000Z</time>
      </trkpt>
      <trkpt lat="35.93371595226091" lon="120.20667675366863">
        <time>2020-11-16T06:29:58.707000Z</time>
      </trkpt>
      <trkpt lat="35.933643278156495" lon="120.20640326497664">
        <time>2020-11-16T06:30:07.707000Z</time>
      </trkpt>
      <trkpt lat="35.933427486161875" lon="120.20613827188438">
        <time>2020-11-16T06:30:19.707000Z</time>
      </trkpt>
      <trkpt lat="35.933355868905956" lon="120.20608003751985">
        <time>2020-11-16T06:30:22.707000Z</time>
      </trkpt>
      <trkpt lat="35.933030636382824" lon="120.20552497760006">
        <time>2020-11-16T06:30:46.707000Z</time>
      </trkpt>
      <trkpt lat="35.93302716611827" lon="120.20544834183995">
        <time>2020-11-16T06:30:49.707000Z</time>
      </trkpt>
      <trkpt lat="35.932960684190235" lon="120.20520429017928">
        <time>2020-11-16T06:30:58.707000Z</time>
      </trkpt>
      <trkpt lat="35.93295043969094" lon="120.20494009183473">
        <time>2020-11-16T06:31:07.707000Z</time>
      </trkpt>
      <trkpt lat="35.932930004717846" lon="120.20484539660883">
        <time>2020-11-16T06:31:10.707000Z</time>
      </trkpt>
      <trkpt lat="35.93339764080442" lon="120.2042194068687">
        <time>2020-11-16T06:31:31.707000Z</time>
      </trkpt>
      <trkpt lat="35.93324607977737" lon="120.20364807604093">
        <time>2020-11-16T06:31:49.707000Z</time>
      </trkpt>
      <trkpt lat="35.9331592878729" lon="120.20361699676988">
        <time>2020-11-16T06:31:52.707000Z</time>
      </trkpt>
      <trkpt lat="35.93255267211486" lon="120.20353758862265">
        <time>2020-11-16T06:32:13.707000Z</time>
      </trkpt>
      <trkpt lat="35.93252602663522" lon="120.20348722980637">
        <time>2020-11-16T06:32:19.707000Z</time>
      </trkpt>
      <trkpt lat="35.932520669874116" lon="120.20343484873298">
        <time>2020-11-16T06:32:25.707000Z</time>
      </trkpt>
      <trkpt lat="35.93248459873043" lon="120.20338039090119">
        <time>2020-11-16T06:32:31.707000Z</time>
      </trkpt>
      <trkpt lat="35.93246496699371" lon="120.20331655141091">
        <time>2020-11-16T06:32:37.707000Z</time>
      </trkpt>
      <trkpt lat="35.93245130174624" lon="120.20326821825101">
        <time>2020-11-16T06:32:43.707000Z</time>
      </trkpt>
      <trkpt lat="35.93244296794891" lon="120.20325072748105">
        <time>2020-11-16T06:32:46.707000Z</time>
      </trkpt>
      <trkpt lat="35.9324014683693" lon="120.20319457426045">
        <time>2020-11-16T06:32:52.807000Z</time>
      </trkpt>
      <trkpt lat="35.93239722729589" lon="120.20315754974993">
        <time>2020-11-16T06:32:55.707000Z</time>
      </trkpt>
      <trkpt lat="35.932373722608276" lon="120.20310125866861">
        <time>2020-11-16T06:32:58.707000Z</time>
      </trkpt>
      <trkpt lat="35.932336545916826" lon="120.20302562182566">
        <time>2020-11-16T06:33:01.707000Z</time>
      </trkpt>
      <trkpt lat="35.932277938717235" lon="120.20287935562213">
        <time>2020-11-16T06:33:07.707000Z</time>
      </trkpt>
      <trkpt lat="35.93225569655816" lon="120.20279117651644">
        <time>2020-11-16T06:33:10.707000Z</time>
      </trkpt>
      <trkpt lat="35.93222649236989" lon="120.20269711387064">
        <time>2020-11-16T06:33:13.807000Z</time>
      </trkpt>
      <trkpt lat="35.93215168699982" lon="120.20250490949006">
        <time>2020-11-16T06:33:19.707000Z</time>
      </trkpt>
      <trkpt lat="35.9320944916436" lon="120.2023280733225">
        <time>2020-11-16T06:33:25.707000Z</time>
      </trkpt>
      <trkpt lat="35.932039582533406" lon="120.202154239458">
        <time>2020-11-16T06:33:31.707000Z</time>
      </trkpt>
      <trkpt lat="35.93199109798943" lon="120.20196679621417">
        <time>2020-11-16T06:33:37.707000Z</time>
      </trkpt>
      <trkpt lat="35.93191893030262" lon="120.20175372584612">
        <time>2020-11-16T06:33:43.707000Z</time>
      </trkpt>
      <trkpt lat="35.931893692704165" lon="120.20143335199639">
        <time>2020-11-16T06:33:52.707000Z</time>
      </trkpt>
      <trkpt lat="35.931921474709284" lon="120.20133365390083">
        <time>2020-11-16T06:33:55.707000Z</time>
      </trkpt>
      <trkpt lat="35.93198576424993" lon="120.20095795237164">
        <time>2020-11-16T06:34:07.707000Z</time>
      </trkpt>
      <trkpt lat="35.931984907097494" lon="120.2006917784192">
        <time>2020-11-16T06:34:16.707000Z</time>
      </trkpt>
      <trkpt lat="35.93203464005939" lon="120.20050579614654">
        <time>2020-11-16T06:34:22.707000Z</time>
      </trkpt>
      <trkpt lat="35.93206741818642" lon="120.20041016872824">
        <time>2020-11-16T06:34:25.707000Z</time>
      </trkpt>
      <trkpt lat="35.93248395406496" lon="120.19944598710727">
        <time>2020-11-16T06:34:58.707000Z</time>
      </trkpt>
      <trkpt lat="35.93243289806453" lon="120.19924072783634">
        <time>2020-11-16T06:35:04.707000Z</time>
      </trkpt>
      <trkpt lat="35.93264106605575" lon="120.19871893940703">
        <time>2020-11-16T06:35:28.707000Z</time>
      </trkpt>
      <trkpt lat="35.932869840498334" lon="120.19808209087189">
        <time>2020-11-16T06:35:55.707000Z</time>
      </trkpt>
      <trkpt lat="35.932781230586805" lon="120.19763152577906">
        <time>2020-11-16T06:36:10.707000Z</time>
      </trkpt>
      <trkpt lat="35.93270929689965" lon="120.19748928410914">
        <time>2020-11-16T06:36:16.907000Z</time>
      </trkpt>
      <trkpt lat="35.93268918786082" lon="120.19746832492909">
        <time>2020-11-16T06:36:19.707000Z</time>
      </trkpt>
      <trkpt lat="35.93266210384948" lon="120.1974143737457">
        <time>2020-11-16T06:36:25.807000Z</time>
      </trkpt>
      <trkpt lat="35.93265563457805" lon="120.19741299727882">
        <time>2020-11-16T06:36:28.707000Z</time>
      </trkpt>
      <trkpt lat="35.932657989277466" lon="120.1974106146134">
        <time>2020-11-16T06:36:31.707000Z</time>
      </trkpt>
      <trkpt lat="35.93265824772948" lon="120.19741155183485">
        <time>2020-11-16T06:36:34.707000Z</time>
      </trkpt>
      <trkpt lat="35.93265680424681" lon="120.19740755365756">
        <time>2020-11-16T06:36:37.707000Z</time>
      </trkpt>
      <trkpt lat="35.93265551623763" lon="120.19740620756593">
        <time>2020-11-16T06:36:40.707000Z</time>
      </trkpt>
      <trkpt lat="35.93265619089852" lon="120.19740940805865">
        <time>2020-11-16T06:36:43.707000Z</time>
      </trkpt>
      <trkpt lat="35.93265434699101" lon="120.19741721455601">
        <time>2020-11-16T06:36:46.707000Z</time>
      </trkpt>
      <trkpt lat="35.932643140768434" lon="120.1974366055859">
        <time>2020-11-16T06:36:49.707000Z</time>
      </trkpt>
      <trkpt lat="35.93263892318363" lon="120.19745782179714">
        <time>2020-11-16T06:36:52.707000Z</time>
      </trkpt>
      <trkpt lat="35.9326150818813" lon="120.19749574632985">
        <time>2020-11-16T06:36:55.707000Z</time>
      </trkpt>
      <trkpt lat="35.93263450544996" lon="120.19757212991986">
        <time>2020-11-16T06:37:01.707000Z</time>
      </trkpt>
      <trkpt lat="35.93265005171367" lon="120.19759986849219">
        <time>2020-11-16T06:37:04.907000Z</time>
      </trkpt>
      <trkpt lat="35.932661368857744" lon="120.19764393795336">
        <time>2020-11-16T06:37:07.707000Z</time>
      </trkpt>
      <trkpt lat="35.9326889884385" lon="120.19770066116415">
        <time>2020-11-16T06:37:10.707000Z</time>
      </trkpt>
      <trkpt lat="35.93270902863506" lon="120.19786086524117">
        <time>2020-11-16T06:37:16.707000Z</time>
      </trkpt>
      <trkpt lat="35.93271552941359" lon="120.19800727968052">
        <time>2020-11-16T06:37:22.707000Z</time>
      </trkpt>
      <trkpt lat="35.93269544167337" lon="120.19809061981492">
        <time>2020-11-16T06:37:25.807000Z</time>
      </trkpt>
      <trkpt lat="35.932686292334104" lon="120.19817658327484">
        <time>2020-11-16T06:37:28.707000Z</time>
      </trkpt>
      <trkpt lat="35.932634586568135" lon="120.19835962464107">
        <time>2020-11-16T06:37:34.707000Z</time>
      </trkpt>
      <trkpt lat="35.93258885287496" lon="120.19846051100245">
        <time>2020-11-16T06:37:40.707000Z</time>
      </trkpt>
      <trkpt lat="35.93256263963759" lon="120.19847023977333">
        <time>2020-11-16T06:37:46.707000Z</time>
      </trkpt>
      <trkpt lat="35.93255464647185" lon="120.19847090707457">
        <time>2020-11-16T06:37:49.707000Z</time>
      </trkpt>
      <trkpt lat="35.9325544952835" lon="120.19847744765104">
        <time>2020-11-16T06:37:52.707000Z</time>
      </trkpt>
      <trkpt lat="35.932555169114806" lon="120.19848116667535">
        <time>2020-11-16T06:37:55.707000Z</time>
      </trkpt>
      <trkpt lat="35.932554337810046" lon="120.1984759421047">
        <time>2020-11-16T06:37:58.707000Z</time>
      </trkpt>
      <trkpt lat="35.93255773375327" lon="120.19847296125592">
        <time>2020-11-16T06:38:01.707000Z</time>
      </trkpt>
      <trkpt lat="35.93255889760085" lon="120.1984708775443">
        <time>2020-11-16T06:38:04.707000Z</time>
      </trkpt>
      <trkpt lat="35.93255877690734" lon="120.1984712663795">
        <time>2020-11-16T06:38:07.707000Z</time>
      </trkpt>
      <trkpt lat="35.93256027606368" lon="120.19847198438345">
        <time>2020-11-16T06:38:10.707000Z</time>
      </trkpt>
      <trkpt lat="35.93256031605683" lon="120.19847199435743">
        <time>2020-11-16T06:38:13.707000Z</time>
      </trkpt>
      <trkpt lat="35.93256031605683" lon="120.19847199435743">
        <time>2020-11-16T06:38:16.707000Z</time>
      </trkpt>
      <trkpt lat="35.93256031605683" lon="120.19847199435743">
        <time>2020-11-16T06:38:19.707000Z</time>
      </trkpt>
      <trkpt lat="35.932560286083216" lon="120.19847197441392">
        <time>2020-11-16T06:38:22.707000Z</time>
      </trkpt>
      <trkpt lat="35.93257069122954" lon="120.19849397007846">
        <time>2020-11-16T06:38:25.707000Z</time>
      </trkpt>
      <trkpt lat="35.93257295928156" lon="120.19851305366127">
        <time>2020-11-16T06:38:28.707000Z</time>
      </trkpt>
      <trkpt lat="35.932563431001206" lon="120.19855758072282">
        <time>2020-11-16T06:38:31.707000Z</time>
      </trkpt>
      <trkpt lat="35.932547848214504" lon="120.19860974463997">
        <time>2020-11-16T06:38:34.707000Z</time>
      </trkpt>
      <trkpt lat="35.932520875298295" lon="120.19866031232168">
        <time>2020-11-16T06:38:37.707000Z</time>
      </trkpt>
      <trkpt lat="35.93249603493162" lon="120.19870972367505">
        <time>2020-11-16T06:38:40.707000Z</time>
      </trkpt>
      <trkpt lat="35.93247703213578" lon="120.1987614587231">
        <time>2020-11-16T06:38:43.707000Z</time>
      </trkpt>
      <trkpt lat="35.93246003173083" lon="120.1988003420566">
        <time>2020-11-16T06:38:46.707000Z</time>
      </trkpt>
      <trkpt lat="35.93242985455552" lon="120.19887658367666">
        <time>2020-11-16T06:38:52.707000Z</time>
      </trkpt>
      <trkpt lat="35.93242909635828" lon="120.19894020538926">
        <time>2020-11-16T06:38:58.707000Z</time>
      </trkpt>
      <trkpt lat="35.93241122679445" lon="120.19897853044395">
        <time>2020-11-16T06:39:01.707000Z</time>
      </trkpt>
      <trkpt lat="35.93239725806173" lon="120.1990051704243">
        <time>2020-11-16T06:39:04.707000Z</time>
      </trkpt>
      <trkpt lat="35.932356187106656" lon="120.19903496864957">
        <time>2020-11-16T06:39:10.807000Z</time>
      </trkpt>
      <trkpt lat="35.93234584132371" lon="120.19904862735095">
        <time>2020-11-16T06:39:13.707000Z</time>
      </trkpt>
      <trkpt lat="35.93229989879487" lon="120.19936225738151">
        <time>2020-11-16T06:39:25.707000Z</time>
      </trkpt>
      <trkpt lat="35.932305802292696" lon="120.19946171475794">
        <time>2020-11-16T06:39:28.707000Z</time>
      </trkpt>
      <trkpt lat="35.9322929482521" lon="120.19965189364703">
        <time>2020-11-16T06:39:34.707000Z</time>
      </trkpt>
      <trkpt lat="35.93223759818357" lon="120.19988718698815">
        <time>2020-11-16T06:39:43.707000Z</time>
      </trkpt>
      <trkpt lat="35.932185484607665" lon="120.19995880202558">
        <time>2020-11-16T06:39:46.707000Z</time>
      </trkpt>
      <trkpt lat="35.93212733027216" lon="120.20003000783555">
        <time>2020-11-16T06:39:49.707000Z</time>
      </trkpt>
      <trkpt lat="35.932050644313215" lon="120.20015906250245">
        <time>2020-11-16T06:39:58.707000Z</time>
      </trkpt>
      <trkpt lat="35.93207665920682" lon="120.20015411932773">
        <time>2020-11-16T06:40:01.707000Z</time>
      </trkpt>
      <trkpt lat="35.932082042445266" lon="120.2001530030831">
        <time>2020-11-16T06:40:04.707000Z</time>
      </trkpt>
      <trkpt lat="35.932081372028875" lon="120.20015911510816">
        <time>2020-11-16T06:40:07.707000Z</time>
      </trkpt>
      <trkpt lat="35.93206425225306" lon="120.20018025162453">
        <time>2020-11-16T06:40:10.707000Z</time>
      </trkpt>
      <trkpt lat="35.93204246463282" lon="120.20019343104705">
        <time>2020-11-16T06:40:13.707000Z</time>
      </trkpt>
      <trkpt lat="35.93203046081866" lon="120.20020582365757">
        <time>2020-11-16T06:40:16.707000Z</time>
      </trkpt>
      <trkpt lat="35.93202765156891" lon="120.200210918478">
        <time>2020-11-16T06:40:19.707000Z</time>
      </trkpt>
      <trkpt lat="35.932027342342394" lon="120.20021040994017">
        <time>2020-11-16T06:40:22.707000Z</time>
      </trkpt>
      <trkpt lat="35.93202670299867" lon="120.20020992131434">
        <time>2020-11-16T06:40:25.707000Z</time>
      </trkpt>
      <trkpt lat="35.932026062735915" lon="120.20020998108173">
        <time>2020-11-16T06:40:28.707000Z</time>
      </trkpt>
      <trkpt lat="35.932025271098304" lon="120.20021083849853">
        <time>2020-11-16T06:40:31.707000Z</time>
      </trkpt>
      <trkpt lat="35.932015583265674" lon="120.20022598325944">
        <time>2020-11-16T06:40:34.707000Z</time>
      </trkpt>
      <trkpt lat="35.931983127761825" lon="120.2002721152254">
        <time>2020-11-16T06:40:37.707000Z</time>
      </trkpt>
      <trkpt lat="35.9319559203279" lon="120.20030229441392">
        <time>2020-11-16T06:40:40.707000Z</time>
      </trkpt>
      <trkpt lat="35.9319080781236" lon="120.20038002261548">
        <time>2020-11-16T06:40:46.707000Z</time>
      </trkpt>
      <trkpt lat="35.93190672493922" lon="120.2004295675529">
        <time>2020-11-16T06:40:49.707000Z</time>
      </trkpt>
      <trkpt lat="35.931911257790304" lon="120.20047642094413">
        <time>2020-11-16T06:40:52.707000Z</time>
      </trkpt>
      <trkpt lat="35.931901671450575" lon="120.20057457321312">
        <time>2020-11-16T06:40:58.707000Z</time>
      </trkpt>
      <trkpt lat="35.931911909832394" lon="120.2006250466989">
        <time>2020-11-16T06:41:01.707000Z</time>
      </trkpt>
      <trkpt lat="35.931918416505134" lon="120.20067000600554">
        <time>2020-11-16T06:41:04.907000Z</time>
      </trkpt>
      <trkpt lat="35.93192362921636" lon="120.20071116632924">
        <time>2020-11-16T06:41:07.707000Z</time>
      </trkpt>
      <trkpt lat="35.931921673875095" lon="120.20074408010834">
        <time>2020-11-16T06:41:10.707000Z</time>
      </trkpt>
      <trkpt lat="35.93193424782868" lon="120.20078564996842">
        <time>2020-11-16T06:41:13.707000Z</time>
      </trkpt>
      <trkpt lat="35.93196376178622" lon="120.20094404091937">
        <time>2020-11-16T06:41:19.707000Z</time>
      </trkpt>
      <trkpt lat="35.93193674626554" lon="120.20115400734974">
        <time>2020-11-16T06:41:25.707000Z</time>
      </trkpt>
      <trkpt lat="35.93189640450756" lon="120.20126350542152">
        <time>2020-11-16T06:41:28.707000Z</time>
      </trkpt>
      <trkpt lat="35.93199950688119" lon="120.20189579216225">
        <time>2020-11-16T06:41:46.707000Z</time>
      </trkpt>
      <trkpt lat="35.93205191797028" lon="120.20199446175546">
        <time>2020-11-16T06:41:49.707000Z</time>
      </trkpt>
      <trkpt lat="35.93221585620692" lon="120.2023807824282">
        <time>2020-11-16T06:42:01.707000Z</time>
      </trkpt>
      <trkpt lat="35.932236464475125" lon="120.20247066559806">
        <time>2020-11-16T06:42:04.707000Z</time>
      </trkpt>
      <trkpt lat="35.93225355614102" lon="120.20253351636723">
        <time>2020-11-16T06:42:07.707000Z</time>
      </trkpt>
      <trkpt lat="35.93231267751159" lon="120.202719656882">
        <time>2020-11-16T06:42:13.707000Z</time>
      </trkpt>
      <trkpt lat="35.93233034398741" lon="120.20283511717211">
        <time>2020-11-16T06:42:16.707000Z</time>
      </trkpt>
      <trkpt lat="35.93238480432551" lon="120.20305262883777">
        <time>2020-11-16T06:42:22.707000Z</time>
      </trkpt>
      <trkpt lat="35.93242903339468" lon="120.20326370913685">
        <time>2020-11-16T06:42:28.707000Z</time>
      </trkpt>
      <trkpt lat="35.93244853467329" lon="120.20337105431697">
        <time>2020-11-16T06:42:31.807000Z</time>
      </trkpt>
      <trkpt lat="35.93267319710428" lon="120.20360305288935">
        <time>2020-11-16T06:42:43.707000Z</time>
      </trkpt>
      <trkpt lat="35.933201640921894" lon="120.20395123993214">
        <time>2020-11-16T06:43:07.707000Z</time>
      </trkpt>
      <trkpt lat="35.93319635633514" lon="120.20404675831404">
        <time>2020-11-16T06:43:10.707000Z</time>
      </trkpt>
      <trkpt lat="35.93318075850179" lon="120.20413654226279">
        <time>2020-11-16T06:43:13.707000Z</time>
      </trkpt>
      <trkpt lat="35.93305449188917" lon="120.20442089580705">
        <time>2020-11-16T06:43:22.707000Z</time>
      </trkpt>
      <trkpt lat="35.93299132026133" lon="120.20450591980881">
        <time>2020-11-16T06:43:25.707000Z</time>
      </trkpt>
      <trkpt lat="35.93283143227529" lon="120.20491942931902">
        <time>2020-11-16T06:43:40.707000Z</time>
      </trkpt>
      <trkpt lat="35.93286208077498" lon="120.20503888601958">
        <time>2020-11-16T06:43:43.707000Z</time>
      </trkpt>
      <trkpt lat="35.93292753829573" lon="120.20557073034455">
        <time>2020-11-16T06:43:58.707000Z</time>
      </trkpt>
      <trkpt lat="35.93300852423715" lon="120.20574559884506">
        <time>2020-11-16T06:44:04.707000Z</time>
      </trkpt>
      <trkpt lat="35.93307019492016" lon="120.20579340090877">
        <time>2020-11-16T06:44:07.707000Z</time>
      </trkpt>
      <trkpt lat="35.933519804299564" lon="120.20615445513891">
        <time>2020-11-16T06:44:28.707000Z</time>
      </trkpt>
      <trkpt lat="35.93361709980577" lon="120.20631435942708">
        <time>2020-11-16T06:44:34.707000Z</time>
      </trkpt>
      <trkpt lat="35.93369971793174" lon="120.2065800898269">
        <time>2020-11-16T06:44:43.707000Z</time>
      </trkpt>
      <trkpt lat="35.9337139903355" lon="120.20665830454901">
        <time>2020-11-16T06:44:46.707000Z</time>
      </trkpt>
      <trkpt lat="35.93371264525977" lon="120.2067582778752">
        <time>2020-11-16T06:44:49.707000Z</time>
      </trkpt>
      <trkpt lat="35.93377695965861" lon="120.2071875194089">
        <time>2020-11-16T06:45:01.707000Z</time>
      </trkpt>
      <trkpt lat="35.93381768103156" lon="120.20758477170557">
        <time>2020-11-16T06:45:13.707000Z</time>
      </trkpt>
      <trkpt lat="35.93386418631318" lon="120.20773967153704">
        <time>2020-11-16T06:45:19.707000Z</time>
      </trkpt>
      <trkpt lat="35.93391322836858" lon="120.2078186398664">
        <time>2020-11-16T06:45:22.707000Z</time>
      </trkpt>
      <trkpt lat="35.933980904112936" lon="120.20800362050747">
        <time>2020-11-16T06:45:28.707000Z</time>
      </trkpt>
      <trkpt lat="35.93406992926527" lon="120.20826572402608">
        <time>2020-11-16T06:45:37.707000Z</time>
      </trkpt>
      <trkpt lat="35.93409488911425" lon="120.20844868870758">
        <time>2020-11-16T06:45:43.707000Z</time>
      </trkpt>
      <trkpt lat="35.934098437792244" lon="120.2085363709281">
        <time>2020-11-16T06:45:46.707000Z</time>
      </trkpt>
      <trkpt lat="35.934095303595434" lon="120.2086316023053">
        <time>2020-11-16T06:45:49.707000Z</time>
      </trkpt>
      <trkpt lat="35.93412392383478" lon="120.20892933888778">
        <time>2020-11-16T06:45:58.707000Z</time>
      </trkpt>
      <trkpt lat="35.93415154543999" lon="120.2091067523401">
        <time>2020-11-16T06:46:04.807000Z</time>
      </trkpt>
      <trkpt lat="35.93422507105973" lon="120.20928975578487">
        <time>2020-11-16T06:46:10.707000Z</time>
      </trkpt>
      <trkpt lat="35.93426822879626" lon="120.20937922890832">
        <time>2020-11-16T06:46:13.707000Z</time>
      </trkpt>
      <trkpt lat="35.934367960926615" lon="120.20965080857766">
        <time>2020-11-16T06:46:22.707000Z</time>
      </trkpt>
      <trkpt lat="35.93454492511835" lon="120.20995575819117">
        <time>2020-11-16T06:46:34.707000Z</time>
      </trkpt>
      <trkpt lat="35.93466866605129" lon="120.21020073559811">
        <time>2020-11-16T06:46:43.707000Z</time>
      </trkpt>
      <trkpt lat="35.93469914310108" lon="120.21029662296871">
        <time>2020-11-16T06:46:46.707000Z</time>
      </trkpt>
      <trkpt lat="35.934822288664776" lon="120.21053968794145">
        <time>2020-11-16T06:46:55.707000Z</time>
      </trkpt>
      <trkpt lat="35.934880608269445" lon="120.21059802836453">
        <time>2020-11-16T06:46:58.707000Z</time>
      </trkpt>
      <trkpt lat="35.93493843174402" lon="120.21066740958477">
        <time>2020-11-16T06:47:01.707000Z</time>
      </trkpt>
      <trkpt lat="35.93502174960163" lon="120.21082769264147">
        <time>2020-11-16T06:47:07.707000Z</time>
      </trkpt>
      <trkpt lat="35.93505885175868" lon="120.21090842250464">
        <time>2020-11-16T06:47:10.707000Z</time>
      </trkpt>
      <trkpt lat="35.9351057163346" lon="120.21098929307118">
        <time>2020-11-16T06:47:13.707000Z</time>
      </trkpt>
      <trkpt lat="35.935173196429574" lon="120.21118073421059">
        <time>2020-11-16T06:47:19.707000Z</time>
      </trkpt>
      <trkpt lat="35.935268806294715" lon="120.21146131483846">
        <time>2020-11-16T06:47:28.707000Z</time>
      </trkpt>
      <trkpt lat="35.93533161864062" lon="120.21164492888887">
        <time>2020-11-16T06:47:34.707000Z</time>
      </trkpt>
      <trkpt lat="35.93540301072513" lon="120.21180982370605">
        <time>2020-11-16T06:47:40.707000Z</time>
      </trkpt>
      <trkpt lat="35.93544451398185" lon="120.2118919228655">
        <time>2020-11-16T06:47:43.707000Z</time>
      </trkpt>
      <trkpt lat="35.93551890365777" lon="120.21203866656016">
        <time>2020-11-16T06:47:49.707000Z</time>
      </trkpt>
      <trkpt lat="35.935612134979756" lon="120.2122020692692">
        <time>2020-11-16T06:47:55.707000Z</time>
      </trkpt>
      <trkpt lat="35.935664699859764" lon="120.21228555683118">
        <time>2020-11-16T06:47:58.707000Z</time>
      </trkpt>
      <trkpt lat="35.9357150537633" lon="120.2123694633301">
        <time>2020-11-16T06:48:01.707000Z</time>
      </trkpt>
      <trkpt lat="35.93583261573337" lon="120.2126086536225">
        <time>2020-11-16T06:48:10.707000Z</time>
      </trkpt>
      <trkpt lat="35.93588556802458" lon="120.21267333096428">
        <time>2020-11-16T06:48:13.707000Z</time>
      </trkpt>
      <trkpt lat="35.93594374533075" lon="120.21274256712364">
        <time>2020-11-16T06:48:16.707000Z</time>
      </trkpt>
      <trkpt lat="35.93611130642525" lon="120.2129787026317">
        <time>2020-11-16T06:48:25.707000Z</time>
      </trkpt>
      <trkpt lat="35.93616152448822" lon="120.21304634287249">
        <time>2020-11-16T06:48:28.707000Z</time>
      </trkpt>
      <trkpt lat="35.9362634661515" lon="120.21317817280445">
        <time>2020-11-16T06:48:34.707000Z</time>
      </trkpt>
      <trkpt lat="35.93639989697756" lon="120.21328841180312">
        <time>2020-11-16T06:48:40.707000Z</time>
      </trkpt>
      <trkpt lat="35.936669887030305" lon="120.21361854023597">
        <time>2020-11-16T06:48:55.707000Z</time>
      </trkpt>
      <trkpt lat="35.93669439278459" lon="120.21365500922197">
        <time>2020-11-16T06:48:58.707000Z</time>
      </trkpt>
      <trkpt lat="35.93672221227331" lon="120.21368216234104">
        <time>2020-11-16T06:49:01.707000Z</time>
      </trkpt>
      <trkpt lat="35.93674031929597" lon="120.21370934454221">
        <time>2020-11-16T06:49:04.707000Z</time>
      </trkpt>
      <trkpt lat="35.936787272441535" lon="120.21375911170745">
        <time>2020-11-16T06:49:10.707000Z</time>
      </trkpt>
      <trkpt lat="35.93681603955938" lon="120.21378821004248">
        <time>2020-11-16T06:49:13.707000Z</time>
      </trkpt>
      <trkpt lat="35.936832922593005" lon="120.21382537677219">
        <time>2020-11-16T06:49:16.707000Z</time>
      </trkpt>
      <trkpt lat="35.936848353109994" lon="120.21385686788122">
        <time>2020-11-16T06:49:19.707000Z</time>
      </trkpt>
      <trkpt lat="35.936874162283324" lon="120.21389125257933">
        <time>2020-11-16T06:49:22.707000Z</time>
      </trkpt>
      <trkpt lat="35.936948756992955" lon="120.21395966505409">
        <time>2020-11-16T06:49:28.707000Z</time>
      </trkpt>
      <trkpt lat="35.93701531469431" lon="120.21401722456417">
        <time>2020-11-16T06:49:31.707000Z</time>
      </trkpt>
      <trkpt lat="35.937138745606724" lon="120.21413402876912">
        <time>2020-11-16T06:49:37.707000Z</time>
      </trkpt>
      <trkpt lat="35.937187692248216" lon="120.21418931281225">
        <time>2020-11-16T06:49:40.707000Z</time>
      </trkpt>
      <trkpt lat="35.93724666730285" lon="120.21423302719097">
        <time>2020-11-16T06:49:43.707000Z</time>
      </trkpt>
      <trkpt lat="35.937381234353616" lon="120.21433319535663">
        <time>2020-11-16T06:49:49.707000Z</time>
      </trkpt>
      <trkpt lat="35.93744701176524" lon="120.21439856574506">
        <time>2020-11-16T06:49:52.707000Z</time>
      </trkpt>
      <trkpt lat="35.937511738588796" lon="120.21446425537513">
        <time>2020-11-16T06:49:55.707000Z</time>
      </trkpt>
      <trkpt lat="35.937643430405686" lon="120.2145755459757">
        <time>2020-11-16T06:50:01.707000Z</time>
      </trkpt>
      <trkpt lat="35.93772236794084" lon="120.21462144718353">
        <time>2020-11-16T06:50:04.707000Z</time>
      </trkpt>
      <trkpt lat="35.937802757285816" lon="120.2146663211817">
        <time>2020-11-16T06:50:07.707000Z</time>
      </trkpt>
      <trkpt lat="35.9380116957026" lon="120.2148244914418">
        <time>2020-11-16T06:50:16.707000Z</time>
      </trkpt>
      <trkpt lat="35.93807916971567" lon="120.21487849164444">
        <time>2020-11-16T06:50:19.707000Z</time>
      </trkpt>
      <trkpt lat="35.938145303677075" lon="120.2149249208489">
        <time>2020-11-16T06:50:22.707000Z</time>
      </trkpt>
      <trkpt lat="35.938359348543514" lon="120.21503542250689">
        <time>2020-11-16T06:50:31.707000Z</time>
      </trkpt>
      <trkpt lat="35.93843683603186" lon="120.21503687578142">
        <time>2020-11-16T06:50:34.707000Z</time>
      </trkpt>
      <trkpt lat="35.93850119024614" lon="120.21506061198465">
        <time>2020-11-16T06:50:37.707000Z</time>
      </trkpt>
      <trkpt lat="35.93872319969033" lon="120.21509500556733">
        <time>2020-11-16T06:50:46.707000Z</time>
      </trkpt>
      <trkpt lat="35.93880129564554" lon="120.2151125884666">
        <time>2020-11-16T06:50:49.707000Z</time>
      </trkpt>
      <trkpt lat="35.93887660652926" lon="120.21511109892636">
        <time>2020-11-16T06:50:52.707000Z</time>
      </trkpt>
      <trkpt lat="35.93903501695513" lon="120.21505849497329">
        <time>2020-11-16T06:50:58.707000Z</time>
      </trkpt>
      <trkpt lat="35.93939489984544" lon="120.21499703134926">
        <time>2020-11-16T06:51:10.707000Z</time>
      </trkpt>
      <trkpt lat="35.939596433638854" lon="120.2149722914667">
        <time>2020-11-16T06:51:16.707000Z</time>
      </trkpt>
      <trkpt lat="35.939688210561464" lon="120.21494710292885">
        <time>2020-11-16T06:51:19.707000Z</time>
      </trkpt>
      <trkpt lat="35.93994560480701" lon="120.21485828916008">
        <time>2020-11-16T06:51:28.707000Z</time>
      </trkpt>
      <trkpt lat="35.94002347222208" lon="120.21482280538142">
        <time>2020-11-16T06:51:31.707000Z</time>
      </trkpt>
      <trkpt lat="35.9402653106403" lon="120.214713452349">
        <time>2020-11-16T06:51:40.707000Z</time>
      </trkpt>
      <trkpt lat="35.94032810253357" lon="120.21467935390496">
        <time>2020-11-16T06:51:43.707000Z</time>
      </trkpt>
      <trkpt lat="35.940396905917446" lon="120.21464528596022">
        <time>2020-11-16T06:51:46.707000Z</time>
      </trkpt>
      <trkpt lat="35.940553183784246" lon="120.21458720646977">
        <time>2020-11-16T06:51:52.707000Z</time>
      </trkpt>
      <trkpt lat="35.9407753793964" lon="120.21415435208155">
        <time>2020-11-16T06:52:10.707000Z</time>
      </trkpt>
      <trkpt lat="35.94096172163762" lon="120.21390970082315">
        <time>2020-11-16T06:52:25.707000Z</time>
      </trkpt>
      <trkpt lat="35.941213700498785" lon="120.21400726501582">
        <time>2020-11-16T06:52:34.707000Z</time>
      </trkpt>
      <trkpt lat="35.94128754904496" lon="120.21407278502828">
        <time>2020-11-16T06:52:37.707000Z</time>
      </trkpt>
      <trkpt lat="35.9414120666548" lon="120.21414830432106">
        <time>2020-11-16T06:52:43.707000Z</time>
      </trkpt>
      <trkpt lat="35.94159559891718" lon="120.21431915742077">
        <time>2020-11-16T06:52:55.707000Z</time>
      </trkpt>
      <trkpt lat="35.94167531158892" lon="120.21433177258778">
        <time>2020-11-16T06:52:58.707000Z</time>
      </trkpt>
      <trkpt lat="35.94176015453404" lon="120.21434512634798">
        <time>2020-11-16T06:53:01.707000Z</time>
      </trkpt>
      <trkpt lat="35.941957642461304" lon="120.21434609154734">
        <time>2020-11-16T06:53:07.707000Z</time>
      </trkpt>
      <trkpt lat="35.942059993204154" lon="120.21432759753047">
        <time>2020-11-16T06:53:10.707000Z</time>
      </trkpt>
      <trkpt lat="35.942268820805836" lon="120.21431619507167">
        <time>2020-11-16T06:53:16.707000Z</time>
      </trkpt>
      <trkpt lat="35.94235652606342" lon="120.21431369923036">
        <time>2020-11-16T06:53:19.707000Z</time>
      </trkpt>
      <trkpt lat="35.94269694860615" lon="120.21419092094897">
        <time>2020-11-16T06:53:31.707000Z</time>
      </trkpt>
      <trkpt lat="35.94274882551023" lon="120.21413686280785">
        <time>2020-11-16T06:53:34.707000Z</time>
      </trkpt>
      <trkpt lat="35.94302054739586" lon="120.21401705156778">
        <time>2020-11-16T06:53:46.707000Z</time>
      </trkpt>
      <trkpt lat="35.94356837093524" lon="120.21397532666701">
        <time>2020-11-16T06:54:10.707000Z</time>
      </trkpt>
      <trkpt lat="35.94364012463031" lon="120.21393467654991">
        <time>2020-11-16T06:54:13.707000Z</time>
      </trkpt>
      <trkpt lat="35.94371521258385" lon="120.21389156306107">
        <time>2020-11-16T06:54:16.707000Z</time>
      </trkpt>
      <trkpt lat="35.94407296853799" lon="120.21386462366979">
        <time>2020-11-16T06:54:31.707000Z</time>
      </trkpt>
      <trkpt lat="35.944195767377" lon="120.2139385263975">
        <time>2020-11-16T06:54:37.707000Z</time>
      </trkpt>
      <trkpt lat="35.94458815599707" lon="120.21403958433595">
        <time>2020-11-16T06:54:52.707000Z</time>
      </trkpt>
      <trkpt lat="35.9447427596698" lon="120.21399928065509">
        <time>2020-11-16T06:54:58.707000Z</time>
      </trkpt>
      <trkpt lat="35.94498162531911" lon="120.21392911059228">
        <time>2020-11-16T06:55:07.707000Z</time>
      </trkpt>
      <trkpt lat="35.94528961487865" lon="120.21390495961899">
        <time>2020-11-16T06:55:19.707000Z</time>
      </trkpt>
      <trkpt lat="35.94544745284726" lon="120.21389852012585">
        <time>2020-11-16T06:55:25.707000Z</time>
      </trkpt>
      <trkpt lat="35.94552265570881" lon="120.21389544468015">
        <time>2020-11-16T06:55:28.707000Z</time>
      </trkpt>
      <trkpt lat="35.94566851075366" lon="120.21385989828713">
        <time>2020-11-16T06:55:34.707000Z</time>
      </trkpt>
      <trkpt lat="35.94580885254869" lon="120.21380396343713">
        <time>2020-11-16T06:55:40.707000Z</time>
      </trkpt>
      <trkpt lat="35.946248720399815" lon="120.21359467725053">
        <time>2020-11-16T06:55:58.707000Z</time>
      </trkpt>
      <trkpt lat="35.94633997403094" lon="120.21361560190017">
        <time>2020-11-16T06:56:01.707000Z</time>
      </trkpt>
      <trkpt lat="35.94667367612029" lon="120.21357977334699">
        <time>2020-11-16T06:56:13.707000Z</time>
      </trkpt>
      <trkpt lat="35.94676179834366" lon="120.21357223051713">
        <time>2020-11-16T06:56:16.707000Z</time>
      </trkpt>
      <trkpt lat="35.94694745588059" lon="120.21357826168108">
        <time>2020-11-16T06:56:22.707000Z</time>
      </trkpt>
      <trkpt lat="35.94720491460443" lon="120.2134086390515">
        <time>2020-11-16T06:56:37.707000Z</time>
      </trkpt>
      <trkpt lat="35.94716279112863" lon="120.21284475600686">
        <time>2020-11-16T06:56:55.807000Z</time>
      </trkpt>
      <trkpt lat="35.94713720435189" lon="120.21273113727979">
        <time>2020-11-16T06:56:58.707000Z</time>
      </trkpt>
      <trkpt lat="35.9472833543895" lon="120.21156663295717">
        <time>2020-11-16T06:57:34.707000Z</time>
      </trkpt>
      <trkpt lat="35.947497294179364" lon="120.21124208493266">
        <time>2020-11-16T06:57:46.707000Z</time>
      </trkpt>
      <trkpt lat="35.94766009740867" lon="120.21088067307723">
        <time>2020-11-16T06:58:01.707000Z</time>
      </trkpt>
      <trkpt lat="35.94768865348925" lon="120.21079185060961">
        <time>2020-11-16T06:58:04.707000Z</time>
      </trkpt>
      <trkpt lat="35.94771214776231" lon="120.21069667476746">
        <time>2020-11-16T06:58:07.707000Z</time>
      </trkpt>
      <trkpt lat="35.94796740843846" lon="120.21022621761765">
        <time>2020-11-16T06:58:25.707000Z</time>
      </trkpt>
      <trkpt lat="35.9480044456736" lon="120.21013898345824">
        <time>2020-11-16T06:58:28.707000Z</time>
      </trkpt>
      <trkpt lat="35.94804975039462" lon="120.21007535725674">
        <time>2020-11-16T06:58:31.707000Z</time>
      </trkpt>
      <trkpt lat="35.948090715869654" lon="120.20969895760508">
        <time>2020-11-16T06:58:43.707000Z</time>
      </trkpt>
      <trkpt lat="35.94807486209614" lon="120.20959084612043">
        <time>2020-11-16T06:58:46.707000Z</time>
      </trkpt>
      <trkpt lat="35.948239305311546" lon="120.20941391608785">
        <time>2020-11-16T06:59:01.707000Z</time>
      </trkpt>
      <trkpt lat="35.9484415613816" lon="120.20957137120621">
        <time>2020-11-16T06:59:10.707000Z</time>
      </trkpt>
      <trkpt lat="35.94860013936764" lon="120.20975444452783">
        <time>2020-11-16T06:59:19.707000Z</time>
      </trkpt>
      <trkpt lat="35.94878714745982" lon="120.20990881812851">
        <time>2020-11-16T06:59:28.707000Z</time>
      </trkpt>
      <trkpt lat="35.948842803161526" lon="120.20994815794272">
        <time>2020-11-16T06:59:31.707000Z</time>
      </trkpt>
      <trkpt lat="35.94896598768203" lon="120.21008114380409">
        <time>2020-11-16T06:59:37.707000Z</time>
      </trkpt>
      <trkpt lat="35.94901886087293" lon="120.21016947293336">
        <time>2020-11-16T06:59:40.707000Z</time>
      </trkpt>
      <trkpt lat="35.949081505905184" lon="120.2102446781296">
        <time>2020-11-16T06:59:43.707000Z</time>
      </trkpt>
      <trkpt lat="35.94919436447943" lon="120.2103942900497">
        <time>2020-11-16T06:59:49.707000Z</time>
      </trkpt>
      <trkpt lat="35.94928811361416" lon="120.21054751136279">
        <time>2020-11-16T06:59:55.807000Z</time>
      </trkpt>
      <trkpt lat="35.94938171340407" lon="120.21070064361854">
        <time>2020-11-16T07:00:01.707000Z</time>
      </trkpt>
      <trkpt lat="35.949501295640374" lon="120.21080869818229">
        <time>2020-11-16T07:00:07.707000Z</time>
      </trkpt>
      <trkpt lat="35.949550234147004" lon="120.21086620043808">
        <time>2020-11-16T07:00:10.707000Z</time>
      </trkpt>
      <trkpt lat="35.94961056631511" lon="120.21092316523567">
        <time>2020-11-16T07:00:13.707000Z</time>
      </trkpt>
      <trkpt lat="35.94974215852224" lon="120.21103367513535">
        <time>2020-11-16T07:00:19.707000Z</time>
      </trkpt>
      <trkpt lat="35.94981371799042" lon="120.21108765909514">
        <time>2020-11-16T07:00:22.707000Z</time>
      </trkpt>
      <trkpt lat="35.9500417844246" lon="120.2110528513297">
        <time>2020-11-16T07:00:31.707000Z</time>
      </trkpt>
      <trkpt lat="35.95034000448298" lon="120.21090327306878">
        <time>2020-11-16T07:00:43.707000Z</time>
      </trkpt>
      <trkpt lat="35.95070685732686" lon="120.21072934613164">
        <time>2020-11-16T07:00:58.707000Z</time>
      </trkpt>
      <trkpt lat="35.950829988761335" lon="120.21058439143953">
        <time>2020-11-16T07:01:07.707000Z</time>
      </trkpt>
      <trkpt lat="35.950807406808224" lon="120.21047919870185">
        <time>2020-11-16T07:01:10.707000Z</time>
      </trkpt>
      <trkpt lat="35.950773781653574" lon="120.21036769210936">
        <time>2020-11-16T07:01:13.707000Z</time>
      </trkpt>
      <trkpt lat="35.95065721113993" lon="120.20994694356159">
        <time>2020-11-16T07:01:28.707000Z</time>
      </trkpt>
      <trkpt lat="35.95065040965541" lon="120.20996038702414">
        <time>2020-11-16T07:01:31.707000Z</time>
      </trkpt>
      <trkpt lat="35.95065068161825" lon="120.20995910048661">
        <time>2020-11-16T07:01:34.707000Z</time>
      </trkpt>
      <trkpt lat="35.95099067887125" lon="120.20976683528747">
        <time>2020-11-16T07:01:49.707000Z</time>
      </trkpt>
      <trkpt lat="35.951059414066485" lon="120.2097138733262">
        <time>2020-11-16T07:01:52.707000Z</time>
      </trkpt>
      <trkpt lat="35.95131769222309" lon="120.2096700937932">
        <time>2020-11-16T07:02:01.707000Z</time>
      </trkpt>
      <trkpt lat="35.951408973855756" lon="120.20966384870773">
        <time>2020-11-16T07:02:04.707000Z</time>
      </trkpt>
      <trkpt lat="35.951722437014375" lon="120.20963258061903">
        <time>2020-11-16T07:02:16.707000Z</time>
      </trkpt>
      <trkpt lat="35.951973142912436" lon="120.20960257355975">
        <time>2020-11-16T07:02:25.707000Z</time>
      </trkpt>
      <trkpt lat="35.952056382006" lon="120.20960344866192">
        <time>2020-11-16T07:02:28.707000Z</time>
      </trkpt>
      <trkpt lat="35.95213634714848" lon="120.20959295398004">
        <time>2020-11-16T07:02:31.707000Z</time>
      </trkpt>
      <trkpt lat="35.95228299502583" lon="120.20957139496652">
        <time>2020-11-16T07:02:37.707000Z</time>
      </trkpt>
      <trkpt lat="35.95236132728494" lon="120.20954909185026">
        <time>2020-11-16T07:02:40.707000Z</time>
      </trkpt>
      <trkpt lat="35.95252073597586" lon="120.20949541028756">
        <time>2020-11-16T07:02:46.707000Z</time>
      </trkpt>
      <trkpt lat="35.95278015132808" lon="120.20944029162638">
        <time>2020-11-16T07:02:55.707000Z</time>
      </trkpt>
      <trkpt lat="35.95286408501129" lon="120.2094314429267">
        <time>2020-11-16T07:02:58.707000Z</time>
      </trkpt>
      <trkpt lat="35.95294504012235" lon="120.20941441595215">
        <time>2020-11-16T07:03:01.707000Z</time>
      </trkpt>
      <trkpt lat="35.95310685643485" lon="120.20938970688547">
        <time>2020-11-16T07:03:07.707000Z</time>
      </trkpt>
      <trkpt lat="35.95318001522805" lon="120.20936892932433">
        <time>2020-11-16T07:03:10.707000Z</time>
      </trkpt>
      <trkpt lat="35.95325840191825" lon="120.20936386995231">
        <time>2020-11-16T07:03:13.707000Z</time>
      </trkpt>
      <trkpt lat="35.95339514098137" lon="120.20934663855608">
        <time>2020-11-16T07:03:19.707000Z</time>
      </trkpt>
      <trkpt lat="35.953466753583356" lon="120.20933649227077">
        <time>2020-11-16T07:03:22.707000Z</time>
      </trkpt>
      <trkpt lat="35.95361965384336" lon="120.20930096159742">
        <time>2020-11-16T07:03:28.707000Z</time>
      </trkpt>
      <trkpt lat="35.9537750870029" lon="120.20925720334952">
        <time>2020-11-16T07:03:34.707000Z</time>
      </trkpt>
      <trkpt lat="35.9538620966837" lon="120.20925154637648">
        <time>2020-11-16T07:03:37.707000Z</time>
      </trkpt>
      <trkpt lat="35.953954595334075" lon="120.20925418754214">
        <time>2020-11-16T07:03:40.707000Z</time>
      </trkpt>
      <trkpt lat="35.954125793017404" lon="120.2092368196556">
        <time>2020-11-16T07:03:46.707000Z</time>
      </trkpt>
      <trkpt lat="35.95421159926473" lon="120.20922655499359">
        <time>2020-11-16T07:03:49.707000Z</time>
      </trkpt>
      <trkpt lat="35.95428684680892" lon="120.2092203983195">
        <time>2020-11-16T07:03:52.707000Z</time>
      </trkpt>
      <trkpt lat="35.95444010349906" lon="120.20922087076579">
        <time>2020-11-16T07:03:58.707000Z</time>
      </trkpt>
      <trkpt lat="35.954584604559194" lon="120.20921697420168">
        <time>2020-11-16T07:04:04.707000Z</time>
      </trkpt>
      <trkpt lat="35.95466805098641" lon="120.20918608492694">
        <time>2020-11-16T07:04:07.707000Z</time>
      </trkpt>
      <trkpt lat="35.954847025811674" lon="120.20916518728998">
        <time>2020-11-16T07:04:13.707000Z</time>
      </trkpt>
      <trkpt lat="35.95491922841362" lon="120.20914843891755">
        <time>2020-11-16T07:04:16.707000Z</time>
      </trkpt>
      <trkpt lat="35.954995605612105" lon="120.20914269125615">
        <time>2020-11-16T07:04:19.707000Z</time>
      </trkpt>
      <trkpt lat="35.95516648903555" lon="120.20916829750261">
        <time>2020-11-16T07:04:28.707000Z</time>
      </trkpt>
      <trkpt lat="35.95518350843832" lon="120.20920499011255">
        <time>2020-11-16T07:04:31.807000Z</time>
      </trkpt>
      <trkpt lat="35.9551993159966" lon="120.20924945172442">
        <time>2020-11-16T07:04:34.707000Z</time>
      </trkpt>
      <trkpt lat="35.955218382860714" lon="120.20928151706663">
        <time>2020-11-16T07:04:37.707000Z</time>
      </trkpt>
      <trkpt lat="35.955233403678896" lon="120.20931028096476">
        <time>2020-11-16T07:04:40.707000Z</time>
      </trkpt>
      <trkpt lat="35.95524854794759" lon="120.20936363872049">
        <time>2020-11-16T07:04:43.707000Z</time>
      </trkpt>
      <trkpt lat="35.955294972485945" lon="120.20965788251605">
        <time>2020-11-16T07:04:55.707000Z</time>
      </trkpt>
      <trkpt lat="35.955301224195864" lon="120.2098132567777">
        <time>2020-11-16T07:05:01.707000Z</time>
      </trkpt>
      <trkpt lat="35.95530274687463" lon="120.2098997554714">
        <time>2020-11-16T07:05:04.707000Z</time>
      </trkpt>
      <trkpt lat="35.95553921622027" lon="120.21047745671218">
        <time>2020-11-16T07:05:28.707000Z</time>
      </trkpt>
      <trkpt lat="35.95556512972547" lon="120.21061639021018">
        <time>2020-11-16T07:05:34.707000Z</time>
      </trkpt>
      <trkpt lat="35.955562688641415" lon="120.2107059525492">
        <time>2020-11-16T07:05:37.707000Z</time>
      </trkpt>
      <trkpt lat="35.955555287691915" lon="120.21105669440585">
        <time>2020-11-16T07:05:52.707000Z</time>
      </trkpt>
      <trkpt lat="35.95563657076131" lon="120.21106133941987">
        <time>2020-11-16T07:05:58.707000Z</time>
      </trkpt>
      <trkpt lat="35.95574705299441" lon="120.2110783843304">
        <time>2020-11-16T07:06:07.707000Z</time>
      </trkpt>
      <trkpt lat="35.95575299265975" lon="120.21110726867099">
        <time>2020-11-16T07:06:10.707000Z</time>
      </trkpt>
      <trkpt lat="35.95577195451871" lon="120.21119221644358">
        <time>2020-11-16T07:06:16.707000Z</time>
      </trkpt>
      <trkpt lat="35.955767422302394" lon="120.21122762277291">
        <time>2020-11-16T07:06:19.707000Z</time>
      </trkpt>
      <trkpt lat="35.955767838199066" lon="120.21126519388534">
        <time>2020-11-16T07:06:22.707000Z</time>
      </trkpt>
      <trkpt lat="35.95578418736369" lon="120.21132403051945">
        <time>2020-11-16T07:06:25.707000Z</time>
      </trkpt>
      <trkpt lat="35.955803309180276" lon="120.21141629964214">
        <time>2020-11-16T07:06:28.707000Z</time>
      </trkpt>
      <trkpt lat="35.95584223690003" lon="120.21160551648315">
        <time>2020-11-16T07:06:34.707000Z</time>
      </trkpt>
      <trkpt lat="35.95584590154076" lon="120.21170061762254">
        <time>2020-11-16T07:06:37.707000Z</time>
      </trkpt>
      <trkpt lat="35.95584611015456" lon="120.21179250713911">
        <time>2020-11-16T07:06:40.707000Z</time>
      </trkpt>
      <trkpt lat="35.955834020472274" lon="120.21207076939388">
        <time>2020-11-16T07:06:49.707000Z</time>
      </trkpt>
      <trkpt lat="35.95583431196477" lon="120.21216828534548">
        <time>2020-11-16T07:06:52.707000Z</time>
      </trkpt>
      <trkpt lat="35.95587607661496" lon="120.21244753318885">
        <time>2020-11-16T07:07:01.707000Z</time>
      </trkpt>
      <trkpt lat="35.955883965532216" lon="120.21256302441083">
        <time>2020-11-16T07:07:08.007000Z</time>
      </trkpt>
      <trkpt lat="35.95591060753965" lon="120.21255910694431">
        <time>2020-11-16T07:07:10.807000Z</time>
      </trkpt>
      <trkpt lat="35.955934615278835" lon="120.21256485419794">
        <time>2020-11-16T07:07:13.707000Z</time>
      </trkpt>
      <trkpt lat="35.95601903296232" lon="120.2125810697319">
        <time>2020-11-16T07:07:16.707000Z</time>
      </trkpt>
      <trkpt lat="35.95610915674759" lon="120.21260813767664">
        <time>2020-11-16T07:07:19.707000Z</time>
      </trkpt>
      <trkpt lat="35.95642593579463" lon="120.21266353258476">
        <time>2020-11-16T07:07:31.707000Z</time>
      </trkpt>
      <trkpt lat="35.956579036723646" lon="120.21263248663712">
        <time>2020-11-16T07:07:37.707000Z</time>
      </trkpt>
      <trkpt lat="35.95664702281353" lon="120.21269674640972">
        <time>2020-11-16T07:07:43.707000Z</time>
      </trkpt>
      <trkpt lat="35.95665385262698" lon="120.21279768605515">
        <time>2020-11-16T07:07:46.707000Z</time>
      </trkpt>
      <trkpt lat="35.956666616828215" lon="120.21287530674299">
        <time>2020-11-16T07:07:49.707000Z</time>
      </trkpt>
      <trkpt lat="35.95674809330848" lon="120.21311356993839">
        <time>2020-11-16T07:07:58.707000Z</time>
      </trkpt>
      <trkpt lat="35.95676340708188" lon="120.21322109478236">
        <time>2020-11-16T07:08:01.707000Z</time>
      </trkpt>
      <trkpt lat="35.95682359839962" lon="120.21352579859831">
        <time>2020-11-16T07:08:10.707000Z</time>
      </trkpt>
      <trkpt lat="35.95684658150429" lon="120.21362874727755">
        <time>2020-11-16T07:08:13.707000Z</time>
      </trkpt>
      <trkpt lat="35.95687229329984" lon="120.2138421347752">
        <time>2020-11-16T07:08:19.707000Z</time>
      </trkpt>
      <trkpt lat="35.95691945856278" lon="120.21404307733911">
        <time>2020-11-16T07:08:25.707000Z</time>
      </trkpt>
      <trkpt lat="35.95693658912491" lon="120.21424289142145">
        <time>2020-11-16T07:08:31.707000Z</time>
      </trkpt>
      <trkpt lat="35.956927265406144" lon="120.21434649799248">
        <time>2020-11-16T07:08:34.707000Z</time>
      </trkpt>
      <trkpt lat="35.956934599136986" lon="120.2144478122088">
        <time>2020-11-16T07:08:37.707000Z</time>
      </trkpt>
      <trkpt lat="35.9569172106295" lon="120.21467920625794">
        <time>2020-11-16T07:08:43.707000Z</time>
      </trkpt>
    </trkseg>
  </trk>
</gpx>