<?xml version="1.0" encoding="UTF-8"?>
<gpx xmlns="http://www.topografix.com/GPX/1/1" xmlns:gpxtpx="http://www.garmin.com/xmlschemas/TrackPointExtension/v1" xmlns:xsi="http://www.w3.org/2001/XMLSchema-instance" xsi:schemaLocation="http://www.topografix.com/GPX/1/1 http://www.topografix.com/GPX/1/1/gpx.xsd" version="1.1" creator="gpx.py -- https://github.com/tkrajina/gpxpy">
  <trk>
    <name>gpx from keep</name>
    <trkseg>
      <trkpt lat="35.957020670572916" lon="120.21504665798611">
        <ele>4</ele>
        <time>2018-01-03T11:15:54.300000Z</time>
      </trkpt>
      <trkpt lat="35.95703369140625" lon="120.21503255208333">
        <ele>4</ele>
        <time>2018-01-03T11:15:57.400000Z</time>
      </trkpt>
      <trkpt lat="35.95714463975695" lon="120.2149720594618">
        <ele>4</ele>
        <time>2018-01-03T11:16:01.300000Z</time>
      </trkpt>
      <trkpt lat="35.957295193142365" lon="120.21492214626736">
        <ele>3</ele>
        <time>2018-01-03T11:16:08.400000Z</time>
      </trkpt>
      <trkpt lat="35.957500271267364" lon="120.21488308376736">
        <ele>3</ele>
        <time>2018-01-03T11:16:16.300000Z</time>
      </trkpt>
      <trkpt lat="35.95758978949653" lon="120.2148611111111">
        <ele>3</ele>
        <time>2018-01-03T11:16:19.300000Z</time>
      </trkpt>
      <trkpt lat="35.95774956597222" lon="120.21483669704861">
        <ele>3</ele>
        <time>2018-01-03T11:16:26.200000Z</time>
      </trkpt>
      <trkpt lat="35.957828233506945" lon="120.21482937282985">
        <ele>3</ele>
        <time>2018-01-03T11:16:29.200000Z</time>
      </trkpt>
      <trkpt lat="35.95797526041667" lon="120.21498752170139">
        <ele>3</ele>
        <time>2018-01-03T11:16:38.300000Z</time>
      </trkpt>
      <trkpt lat="35.95796223958333" lon="120.21523952907987">
        <ele>3</ele>
        <time>2018-01-03T11:16:46.300000Z</time>
      </trkpt>
      <trkpt lat="35.95797607421875" lon="120.21544949001736">
        <ele>3</ele>
        <time>2018-01-03T11:16:53.300000Z</time>
      </trkpt>
      <trkpt lat="35.95798448350695" lon="120.21557508680556">
        <ele>3</ele>
        <time>2018-01-03T11:16:57.300000Z</time>
      </trkpt>
      <trkpt lat="35.95818332248264" lon="120.21580457899306">
        <ele>3</ele>
        <time>2018-01-03T11:17:08.200000Z</time>
      </trkpt>
      <trkpt lat="35.95849338107639" lon="120.21583251953125">
        <ele>3</ele>
        <time>2018-01-03T11:17:20.200000Z</time>
      </trkpt>
      <trkpt lat="35.95864284939236" lon="120.21576578776042">
        <ele>3</ele>
        <time>2018-01-03T11:17:27.200000Z</time>
      </trkpt>
      <trkpt lat="35.95875027126736" lon="120.21572943793403">
        <ele>3</ele>
        <time>2018-01-03T11:17:31.300000Z</time>
      </trkpt>
      <trkpt lat="35.95900119357639" lon="120.21563178168402">
        <ele>3</ele>
        <time>2018-01-03T11:17:43.200000Z</time>
      </trkpt>
      <trkpt lat="35.959080946180556" lon="120.21561686197917">
        <ele>3</ele>
        <time>2018-01-03T11:17:46.200000Z</time>
      </trkpt>
      <trkpt lat="35.95915391710069" lon="120.21559977213542">
        <ele>3</ele>
        <time>2018-01-03T11:17:49.300000Z</time>
      </trkpt>
      <trkpt lat="35.9593638780382" lon="120.21554877387153">
        <ele>3</ele>
        <time>2018-01-03T11:17:57.200000Z</time>
      </trkpt>
      <trkpt lat="35.959430609809026" lon="120.21554470486112">
        <ele>3</ele>
        <time>2018-01-03T11:18:00.200000Z</time>
      </trkpt>
      <trkpt lat="35.959500054253475" lon="120.2155295138889">
        <ele>3</ele>
        <time>2018-01-03T11:18:03.300000Z</time>
      </trkpt>
      <trkpt lat="35.959635416666664" lon="120.21548149956597">
        <ele>3</ele>
        <time>2018-01-03T11:18:11.300000Z</time>
      </trkpt>
      <trkpt lat="35.95970920138889" lon="120.21545274522569">
        <ele>3</ele>
        <time>2018-01-03T11:18:15.200000Z</time>
      </trkpt>
      <trkpt lat="35.9597718641493" lon="120.21543646918403">
        <ele>3</ele>
        <time>2018-01-03T11:18:18.300000Z</time>
      </trkpt>
      <trkpt lat="35.95995415581597" lon="120.21539469401041">
        <ele>3</ele>
        <time>2018-01-03T11:18:25.300000Z</time>
      </trkpt>
      <trkpt lat="35.96003716362847" lon="120.21535183376736">
        <ele>3</ele>
        <time>2018-01-03T11:18:29.200000Z</time>
      </trkpt>
      <trkpt lat="35.96009928385417" lon="120.21532796223958">
        <ele>3</ele>
        <time>2018-01-03T11:18:32.300000Z</time>
      </trkpt>
      <trkpt lat="35.96026475694445" lon="120.21528862847222">
        <ele>3</ele>
        <time>2018-01-03T11:18:38.400000Z</time>
      </trkpt>
      <trkpt lat="35.96037977430556" lon="120.21526421440973">
        <ele>3</ele>
        <time>2018-01-03T11:18:42.300000Z</time>
      </trkpt>
      <trkpt lat="35.96063151041667" lon="120.21569769965278">
        <ele>3</ele>
        <time>2018-01-03T11:19:04.200000Z</time>
      </trkpt>
      <trkpt lat="35.960643717447915" lon="120.21598659939237">
        <ele>3</ele>
        <time>2018-01-03T11:19:14.300000Z</time>
      </trkpt>
      <trkpt lat="35.96068874782986" lon="120.21624565972222">
        <ele>3</ele>
        <time>2018-01-03T11:19:22.300000Z</time>
      </trkpt>
      <trkpt lat="35.960713975694446" lon="120.21634819878473">
        <ele>3</ele>
        <time>2018-01-03T11:19:25.300000Z</time>
      </trkpt>
      <trkpt lat="35.96078396267361" lon="120.21655951605902">
        <ele>3</ele>
        <time>2018-01-03T11:19:32.200000Z</time>
      </trkpt>
      <trkpt lat="35.96082221137153" lon="120.21668863932291">
        <ele>3</ele>
        <time>2018-01-03T11:19:36.200000Z</time>
      </trkpt>
      <trkpt lat="35.96086968315972" lon="120.21691351996527">
        <ele>3</ele>
        <time>2018-01-03T11:19:43.200000Z</time>
      </trkpt>
      <trkpt lat="35.96097330729167" lon="120.21735948350694">
        <ele>3</ele>
        <time>2018-01-03T11:19:57.300000Z</time>
      </trkpt>
      <trkpt lat="35.96096950954861" lon="120.21744059244791">
        <ele>3</ele>
        <time>2018-01-03T11:20:04.200000Z</time>
      </trkpt>
      <trkpt lat="35.96097357855903" lon="120.2174365234375">
        <ele>3</ele>
        <time>2018-01-03T11:20:08.200000Z</time>
      </trkpt>
      <trkpt lat="35.96098470052083" lon="120.21741265190973">
        <ele>3</ele>
        <time>2018-01-03T11:20:11.200000Z</time>
      </trkpt>
      <trkpt lat="35.96098876953125" lon="120.21740017361111">
        <ele>3</ele>
        <time>2018-01-03T11:20:15.200000Z</time>
      </trkpt>
      <trkpt lat="35.960978732638885" lon="120.2174009874132">
        <ele>3</ele>
        <time>2018-01-03T11:20:19.200000Z</time>
      </trkpt>
      <trkpt lat="35.96098117404514" lon="120.2173961046007">
        <ele>3</ele>
        <time>2018-01-03T11:20:23.200000Z</time>
      </trkpt>
      <trkpt lat="35.96098334418403" lon="120.21739312065972">
        <ele>3</ele>
        <time>2018-01-03T11:20:27.200000Z</time>
      </trkpt>
      <trkpt lat="35.96098253038195" lon="120.21739474826389">
        <ele>3</ele>
        <time>2018-01-03T11:20:41.200000Z</time>
      </trkpt>
      <trkpt lat="35.961025661892364" lon="120.21758246527777">
        <ele>3</ele>
        <time>2018-01-03T11:20:49.300000Z</time>
      </trkpt>
      <trkpt lat="35.9610462782118" lon="120.21771050347222">
        <ele>3</ele>
        <time>2018-01-03T11:20:53.200000Z</time>
      </trkpt>
      <trkpt lat="35.961094292534725" lon="120.21787624782986">
        <ele>3</ele>
        <time>2018-01-03T11:20:59.300000Z</time>
      </trkpt>
      <trkpt lat="35.961126302083336" lon="120.21797770182292">
        <ele>3</ele>
        <time>2018-01-03T11:21:03.200000Z</time>
      </trkpt>
      <trkpt lat="35.9611474609375" lon="120.21805908203125">
        <ele>3</ele>
        <time>2018-01-03T11:21:06.300000Z</time>
      </trkpt>
      <trkpt lat="35.96119791666667" lon="120.21827799479166">
        <ele>3</ele>
        <time>2018-01-03T11:21:13.200000Z</time>
      </trkpt>
      <trkpt lat="35.961208224826386" lon="120.21836724175347">
        <ele>3</ele>
        <time>2018-01-03T11:21:16.300000Z</time>
      </trkpt>
      <trkpt lat="35.96127495659722" lon="120.218525390625">
        <ele>3</ele>
        <time>2018-01-03T11:21:22.300000Z</time>
      </trkpt>
      <trkpt lat="35.96136745876736" lon="120.21872856987848">
        <ele>3</ele>
        <time>2018-01-03T11:21:29.300000Z</time>
      </trkpt>
      <trkpt lat="35.96139295789931" lon="120.21885091145833">
        <ele>3</ele>
        <time>2018-01-03T11:21:33.300000Z</time>
      </trkpt>
      <trkpt lat="35.961505533854165" lon="120.2193408203125">
        <ele>3</ele>
        <time>2018-01-03T11:21:49.200000Z</time>
      </trkpt>
      <trkpt lat="35.961537000868056" lon="120.21942816840277">
        <ele>3</ele>
        <time>2018-01-03T11:21:52.200000Z</time>
      </trkpt>
      <trkpt lat="35.96162245008681" lon="120.21977810329861">
        <ele>3</ele>
        <time>2018-01-03T11:22:03.200000Z</time>
      </trkpt>
      <trkpt lat="35.96165418836806" lon="120.21986924913195">
        <ele>3</ele>
        <time>2018-01-03T11:22:06.200000Z</time>
      </trkpt>
      <trkpt lat="35.96171712239583" lon="120.22009494357638">
        <ele>3</ele>
        <time>2018-01-03T11:22:13.300000Z</time>
      </trkpt>
      <trkpt lat="35.961819661458335" lon="120.22028347439236">
        <ele>3</ele>
        <time>2018-01-03T11:22:20.200000Z</time>
      </trkpt>
      <trkpt lat="35.9618798828125" lon="120.22049262152778">
        <ele>3</ele>
        <time>2018-01-03T11:22:27.300000Z</time>
      </trkpt>
      <trkpt lat="35.961925455729165" lon="120.22069417317708">
        <ele>3</ele>
        <time>2018-01-03T11:22:34.300000Z</time>
      </trkpt>
      <trkpt lat="35.96196072048611" lon="120.22089952256944">
        <ele>3</ele>
        <time>2018-01-03T11:22:41.200000Z</time>
      </trkpt>
      <trkpt lat="35.96198540581597" lon="120.22099690755208">
        <ele>3</ele>
        <time>2018-01-03T11:22:44.300000Z</time>
      </trkpt>
      <trkpt lat="35.962008192274304" lon="120.22122639973958">
        <ele>3</ele>
        <time>2018-01-03T11:22:51.300000Z</time>
      </trkpt>
      <trkpt lat="35.962016872829864" lon="120.22145697699652">
        <ele>3</ele>
        <time>2018-01-03T11:22:58.300000Z</time>
      </trkpt>
      <trkpt lat="35.96203450520834" lon="120.22154893663195">
        <ele>3</ele>
        <time>2018-01-03T11:23:01.300000Z</time>
      </trkpt>
      <trkpt lat="35.962047797309026" lon="120.22163818359375">
        <ele>3</ele>
        <time>2018-01-03T11:23:04.300000Z</time>
      </trkpt>
      <trkpt lat="35.962108018663194" lon="120.22182698567708">
        <ele>3</ele>
        <time>2018-01-03T11:23:10.300000Z</time>
      </trkpt>
      <trkpt lat="35.96215657552084" lon="120.22208685980902">
        <ele>3</ele>
        <time>2018-01-03T11:23:18.300000Z</time>
      </trkpt>
      <trkpt lat="35.96222032335069" lon="120.2222927517361">
        <ele>3</ele>
        <time>2018-01-03T11:23:25.300000Z</time>
      </trkpt>
      <trkpt lat="35.96226372612847" lon="120.22238037109375">
        <ele>3</ele>
        <time>2018-01-03T11:23:28.300000Z</time>
      </trkpt>
      <trkpt lat="35.96237413194444" lon="120.2225607638889">
        <ele>3</ele>
        <time>2018-01-03T11:23:35.300000Z</time>
      </trkpt>
      <trkpt lat="35.96246500651041" lon="120.22274522569444">
        <ele>3</ele>
        <time>2018-01-03T11:23:42.300000Z</time>
      </trkpt>
      <trkpt lat="35.9625111219618" lon="120.22285563151041">
        <ele>3</ele>
        <time>2018-01-03T11:23:46.300000Z</time>
      </trkpt>
      <trkpt lat="35.96262288411458" lon="120.22307101779514">
        <ele>3</ele>
        <time>2018-01-03T11:23:54.300000Z</time>
      </trkpt>
      <trkpt lat="35.962689344618056" lon="120.22318060980903">
        <ele>3</ele>
        <time>2018-01-03T11:23:58.300000Z</time>
      </trkpt>
      <trkpt lat="35.962856716579864" lon="120.2235986328125">
        <ele>3</ele>
        <time>2018-01-03T11:24:12.200000Z</time>
      </trkpt>
      <trkpt lat="35.96288465711805" lon="120.22369520399306">
        <ele>3</ele>
        <time>2018-01-03T11:24:15.300000Z</time>
      </trkpt>
      <trkpt lat="35.96299777560764" lon="120.2240101453993">
        <ele>3</ele>
        <time>2018-01-03T11:24:27.300000Z</time>
      </trkpt>
      <trkpt lat="35.96303493923611" lon="120.22408799913194">
        <ele>3</ele>
        <time>2018-01-03T11:24:30.300000Z</time>
      </trkpt>
      <trkpt lat="35.963069661458334" lon="120.22416802300347">
        <ele>3</ele>
        <time>2018-01-03T11:24:33.300000Z</time>
      </trkpt>
      <trkpt lat="35.963169487847225" lon="120.22439887152778">
        <ele>3</ele>
        <time>2018-01-03T11:24:41.300000Z</time>
      </trkpt>
      <trkpt lat="35.963200141059026" lon="120.22448540581597">
        <ele>3</ele>
        <time>2018-01-03T11:24:44.300000Z</time>
      </trkpt>
      <trkpt lat="35.963292371961806" lon="120.22471571180556">
        <ele>3</ele>
        <time>2018-01-03T11:24:52.300000Z</time>
      </trkpt>
      <trkpt lat="35.96332546657986" lon="120.22481363932292">
        <ele>3</ele>
        <time>2018-01-03T11:24:55.300000Z</time>
      </trkpt>
      <trkpt lat="35.96342230902778" lon="120.22505181206597">
        <ele>3</ele>
        <time>2018-01-03T11:25:03.300000Z</time>
      </trkpt>
      <trkpt lat="35.963459743923615" lon="120.22514322916666">
        <ele>3</ele>
        <time>2018-01-03T11:25:06.300000Z</time>
      </trkpt>
      <trkpt lat="35.96357014973958" lon="120.22535725911459">
        <ele>3</ele>
        <time>2018-01-03T11:25:14.300000Z</time>
      </trkpt>
      <trkpt lat="35.96362548828125" lon="120.22545328776042">
        <ele>3</ele>
        <time>2018-01-03T11:25:18.300000Z</time>
      </trkpt>
      <trkpt lat="35.96372314453125" lon="120.22563693576389">
        <ele>3</ele>
        <time>2018-01-03T11:25:26.300000Z</time>
      </trkpt>
      <trkpt lat="35.963749457465276" lon="120.22566975911458">
        <ele>3</ele>
        <time>2018-01-03T11:25:29.300000Z</time>
      </trkpt>
      <trkpt lat="35.96376193576389" lon="120.22568305121528">
        <ele>3</ele>
        <time>2018-01-03T11:25:33.300000Z</time>
      </trkpt>
      <trkpt lat="35.963780381944446" lon="120.22572726779514">
        <ele>3</ele>
        <time>2018-01-03T11:25:37.300000Z</time>
      </trkpt>
      <trkpt lat="35.96381456163194" lon="120.22579291449652">
        <ele>3</ele>
        <time>2018-01-03T11:25:40.300000Z</time>
      </trkpt>
      <trkpt lat="35.9639111328125" lon="120.22597357855902">
        <ele>3</ele>
        <time>2018-01-03T11:25:47.200000Z</time>
      </trkpt>
      <trkpt lat="35.96411919487847" lon="120.22668999565973">
        <ele>3</ele>
        <time>2018-01-03T11:26:13.200000Z</time>
      </trkpt>
      <trkpt lat="35.96416612413194" lon="120.22677978515625">
        <ele>3</ele>
        <time>2018-01-03T11:26:16.300000Z</time>
      </trkpt>
      <trkpt lat="35.96454562717014" lon="120.22758761935764">
        <ele>3</ele>
        <time>2018-01-03T11:26:43.200000Z</time>
      </trkpt>
      <trkpt lat="35.96456705729167" lon="120.22766791449652">
        <ele>3</ele>
        <time>2018-01-03T11:26:46.300000Z</time>
      </trkpt>
      <trkpt lat="35.96459689670139" lon="120.22776204427083">
        <ele>3</ele>
        <time>2018-01-03T11:26:49.300000Z</time>
      </trkpt>
      <trkpt lat="35.96468478732639" lon="120.22803168402778">
        <ele>3</ele>
        <time>2018-01-03T11:26:57.200000Z</time>
      </trkpt>
      <trkpt lat="35.96472357855903" lon="120.2281320529514">
        <ele>3</ele>
        <time>2018-01-03T11:27:00.300000Z</time>
      </trkpt>
      <trkpt lat="35.96481255425347" lon="120.22837185329861">
        <ele>3</ele>
        <time>2018-01-03T11:27:07.300000Z</time>
      </trkpt>
      <trkpt lat="35.964838324652774" lon="120.22849853515625">
        <ele>3</ele>
        <time>2018-01-03T11:27:11.200000Z</time>
      </trkpt>
      <trkpt lat="35.96490397135417" lon="120.22870768229167">
        <ele>3</ele>
        <time>2018-01-03T11:27:18.200000Z</time>
      </trkpt>
      <trkpt lat="35.96494493272569" lon="120.22879503038195">
        <ele>3</ele>
        <time>2018-01-03T11:27:21.300000Z</time>
      </trkpt>
      <trkpt lat="35.964992133246525" lon="120.22891221788194">
        <ele>3</ele>
        <time>2018-01-03T11:27:25.300000Z</time>
      </trkpt>
      <trkpt lat="35.96488715277778" lon="120.229384765625">
        <ele>3</ele>
        <time>2018-01-03T11:27:44.200000Z</time>
      </trkpt>
      <trkpt lat="35.96480767144097" lon="120.2294078233507">
        <ele>3</ele>
        <time>2018-01-03T11:27:47.300000Z</time>
      </trkpt>
      <trkpt lat="35.96463894314236" lon="120.22945366753473">
        <ele>3</ele>
        <time>2018-01-03T11:27:54.300000Z</time>
      </trkpt>
      <trkpt lat="35.96453043619792" lon="120.2294802517361">
        <ele>3</ele>
        <time>2018-01-03T11:27:58.300000Z</time>
      </trkpt>
      <trkpt lat="35.96436008029514" lon="120.2295472547743">
        <ele>3</ele>
        <time>2018-01-03T11:28:05.300000Z</time>
      </trkpt>
      <trkpt lat="35.96429280598959" lon="120.22958550347222">
        <ele>3</ele>
        <time>2018-01-03T11:28:08.300000Z</time>
      </trkpt>
      <trkpt lat="35.9641956922743" lon="120.22965060763889">
        <ele>3</ele>
        <time>2018-01-03T11:28:12.300000Z</time>
      </trkpt>
      <trkpt lat="35.96398763020834" lon="120.22972384982639">
        <ele>3</ele>
        <time>2018-01-03T11:28:20.300000Z</time>
      </trkpt>
      <trkpt lat="35.96382893880208" lon="120.22979573567709">
        <ele>3</ele>
        <time>2018-01-03T11:28:27.200000Z</time>
      </trkpt>
      <trkpt lat="35.96375352647569" lon="120.22982693142362">
        <ele>3</ele>
        <time>2018-01-03T11:28:30.300000Z</time>
      </trkpt>
      <trkpt lat="35.963519965277776" lon="120.22998860677083">
        <ele>3</ele>
        <time>2018-01-03T11:28:41.300000Z</time>
      </trkpt>
      <trkpt lat="35.963421766493056" lon="120.23003634982639">
        <ele>3</ele>
        <time>2018-01-03T11:28:45.300000Z</time>
      </trkpt>
      <trkpt lat="35.96324951171875" lon="120.23010715060764">
        <ele>3</ele>
        <time>2018-01-03T11:28:52.300000Z</time>
      </trkpt>
      <trkpt lat="35.96317165798611" lon="120.2301345486111">
        <ele>3</ele>
        <time>2018-01-03T11:28:55.300000Z</time>
      </trkpt>
      <trkpt lat="35.96296522352431" lon="120.23021864149305">
        <ele>3</ele>
        <time>2018-01-03T11:29:03.200000Z</time>
      </trkpt>
      <trkpt lat="35.962894965277776" lon="120.23024875217014">
        <ele>3</ele>
        <time>2018-01-03T11:29:06.300000Z</time>
      </trkpt>
      <trkpt lat="35.96270589192709" lon="120.23035183376736">
        <ele>3</ele>
        <time>2018-01-03T11:29:14.300000Z</time>
      </trkpt>
      <trkpt lat="35.96253200954861" lon="120.23042073567709">
        <ele>3</ele>
        <time>2018-01-03T11:29:21.300000Z</time>
      </trkpt>
      <trkpt lat="35.96232774522569" lon="120.2304861111111">
        <ele>3</ele>
        <time>2018-01-03T11:29:29.200000Z</time>
      </trkpt>
      <trkpt lat="35.9622607421875" lon="120.23051676432291">
        <ele>3</ele>
        <time>2018-01-03T11:29:32.400000Z</time>
      </trkpt>
      <trkpt lat="35.96216715494791" lon="120.23055609809028">
        <ele>3</ele>
        <time>2018-01-03T11:29:36.300000Z</time>
      </trkpt>
      <trkpt lat="35.962009819878475" lon="120.23061414930555">
        <ele>3</ele>
        <time>2018-01-03T11:29:43.300000Z</time>
      </trkpt>
      <trkpt lat="35.96192437065972" lon="120.23064046223958">
        <ele>3</ele>
        <time>2018-01-03T11:29:47.300000Z</time>
      </trkpt>
      <trkpt lat="35.96185248480903" lon="120.23067165798611">
        <ele>3</ele>
        <time>2018-01-03T11:29:50.300000Z</time>
      </trkpt>
      <trkpt lat="35.96167290581597" lon="120.23075602213542">
        <ele>3</ele>
        <time>2018-01-03T11:29:58.300000Z</time>
      </trkpt>
      <trkpt lat="35.96156222873264" lon="120.23080539279513">
        <ele>3</ele>
        <time>2018-01-03T11:30:02.300000Z</time>
      </trkpt>
      <trkpt lat="35.96147433810764" lon="120.23083875868056">
        <ele>3</ele>
        <time>2018-01-03T11:30:10.300000Z</time>
      </trkpt>
      <trkpt lat="35.96145534939236" lon="120.2308091905382">
        <ele>3</ele>
        <time>2018-01-03T11:30:17.500000Z</time>
      </trkpt>
      <trkpt lat="35.961446126302086" lon="120.23080756293403">
        <ele>3</ele>
        <time>2018-01-03T11:30:21.200000Z</time>
      </trkpt>
      <trkpt lat="35.96144368489583" lon="120.23081136067708">
        <ele>3</ele>
        <time>2018-01-03T11:30:24.300000Z</time>
      </trkpt>
      <trkpt lat="35.961452907986114" lon="120.23082573784723">
        <ele>3</ele>
        <time>2018-01-03T11:30:27.300000Z</time>
      </trkpt>
      <trkpt lat="35.961459689670136" lon="120.2308287217882">
        <ele>3</ele>
        <time>2018-01-03T11:30:30.300000Z</time>
      </trkpt>
      <trkpt lat="35.961436631944444" lon="120.23084445529514">
        <ele>3</ele>
        <time>2018-01-03T11:30:34.300000Z</time>
      </trkpt>
      <trkpt lat="35.96124348958333" lon="120.23093288845486">
        <ele>3</ele>
        <time>2018-01-03T11:30:42.300000Z</time>
      </trkpt>
      <trkpt lat="35.96116644965278" lon="120.2309681532118">
        <ele>3</ele>
        <time>2018-01-03T11:30:45.300000Z</time>
      </trkpt>
      <trkpt lat="35.961094835069446" lon="120.23100450303819">
        <ele>3</ele>
        <time>2018-01-03T11:30:48.300000Z</time>
      </trkpt>
      <trkpt lat="35.96084445529514" lon="120.23104926215278">
        <ele>3</ele>
        <time>2018-01-03T11:30:59.300000Z</time>
      </trkpt>
      <trkpt lat="35.96067681206597" lon="120.23105197482639">
        <ele>3</ele>
        <time>2018-01-03T11:31:06.300000Z</time>
      </trkpt>
      <trkpt lat="35.960567762586805" lon="120.2310888671875">
        <ele>3</ele>
        <time>2018-01-03T11:31:10.300000Z</time>
      </trkpt>
      <trkpt lat="35.9603822157118" lon="120.23110134548611">
        <ele>3</ele>
        <time>2018-01-03T11:31:17.200000Z</time>
      </trkpt>
      <trkpt lat="35.960302734375" lon="120.23110704210069">
        <ele>3</ele>
        <time>2018-01-03T11:31:20.300000Z</time>
      </trkpt>
      <trkpt lat="35.96022271050347" lon="120.23111436631945">
        <ele>3</ele>
        <time>2018-01-03T11:31:23.300000Z</time>
      </trkpt>
      <trkpt lat="35.95996202256944" lon="120.23114854600695">
        <ele>3</ele>
        <time>2018-01-03T11:31:33.300000Z</time>
      </trkpt>
      <trkpt lat="35.959819607204864" lon="120.23121283637153">
        <ele>3</ele>
        <time>2018-01-03T11:31:39.300000Z</time>
      </trkpt>
      <trkpt lat="35.959698621961806" lon="120.23133029513889">
        <ele>3</ele>
        <time>2018-01-03T11:31:46.200000Z</time>
      </trkpt>
      <trkpt lat="35.959484049479165" lon="120.23143039279513">
        <ele>3</ele>
        <time>2018-01-03T11:31:56.300000Z</time>
      </trkpt>
      <trkpt lat="35.959261610243054" lon="120.23146674262152">
        <ele>3</ele>
        <time>2018-01-03T11:32:06.300000Z</time>
      </trkpt>
      <trkpt lat="35.95917236328125" lon="120.23156005859374">
        <ele>3</ele>
        <time>2018-01-03T11:32:10.300000Z</time>
      </trkpt>
      <trkpt lat="35.95891330295139" lon="120.23170627170138">
        <ele>3</ele>
        <time>2018-01-03T11:32:21.300000Z</time>
      </trkpt>
      <trkpt lat="35.958843858506945" lon="120.2317236328125">
        <ele>3</ele>
        <time>2018-01-03T11:32:24.300000Z</time>
      </trkpt>
      <trkpt lat="35.95871175130208" lon="120.2317103407118">
        <ele>3</ele>
        <time>2018-01-03T11:32:30.300000Z</time>
      </trkpt>
      <trkpt lat="35.95861653645834" lon="120.23167616102431">
        <ele>3</ele>
        <time>2018-01-03T11:32:34.300000Z</time>
      </trkpt>
      <trkpt lat="35.958454318576386" lon="120.2316078016493">
        <ele>3</ele>
        <time>2018-01-03T11:32:41.300000Z</time>
      </trkpt>
      <trkpt lat="35.95825005425347" lon="120.23150797526041">
        <ele>3</ele>
        <time>2018-01-03T11:32:51.300000Z</time>
      </trkpt>
      <trkpt lat="35.95819308810764" lon="120.23140272352431">
        <ele>3</ele>
        <time>2018-01-03T11:32:55.300000Z</time>
      </trkpt>
      <trkpt lat="35.95809380425347" lon="120.23122992621528">
        <ele>3</ele>
        <time>2018-01-03T11:33:02.300000Z</time>
      </trkpt>
      <trkpt lat="35.95802897135417" lon="120.2311341688368">
        <ele>3</ele>
        <time>2018-01-03T11:33:06.300000Z</time>
      </trkpt>
      <trkpt lat="35.957988009982635" lon="120.2310706922743">
        <ele>3</ele>
        <time>2018-01-03T11:33:09.300000Z</time>
      </trkpt>
      <trkpt lat="35.95789171006945" lon="120.23093777126736">
        <ele>3</ele>
        <time>2018-01-03T11:33:15.300000Z</time>
      </trkpt>
      <trkpt lat="35.95783393012153" lon="120.2308384874132">
        <ele>3</ele>
        <time>2018-01-03T11:33:19.300000Z</time>
      </trkpt>
      <trkpt lat="35.9577086046007" lon="120.23062906901042">
        <ele>3</ele>
        <time>2018-01-03T11:33:27.300000Z</time>
      </trkpt>
      <trkpt lat="35.9576402452257" lon="120.23052978515625">
        <ele>3</ele>
        <time>2018-01-03T11:33:31.300000Z</time>
      </trkpt>
      <trkpt lat="35.95752115885416" lon="120.23034369574653">
        <ele>3</ele>
        <time>2018-01-03T11:33:38.300000Z</time>
      </trkpt>
      <trkpt lat="35.957471245659725" lon="120.23027560763889">
        <ele>3</ele>
        <time>2018-01-03T11:33:41.300000Z</time>
      </trkpt>
      <trkpt lat="35.95741861979167" lon="120.230205078125">
        <ele>3</ele>
        <time>2018-01-03T11:33:44.300000Z</time>
      </trkpt>
      <trkpt lat="35.95730034722222" lon="120.22998046875">
        <ele>3</ele>
        <time>2018-01-03T11:33:52.300000Z</time>
      </trkpt>
      <trkpt lat="35.957242296006946" lon="120.2298703342014">
        <ele>3</ele>
        <time>2018-01-03T11:33:56.300000Z</time>
      </trkpt>
      <trkpt lat="35.95712944878472" lon="120.22968668619792">
        <ele>3</ele>
        <time>2018-01-03T11:34:03.300000Z</time>
      </trkpt>
      <trkpt lat="35.95707655164931" lon="120.22960964626736">
        <ele>3</ele>
        <time>2018-01-03T11:34:06.300000Z</time>
      </trkpt>
      <trkpt lat="35.95703125" lon="120.22953993055556">
        <ele>3</ele>
        <time>2018-01-03T11:34:09.300000Z</time>
      </trkpt>
      <trkpt lat="35.95694200303819" lon="120.22937174479166">
        <ele>3</ele>
        <time>2018-01-03T11:34:16.300000Z</time>
      </trkpt>
      <trkpt lat="35.956876085069446" lon="120.22926242404515">
        <ele>3</ele>
        <time>2018-01-03T11:34:20.600000Z</time>
      </trkpt>
      <trkpt lat="35.9567431640625" lon="120.22904676649306">
        <ele>3</ele>
        <time>2018-01-03T11:34:28.300000Z</time>
      </trkpt>
      <trkpt lat="35.95654378255208" lon="120.22874674479166">
        <ele>3</ele>
        <time>2018-01-03T11:34:39.200000Z</time>
      </trkpt>
      <trkpt lat="35.95643093532986" lon="120.22855685763889">
        <ele>3</ele>
        <time>2018-01-03T11:34:46.300000Z</time>
      </trkpt>
      <trkpt lat="35.956385633680554" lon="120.22848117404514">
        <ele>3</ele>
        <time>2018-01-03T11:34:49.300000Z</time>
      </trkpt>
      <trkpt lat="35.95634195963542" lon="120.22840142144098">
        <ele>3</ele>
        <time>2018-01-03T11:34:52.300000Z</time>
      </trkpt>
      <trkpt lat="35.956203884548614" lon="120.22819254557292">
        <ele>3</ele>
        <time>2018-01-03T11:35:00.200000Z</time>
      </trkpt>
      <trkpt lat="35.956150444878475" lon="120.22811442057292">
        <ele>3</ele>
        <time>2018-01-03T11:35:03.300000Z</time>
      </trkpt>
      <trkpt lat="35.956011827256944" lon="120.22790011935764">
        <ele>3</ele>
        <time>2018-01-03T11:35:11.300000Z</time>
      </trkpt>
      <trkpt lat="35.955950792100694" lon="120.22778727213542">
        <ele>3</ele>
        <time>2018-01-03T11:35:15.300000Z</time>
      </trkpt>
      <trkpt lat="35.95585042317708" lon="120.22760226779513">
        <ele>3</ele>
        <time>2018-01-03T11:35:22.300000Z</time>
      </trkpt>
      <trkpt lat="35.955807291666666" lon="120.22751871744792">
        <ele>3</ele>
        <time>2018-01-03T11:35:25.300000Z</time>
      </trkpt>
      <trkpt lat="35.95575086805555" lon="120.22740966796874">
        <ele>3</ele>
        <time>2018-01-03T11:35:29.300000Z</time>
      </trkpt>
      <trkpt lat="35.955654025607636" lon="120.22720811631945">
        <ele>3</ele>
        <time>2018-01-03T11:35:36.200000Z</time>
      </trkpt>
      <trkpt lat="35.955608181423614" lon="120.22711941189236">
        <ele>3</ele>
        <time>2018-01-03T11:35:39.300000Z</time>
      </trkpt>
      <trkpt lat="35.955525173611115" lon="120.22694797092014">
        <ele>3</ele>
        <time>2018-01-03T11:35:45.300000Z</time>
      </trkpt>
      <trkpt lat="35.955464409722225" lon="120.22681423611111">
        <ele>3</ele>
        <time>2018-01-03T11:35:49.300000Z</time>
      </trkpt>
      <trkpt lat="35.95538248697917" lon="120.22664740668402">
        <ele>3</ele>
        <time>2018-01-03T11:35:55.300000Z</time>
      </trkpt>
      <trkpt lat="35.95533637152778" lon="120.22656358506944">
        <ele>3</ele>
        <time>2018-01-03T11:35:58.300000Z</time>
      </trkpt>
      <trkpt lat="35.95527859157986" lon="120.22644558376736">
        <ele>3</ele>
        <time>2018-01-03T11:36:02.300000Z</time>
      </trkpt>
      <trkpt lat="35.95515516493055" lon="120.22622368706597">
        <ele>3</ele>
        <time>2018-01-03T11:36:10.300000Z</time>
      </trkpt>
      <trkpt lat="35.95511827256944" lon="120.22613498263888">
        <ele>3</ele>
        <time>2018-01-03T11:36:13.300000Z</time>
      </trkpt>
      <trkpt lat="35.95502522786458" lon="120.22592664930555">
        <ele>3</ele>
        <time>2018-01-03T11:36:20.300000Z</time>
      </trkpt>
      <trkpt lat="35.95498426649306" lon="120.22583902994792">
        <ele>3</ele>
        <time>2018-01-03T11:36:23.300000Z</time>
      </trkpt>
      <trkpt lat="35.95494737413195" lon="120.22574625651042">
        <ele>3</ele>
        <time>2018-01-03T11:36:26.300000Z</time>
      </trkpt>
      <trkpt lat="35.95486436631944" lon="120.22556694878472">
        <ele>3</ele>
        <time>2018-01-03T11:36:32.300000Z</time>
      </trkpt>
      <trkpt lat="35.95481065538195" lon="120.22544623480903">
        <ele>3</ele>
        <time>2018-01-03T11:36:36.300000Z</time>
      </trkpt>
      <trkpt lat="35.954717610677086" lon="120.22523301866319">
        <ele>3</ele>
        <time>2018-01-03T11:36:43.300000Z</time>
      </trkpt>
      <trkpt lat="35.95468777126736" lon="120.22515299479167">
        <ele>3</ele>
        <time>2018-01-03T11:36:46.300000Z</time>
      </trkpt>
      <trkpt lat="35.95464382595486" lon="120.2250306532118">
        <ele>3</ele>
        <time>2018-01-03T11:36:50.300000Z</time>
      </trkpt>
      <trkpt lat="35.954546983506944" lon="120.22478569878473">
        <ele>3</ele>
        <time>2018-01-03T11:36:58.300000Z</time>
      </trkpt>
      <trkpt lat="35.95449978298611" lon="120.22466634114583">
        <ele>3</ele>
        <time>2018-01-03T11:37:02.300000Z</time>
      </trkpt>
      <trkpt lat="35.95442057291667" lon="120.22445393880209">
        <ele>3</ele>
        <time>2018-01-03T11:37:09.300000Z</time>
      </trkpt>
      <trkpt lat="35.954387478298614" lon="120.22436279296875">
        <ele>3</ele>
        <time>2018-01-03T11:37:12.300000Z</time>
      </trkpt>
      <trkpt lat="35.954297417534725" lon="120.22400444878473">
        <ele>3</ele>
        <time>2018-01-03T11:37:24.300000Z</time>
      </trkpt>
      <trkpt lat="35.95426188151042" lon="120.22392144097222">
        <ele>3</ele>
        <time>2018-01-03T11:37:27.300000Z</time>
      </trkpt>
      <trkpt lat="35.95415771484375" lon="120.2236829969618">
        <ele>3</ele>
        <time>2018-01-03T11:37:35.300000Z</time>
      </trkpt>
      <trkpt lat="35.954112141927084" lon="120.22356499565973">
        <ele>3</ele>
        <time>2018-01-03T11:37:39.300000Z</time>
      </trkpt>
      <trkpt lat="35.95403021918403" lon="120.22337185329862">
        <ele>3</ele>
        <time>2018-01-03T11:37:46.300000Z</time>
      </trkpt>
      <trkpt lat="35.95398735894097" lon="120.22328423394097">
        <ele>3</ele>
        <time>2018-01-03T11:37:49.300000Z</time>
      </trkpt>
      <trkpt lat="35.9539244249132" lon="120.22306613498264">
        <ele>3</ele>
        <time>2018-01-03T11:37:56.300000Z</time>
      </trkpt>
      <trkpt lat="35.953898654513885" lon="120.22297173394097">
        <ele>3</ele>
        <time>2018-01-03T11:37:59.300000Z</time>
      </trkpt>
      <trkpt lat="35.953816731770836" lon="120.22276394314235">
        <ele>3</ele>
        <time>2018-01-03T11:38:07.300000Z</time>
      </trkpt>
      <trkpt lat="35.953777940538195" lon="120.22264133029513">
        <ele>3</ele>
        <time>2018-01-03T11:38:11.300000Z</time>
      </trkpt>
      <trkpt lat="35.95370252821181" lon="120.22238959418402">
        <ele>3</ele>
        <time>2018-01-03T11:38:19.300000Z</time>
      </trkpt>
      <trkpt lat="35.95367485894097" lon="120.22229139539931">
        <ele>3</ele>
        <time>2018-01-03T11:38:22.300000Z</time>
      </trkpt>
      <trkpt lat="35.95362331814236" lon="120.2220396592882">
        <ele>3</ele>
        <time>2018-01-03T11:38:29.200000Z</time>
      </trkpt>
      <trkpt lat="35.953608940972224" lon="120.22193684895834">
        <ele>3</ele>
        <time>2018-01-03T11:38:32.300000Z</time>
      </trkpt>
      <trkpt lat="35.95355333116319" lon="120.2217005750868">
        <ele>3</ele>
        <time>2018-01-03T11:38:39.300000Z</time>
      </trkpt>
      <trkpt lat="35.95352213541667" lon="120.22160508897569">
        <ele>3</ele>
        <time>2018-01-03T11:38:42.300000Z</time>
      </trkpt>
      <trkpt lat="35.95344482421875" lon="120.22133870442708">
        <ele>3</ele>
        <time>2018-01-03T11:38:50.300000Z</time>
      </trkpt>
      <trkpt lat="35.95341498480903" lon="120.22120578342015">
        <ele>3</ele>
        <time>2018-01-03T11:38:54.200000Z</time>
      </trkpt>
      <trkpt lat="35.95335883246528" lon="120.2209521484375">
        <ele>3</ele>
        <time>2018-01-03T11:39:02.200000Z</time>
      </trkpt>
      <trkpt lat="35.953341471354165" lon="120.22086127387153">
        <ele>3</ele>
        <time>2018-01-03T11:39:05.600000Z</time>
      </trkpt>
      <trkpt lat="35.953282606336806" lon="120.2206068250868">
        <ele>3</ele>
        <time>2018-01-03T11:39:13.200000Z</time>
      </trkpt>
      <trkpt lat="35.953265245225694" lon="120.22052354600694">
        <ele>3</ele>
        <time>2018-01-03T11:39:16.200000Z</time>
      </trkpt>
      <trkpt lat="35.95322184244792" lon="120.22030978732639">
        <ele>3</ele>
        <time>2018-01-03T11:39:23.300000Z</time>
      </trkpt>
      <trkpt lat="35.953193359375" lon="120.22017496744792">
        <ele>3</ele>
        <time>2018-01-03T11:39:27.300000Z</time>
      </trkpt>
      <trkpt lat="35.953165690104164" lon="120.2199386935764">
        <ele>3</ele>
        <time>2018-01-03T11:39:34.300000Z</time>
      </trkpt>
      <trkpt lat="35.953159722222225" lon="120.21970947265625">
        <ele>3</ele>
        <time>2018-01-03T11:39:41.200000Z</time>
      </trkpt>
      <trkpt lat="35.95313151041667" lon="120.21950792100695">
        <ele>3</ele>
        <time>2018-01-03T11:39:52.300000Z</time>
      </trkpt>
      <trkpt lat="35.95313395182291" lon="120.21950710720486">
        <ele>3</ele>
        <time>2018-01-03T11:39:56.300000Z</time>
      </trkpt>
      <trkpt lat="35.95314046223958" lon="120.21953423394098">
        <ele>3</ele>
        <time>2018-01-03T11:40:00.300000Z</time>
      </trkpt>
      <trkpt lat="35.95314643012153" lon="120.21953776041667">
        <ele>3</ele>
        <time>2018-01-03T11:40:04.300000Z</time>
      </trkpt>
      <trkpt lat="35.95315456814236" lon="120.21953965928819">
        <ele>3</ele>
        <time>2018-01-03T11:40:07.300000Z</time>
      </trkpt>
      <trkpt lat="35.95315348307292" lon="120.21954535590278">
        <ele>3</ele>
        <time>2018-01-03T11:40:11.200000Z</time>
      </trkpt>
      <trkpt lat="35.95315348307292" lon="120.21954535590278">
        <ele>3</ele>
        <time>2018-01-03T11:40:14.300000Z</time>
      </trkpt>
      <trkpt lat="35.95315348307292" lon="120.21954535590278">
        <ele>3</ele>
        <time>2018-01-03T11:40:17.300000Z</time>
      </trkpt>
      <trkpt lat="35.95314805772569" lon="120.21955810546875">
        <ele>3</ele>
        <time>2018-01-03T11:40:21.200000Z</time>
      </trkpt>
      <trkpt lat="35.953152669270835" lon="120.21955132378473">
        <ele>3</ele>
        <time>2018-01-03T11:40:24.300000Z</time>
      </trkpt>
      <trkpt lat="35.953128526475695" lon="120.219521484375">
        <ele>3</ele>
        <time>2018-01-03T11:40:27.300000Z</time>
      </trkpt>
      <trkpt lat="35.95307969835069" lon="120.2192626953125">
        <ele>3</ele>
        <time>2018-01-03T11:40:34.300000Z</time>
      </trkpt>
      <trkpt lat="35.95307779947917" lon="120.21905707465278">
        <ele>3</ele>
        <time>2018-01-03T11:40:41.300000Z</time>
      </trkpt>
      <trkpt lat="35.95309597439236" lon="120.21884412977431">
        <ele>3</ele>
        <time>2018-01-03T11:40:48.200000Z</time>
      </trkpt>
      <trkpt lat="35.95301133897569" lon="120.21865234375">
        <ele>3</ele>
        <time>2018-01-03T11:40:54.300000Z</time>
      </trkpt>
      <trkpt lat="35.95296875" lon="120.21845730251736">
        <ele>3</ele>
        <time>2018-01-03T11:41:00.300000Z</time>
      </trkpt>
      <trkpt lat="35.95294270833333" lon="120.21833034939236">
        <ele>3</ele>
        <time>2018-01-03T11:41:04.300000Z</time>
      </trkpt>
      <trkpt lat="35.95289523654514" lon="120.21811767578124">
        <ele>3</ele>
        <time>2018-01-03T11:41:11.300000Z</time>
      </trkpt>
      <trkpt lat="35.95289740668403" lon="120.21801567925347">
        <ele>3</ele>
        <time>2018-01-03T11:41:14.300000Z</time>
      </trkpt>
      <trkpt lat="35.952901204427086" lon="120.21788736979167">
        <ele>3</ele>
        <time>2018-01-03T11:41:18.300000Z</time>
      </trkpt>
      <trkpt lat="35.9528675672743" lon="120.21750759548611">
        <ele>3</ele>
        <time>2018-01-03T11:41:29.300000Z</time>
      </trkpt>
      <trkpt lat="35.95277615017361" lon="120.21731825086806">
        <ele>3</ele>
        <time>2018-01-03T11:41:36.300000Z</time>
      </trkpt>
      <trkpt lat="35.95269883897569" lon="120.21723198784723">
        <ele>3</ele>
        <time>2018-01-03T11:41:42.800000Z</time>
      </trkpt>
      <trkpt lat="35.95259250217014" lon="120.21694146050348">
        <ele>3</ele>
        <time>2018-01-03T11:41:50.300000Z</time>
      </trkpt>
      <trkpt lat="35.952450358072916" lon="120.21605875651042">
        <ele>3</ele>
        <time>2018-01-03T11:42:20.600000Z</time>
      </trkpt>
      <trkpt lat="35.9524365234375" lon="120.2159250217014">
        <ele>3</ele>
        <time>2018-01-03T11:42:24.300000Z</time>
      </trkpt>
      <trkpt lat="35.952381727430556" lon="120.21565999348958">
        <ele>3</ele>
        <time>2018-01-03T11:42:32.300000Z</time>
      </trkpt>
      <trkpt lat="35.9523548719618" lon="120.21556315104166">
        <ele>3</ele>
        <time>2018-01-03T11:42:35.300000Z</time>
      </trkpt>
      <trkpt lat="35.95233127170139" lon="120.21516818576389">
        <ele>3</ele>
        <time>2018-01-03T11:42:47.300000Z</time>
      </trkpt>
      <trkpt lat="35.95234754774305" lon="120.21506510416667">
        <ele>3</ele>
        <time>2018-01-03T11:42:50.300000Z</time>
      </trkpt>
      <trkpt lat="35.952297092013886" lon="120.21477159288195">
        <ele>3</ele>
        <time>2018-01-03T11:43:00.300000Z</time>
      </trkpt>
      <trkpt lat="35.952259657118056" lon="120.21466498480903">
        <ele>3</ele>
        <time>2018-01-03T11:43:04.300000Z</time>
      </trkpt>
      <trkpt lat="35.95217664930556" lon="120.21447238498264">
        <ele>3</ele>
        <time>2018-01-03T11:43:11.300000Z</time>
      </trkpt>
      <trkpt lat="35.95208794487847" lon="120.21417588975694">
        <ele>3</ele>
        <time>2018-01-03T11:43:22.200000Z</time>
      </trkpt>
      <trkpt lat="35.952090928819445" lon="120.21405680338542">
        <ele>3</ele>
        <time>2018-01-03T11:43:30.100000Z</time>
      </trkpt>
      <trkpt lat="35.95208740234375" lon="120.21400092230903">
        <ele>3</ele>
        <time>2018-01-03T11:43:33.200000Z</time>
      </trkpt>
      <trkpt lat="35.95208794487847" lon="120.21396755642361">
        <ele>3</ele>
        <time>2018-01-03T11:43:37.400000Z</time>
      </trkpt>
      <trkpt lat="35.95207763671875" lon="120.21379286024306">
        <ele>3</ele>
        <time>2018-01-03T11:43:46.300000Z</time>
      </trkpt>
      <trkpt lat="35.95207546657986" lon="120.21377522786459">
        <ele>3</ele>
        <time>2018-01-03T11:43:50.300000Z</time>
      </trkpt>
      <trkpt lat="35.95208523220486" lon="120.21367024739584">
        <ele>3</ele>
        <time>2018-01-03T11:44:02.300000Z</time>
      </trkpt>
      <trkpt lat="35.95214382595486" lon="120.21364718967014">
        <ele>3</ele>
        <time>2018-01-03T11:44:09.300000Z</time>
      </trkpt>
      <trkpt lat="35.95202663845486" lon="120.21354709201388">
        <ele>3</ele>
        <time>2018-01-03T11:44:17.200000Z</time>
      </trkpt>
      <trkpt lat="35.95197781032986" lon="120.2134375">
        <ele>3</ele>
        <time>2018-01-03T11:44:21.300000Z</time>
      </trkpt>
      <trkpt lat="35.95190511067708" lon="120.2132359483507">
        <ele>3</ele>
        <time>2018-01-03T11:44:28.300000Z</time>
      </trkpt>
      <trkpt lat="35.95182888454861" lon="120.21301676432292">
        <ele>3</ele>
        <time>2018-01-03T11:44:35.300000Z</time>
      </trkpt>
      <trkpt lat="35.95176649305556" lon="120.21282063802083">
        <ele>3</ele>
        <time>2018-01-03T11:44:42.300000Z</time>
      </trkpt>
      <trkpt lat="35.95175320095486" lon="120.21269504123264">
        <ele>3</ele>
        <time>2018-01-03T11:44:46.300000Z</time>
      </trkpt>
      <trkpt lat="35.95172119140625" lon="120.21250461154514">
        <ele>3</ele>
        <time>2018-01-03T11:44:53.400000Z</time>
      </trkpt>
      <trkpt lat="35.951680772569446" lon="120.21236083984375">
        <ele>3</ele>
        <time>2018-01-03T11:44:57.600000Z</time>
      </trkpt>
      <trkpt lat="35.95165120442709" lon="120.2119873046875">
        <ele>3</ele>
        <time>2018-01-03T11:45:09.300000Z</time>
      </trkpt>
      <trkpt lat="35.95181179470486" lon="120.2118931749132">
        <ele>3</ele>
        <time>2018-01-03T11:45:19.300000Z</time>
      </trkpt>
      <trkpt lat="35.95205702039931" lon="120.21183756510416">
        <ele>3</ele>
        <time>2018-01-03T11:45:29.200000Z</time>
      </trkpt>
      <trkpt lat="35.95212619357639" lon="120.2118004014757">
        <ele>3</ele>
        <time>2018-01-03T11:45:32.300000Z</time>
      </trkpt>
      <trkpt lat="35.95228488498264" lon="120.21174940321181">
        <ele>3</ele>
        <time>2018-01-03T11:45:38.400000Z</time>
      </trkpt>
      <trkpt lat="35.952625054253474" lon="120.21198893229166">
        <ele>3</ele>
        <time>2018-01-03T11:45:53.300000Z</time>
      </trkpt>
      <trkpt lat="35.9526890733507" lon="120.21206597222222">
        <ele>3</ele>
        <time>2018-01-03T11:45:56.300000Z</time>
      </trkpt>
      <trkpt lat="35.95281087239584" lon="120.21223768446181">
        <ele>3</ele>
        <time>2018-01-03T11:46:04.300000Z</time>
      </trkpt>
      <trkpt lat="35.95295952690972" lon="120.2125062391493">
        <ele>3</ele>
        <time>2018-01-03T11:46:15.400000Z</time>
      </trkpt>
      <trkpt lat="35.95304172092014" lon="120.21258165147569">
        <ele>3</ele>
        <time>2018-01-03T11:46:19.300000Z</time>
      </trkpt>
      <trkpt lat="35.953252766927086" lon="120.21285129123264">
        <ele>3</ele>
        <time>2018-01-03T11:46:31.200000Z</time>
      </trkpt>
      <trkpt lat="35.95328857421875" lon="120.21292588975695">
        <ele>3</ele>
        <time>2018-01-03T11:46:34.200000Z</time>
      </trkpt>
      <trkpt lat="35.95336615668403" lon="120.21311631944444">
        <ele>3</ele>
        <time>2018-01-03T11:46:41.300000Z</time>
      </trkpt>
      <trkpt lat="35.95358127170139" lon="120.21341498480903">
        <ele>3</ele>
        <time>2018-01-03T11:46:55.300000Z</time>
      </trkpt>
      <trkpt lat="35.95375705295139" lon="120.21338840060764">
        <ele>3</ele>
        <time>2018-01-03T11:47:02.300000Z</time>
      </trkpt>
      <trkpt lat="35.95383246527778" lon="120.21336886935764">
        <ele>3</ele>
        <time>2018-01-03T11:47:05.300000Z</time>
      </trkpt>
      <trkpt lat="35.954027777777775" lon="120.21331271701389">
        <ele>3</ele>
        <time>2018-01-03T11:47:13.200000Z</time>
      </trkpt>
      <trkpt lat="35.95409640842014" lon="120.21329806857639">
        <ele>3</ele>
        <time>2018-01-03T11:47:16.200000Z</time>
      </trkpt>
      <trkpt lat="35.954189181857636" lon="120.2132826063368">
        <ele>3</ele>
        <time>2018-01-03T11:47:20.200000Z</time>
      </trkpt>
      <trkpt lat="35.95432807074653" lon="120.21325005425348">
        <ele>3</ele>
        <time>2018-01-03T11:47:26.300000Z</time>
      </trkpt>
      <trkpt lat="35.9543994140625" lon="120.21322672526041">
        <ele>3</ele>
        <time>2018-01-03T11:47:29.300000Z</time>
      </trkpt>
      <trkpt lat="35.95449001736111" lon="120.21319525824653">
        <ele>3</ele>
        <time>2018-01-03T11:47:33.300000Z</time>
      </trkpt>
      <trkpt lat="35.95465603298611" lon="120.21314751519097">
        <ele>3</ele>
        <time>2018-01-03T11:47:40.300000Z</time>
      </trkpt>
      <trkpt lat="35.95499565972222" lon="120.21307671440972">
        <ele>3</ele>
        <time>2018-01-03T11:47:53.300000Z</time>
      </trkpt>
      <trkpt lat="35.95509440104167" lon="120.21302870008681">
        <ele>3</ele>
        <time>2018-01-03T11:47:57.300000Z</time>
      </trkpt>
      <trkpt lat="35.95527506510417" lon="120.21295220269097">
        <ele>3</ele>
        <time>2018-01-03T11:48:05.300000Z</time>
      </trkpt>
      <trkpt lat="35.95534423828125" lon="120.21291314019098">
        <ele>3</ele>
        <time>2018-01-03T11:48:08.300000Z</time>
      </trkpt>
      <trkpt lat="35.95552137586805" lon="120.21282850477431">
        <ele>3</ele>
        <time>2018-01-03T11:48:16.200000Z</time>
      </trkpt>
      <trkpt lat="35.955594346788196" lon="120.2128076171875">
        <ele>3</ele>
        <time>2018-01-03T11:48:19.300000Z</time>
      </trkpt>
      <trkpt lat="35.95567599826389" lon="120.21279459635417">
        <ele>3</ele>
        <time>2018-01-03T11:48:22.300000Z</time>
      </trkpt>
      <trkpt lat="35.955852322048614" lon="120.21273383246528">
        <ele>3</ele>
        <time>2018-01-03T11:48:29.200000Z</time>
      </trkpt>
      <trkpt lat="35.95614637586806" lon="120.21266330295138">
        <ele>3</ele>
        <time>2018-01-03T11:48:42.200000Z</time>
      </trkpt>
      <trkpt lat="35.95630181206597" lon="120.2126199001736">
        <ele>3</ele>
        <time>2018-01-03T11:48:48.300000Z</time>
      </trkpt>
      <trkpt lat="35.956370713975694" lon="120.21260633680555">
        <ele>3</ele>
        <time>2018-01-03T11:48:51.300000Z</time>
      </trkpt>
      <trkpt lat="35.9564759657118" lon="120.21259765625">
        <ele>3</ele>
        <time>2018-01-03T11:48:55.300000Z</time>
      </trkpt>
      <trkpt lat="35.95668755425347" lon="120.21290988498264">
        <ele>3</ele>
        <time>2018-01-03T11:49:12.300000Z</time>
      </trkpt>
      <trkpt lat="35.95668891059028" lon="120.21298828125">
        <ele>3</ele>
        <time>2018-01-03T11:49:15.300000Z</time>
      </trkpt>
      <trkpt lat="35.95671115451389" lon="120.2131578233507">
        <ele>3</ele>
        <time>2018-01-03T11:49:21.300000Z</time>
      </trkpt>
      <trkpt lat="35.95672553168403" lon="120.2132798936632">
        <ele>3</ele>
        <time>2018-01-03T11:49:25.300000Z</time>
      </trkpt>
      <trkpt lat="35.95676242404514" lon="120.2134974500868">
        <ele>3</ele>
        <time>2018-01-03T11:49:32.300000Z</time>
      </trkpt>
      <trkpt lat="35.95678900824653" lon="120.21362548828125">
        <ele>3</ele>
        <time>2018-01-03T11:49:36.300000Z</time>
      </trkpt>
      <trkpt lat="35.95680365668403" lon="120.21371771918403">
        <ele>3</ele>
        <time>2018-01-03T11:49:39.300000Z</time>
      </trkpt>
      <trkpt lat="35.956822374131946" lon="120.21381456163195">
        <ele>3</ele>
        <time>2018-01-03T11:49:46.300000Z</time>
      </trkpt>
      <trkpt lat="35.95681532118056" lon="120.21382378472222">
        <ele>3</ele>
        <time>2018-01-03T11:49:50.300000Z</time>
      </trkpt>
      <trkpt lat="35.95681776258681" lon="120.21383572048612">
        <ele>3</ele>
        <time>2018-01-03T11:49:53.300000Z</time>
      </trkpt>
    </trkseg>
  </trk>
</gpx>