<?xml version="1.0" encoding="UTF-8"?>
<gpx xmlns="http://www.topografix.com/GPX/1/1" xmlns:gpxtpx="http://www.garmin.com/xmlschemas/TrackPointExtension/v1" xmlns:xsi="http://www.w3.org/2001/XMLSchema-instance" xsi:schemaLocation="http://www.topografix.com/GPX/1/1 http://www.topografix.com/GPX/1/1/gpx.xsd" version="1.1" creator="gpx.py -- https://github.com/tkrajina/gpxpy">
  <trk>
    <name>gpx from keep</name>
    <trkseg>
      <trkpt lat="35.95707444645797" lon="120.21508845114995">
        <time>2020-11-23T06:34:39.061000Z</time>
      </trkpt>
      <trkpt lat="35.95706332266849" lon="120.21505951274354">
        <time>2020-11-23T06:34:42.061000Z</time>
      </trkpt>
      <trkpt lat="35.95705742416971" lon="120.21504246499141">
        <time>2020-11-23T06:34:45.061000Z</time>
      </trkpt>
      <trkpt lat="35.95706134686686" lon="120.21504116859505">
        <time>2020-11-23T06:34:48.061000Z</time>
      </trkpt>
      <trkpt lat="35.9570666926486" lon="120.21504526878365">
        <time>2020-11-23T06:34:51.161000Z</time>
      </trkpt>
      <trkpt lat="35.95731332399333" lon="120.21492541181748">
        <time>2020-11-23T06:35:00.061000Z</time>
      </trkpt>
      <trkpt lat="35.95774148263661" lon="120.21511505403056">
        <time>2020-11-23T06:35:18.061000Z</time>
      </trkpt>
      <trkpt lat="35.95776244051374" lon="120.21521727980361">
        <time>2020-11-23T06:35:21.061000Z</time>
      </trkpt>
      <trkpt lat="35.95779537474132" lon="120.21542187126451">
        <time>2020-11-23T06:35:27.061000Z</time>
      </trkpt>
      <trkpt lat="35.95782079137204" lon="120.21564669312552">
        <time>2020-11-23T06:35:33.061000Z</time>
      </trkpt>
      <trkpt lat="35.95774315696868" lon="120.2157337097523">
        <time>2020-11-23T06:35:39.061000Z</time>
      </trkpt>
      <trkpt lat="35.9576801693799" lon="120.21575052233845">
        <time>2020-11-23T06:35:42.061000Z</time>
      </trkpt>
      <trkpt lat="35.95747666643463" lon="120.21579091380904">
        <time>2020-11-23T06:35:51.061000Z</time>
      </trkpt>
      <trkpt lat="35.957403616586646" lon="120.2157698795392">
        <time>2020-11-23T06:35:54.061000Z</time>
      </trkpt>
      <trkpt lat="35.957035088437756" lon="120.21586700547262">
        <time>2020-11-23T06:36:09.061000Z</time>
      </trkpt>
      <trkpt lat="35.95686920024292" lon="120.21590321084699">
        <time>2020-11-23T06:36:15.061000Z</time>
      </trkpt>
      <trkpt lat="35.95677781163979" lon="120.21591561193401">
        <time>2020-11-23T06:36:18.061000Z</time>
      </trkpt>
      <trkpt lat="35.956519596117914" lon="120.21597825361984">
        <time>2020-11-23T06:36:27.061000Z</time>
      </trkpt>
      <trkpt lat="35.95643981663" lon="120.21600105002915">
        <time>2020-11-23T06:36:30.061000Z</time>
      </trkpt>
      <trkpt lat="35.956262372412255" lon="120.21607769446832">
        <time>2020-11-23T06:36:36.061000Z</time>
      </trkpt>
      <trkpt lat="35.9561025564898" lon="120.21613620550407">
        <time>2020-11-23T06:36:42.161000Z</time>
      </trkpt>
      <trkpt lat="35.955862308393485" lon="120.21621197685128">
        <time>2020-11-23T06:36:51.061000Z</time>
      </trkpt>
      <trkpt lat="35.95577771469733" lon="120.216229565871">
        <time>2020-11-23T06:36:54.061000Z</time>
      </trkpt>
      <trkpt lat="35.955618512861264" lon="120.21642263567868">
        <time>2020-11-23T06:37:03.061000Z</time>
      </trkpt>
      <trkpt lat="35.95562875882582" lon="120.21651179722015">
        <time>2020-11-23T06:37:06.061000Z</time>
      </trkpt>
      <trkpt lat="35.95567393037481" lon="120.21691130171989">
        <time>2020-11-23T06:37:18.061000Z</time>
      </trkpt>
      <trkpt lat="35.95581919544782" lon="120.21730710974369">
        <time>2020-11-23T06:37:30.161000Z</time>
      </trkpt>
      <trkpt lat="35.95587260356655" lon="120.21763143795717">
        <time>2020-11-23T06:37:39.061000Z</time>
      </trkpt>
      <trkpt lat="35.95586271580465" lon="120.21772988905292">
        <time>2020-11-23T06:37:42.061000Z</time>
      </trkpt>
      <trkpt lat="35.95590316681503" lon="120.21800498939567">
        <time>2020-11-23T06:37:51.061000Z</time>
      </trkpt>
      <trkpt lat="35.95578837742589" lon="120.2185153259218">
        <time>2020-11-23T06:38:09.061000Z</time>
      </trkpt>
      <trkpt lat="35.95569778040506" lon="120.2185353101295">
        <time>2020-11-23T06:38:12.061000Z</time>
      </trkpt>
      <trkpt lat="35.95535219853063" lon="120.21870996295674">
        <time>2020-11-23T06:38:27.061000Z</time>
      </trkpt>
      <trkpt lat="35.955273206702344" lon="120.21873616354763">
        <time>2020-11-23T06:38:30.161000Z</time>
      </trkpt>
      <trkpt lat="35.95510576933777" lon="120.21873340517442">
        <time>2020-11-23T06:38:36.061000Z</time>
      </trkpt>
      <trkpt lat="35.95502990445804" lon="120.21871442358517">
        <time>2020-11-23T06:38:39.061000Z</time>
      </trkpt>
      <trkpt lat="35.95482422056707" lon="120.21878180491832">
        <time>2020-11-23T06:38:48.061000Z</time>
      </trkpt>
      <trkpt lat="35.954743907928794" lon="120.21881648530452">
        <time>2020-11-23T06:38:51.061000Z</time>
      </trkpt>
      <trkpt lat="35.95449202573754" lon="120.21881710137009">
        <time>2020-11-23T06:39:00.061000Z</time>
      </trkpt>
      <trkpt lat="35.95440273986904" lon="120.21882039557573">
        <time>2020-11-23T06:39:03.161000Z</time>
      </trkpt>
      <trkpt lat="35.954324786665666" lon="120.2188157097584">
        <time>2020-11-23T06:39:06.061000Z</time>
      </trkpt>
      <trkpt lat="35.95396383004029" lon="120.21883064207123">
        <time>2020-11-23T06:39:18.061000Z</time>
      </trkpt>
      <trkpt lat="35.95388732550407" lon="120.21882730318057">
        <time>2020-11-23T06:39:21.061000Z</time>
      </trkpt>
      <trkpt lat="35.95380994118288" lon="120.21883167588653">
        <time>2020-11-23T06:39:24.061000Z</time>
      </trkpt>
      <trkpt lat="35.95367180673266" lon="120.21886450557406">
        <time>2020-11-23T06:39:30.061000Z</time>
      </trkpt>
      <trkpt lat="35.953595011696486" lon="120.21891800172274">
        <time>2020-11-23T06:39:33.061000Z</time>
      </trkpt>
      <trkpt lat="35.953265338711454" lon="120.21894420015701">
        <time>2020-11-23T06:39:45.061000Z</time>
      </trkpt>
      <trkpt lat="35.95283139898946" lon="120.2184009953201">
        <time>2020-11-23T06:40:09.061000Z</time>
      </trkpt>
      <trkpt lat="35.952804727994646" lon="120.21830888340216">
        <time>2020-11-23T06:40:12.061000Z</time>
      </trkpt>
      <trkpt lat="35.95272945291075" lon="120.21802043902545">
        <time>2020-11-23T06:40:21.061000Z</time>
      </trkpt>
      <trkpt lat="35.952720750015786" lon="120.21792618512906">
        <time>2020-11-23T06:40:24.061000Z</time>
      </trkpt>
      <trkpt lat="35.95265731976631" lon="120.2176386635276">
        <time>2020-11-23T06:40:33.061000Z</time>
      </trkpt>
      <trkpt lat="35.95255599207022" lon="120.2173281373781">
        <time>2020-11-23T06:40:42.061000Z</time>
      </trkpt>
      <trkpt lat="35.952509376782466" lon="120.21721439983726">
        <time>2020-11-23T06:40:45.061000Z</time>
      </trkpt>
      <trkpt lat="35.95242585001768" lon="120.21701760208946">
        <time>2020-11-23T06:40:51.061000Z</time>
      </trkpt>
      <trkpt lat="35.95238788288409" lon="120.216923129468">
        <time>2020-11-23T06:40:54.061000Z</time>
      </trkpt>
      <trkpt lat="35.952328543129475" lon="120.21674979838022">
        <time>2020-11-23T06:41:00.061000Z</time>
      </trkpt>
      <trkpt lat="35.95205426517702" lon="120.21560200936246">
        <time>2020-11-23T06:41:36.061000Z</time>
      </trkpt>
      <trkpt lat="35.95214006315235" lon="120.21546168679068">
        <time>2020-11-23T06:41:45.061000Z</time>
      </trkpt>
      <trkpt lat="35.95212730672193" lon="120.2154491768661">
        <time>2020-11-23T06:41:48.061000Z</time>
      </trkpt>
      <trkpt lat="35.95209107047428" lon="120.21544720854159">
        <time>2020-11-23T06:41:51.061000Z</time>
      </trkpt>
      <trkpt lat="35.95188369176756" lon="120.21555815337096">
        <time>2020-11-23T06:42:00.061000Z</time>
      </trkpt>
      <trkpt lat="35.951808439581534" lon="120.21560604735335">
        <time>2020-11-23T06:42:03.061000Z</time>
      </trkpt>
      <trkpt lat="35.951175136640146" lon="120.21565694410569">
        <time>2020-11-23T06:42:27.061000Z</time>
      </trkpt>
      <trkpt lat="35.950998913812086" lon="120.21570933804524">
        <time>2020-11-23T06:42:33.161000Z</time>
      </trkpt>
      <trkpt lat="35.95066560852225" lon="120.21587040823198">
        <time>2020-11-23T06:42:45.061000Z</time>
      </trkpt>
      <trkpt lat="35.95043448737849" lon="120.21596450430204">
        <time>2020-11-23T06:42:54.061000Z</time>
      </trkpt>
      <trkpt lat="35.95035949116923" lon="120.21601586040758">
        <time>2020-11-23T06:42:57.061000Z</time>
      </trkpt>
      <trkpt lat="35.950194894228915" lon="120.21608906455765">
        <time>2020-11-23T06:43:03.061000Z</time>
      </trkpt>
      <trkpt lat="35.949013336831044" lon="120.216292017801">
        <time>2020-11-23T06:43:45.061000Z</time>
      </trkpt>
      <trkpt lat="35.9489299446104" lon="120.21630092838082">
        <time>2020-11-23T06:43:48.061000Z</time>
      </trkpt>
      <trkpt lat="35.94875854301175" lon="120.21633096901394">
        <time>2020-11-23T06:43:54.061000Z</time>
      </trkpt>
      <trkpt lat="35.94857669552658" lon="120.21634064891965">
        <time>2020-11-23T06:44:00.061000Z</time>
      </trkpt>
      <trkpt lat="35.94841577768702" lon="120.21637743391663">
        <time>2020-11-23T06:44:06.061000Z</time>
      </trkpt>
      <trkpt lat="35.94833248384871" lon="120.21637996025711">
        <time>2020-11-23T06:44:09.061000Z</time>
      </trkpt>
      <trkpt lat="35.94825333141641" lon="120.2163898288836">
        <time>2020-11-23T06:44:12.061000Z</time>
      </trkpt>
      <trkpt lat="35.94810654200444" lon="120.21643814681859">
        <time>2020-11-23T06:44:18.061000Z</time>
      </trkpt>
      <trkpt lat="35.94803487328565" lon="120.21646954316536">
        <time>2020-11-23T06:44:21.061000Z</time>
      </trkpt>
      <trkpt lat="35.947798946048145" lon="120.2165147409481">
        <time>2020-11-23T06:44:30.061000Z</time>
      </trkpt>
      <trkpt lat="35.947716881535655" lon="120.21652566676272">
        <time>2020-11-23T06:44:33.061000Z</time>
      </trkpt>
      <trkpt lat="35.94733021833161" lon="120.21667740964527">
        <time>2020-11-23T06:44:48.061000Z</time>
      </trkpt>
      <trkpt lat="35.947250033568494" lon="120.21668122313368">
        <time>2020-11-23T06:44:51.061000Z</time>
      </trkpt>
      <trkpt lat="35.94716280077465" lon="120.21668218299223">
        <time>2020-11-23T06:44:54.061000Z</time>
      </trkpt>
      <trkpt lat="35.946841295525864" lon="120.21676358475953">
        <time>2020-11-23T06:45:06.061000Z</time>
      </trkpt>
      <trkpt lat="35.94676667634578" lon="120.21679496125047">
        <time>2020-11-23T06:45:09.061000Z</time>
      </trkpt>
      <trkpt lat="35.94669217504588" lon="120.21682801368463">
        <time>2020-11-23T06:45:12.061000Z</time>
      </trkpt>
      <trkpt lat="35.946449792757356" lon="120.21688383547895">
        <time>2020-11-23T06:45:21.061000Z</time>
      </trkpt>
      <trkpt lat="35.94629978198101" lon="120.2169330118681">
        <time>2020-11-23T06:45:27.061000Z</time>
      </trkpt>
      <trkpt lat="35.94614691237832" lon="120.21696530931226">
        <time>2020-11-23T06:45:33.061000Z</time>
      </trkpt>
      <trkpt lat="35.945983593802865" lon="120.21704902037912">
        <time>2020-11-23T06:45:39.061000Z</time>
      </trkpt>
      <trkpt lat="35.94581635648916" lon="120.21711562303825">
        <time>2020-11-23T06:45:45.061000Z</time>
      </trkpt>
      <trkpt lat="35.945736917262174" lon="120.21714632114181">
        <time>2020-11-23T06:45:48.061000Z</time>
      </trkpt>
      <trkpt lat="35.945608785332006" lon="120.21725528444938">
        <time>2020-11-23T06:45:54.061000Z</time>
      </trkpt>
      <trkpt lat="35.945228031016306" lon="120.21736433541875">
        <time>2020-11-23T06:46:09.061000Z</time>
      </trkpt>
      <trkpt lat="35.945005934574915" lon="120.21741223930049">
        <time>2020-11-23T06:46:18.061000Z</time>
      </trkpt>
      <trkpt lat="35.94463313358472" lon="120.21767732395563">
        <time>2020-11-23T06:46:36.161000Z</time>
      </trkpt>
      <trkpt lat="35.94455916013729" lon="120.21768917869893">
        <time>2020-11-23T06:46:42.061000Z</time>
      </trkpt>
      <trkpt lat="35.944533101136926" lon="120.21770688358625">
        <time>2020-11-23T06:46:45.161000Z</time>
      </trkpt>
      <trkpt lat="35.94451534782263" lon="120.2177138850846">
        <time>2020-11-23T06:46:48.061000Z</time>
      </trkpt>
      <trkpt lat="35.944501239817555" lon="120.21772528628124">
        <time>2020-11-23T06:46:51.061000Z</time>
      </trkpt>
      <trkpt lat="35.94445856301983" lon="120.21776949571016">
        <time>2020-11-23T06:46:54.061000Z</time>
      </trkpt>
      <trkpt lat="35.94433045250311" lon="120.21783936568951">
        <time>2020-11-23T06:47:00.061000Z</time>
      </trkpt>
      <trkpt lat="35.944271508648555" lon="120.21787817685801">
        <time>2020-11-23T06:47:03.061000Z</time>
      </trkpt>
      <trkpt lat="35.944144045139964" lon="120.21793489882755">
        <time>2020-11-23T06:47:09.061000Z</time>
      </trkpt>
      <trkpt lat="35.944067248401254" lon="120.21793305641211">
        <time>2020-11-23T06:47:12.161000Z</time>
      </trkpt>
      <trkpt lat="35.94381675885543" lon="120.21809709948117">
        <time>2020-11-23T06:47:24.061000Z</time>
      </trkpt>
      <trkpt lat="35.94346932611718" lon="120.21836455722838">
        <time>2020-11-23T06:47:39.061000Z</time>
      </trkpt>
      <trkpt lat="35.94323282150596" lon="120.21844102326861">
        <time>2020-11-23T06:47:48.061000Z</time>
      </trkpt>
      <trkpt lat="35.94314922874928" lon="120.21844259206175">
        <time>2020-11-23T06:47:51.061000Z</time>
      </trkpt>
      <trkpt lat="35.94306494746531" lon="120.21845083484425">
        <time>2020-11-23T06:47:54.061000Z</time>
      </trkpt>
      <trkpt lat="35.94286923232884" lon="120.21847995780597">
        <time>2020-11-23T06:48:00.061000Z</time>
      </trkpt>
      <trkpt lat="35.942590161328624" lon="120.21840927183959">
        <time>2020-11-23T06:48:09.061000Z</time>
      </trkpt>
      <trkpt lat="35.942499590669804" lon="120.2183917955532">
        <time>2020-11-23T06:48:12.061000Z</time>
      </trkpt>
      <trkpt lat="35.94230471274229" lon="120.21832751199281">
        <time>2020-11-23T06:48:18.061000Z</time>
      </trkpt>
      <trkpt lat="35.942132445552424" lon="120.21829108385944">
        <time>2020-11-23T06:48:24.061000Z</time>
      </trkpt>
      <trkpt lat="35.9420505056656" lon="120.21828269664094">
        <time>2020-11-23T06:48:27.061000Z</time>
      </trkpt>
      <trkpt lat="35.94189984722194" lon="120.21823566591003">
        <time>2020-11-23T06:48:33.161000Z</time>
      </trkpt>
      <trkpt lat="35.941748276453126" lon="120.21818240013573">
        <time>2020-11-23T06:48:39.061000Z</time>
      </trkpt>
      <trkpt lat="35.94158494215442" lon="120.21812966214607">
        <time>2020-11-23T06:48:45.061000Z</time>
      </trkpt>
      <trkpt lat="35.94150389080218" lon="120.2180829870284">
        <time>2020-11-23T06:48:48.061000Z</time>
      </trkpt>
      <trkpt lat="35.941427338165816" lon="120.21805409962494">
        <time>2020-11-23T06:48:51.061000Z</time>
      </trkpt>
      <trkpt lat="35.941200092773165" lon="120.21794231828078">
        <time>2020-11-23T06:49:00.061000Z</time>
      </trkpt>
      <trkpt lat="35.94105928288744" lon="120.21787500787231">
        <time>2020-11-23T06:49:06.061000Z</time>
      </trkpt>
      <trkpt lat="35.94099042565679" lon="120.217851378691">
        <time>2020-11-23T06:49:09.061000Z</time>
      </trkpt>
      <trkpt lat="35.94083324885237" lon="120.21777067935753">
        <time>2020-11-23T06:49:15.061000Z</time>
      </trkpt>
      <trkpt lat="35.94058286850955" lon="120.21766674809662">
        <time>2020-11-23T06:49:24.061000Z</time>
      </trkpt>
      <trkpt lat="35.9404967668486" lon="120.2176511581094">
        <time>2020-11-23T06:49:27.161000Z</time>
      </trkpt>
      <trkpt lat="35.94042029436159" lon="120.21763026182533">
        <time>2020-11-23T06:49:30.061000Z</time>
      </trkpt>
      <trkpt lat="35.94019100573437" lon="120.21750592241318">
        <time>2020-11-23T06:49:39.061000Z</time>
      </trkpt>
      <trkpt lat="35.9400336774871" lon="120.21741126791677">
        <time>2020-11-23T06:49:45.061000Z</time>
      </trkpt>
      <trkpt lat="35.939961667450405" lon="120.21736602132853">
        <time>2020-11-23T06:49:48.061000Z</time>
      </trkpt>
      <trkpt lat="35.93988788583744" lon="120.21732949346979">
        <time>2020-11-23T06:49:51.061000Z</time>
      </trkpt>
      <trkpt lat="35.93973395995696" lon="120.21725734511871">
        <time>2020-11-23T06:49:57.061000Z</time>
      </trkpt>
      <trkpt lat="35.93964388739905" lon="120.21723401383555">
        <time>2020-11-23T06:50:00.061000Z</time>
      </trkpt>
      <trkpt lat="35.93944723492953" lon="120.21717434153038">
        <time>2020-11-23T06:50:06.061000Z</time>
      </trkpt>
      <trkpt lat="35.939350535829995" lon="120.21714706932383">
        <time>2020-11-23T06:50:09.061000Z</time>
      </trkpt>
      <trkpt lat="35.93914489806662" lon="120.21711311370895">
        <time>2020-11-23T06:50:15.061000Z</time>
      </trkpt>
      <trkpt lat="35.939040308297066" lon="120.21708485326614">
        <time>2020-11-23T06:50:18.061000Z</time>
      </trkpt>
      <trkpt lat="35.93884862545185" lon="120.21703432939255">
        <time>2020-11-23T06:50:24.061000Z</time>
      </trkpt>
      <trkpt lat="35.938656846598846" lon="120.21694980863326">
        <time>2020-11-23T06:50:30.061000Z</time>
      </trkpt>
      <trkpt lat="35.93856093924403" lon="120.21690599713749">
        <time>2020-11-23T06:50:33.161000Z</time>
      </trkpt>
      <trkpt lat="35.938363681203576" lon="120.21683542214006">
        <time>2020-11-23T06:50:39.061000Z</time>
      </trkpt>
      <trkpt lat="35.93826253050848" lon="120.21680867856529">
        <time>2020-11-23T06:50:42.161000Z</time>
      </trkpt>
      <trkpt lat="35.93808327344781" lon="120.21673325728992">
        <time>2020-11-23T06:50:48.061000Z</time>
      </trkpt>
      <trkpt lat="35.93793160134084" lon="120.21661338774992">
        <time>2020-11-23T06:50:54.061000Z</time>
      </trkpt>
      <trkpt lat="35.9377647515928" lon="120.21650440059878">
        <time>2020-11-23T06:51:00.061000Z</time>
      </trkpt>
      <trkpt lat="35.93768060132568" lon="120.21645780767533">
        <time>2020-11-23T06:51:03.061000Z</time>
      </trkpt>
      <trkpt lat="35.93761396659755" lon="120.2164103884251">
        <time>2020-11-23T06:51:06.061000Z</time>
      </trkpt>
      <trkpt lat="35.93746726255797" lon="120.21631660635511">
        <time>2020-11-23T06:51:12.161000Z</time>
      </trkpt>
      <trkpt lat="35.93739584273267" lon="120.21627228925787">
        <time>2020-11-23T06:51:15.061000Z</time>
      </trkpt>
      <trkpt lat="35.93733016964384" lon="120.21622398258872">
        <time>2020-11-23T06:51:18.061000Z</time>
      </trkpt>
      <trkpt lat="35.93719251343925" lon="120.21613392273211">
        <time>2020-11-23T06:51:24.061000Z</time>
      </trkpt>
      <trkpt lat="35.93712341202971" lon="120.21608382042857">
        <time>2020-11-23T06:51:27.061000Z</time>
      </trkpt>
      <trkpt lat="35.93704947778545" lon="120.21602741338411">
        <time>2020-11-23T06:51:30.161000Z</time>
      </trkpt>
      <trkpt lat="35.93694951186693" lon="120.21598252559397">
        <time>2020-11-23T06:51:36.061000Z</time>
      </trkpt>
      <trkpt lat="35.93686138049622" lon="120.21592892053386">
        <time>2020-11-23T06:51:42.061000Z</time>
      </trkpt>
      <trkpt lat="35.936843973423514" lon="120.21584023890921">
        <time>2020-11-23T06:51:48.061000Z</time>
      </trkpt>
      <trkpt lat="35.93668851099765" lon="120.21579743128736">
        <time>2020-11-23T06:51:54.061000Z</time>
      </trkpt>
      <trkpt lat="35.93661312668427" lon="120.21576373823507">
        <time>2020-11-23T06:51:57.161000Z</time>
      </trkpt>
      <trkpt lat="35.93654139682167" lon="120.21571987083595">
        <time>2020-11-23T06:52:00.161000Z</time>
      </trkpt>
      <trkpt lat="35.936418698427055" lon="120.21564270179664">
        <time>2020-11-23T06:52:06.061000Z</time>
      </trkpt>
      <trkpt lat="35.936275693440386" lon="120.2155592468061">
        <time>2020-11-23T06:52:12.061000Z</time>
      </trkpt>
      <trkpt lat="35.93620714523729" lon="120.21552241246764">
        <time>2020-11-23T06:52:15.061000Z</time>
      </trkpt>
      <trkpt lat="35.93606878160922" lon="120.21543151680119">
        <time>2020-11-23T06:52:21.061000Z</time>
      </trkpt>
      <trkpt lat="35.936001384278185" lon="120.21538685227688">
        <time>2020-11-23T06:52:24.061000Z</time>
      </trkpt>
      <trkpt lat="35.93581587668525" lon="120.21520818239627">
        <time>2020-11-23T06:52:33.061000Z</time>
      </trkpt>
      <trkpt lat="35.935661650612936" lon="120.21510923646015">
        <time>2020-11-23T06:52:39.061000Z</time>
      </trkpt>
      <trkpt lat="35.93559217767373" lon="120.21505375935843">
        <time>2020-11-23T06:52:42.061000Z</time>
      </trkpt>
      <trkpt lat="35.9355288390621" lon="120.21501113065924">
        <time>2020-11-23T06:52:45.061000Z</time>
      </trkpt>
      <trkpt lat="35.93541301577078" lon="120.21493250774485">
        <time>2020-11-23T06:52:51.061000Z</time>
      </trkpt>
      <trkpt lat="35.9353537817592" lon="120.2148873359797">
        <time>2020-11-23T06:52:54.061000Z</time>
      </trkpt>
      <trkpt lat="35.9352930836552" lon="120.21483015436547">
        <time>2020-11-23T06:52:57.061000Z</time>
      </trkpt>
      <trkpt lat="35.93514849840197" lon="120.2147109515906">
        <time>2020-11-23T06:53:03.061000Z</time>
      </trkpt>
      <trkpt lat="35.9350721861386" lon="120.2146614994295">
        <time>2020-11-23T06:53:06.061000Z</time>
      </trkpt>
      <trkpt lat="35.934938327256745" lon="120.21453262272104">
        <time>2020-11-23T06:53:12.061000Z</time>
      </trkpt>
      <trkpt lat="35.934873132126754" lon="120.21446545662623">
        <time>2020-11-23T06:53:15.061000Z</time>
      </trkpt>
      <trkpt lat="35.93481277755073" lon="120.21439152822654">
        <time>2020-11-23T06:53:18.061000Z</time>
      </trkpt>
      <trkpt lat="35.934617768747934" lon="120.21417149842011">
        <time>2020-11-23T06:53:27.061000Z</time>
      </trkpt>
      <trkpt lat="35.93454680700307" lon="120.21411585335528">
        <time>2020-11-23T06:53:30.061000Z</time>
      </trkpt>
      <trkpt lat="35.93444145443754" lon="120.21397438357734">
        <time>2020-11-23T06:53:36.061000Z</time>
      </trkpt>
      <trkpt lat="35.93433711296163" lon="120.21380364916646">
        <time>2020-11-23T06:53:45.061000Z</time>
      </trkpt>
      <trkpt lat="35.934304217106074" lon="120.21376559329813">
        <time>2020-11-23T06:53:48.061000Z</time>
      </trkpt>
      <trkpt lat="35.93427762332087" lon="120.21372721885388">
        <time>2020-11-23T06:53:51.061000Z</time>
      </trkpt>
      <trkpt lat="35.9341670155852" lon="120.21362569828581">
        <time>2020-11-23T06:53:57.161000Z</time>
      </trkpt>
      <trkpt lat="35.93411339989694" lon="120.21356940742538">
        <time>2020-11-23T06:54:00.161000Z</time>
      </trkpt>
      <trkpt lat="35.93405591356588" lon="120.21350571526887">
        <time>2020-11-23T06:54:03.061000Z</time>
      </trkpt>
      <trkpt lat="35.933924910907514" lon="120.21339723146507">
        <time>2020-11-23T06:54:09.061000Z</time>
      </trkpt>
      <trkpt lat="35.93386738509316" lon="120.21333336012356">
        <time>2020-11-23T06:54:12.061000Z</time>
      </trkpt>
      <trkpt lat="35.9337686400899" lon="120.21319687177254">
        <time>2020-11-23T06:54:18.161000Z</time>
      </trkpt>
      <trkpt lat="35.9337234640792" lon="120.21312128209495">
        <time>2020-11-23T06:54:21.161000Z</time>
      </trkpt>
      <trkpt lat="35.933610407297124" lon="120.21297685386794">
        <time>2020-11-23T06:54:27.161000Z</time>
      </trkpt>
      <trkpt lat="35.933549949398106" lon="120.21290728782621">
        <time>2020-11-23T06:54:30.061000Z</time>
      </trkpt>
      <trkpt lat="35.93343066878783" lon="120.21277213607368">
        <time>2020-11-23T06:54:36.061000Z</time>
      </trkpt>
      <trkpt lat="35.9333735997327" lon="120.21270425643382">
        <time>2020-11-23T06:54:39.061000Z</time>
      </trkpt>
      <trkpt lat="35.93331931354778" lon="120.21262781934044">
        <time>2020-11-23T06:54:42.061000Z</time>
      </trkpt>
      <trkpt lat="35.93318310696073" lon="120.21249453245602">
        <time>2020-11-23T06:54:48.061000Z</time>
      </trkpt>
      <trkpt lat="35.9331140845525" lon="120.21242013925577">
        <time>2020-11-23T06:54:51.061000Z</time>
      </trkpt>
      <trkpt lat="35.93304524382225" lon="120.21235882228618">
        <time>2020-11-23T06:54:54.061000Z</time>
      </trkpt>
      <trkpt lat="35.932933015396394" lon="120.21223174254649">
        <time>2020-11-23T06:55:00.061000Z</time>
      </trkpt>
      <trkpt lat="35.93289071772199" lon="120.21215912772983">
        <time>2020-11-23T06:55:03.161000Z</time>
      </trkpt>
      <trkpt lat="35.93284014727363" lon="120.21208708086148">
        <time>2020-11-23T06:55:06.061000Z</time>
      </trkpt>
      <trkpt lat="35.93272954025991" lon="120.21195288094849">
        <time>2020-11-23T06:55:12.061000Z</time>
      </trkpt>
      <trkpt lat="35.93260315636758" lon="120.21183500751795">
        <time>2020-11-23T06:55:18.161000Z</time>
      </trkpt>
      <trkpt lat="35.932478941427114" lon="120.21171149946886">
        <time>2020-11-23T06:55:24.161000Z</time>
      </trkpt>
      <trkpt lat="35.93242072455717" lon="120.21164313329415">
        <time>2020-11-23T06:55:27.161000Z</time>
      </trkpt>
      <trkpt lat="35.93236284594278" lon="120.21156915201956">
        <time>2020-11-23T06:55:30.161000Z</time>
      </trkpt>
      <trkpt lat="35.93224313514119" lon="120.21142325420865">
        <time>2020-11-23T06:55:36.061000Z</time>
      </trkpt>
      <trkpt lat="35.93214565290388" lon="120.21125488817918">
        <time>2020-11-23T06:55:42.061000Z</time>
      </trkpt>
      <trkpt lat="35.932100875587324" lon="120.21117587223806">
        <time>2020-11-23T06:55:45.061000Z</time>
      </trkpt>
      <trkpt lat="35.932061023008174" lon="120.21110146478006">
        <time>2020-11-23T06:55:48.161000Z</time>
      </trkpt>
      <trkpt lat="35.93186468292878" lon="120.21081190201822">
        <time>2020-11-23T06:56:00.061000Z</time>
      </trkpt>
      <trkpt lat="35.9317439596987" lon="120.21066932873937">
        <time>2020-11-23T06:56:06.061000Z</time>
      </trkpt>
      <trkpt lat="35.93168647189699" lon="120.21060290968161">
        <time>2020-11-23T06:56:09.061000Z</time>
      </trkpt>
      <trkpt lat="35.9316163207463" lon="120.21055035283659">
        <time>2020-11-23T06:56:12.061000Z</time>
      </trkpt>
      <trkpt lat="35.931493119081" lon="120.21042055652039">
        <time>2020-11-23T06:56:18.061000Z</time>
      </trkpt>
      <trkpt lat="35.93144562154537" lon="120.21036961769232">
        <time>2020-11-23T06:56:21.161000Z</time>
      </trkpt>
      <trkpt lat="35.93140110816661" lon="120.21028228606599">
        <time>2020-11-23T06:56:27.061000Z</time>
      </trkpt>
      <trkpt lat="35.93134356618694" lon="120.2102191191259">
        <time>2020-11-23T06:56:33.161000Z</time>
      </trkpt>
      <trkpt lat="35.93129660551076" lon="120.21015696056571">
        <time>2020-11-23T06:56:36.061000Z</time>
      </trkpt>
      <trkpt lat="35.931255768010296" lon="120.21008696358183">
        <time>2020-11-23T06:56:39.161000Z</time>
      </trkpt>
      <trkpt lat="35.93120863911471" lon="120.21002369821082">
        <time>2020-11-23T06:56:42.061000Z</time>
      </trkpt>
      <trkpt lat="35.93110015189168" lon="120.20988774176111">
        <time>2020-11-23T06:56:48.061000Z</time>
      </trkpt>
      <trkpt lat="35.93104906791254" lon="120.2098206666116">
        <time>2020-11-23T06:56:51.061000Z</time>
      </trkpt>
      <trkpt lat="35.93100138832557" lon="120.20975127809741">
        <time>2020-11-23T06:56:54.061000Z</time>
      </trkpt>
      <trkpt lat="35.930832408519244" lon="120.20962750467574">
        <time>2020-11-23T06:57:03.061000Z</time>
      </trkpt>
      <trkpt lat="35.930756553846415" lon="120.20960413057934">
        <time>2020-11-23T06:57:06.061000Z</time>
      </trkpt>
      <trkpt lat="35.93067962096466" lon="120.20957937012257">
        <time>2020-11-23T06:57:09.061000Z</time>
      </trkpt>
      <trkpt lat="35.930581651269435" lon="120.20952863751899">
        <time>2020-11-23T06:57:15.061000Z</time>
      </trkpt>
      <trkpt lat="35.930509611949155" lon="120.20944847637726">
        <time>2020-11-23T06:57:21.161000Z</time>
      </trkpt>
      <trkpt lat="35.93047261086546" lon="120.20940249664972">
        <time>2020-11-23T06:57:24.161000Z</time>
      </trkpt>
      <trkpt lat="35.93043900170143" lon="120.2093692829525">
        <time>2020-11-23T06:57:27.161000Z</time>
      </trkpt>
      <trkpt lat="35.930409763730474" lon="120.20934275170117">
        <time>2020-11-23T06:57:30.061000Z</time>
      </trkpt>
      <trkpt lat="35.93037764230915" lon="120.20931805527518">
        <time>2020-11-23T06:57:33.061000Z</time>
      </trkpt>
      <trkpt lat="35.93034499418171" lon="120.20928435306246">
        <time>2020-11-23T06:57:36.161000Z</time>
      </trkpt>
      <trkpt lat="35.93015669148148" lon="120.20911320736694">
        <time>2020-11-23T06:57:45.161000Z</time>
      </trkpt>
      <trkpt lat="35.93007961049257" lon="120.20907394638026">
        <time>2020-11-23T06:57:48.061000Z</time>
      </trkpt>
      <trkpt lat="35.93001242793829" lon="120.20901738303523">
        <time>2020-11-23T06:57:51.061000Z</time>
      </trkpt>
      <trkpt lat="35.92981789884556" lon="120.20885012760867">
        <time>2020-11-23T06:58:00.061000Z</time>
      </trkpt>
      <trkpt lat="35.929752301575235" lon="120.20879716503283">
        <time>2020-11-23T06:58:03.161000Z</time>
      </trkpt>
      <trkpt lat="35.929686890976804" lon="120.2087398343847">
        <time>2020-11-23T06:58:06.061000Z</time>
      </trkpt>
      <trkpt lat="35.929554034173684" lon="120.20863534561427">
        <time>2020-11-23T06:58:12.161000Z</time>
      </trkpt>
      <trkpt lat="35.9294896477652" lon="120.2085821840195">
        <time>2020-11-23T06:58:15.061000Z</time>
      </trkpt>
      <trkpt lat="35.929427211059995" lon="120.20852959113809">
        <time>2020-11-23T06:58:18.061000Z</time>
      </trkpt>
      <trkpt lat="35.92929537693485" lon="120.2084304485731">
        <time>2020-11-23T06:58:24.061000Z</time>
      </trkpt>
      <trkpt lat="35.929229727717896" lon="120.20837909227431">
        <time>2020-11-23T06:58:27.061000Z</time>
      </trkpt>
      <trkpt lat="35.92916900650449" lon="120.20831008451124">
        <time>2020-11-23T06:58:30.061000Z</time>
      </trkpt>
      <trkpt lat="35.92904053832219" lon="120.20818809510877">
        <time>2020-11-23T06:58:36.061000Z</time>
      </trkpt>
      <trkpt lat="35.928978117897636" lon="120.20814485733221">
        <time>2020-11-23T06:58:39.061000Z</time>
      </trkpt>
      <trkpt lat="35.92891255768123" lon="120.20810757309583">
        <time>2020-11-23T06:58:42.061000Z</time>
      </trkpt>
      <trkpt lat="35.92878396605463" lon="120.20799476931928">
        <time>2020-11-23T06:58:48.061000Z</time>
      </trkpt>
      <trkpt lat="35.92873018240728" lon="120.20792891433013">
        <time>2020-11-23T06:58:51.061000Z</time>
      </trkpt>
      <trkpt lat="35.928523284440054" lon="120.20778773174231">
        <time>2020-11-23T06:59:00.061000Z</time>
      </trkpt>
      <trkpt lat="35.92844143930253" lon="120.20774457250775">
        <time>2020-11-23T06:59:03.061000Z</time>
      </trkpt>
      <trkpt lat="35.928292559249826" lon="120.20763447068246">
        <time>2020-11-23T06:59:09.161000Z</time>
      </trkpt>
      <trkpt lat="35.92822396123474" lon="120.20756933307713">
        <time>2020-11-23T06:59:12.061000Z</time>
      </trkpt>
      <trkpt lat="35.92814523407349" lon="120.20751507483699">
        <time>2020-11-23T06:59:15.061000Z</time>
      </trkpt>
      <trkpt lat="35.928014951973296" lon="120.20739671806777">
        <time>2020-11-23T06:59:21.161000Z</time>
      </trkpt>
      <trkpt lat="35.927952961695105" lon="120.20734089588971">
        <time>2020-11-23T06:59:24.061000Z</time>
      </trkpt>
      <trkpt lat="35.927889743113845" lon="120.20728380717249">
        <time>2020-11-23T06:59:27.061000Z</time>
      </trkpt>
      <trkpt lat="35.92776946454479" lon="120.20715219855997">
        <time>2020-11-23T06:59:33.161000Z</time>
      </trkpt>
      <trkpt lat="35.92772683084351" lon="120.20708901877244">
        <time>2020-11-23T06:59:36.161000Z</time>
      </trkpt>
      <trkpt lat="35.92761907425277" lon="120.20696505091996">
        <time>2020-11-23T06:59:42.161000Z</time>
      </trkpt>
      <trkpt lat="35.92755353047349" lon="120.20691124353837">
        <time>2020-11-23T06:59:45.161000Z</time>
      </trkpt>
      <trkpt lat="35.92748223292537" lon="120.20685896150921">
        <time>2020-11-23T06:59:48.061000Z</time>
      </trkpt>
      <trkpt lat="35.9273421593865" lon="120.20675391922697">
        <time>2020-11-23T06:59:54.061000Z</time>
      </trkpt>
      <trkpt lat="35.92727470090567" lon="120.2066836076487">
        <time>2020-11-23T06:59:57.161000Z</time>
      </trkpt>
      <trkpt lat="35.92721214058557" lon="120.20661536092936">
        <time>2020-11-23T07:00:00.161000Z</time>
      </trkpt>
      <trkpt lat="35.92708092909658" lon="120.20648504021848">
        <time>2020-11-23T07:00:06.161000Z</time>
      </trkpt>
      <trkpt lat="35.927008059648735" lon="120.20642115086208">
        <time>2020-11-23T07:00:09.161000Z</time>
      </trkpt>
      <trkpt lat="35.92694216236287" lon="120.20634421844915">
        <time>2020-11-23T07:00:12.061000Z</time>
      </trkpt>
      <trkpt lat="35.92681771825916" lon="120.20618508940557">
        <time>2020-11-23T07:00:18.061000Z</time>
      </trkpt>
      <trkpt lat="35.926683509346645" lon="120.20603417729738">
        <time>2020-11-23T07:00:24.161000Z</time>
      </trkpt>
      <trkpt lat="35.92661735858795" lon="120.20598540720675">
        <time>2020-11-23T07:00:27.061000Z</time>
      </trkpt>
      <trkpt lat="35.926556163611096" lon="120.2059273933904">
        <time>2020-11-23T07:00:30.061000Z</time>
      </trkpt>
      <trkpt lat="35.92641294955325" lon="120.2058234703875">
        <time>2020-11-23T07:00:36.061000Z</time>
      </trkpt>
      <trkpt lat="35.926344297110646" lon="120.20577549812366">
        <time>2020-11-23T07:00:39.061000Z</time>
      </trkpt>
      <trkpt lat="35.92627222276038" lon="120.20573458589793">
        <time>2020-11-23T07:00:42.061000Z</time>
      </trkpt>
      <trkpt lat="35.926138946048866" lon="120.20561513772991">
        <time>2020-11-23T07:00:48.061000Z</time>
      </trkpt>
      <trkpt lat="35.92607757749786" lon="120.2055405707883">
        <time>2020-11-23T07:00:51.061000Z</time>
      </trkpt>
      <trkpt lat="35.92601355657504" lon="120.20546715054743">
        <time>2020-11-23T07:00:54.161000Z</time>
      </trkpt>
      <trkpt lat="35.92587391517667" lon="120.20532468718598">
        <time>2020-11-23T07:01:00.161000Z</time>
      </trkpt>
      <trkpt lat="35.92570299843549" lon="120.20511752326395">
        <time>2020-11-23T07:01:09.061000Z</time>
      </trkpt>
      <trkpt lat="35.925660350143886" lon="120.20503999730772">
        <time>2020-11-23T07:01:12.061000Z</time>
      </trkpt>
      <trkpt lat="35.92561703608714" lon="120.20495976905322">
        <time>2020-11-23T07:01:15.061000Z</time>
      </trkpt>
      <trkpt lat="35.92542150839864" lon="120.20460558961818">
        <time>2020-11-23T07:01:27.061000Z</time>
      </trkpt>
      <trkpt lat="35.92533865724179" lon="120.20442981873856">
        <time>2020-11-23T07:01:33.161000Z</time>
      </trkpt>
      <trkpt lat="35.925243523754936" lon="120.20424141334013">
        <time>2020-11-23T07:01:39.061000Z</time>
      </trkpt>
      <trkpt lat="35.92518587159597" lon="120.2041522607657">
        <time>2020-11-23T07:01:42.061000Z</time>
      </trkpt>
      <trkpt lat="35.925063879165215" lon="120.20397823348497">
        <time>2020-11-23T07:01:48.061000Z</time>
      </trkpt>
      <trkpt lat="35.92501583879454" lon="120.20389602265207">
        <time>2020-11-23T07:01:51.061000Z</time>
      </trkpt>
      <trkpt lat="35.924966985397624" lon="120.203815646702">
        <time>2020-11-23T07:01:54.061000Z</time>
      </trkpt>
      <trkpt lat="35.924864698930485" lon="120.20365419687091">
        <time>2020-11-23T07:02:00.061000Z</time>
      </trkpt>
      <trkpt lat="35.924822583033546" lon="120.20357668386146">
        <time>2020-11-23T07:02:03.061000Z</time>
      </trkpt>
      <trkpt lat="35.924780556540846" lon="120.20350582204925">
        <time>2020-11-23T07:02:06.061000Z</time>
      </trkpt>
      <trkpt lat="35.92471548833776" lon="120.20338908917935">
        <time>2020-11-23T07:02:12.061000Z</time>
      </trkpt>
      <trkpt lat="35.92467858626232" lon="120.20331647317047">
        <time>2020-11-23T07:02:15.061000Z</time>
      </trkpt>
      <trkpt lat="35.92463649010054" lon="120.20323326709013">
        <time>2020-11-23T07:02:18.061000Z</time>
      </trkpt>
      <trkpt lat="35.924555812970034" lon="120.2030829497047">
        <time>2020-11-23T07:02:24.061000Z</time>
      </trkpt>
      <trkpt lat="35.924524873240486" lon="120.2030408972841">
        <time>2020-11-23T07:02:27.061000Z</time>
      </trkpt>
      <trkpt lat="35.92450217159594" lon="120.20298288136249">
        <time>2020-11-23T07:02:30.161000Z</time>
      </trkpt>
      <trkpt lat="35.92447260414686" lon="120.2029273876811">
        <time>2020-11-23T07:02:33.061000Z</time>
      </trkpt>
      <trkpt lat="35.92444871585614" lon="120.20288564516682">
        <time>2020-11-23T07:02:36.061000Z</time>
      </trkpt>
      <trkpt lat="35.92438545994872" lon="120.20280549930037">
        <time>2020-11-23T07:02:42.061000Z</time>
      </trkpt>
      <trkpt lat="35.9243312807491" lon="120.20267366280889">
        <time>2020-11-23T07:02:48.061000Z</time>
      </trkpt>
      <trkpt lat="35.92424214126749" lon="120.20251831121558">
        <time>2020-11-23T07:02:54.061000Z</time>
      </trkpt>
      <trkpt lat="35.924196673099644" lon="120.20244269463427">
        <time>2020-11-23T07:02:57.061000Z</time>
      </trkpt>
      <trkpt lat="35.924149923322" lon="120.20236792563675">
        <time>2020-11-23T07:03:00.161000Z</time>
      </trkpt>
      <trkpt lat="35.92406435828142" lon="120.20222317496008">
        <time>2020-11-23T07:03:06.061000Z</time>
      </trkpt>
      <trkpt lat="35.924025365674446" lon="120.20215153802191">
        <time>2020-11-23T07:03:09.061000Z</time>
      </trkpt>
      <trkpt lat="35.923978489575184" lon="120.20208084776769">
        <time>2020-11-23T07:03:12.061000Z</time>
      </trkpt>
      <trkpt lat="35.92384075222332" lon="120.2018750697908">
        <time>2020-11-23T07:03:21.061000Z</time>
      </trkpt>
      <trkpt lat="35.92368346802312" lon="120.20167085653794">
        <time>2020-11-23T07:03:30.061000Z</time>
      </trkpt>
      <trkpt lat="35.92363830912224" lon="120.20160251045593">
        <time>2020-11-23T07:03:33.061000Z</time>
      </trkpt>
      <trkpt lat="35.923593225579374" lon="120.20153098371192">
        <time>2020-11-23T07:03:36.061000Z</time>
      </trkpt>
      <trkpt lat="35.923504927687006" lon="120.20138887800209">
        <time>2020-11-23T07:03:42.061000Z</time>
      </trkpt>
      <trkpt lat="35.923462892496204" lon="120.20132502959274">
        <time>2020-11-23T07:03:45.061000Z</time>
      </trkpt>
      <trkpt lat="35.92341846318123" lon="120.20125126986157">
        <time>2020-11-23T07:03:48.061000Z</time>
      </trkpt>
      <trkpt lat="35.92334445977174" lon="120.20107899413881">
        <time>2020-11-23T07:03:54.161000Z</time>
      </trkpt>
      <trkpt lat="35.9233096412022" lon="120.20097036721842">
        <time>2020-11-23T07:03:57.161000Z</time>
      </trkpt>
      <trkpt lat="35.923219832978674" lon="120.20079304591083">
        <time>2020-11-23T07:04:03.061000Z</time>
      </trkpt>
      <trkpt lat="35.92316762055366" lon="120.20070236576522">
        <time>2020-11-23T07:04:06.061000Z</time>
      </trkpt>
      <trkpt lat="35.92303447616752" lon="120.20045069898464">
        <time>2020-11-23T07:04:15.061000Z</time>
      </trkpt>
      <trkpt lat="35.92294372860349" lon="120.20026783592094">
        <time>2020-11-23T07:04:21.061000Z</time>
      </trkpt>
      <trkpt lat="35.92262521996409" lon="120.19970585644329">
        <time>2020-11-23T07:04:39.061000Z</time>
      </trkpt>
      <trkpt lat="35.922576765290245" lon="120.19960623516015">
        <time>2020-11-23T07:04:42.061000Z</time>
      </trkpt>
      <trkpt lat="35.9224281022249" lon="120.19934830161347">
        <time>2020-11-23T07:04:51.061000Z</time>
      </trkpt>
      <trkpt lat="35.92235312031565" lon="120.19927880983045">
        <time>2020-11-23T07:04:54.061000Z</time>
      </trkpt>
      <trkpt lat="35.9222251280531" lon="120.1991187906758">
        <time>2020-11-23T07:05:00.061000Z</time>
      </trkpt>
      <trkpt lat="35.92218897358857" lon="120.19905689029306">
        <time>2020-11-23T07:05:03.161000Z</time>
      </trkpt>
      <trkpt lat="35.92210692034747" lon="120.19895193317205">
        <time>2020-11-23T07:05:09.061000Z</time>
      </trkpt>
      <trkpt lat="35.9220698929967" lon="120.19893293602544">
        <time>2020-11-23T07:05:12.161000Z</time>
      </trkpt>
      <trkpt lat="35.92200610126829" lon="120.19884177000681">
        <time>2020-11-23T07:05:18.061000Z</time>
      </trkpt>
      <trkpt lat="35.9218714931121" lon="120.19863198921544">
        <time>2020-11-23T07:05:27.061000Z</time>
      </trkpt>
      <trkpt lat="35.92183694236792" lon="120.19854495415414">
        <time>2020-11-23T07:05:30.161000Z</time>
      </trkpt>
      <trkpt lat="35.92175121915716" lon="120.19829928567218">
        <time>2020-11-23T07:05:39.061000Z</time>
      </trkpt>
      <trkpt lat="35.92171568792481" lon="120.19822436511754">
        <time>2020-11-23T07:05:42.161000Z</time>
      </trkpt>
      <trkpt lat="35.921624522794964" lon="120.19808488173153">
        <time>2020-11-23T07:05:48.061000Z</time>
      </trkpt>
      <trkpt lat="35.92155637053809" lon="120.19791820181959">
        <time>2020-11-23T07:05:57.061000Z</time>
      </trkpt>
      <trkpt lat="35.92141602786372" lon="120.19763047711142">
        <time>2020-11-23T07:06:06.161000Z</time>
      </trkpt>
      <trkpt lat="35.9213543567151" lon="120.19753457788295">
        <time>2020-11-23T07:06:09.061000Z</time>
      </trkpt>
      <trkpt lat="35.92118051171592" lon="120.19728475897847">
        <time>2020-11-23T07:06:18.061000Z</time>
      </trkpt>
      <trkpt lat="35.921125512991246" lon="120.19720034662946">
        <time>2020-11-23T07:06:21.061000Z</time>
      </trkpt>
      <trkpt lat="35.92101252133335" lon="120.19703369557234">
        <time>2020-11-23T07:06:27.061000Z</time>
      </trkpt>
      <trkpt lat="35.92091049467475" lon="120.1968718217177">
        <time>2020-11-23T07:06:33.061000Z</time>
      </trkpt>
      <trkpt lat="35.92084848818936" lon="120.19679692087834">
        <time>2020-11-23T07:06:36.061000Z</time>
      </trkpt>
      <trkpt lat="35.92083483549023" lon="120.19655982177694">
        <time>2020-11-23T07:06:45.061000Z</time>
      </trkpt>
      <trkpt lat="35.9210638048428" lon="120.19645614410895">
        <time>2020-11-23T07:06:54.161000Z</time>
      </trkpt>
      <trkpt lat="35.92130081822819" lon="120.19638595658508">
        <time>2020-11-23T07:07:03.061000Z</time>
      </trkpt>
      <trkpt lat="35.921606955808286" lon="120.19619718251519">
        <time>2020-11-23T07:07:15.061000Z</time>
      </trkpt>
      <trkpt lat="35.92164771726118" lon="120.19612772548606">
        <time>2020-11-23T07:07:18.061000Z</time>
      </trkpt>
      <trkpt lat="35.921675746173705" lon="120.19606935397694">
        <time>2020-11-23T07:07:21.061000Z</time>
      </trkpt>
      <trkpt lat="35.92171598237669" lon="120.19602585876116">
        <time>2020-11-23T07:07:24.061000Z</time>
      </trkpt>
      <trkpt lat="35.92173664927044" lon="120.19600202251634">
        <time>2020-11-23T07:07:27.061000Z</time>
      </trkpt>
      <trkpt lat="35.921822700391594" lon="120.19588799434281">
        <time>2020-11-23T07:07:36.161000Z</time>
      </trkpt>
      <trkpt lat="35.9218409881129" lon="120.19585189497042">
        <time>2020-11-23T07:07:39.061000Z</time>
      </trkpt>
      <trkpt lat="35.92187981982644" lon="120.19579365434117">
        <time>2020-11-23T07:07:42.061000Z</time>
      </trkpt>
      <trkpt lat="35.921943818804245" lon="120.19562056317922">
        <time>2020-11-23T07:07:48.161000Z</time>
      </trkpt>
      <trkpt lat="35.92201370934697" lon="120.19544769243508">
        <time>2020-11-23T07:07:54.061000Z</time>
      </trkpt>
      <trkpt lat="35.92204518454509" lon="120.19518690523475">
        <time>2020-11-23T07:08:03.061000Z</time>
      </trkpt>
      <trkpt lat="35.92202435863507" lon="120.19509033619732">
        <time>2020-11-23T07:08:06.061000Z</time>
      </trkpt>
      <trkpt lat="35.92200819427075" lon="120.19499364810862">
        <time>2020-11-23T07:08:09.061000Z</time>
      </trkpt>
      <trkpt lat="35.92195303638546" lon="120.19480801684614">
        <time>2020-11-23T07:08:15.061000Z</time>
      </trkpt>
      <trkpt lat="35.921848277831224" lon="120.19384058496678">
        <time>2020-11-23T07:08:45.061000Z</time>
      </trkpt>
      <trkpt lat="35.92183490258201" lon="120.19373443814548">
        <time>2020-11-23T07:08:48.161000Z</time>
      </trkpt>
      <trkpt lat="35.921840364553454" lon="120.19352569709771">
        <time>2020-11-23T07:08:54.061000Z</time>
      </trkpt>
      <trkpt lat="35.921838675848825" lon="120.19342906275931">
        <time>2020-11-23T07:08:57.061000Z</time>
      </trkpt>
      <trkpt lat="35.921848888310606" lon="120.1933223305831">
        <time>2020-11-23T07:09:00.061000Z</time>
      </trkpt>
      <trkpt lat="35.921858686612126" lon="120.19310566565096">
        <time>2020-11-23T07:09:06.061000Z</time>
      </trkpt>
      <trkpt lat="35.92185975890636" lon="120.19278499017213">
        <time>2020-11-23T07:09:15.061000Z</time>
      </trkpt>
      <trkpt lat="35.92187645577211" lon="120.19268280571255">
        <time>2020-11-23T07:09:18.061000Z</time>
      </trkpt>
      <trkpt lat="35.921928395527495" lon="120.1925003216183">
        <time>2020-11-23T07:09:24.061000Z</time>
      </trkpt>
      <trkpt lat="35.921973274717224" lon="120.19241786941353">
        <time>2020-11-23T07:09:27.061000Z</time>
      </trkpt>
      <trkpt lat="35.92201027089227" lon="120.1923304219878">
        <time>2020-11-23T07:09:30.061000Z</time>
      </trkpt>
      <trkpt lat="35.92205960203239" lon="120.19215836651874">
        <time>2020-11-23T07:09:36.061000Z</time>
      </trkpt>
      <trkpt lat="35.92208032910996" lon="120.19207378912819">
        <time>2020-11-23T07:09:39.061000Z</time>
      </trkpt>
      <trkpt lat="35.9221194792233" lon="120.19200136601457">
        <time>2020-11-23T07:09:42.061000Z</time>
      </trkpt>
      <trkpt lat="35.92227961863882" lon="120.19171865311625">
        <time>2020-11-23T07:09:54.161000Z</time>
      </trkpt>
      <trkpt lat="35.92236574177447" lon="120.19166814690564">
        <time>2020-11-23T07:09:57.061000Z</time>
      </trkpt>
      <trkpt lat="35.92245564914127" lon="120.19162696226756">
        <time>2020-11-23T07:10:00.061000Z</time>
      </trkpt>
      <trkpt lat="35.92259061029263" lon="120.1915679368617">
        <time>2020-11-23T07:10:06.061000Z</time>
      </trkpt>
      <trkpt lat="35.922711302111885" lon="120.19155094028042">
        <time>2020-11-23T07:10:12.061000Z</time>
      </trkpt>
      <trkpt lat="35.922786142636504" lon="120.19156695751143">
        <time>2020-11-23T07:10:15.061000Z</time>
      </trkpt>
      <trkpt lat="35.923024452518554" lon="120.19147350792416">
        <time>2020-11-23T07:10:24.061000Z</time>
      </trkpt>
      <trkpt lat="35.9230995538878" lon="120.19141690975052">
        <time>2020-11-23T07:10:27.161000Z</time>
      </trkpt>
      <trkpt lat="35.92323719470462" lon="120.19116443363386">
        <time>2020-11-23T07:10:39.061000Z</time>
      </trkpt>
      <trkpt lat="35.92326993533885" lon="120.19110782193965">
        <time>2020-11-23T07:10:42.761000Z</time>
      </trkpt>
      <trkpt lat="35.923319128010625" lon="120.19101923087722">
        <time>2020-11-23T07:10:48.061000Z</time>
      </trkpt>
      <trkpt lat="35.92339824955759" lon="120.1909355872863">
        <time>2020-11-23T07:10:54.061000Z</time>
      </trkpt>
      <trkpt lat="35.92346749432835" lon="120.19088197975269">
        <time>2020-11-23T07:10:57.161000Z</time>
      </trkpt>
      <trkpt lat="35.92352881735784" lon="120.19082268917438">
        <time>2020-11-23T07:11:00.061000Z</time>
      </trkpt>
      <trkpt lat="35.9236242691248" lon="120.19071923875671">
        <time>2020-11-23T07:11:06.061000Z</time>
      </trkpt>
      <trkpt lat="35.92377593177642" lon="120.19049637442463">
        <time>2020-11-23T07:11:15.161000Z</time>
      </trkpt>
      <trkpt lat="35.92382518740299" lon="120.19041199105635">
        <time>2020-11-23T07:11:18.061000Z</time>
      </trkpt>
      <trkpt lat="35.9238957490686" lon="120.19022811907278">
        <time>2020-11-23T07:11:24.061000Z</time>
      </trkpt>
      <trkpt lat="35.923932338047564" lon="120.19014021582416">
        <time>2020-11-23T07:11:27.061000Z</time>
      </trkpt>
      <trkpt lat="35.92417674090451" lon="120.18989811154853">
        <time>2020-11-23T07:11:39.061000Z</time>
      </trkpt>
      <trkpt lat="35.92430615915164" lon="120.1898514286372">
        <time>2020-11-23T07:11:45.161000Z</time>
      </trkpt>
      <trkpt lat="35.924362655505604" lon="120.18980645385581">
        <time>2020-11-23T07:11:51.061000Z</time>
      </trkpt>
      <trkpt lat="35.92443394337327" lon="120.18977924506997">
        <time>2020-11-23T07:11:57.061000Z</time>
      </trkpt>
      <trkpt lat="35.92448999148459" lon="120.1897277605813">
        <time>2020-11-23T07:12:03.161000Z</time>
      </trkpt>
      <trkpt lat="35.9245452093915" lon="120.18968177889737">
        <time>2020-11-23T07:12:09.061000Z</time>
      </trkpt>
      <trkpt lat="35.92460741857608" lon="120.18971301712845">
        <time>2020-11-23T07:12:15.061000Z</time>
      </trkpt>
      <trkpt lat="35.924651424745285" lon="120.18984780107786">
        <time>2020-11-23T07:12:21.061000Z</time>
      </trkpt>
      <trkpt lat="35.92468444391526" lon="120.1900180040052">
        <time>2020-11-23T07:12:27.061000Z</time>
      </trkpt>
      <trkpt lat="35.92470913092935" lon="120.1900947274238">
        <time>2020-11-23T07:12:30.161000Z</time>
      </trkpt>
      <trkpt lat="35.92472741993086" lon="120.19027419078895">
        <time>2020-11-23T07:12:36.061000Z</time>
      </trkpt>
      <trkpt lat="35.92476739487795" lon="120.19047019515398">
        <time>2020-11-23T07:12:42.061000Z</time>
      </trkpt>
      <trkpt lat="35.924780440468886" lon="120.19057385434064">
        <time>2020-11-23T07:12:45.061000Z</time>
      </trkpt>
      <trkpt lat="35.92478657129688" lon="120.19080083037584">
        <time>2020-11-23T07:12:51.061000Z</time>
      </trkpt>
      <trkpt lat="35.92479316642001" lon="120.19091509657058">
        <time>2020-11-23T07:12:54.061000Z</time>
      </trkpt>
      <trkpt lat="35.92485721000049" lon="120.19119915214429">
        <time>2020-11-23T07:13:03.061000Z</time>
      </trkpt>
      <trkpt lat="35.92486091627521" lon="120.19129600263481">
        <time>2020-11-23T07:13:06.061000Z</time>
      </trkpt>
      <trkpt lat="35.924864514943245" lon="120.1913915672306">
        <time>2020-11-23T07:13:09.061000Z</time>
      </trkpt>
      <trkpt lat="35.924865342075755" lon="120.19159873667138">
        <time>2020-11-23T07:13:15.061000Z</time>
      </trkpt>
      <trkpt lat="35.9249129428393" lon="120.19179416721167">
        <time>2020-11-23T07:13:21.061000Z</time>
      </trkpt>
      <trkpt lat="35.9249636978981" lon="120.19200461229254">
        <time>2020-11-23T07:13:27.061000Z</time>
      </trkpt>
      <trkpt lat="35.924985701089376" lon="120.19220109847141">
        <time>2020-11-23T07:13:33.161000Z</time>
      </trkpt>
      <trkpt lat="35.92498955189717" lon="120.19230163906234">
        <time>2020-11-23T07:13:36.061000Z</time>
      </trkpt>
      <trkpt lat="35.925001238606725" lon="120.19240007698903">
        <time>2020-11-23T07:13:39.161000Z</time>
      </trkpt>
      <trkpt lat="35.925037739221935" lon="120.19269011801632">
        <time>2020-11-23T07:13:48.061000Z</time>
      </trkpt>
      <trkpt lat="35.92506989518482" lon="120.19288181192991">
        <time>2020-11-23T07:13:54.061000Z</time>
      </trkpt>
      <trkpt lat="35.92509052751464" lon="120.19297877608797">
        <time>2020-11-23T07:13:57.061000Z</time>
      </trkpt>
      <trkpt lat="35.92511265408764" lon="120.19308486254664">
        <time>2020-11-23T07:14:00.061000Z</time>
      </trkpt>
      <trkpt lat="35.92515096531945" lon="120.19330310687255">
        <time>2020-11-23T07:14:06.061000Z</time>
      </trkpt>
      <trkpt lat="35.92516333931048" lon="120.19339822659916">
        <time>2020-11-23T07:14:09.061000Z</time>
      </trkpt>
      <trkpt lat="35.92518371517396" lon="120.19348226112862">
        <time>2020-11-23T07:14:12.061000Z</time>
      </trkpt>
      <trkpt lat="35.92520101196724" lon="120.19376258521015">
        <time>2020-11-23T07:14:21.161000Z</time>
      </trkpt>
      <trkpt lat="35.92520728889282" lon="120.19397401989669">
        <time>2020-11-23T07:14:27.161000Z</time>
      </trkpt>
      <trkpt lat="35.92521924625519" lon="120.19407328799656">
        <time>2020-11-23T07:14:30.061000Z</time>
      </trkpt>
      <trkpt lat="35.92523017576898" lon="120.19416560736333">
        <time>2020-11-23T07:14:33.161000Z</time>
      </trkpt>
      <trkpt lat="35.925253678902" lon="120.19435401520245">
        <time>2020-11-23T07:14:39.061000Z</time>
      </trkpt>
      <trkpt lat="35.92526503259594" lon="120.19445555697504">
        <time>2020-11-23T07:14:42.061000Z</time>
      </trkpt>
      <trkpt lat="35.92531341293266" lon="120.19463257265238">
        <time>2020-11-23T07:14:48.061000Z</time>
      </trkpt>
      <trkpt lat="35.92540820085628" lon="120.19493739487245">
        <time>2020-11-23T07:14:57.161000Z</time>
      </trkpt>
      <trkpt lat="35.925460689658" lon="120.19501404692203">
        <time>2020-11-23T07:15:00.061000Z</time>
      </trkpt>
      <trkpt lat="35.9255727306218" lon="120.1951723069465">
        <time>2020-11-23T07:15:06.061000Z</time>
      </trkpt>
      <trkpt lat="35.9256315476233" lon="120.19524535082398">
        <time>2020-11-23T07:15:09.061000Z</time>
      </trkpt>
      <trkpt lat="35.92584056629436" lon="120.19551084566392">
        <time>2020-11-23T07:15:21.061000Z</time>
      </trkpt>
      <trkpt lat="35.92587444833619" lon="120.1955775369615">
        <time>2020-11-23T07:15:24.061000Z</time>
      </trkpt>
      <trkpt lat="35.92590102433953" lon="120.19562948226724">
        <time>2020-11-23T07:15:27.061000Z</time>
      </trkpt>
      <trkpt lat="35.92601197151062" lon="120.19575043667018">
        <time>2020-11-23T07:15:33.061000Z</time>
      </trkpt>
      <trkpt lat="35.92616798692152" lon="120.19584476578979">
        <time>2020-11-23T07:15:39.061000Z</time>
      </trkpt>
      <trkpt lat="35.92651235466962" lon="120.19592541331062">
        <time>2020-11-23T07:15:51.061000Z</time>
      </trkpt>
      <trkpt lat="35.92672270959383" lon="120.19603961767892">
        <time>2020-11-23T07:16:00.061000Z</time>
      </trkpt>
      <trkpt lat="35.92678783264477" lon="120.19607042064646">
        <time>2020-11-23T07:16:03.061000Z</time>
      </trkpt>
      <trkpt lat="35.92685468533507" lon="120.19610743506156">
        <time>2020-11-23T07:16:06.061000Z</time>
      </trkpt>
      <trkpt lat="35.92709118439017" lon="120.1961658004169">
        <time>2020-11-23T07:16:15.161000Z</time>
      </trkpt>
      <trkpt lat="35.92716111129133" lon="120.19617213761026">
        <time>2020-11-23T07:16:18.061000Z</time>
      </trkpt>
      <trkpt lat="35.9272227558369" lon="120.19617286097592">
        <time>2020-11-23T07:16:21.061000Z</time>
      </trkpt>
      <trkpt lat="35.92737599545931" lon="120.19618990340751">
        <time>2020-11-23T07:16:27.061000Z</time>
      </trkpt>
      <trkpt lat="35.92767261042586" lon="120.19613878414458">
        <time>2020-11-23T07:16:39.061000Z</time>
      </trkpt>
      <trkpt lat="35.92787221622427" lon="120.196032741831">
        <time>2020-11-23T07:16:48.061000Z</time>
      </trkpt>
      <trkpt lat="35.927935478293264" lon="120.19600641692791">
        <time>2020-11-23T07:16:51.061000Z</time>
      </trkpt>
      <trkpt lat="35.928011163830426" lon="120.19596845825737">
        <time>2020-11-23T07:16:54.061000Z</time>
      </trkpt>
      <trkpt lat="35.928176515825236" lon="120.19591702833989">
        <time>2020-11-23T07:17:00.061000Z</time>
      </trkpt>
      <trkpt lat="35.92825792536956" lon="120.19588336727428">
        <time>2020-11-23T07:17:03.061000Z</time>
      </trkpt>
      <trkpt lat="35.92833994341604" lon="120.19584493070502">
        <time>2020-11-23T07:17:06.061000Z</time>
      </trkpt>
      <trkpt lat="35.92851332946271" lon="120.19576948418134">
        <time>2020-11-23T07:17:12.061000Z</time>
      </trkpt>
      <trkpt lat="35.92859911282704" lon="120.19575148627575">
        <time>2020-11-23T07:17:15.061000Z</time>
      </trkpt>
      <trkpt lat="35.92875088786446" lon="120.19571356452262">
        <time>2020-11-23T07:17:21.061000Z</time>
      </trkpt>
      <trkpt lat="35.92890646241217" lon="120.19574517300516">
        <time>2020-11-23T07:17:27.161000Z</time>
      </trkpt>
      <trkpt lat="35.928979025210374" lon="120.19578854849068">
        <time>2020-11-23T07:17:30.061000Z</time>
      </trkpt>
      <trkpt lat="35.929052883055704" lon="120.19581777685273">
        <time>2020-11-23T07:17:33.061000Z</time>
      </trkpt>
      <trkpt lat="35.929363479479875" lon="120.19595701445355">
        <time>2020-11-23T07:17:45.161000Z</time>
      </trkpt>
      <trkpt lat="35.92957126995995" lon="120.19602733100717">
        <time>2020-11-23T07:17:54.061000Z</time>
      </trkpt>
      <trkpt lat="35.92960100787995" lon="120.19603861963411">
        <time>2020-11-23T07:17:57.061000Z</time>
      </trkpt>
      <trkpt lat="35.92969210281508" lon="120.19605486882331">
        <time>2020-11-23T07:18:03.061000Z</time>
      </trkpt>
      <trkpt lat="35.930040247858564" lon="120.19610295514848">
        <time>2020-11-23T07:18:18.061000Z</time>
      </trkpt>
      <trkpt lat="35.93011213694308" lon="120.19612549366995">
        <time>2020-11-23T07:18:21.061000Z</time>
      </trkpt>
      <trkpt lat="35.930262167353035" lon="120.19619319313391">
        <time>2020-11-23T07:18:27.061000Z</time>
      </trkpt>
      <trkpt lat="35.93032616992174" lon="120.19625282923182">
        <time>2020-11-23T07:18:30.061000Z</time>
      </trkpt>
      <trkpt lat="35.93039014494307" lon="120.1962995742102">
        <time>2020-11-23T07:18:33.161000Z</time>
      </trkpt>
      <trkpt lat="35.93061325685543" lon="120.19637721056337">
        <time>2020-11-23T07:18:42.061000Z</time>
      </trkpt>
      <trkpt lat="35.930697214343354" lon="120.19637945137166">
        <time>2020-11-23T07:18:45.061000Z</time>
      </trkpt>
      <trkpt lat="35.93078048734652" lon="120.19637265930447">
        <time>2020-11-23T07:18:48.161000Z</time>
      </trkpt>
      <trkpt lat="35.93093285050613" lon="120.19634136720153">
        <time>2020-11-23T07:18:54.161000Z</time>
      </trkpt>
      <trkpt lat="35.93100776163194" lon="120.19630566143988">
        <time>2020-11-23T07:18:57.061000Z</time>
      </trkpt>
      <trkpt lat="35.931242058401864" lon="120.19629579223425">
        <time>2020-11-23T07:19:06.161000Z</time>
      </trkpt>
      <trkpt lat="35.931321288126156" lon="120.19629603861965">
        <time>2020-11-23T07:19:09.061000Z</time>
      </trkpt>
      <trkpt lat="35.931398899272004" lon="120.19630673339782">
        <time>2020-11-23T07:19:12.061000Z</time>
      </trkpt>
      <trkpt lat="35.931695814425986" lon="120.19638748701631">
        <time>2020-11-23T07:19:24.161000Z</time>
      </trkpt>
      <trkpt lat="35.93183821905756" lon="120.19642868585403">
        <time>2020-11-23T07:19:30.061000Z</time>
      </trkpt>
      <trkpt lat="35.931916178163796" lon="120.1964406070006">
        <time>2020-11-23T07:19:33.061000Z</time>
      </trkpt>
      <trkpt lat="35.93200091593872" lon="120.19646004614394">
        <time>2020-11-23T07:19:36.061000Z</time>
      </trkpt>
      <trkpt lat="35.93217303009123" lon="120.19648859575281">
        <time>2020-11-23T07:19:42.161000Z</time>
      </trkpt>
      <trkpt lat="35.93225277254312" lon="120.19648156407462">
        <time>2020-11-23T07:19:45.061000Z</time>
      </trkpt>
      <trkpt lat="35.93237096704432" lon="120.19654236187884">
        <time>2020-11-23T07:19:51.061000Z</time>
      </trkpt>
      <trkpt lat="35.932451856228674" lon="120.19668156083266">
        <time>2020-11-23T07:19:57.061000Z</time>
      </trkpt>
      <trkpt lat="35.93245926297186" lon="120.19678267785689">
        <time>2020-11-23T07:20:00.161000Z</time>
      </trkpt>
      <trkpt lat="35.93255214217358" lon="120.19714389316078">
        <time>2020-11-23T07:20:12.161000Z</time>
      </trkpt>
      <trkpt lat="35.932566441928934" lon="120.19723889004108">
        <time>2020-11-23T07:20:15.161000Z</time>
      </trkpt>
      <trkpt lat="35.932588331779336" lon="120.1973466396418">
        <time>2020-11-23T07:20:18.161000Z</time>
      </trkpt>
      <trkpt lat="35.93264612229648" lon="120.19756404510798">
        <time>2020-11-23T07:20:24.161000Z</time>
      </trkpt>
      <trkpt lat="35.93267435239877" lon="120.19766125742929">
        <time>2020-11-23T07:20:27.061000Z</time>
      </trkpt>
      <trkpt lat="35.9326674685302" lon="120.19793645627647">
        <time>2020-11-23T07:20:36.061000Z</time>
      </trkpt>
      <trkpt lat="35.932633174543604" lon="120.19804465102463">
        <time>2020-11-23T07:20:39.061000Z</time>
      </trkpt>
      <trkpt lat="35.932610588527496" lon="120.19814418283414">
        <time>2020-11-23T07:20:42.061000Z</time>
      </trkpt>
      <trkpt lat="35.9325714926131" lon="120.19834084475026">
        <time>2020-11-23T07:20:48.061000Z</time>
      </trkpt>
      <trkpt lat="35.93234557253836" lon="120.19888873016174">
        <time>2020-11-23T07:21:09.061000Z</time>
      </trkpt>
      <trkpt lat="35.93234569989068" lon="120.19894332865738">
        <time>2020-11-23T07:21:12.061000Z</time>
      </trkpt>
      <trkpt lat="35.93234702914804" lon="120.19899111745814">
        <time>2020-11-23T07:21:15.161000Z</time>
      </trkpt>
      <trkpt lat="35.932330686972975" lon="120.19909612563687">
        <time>2020-11-23T07:21:21.061000Z</time>
      </trkpt>
      <trkpt lat="35.93226152136989" lon="120.19933130520991">
        <time>2020-11-23T07:21:30.061000Z</time>
      </trkpt>
      <trkpt lat="35.93222587040473" lon="120.19942120694856">
        <time>2020-11-23T07:21:33.161000Z</time>
      </trkpt>
      <trkpt lat="35.93220212864988" lon="120.19951937558545">
        <time>2020-11-23T07:21:36.061000Z</time>
      </trkpt>
      <trkpt lat="35.93217012233477" lon="120.19979723521124">
        <time>2020-11-23T07:21:45.061000Z</time>
      </trkpt>
      <trkpt lat="35.932175873430936" lon="120.19989853810594">
        <time>2020-11-23T07:21:48.161000Z</time>
      </trkpt>
      <trkpt lat="35.93207647101942" lon="120.20012915249822">
        <time>2020-11-23T07:21:57.161000Z</time>
      </trkpt>
      <trkpt lat="35.93202283179682" lon="120.2001861805299">
        <time>2020-11-23T07:22:00.061000Z</time>
      </trkpt>
      <trkpt lat="35.931969834941526" lon="120.20025386747284">
        <time>2020-11-23T07:22:03.061000Z</time>
      </trkpt>
      <trkpt lat="35.9319265643086" lon="120.20047484692097">
        <time>2020-11-23T07:22:12.161000Z</time>
      </trkpt>
      <trkpt lat="35.931885736927924" lon="120.20079080058956">
        <time>2020-11-23T07:22:21.061000Z</time>
      </trkpt>
      <trkpt lat="35.93188608948146" lon="120.20088545465275">
        <time>2020-11-23T07:22:24.161000Z</time>
      </trkpt>
      <trkpt lat="35.93187994258559" lon="120.2010752114788">
        <time>2020-11-23T07:22:30.061000Z</time>
      </trkpt>
      <trkpt lat="35.9318463985068" lon="120.2012654951506">
        <time>2020-11-23T07:22:36.061000Z</time>
      </trkpt>
      <trkpt lat="35.93182668382357" lon="120.20137401819069">
        <time>2020-11-23T07:22:39.061000Z</time>
      </trkpt>
      <trkpt lat="35.93183856014778" lon="120.20159590567738">
        <time>2020-11-23T07:22:45.061000Z</time>
      </trkpt>
      <trkpt lat="35.93187385411124" lon="120.20169592911017">
        <time>2020-11-23T07:22:48.061000Z</time>
      </trkpt>
      <trkpt lat="35.93200141376986" lon="120.20212928801304">
        <time>2020-11-23T07:23:00.161000Z</time>
      </trkpt>
      <trkpt lat="35.9320314633236" lon="120.20224399991027">
        <time>2020-11-23T07:23:03.061000Z</time>
      </trkpt>
      <trkpt lat="35.93209711400858" lon="120.20242483496689">
        <time>2020-11-23T07:23:09.061000Z</time>
      </trkpt>
      <trkpt lat="35.93212374147319" lon="120.20249782735134">
        <time>2020-11-23T07:23:12.061000Z</time>
      </trkpt>
      <trkpt lat="35.93214957145671" lon="120.20256921440856">
        <time>2020-11-23T07:23:15.061000Z</time>
      </trkpt>
      <trkpt lat="35.93224356026121" lon="120.20292839198883">
        <time>2020-11-23T07:23:27.061000Z</time>
      </trkpt>
      <trkpt lat="35.93226657692418" lon="120.20302022101225">
        <time>2020-11-23T07:23:30.061000Z</time>
      </trkpt>
      <trkpt lat="35.932328483432485" lon="120.20317384697742">
        <time>2020-11-23T07:23:36.061000Z</time>
      </trkpt>
      <trkpt lat="35.93235996620098" lon="120.20325114883103">
        <time>2020-11-23T07:23:39.061000Z</time>
      </trkpt>
      <trkpt lat="35.93240249803295" lon="120.20333083501649">
        <time>2020-11-23T07:23:42.161000Z</time>
      </trkpt>
      <trkpt lat="35.93245793741914" lon="120.20348843027544">
        <time>2020-11-23T07:23:48.161000Z</time>
      </trkpt>
      <trkpt lat="35.93263088210246" lon="120.2036181062139">
        <time>2020-11-23T07:23:57.061000Z</time>
      </trkpt>
      <trkpt lat="35.93290763580362" lon="120.2038395608783">
        <time>2020-11-23T07:24:12.061000Z</time>
      </trkpt>
      <trkpt lat="35.93292925766887" lon="120.20392894881394">
        <time>2020-11-23T07:24:15.061000Z</time>
      </trkpt>
      <trkpt lat="35.932961753642786" lon="120.20421734362567">
        <time>2020-11-23T07:24:24.061000Z</time>
      </trkpt>
      <trkpt lat="35.9329546396597" lon="120.20431251348535">
        <time>2020-11-23T07:24:27.161000Z</time>
      </trkpt>
      <trkpt lat="35.93287350801846" lon="120.20446350910207">
        <time>2020-11-23T07:24:33.061000Z</time>
      </trkpt>
      <trkpt lat="35.9328048587981" lon="120.20494260172032">
        <time>2020-11-23T07:24:45.061000Z</time>
      </trkpt>
      <trkpt lat="35.932830040005065" lon="120.20513536202365">
        <time>2020-11-23T07:24:51.161000Z</time>
      </trkpt>
      <trkpt lat="35.93284057248097" lon="120.20517976825732">
        <time>2020-11-23T07:24:54.161000Z</time>
      </trkpt>
      <trkpt lat="35.93285194440725" lon="120.20522468319092">
        <time>2020-11-23T07:24:57.061000Z</time>
      </trkpt>
      <trkpt lat="35.93286710076582" lon="120.2052674246151">
        <time>2020-11-23T07:25:00.061000Z</time>
      </trkpt>
      <trkpt lat="35.93288136804897" lon="120.20531580020854">
        <time>2020-11-23T07:25:03.161000Z</time>
      </trkpt>
      <trkpt lat="35.932894618379216" lon="120.20536845378275">
        <time>2020-11-23T07:25:06.061000Z</time>
      </trkpt>
      <trkpt lat="35.932937071438154" lon="120.20553847145263">
        <time>2020-11-23T07:25:12.061000Z</time>
      </trkpt>
      <trkpt lat="35.93302215748086" lon="120.20566926332354">
        <time>2020-11-23T07:25:18.061000Z</time>
      </trkpt>
      <trkpt lat="35.933089608989974" lon="120.20572379700327">
        <time>2020-11-23T07:25:21.061000Z</time>
      </trkpt>
      <trkpt lat="35.93314588284614" lon="120.20578782326156">
        <time>2020-11-23T07:25:24.061000Z</time>
      </trkpt>
      <trkpt lat="35.933227466152466" lon="120.20594579991824">
        <time>2020-11-23T07:25:30.061000Z</time>
      </trkpt>
      <trkpt lat="35.93331440996376" lon="120.2061302939471">
        <time>2020-11-23T07:25:36.061000Z</time>
      </trkpt>
      <trkpt lat="35.93336017179975" lon="120.2062263409525">
        <time>2020-11-23T07:25:39.061000Z</time>
      </trkpt>
      <trkpt lat="35.93350194900698" lon="120.20651488277885">
        <time>2020-11-23T07:25:48.061000Z</time>
      </trkpt>
      <trkpt lat="35.933604090737475" lon="120.20668528005423">
        <time>2020-11-23T07:25:54.061000Z</time>
      </trkpt>
      <trkpt lat="35.93366286694874" lon="120.20690435981419">
        <time>2020-11-23T07:26:00.161000Z</time>
      </trkpt>
      <trkpt lat="35.93368471530603" lon="120.20701275268416">
        <time>2020-11-23T07:26:03.161000Z</time>
      </trkpt>
      <trkpt lat="35.93373712626946" lon="120.20722871246606">
        <time>2020-11-23T07:26:09.061000Z</time>
      </trkpt>
      <trkpt lat="35.93374766324567" lon="120.20733012449944">
        <time>2020-11-23T07:26:12.061000Z</time>
      </trkpt>
      <trkpt lat="35.93375565285407" lon="120.20743607413563">
        <time>2020-11-23T07:26:15.161000Z</time>
      </trkpt>
      <trkpt lat="35.93386382143625" lon="120.20782154748993">
        <time>2020-11-23T07:26:27.061000Z</time>
      </trkpt>
      <trkpt lat="35.93398127648504" lon="120.20796921447337">
        <time>2020-11-23T07:26:33.061000Z</time>
      </trkpt>
      <trkpt lat="35.93413904142192" lon="120.20840156072711">
        <time>2020-11-23T07:26:48.061000Z</time>
      </trkpt>
      <trkpt lat="35.93414622451881" lon="120.20850675560037">
        <time>2020-11-23T07:26:51.061000Z</time>
      </trkpt>
      <trkpt lat="35.93415637285178" lon="120.20904907839099">
        <time>2020-11-23T07:27:09.061000Z</time>
      </trkpt>
      <trkpt lat="35.9341736951579" lon="120.20913077952036">
        <time>2020-11-23T07:27:12.061000Z</time>
      </trkpt>
      <trkpt lat="35.93434605747909" lon="120.20962914470906">
        <time>2020-11-23T07:27:27.061000Z</time>
      </trkpt>
      <trkpt lat="35.934404883893166" lon="120.20990545012057">
        <time>2020-11-23T07:27:36.061000Z</time>
      </trkpt>
      <trkpt lat="35.93452488077119" lon="120.21037738252646">
        <time>2020-11-23T07:27:51.061000Z</time>
      </trkpt>
      <trkpt lat="35.93464488669341" lon="120.21053088543576">
        <time>2020-11-23T07:27:57.161000Z</time>
      </trkpt>
      <trkpt lat="35.93485742669506" lon="120.21086308433995">
        <time>2020-11-23T07:28:09.061000Z</time>
      </trkpt>
      <trkpt lat="35.93492058576865" lon="120.21105407553146">
        <time>2020-11-23T07:28:15.061000Z</time>
      </trkpt>
      <trkpt lat="35.93507150893814" lon="120.21132063686684">
        <time>2020-11-23T07:28:27.061000Z</time>
      </trkpt>
      <trkpt lat="35.93512108298613" lon="120.21138206979111">
        <time>2020-11-23T07:28:30.061000Z</time>
      </trkpt>
      <trkpt lat="35.935184833904536" lon="120.21146214514881">
        <time>2020-11-23T07:28:33.061000Z</time>
      </trkpt>
      <trkpt lat="35.93525928091126" lon="120.21163758166945">
        <time>2020-11-23T07:28:39.061000Z</time>
      </trkpt>
      <trkpt lat="35.93530052828325" lon="120.21173748376631">
        <time>2020-11-23T07:28:45.161000Z</time>
      </trkpt>
      <trkpt lat="35.935326344349086" lon="120.21177975548194">
        <time>2020-11-23T07:28:48.061000Z</time>
      </trkpt>
      <trkpt lat="35.93534491922973" lon="120.21182860939977">
        <time>2020-11-23T07:28:51.061000Z</time>
      </trkpt>
      <trkpt lat="35.935363458638065" lon="120.21188133327992">
        <time>2020-11-23T07:28:54.061000Z</time>
      </trkpt>
      <trkpt lat="35.935394398267384" lon="120.21195017627895">
        <time>2020-11-23T07:28:57.061000Z</time>
      </trkpt>
      <trkpt lat="35.93547400905213" lon="120.21213943995433">
        <time>2020-11-23T07:29:03.161000Z</time>
      </trkpt>
      <trkpt lat="35.9355231142905" lon="120.21222196953282">
        <time>2020-11-23T07:29:06.161000Z</time>
      </trkpt>
      <trkpt lat="35.93557510787191" lon="120.21229924324659">
        <time>2020-11-23T07:29:09.061000Z</time>
      </trkpt>
      <trkpt lat="35.93566231717535" lon="120.21247083553482">
        <time>2020-11-23T07:29:15.161000Z</time>
      </trkpt>
      <trkpt lat="35.93571547861952" lon="120.21255726624304">
        <time>2020-11-23T07:29:18.161000Z</time>
      </trkpt>
      <trkpt lat="35.93583262858137" lon="120.21272032469199">
        <time>2020-11-23T07:29:24.061000Z</time>
      </trkpt>
      <trkpt lat="35.93588776408472" lon="120.21278323702158">
        <time>2020-11-23T07:29:27.161000Z</time>
      </trkpt>
      <trkpt lat="35.93593863816561" lon="120.21284646827466">
        <time>2020-11-23T07:29:30.161000Z</time>
      </trkpt>
      <trkpt lat="35.93604319629864" lon="120.21299511425252">
        <time>2020-11-23T07:29:36.061000Z</time>
      </trkpt>
      <trkpt lat="35.93609782407327" lon="120.21305662071539">
        <time>2020-11-23T07:29:39.061000Z</time>
      </trkpt>
      <trkpt lat="35.93614685698931" lon="120.21312783183573">
        <time>2020-11-23T07:29:42.061000Z</time>
      </trkpt>
      <trkpt lat="35.93626181210025" lon="120.2132884792892">
        <time>2020-11-23T07:29:48.061000Z</time>
      </trkpt>
      <trkpt lat="35.93631667251298" lon="120.21337724644575">
        <time>2020-11-23T07:29:51.061000Z</time>
      </trkpt>
      <trkpt lat="35.9364229401985" lon="120.21351353676972">
        <time>2020-11-23T07:29:57.061000Z</time>
      </trkpt>
      <trkpt lat="35.936479638427734" lon="120.2135684513187">
        <time>2020-11-23T07:30:00.161000Z</time>
      </trkpt>
      <trkpt lat="35.936803217070675" lon="120.21387479815922">
        <time>2020-11-23T07:30:15.061000Z</time>
      </trkpt>
      <trkpt lat="35.936858025108606" lon="120.21392987278459">
        <time>2020-11-23T07:30:18.061000Z</time>
      </trkpt>
      <trkpt lat="35.9370829378112" lon="120.21410757097794">
        <time>2020-11-23T07:30:27.061000Z</time>
      </trkpt>
      <trkpt lat="35.93722095594836" lon="120.21422197292922">
        <time>2020-11-23T07:30:33.061000Z</time>
      </trkpt>
      <trkpt lat="35.93743263075165" lon="120.21438931786307">
        <time>2020-11-23T07:30:42.061000Z</time>
      </trkpt>
      <trkpt lat="35.937562972690415" lon="120.21452953497987">
        <time>2020-11-23T07:30:48.061000Z</time>
      </trkpt>
      <trkpt lat="35.93763242197951" lon="120.21457971446914">
        <time>2020-11-23T07:30:51.161000Z</time>
      </trkpt>
      <trkpt lat="35.93785997769744" lon="120.21469138311028">
        <time>2020-11-23T07:31:00.161000Z</time>
      </trkpt>
      <trkpt lat="35.93794018312411" lon="120.21471701567516">
        <time>2020-11-23T07:31:03.061000Z</time>
      </trkpt>
      <trkpt lat="35.93802850394151" lon="120.21473279381114">
        <time>2020-11-23T07:31:06.061000Z</time>
      </trkpt>
      <trkpt lat="35.9386386920461" lon="120.21501802112272">
        <time>2020-11-23T07:31:30.161000Z</time>
      </trkpt>
      <trkpt lat="35.93880328029419" lon="120.21504999559573">
        <time>2020-11-23T07:31:36.161000Z</time>
      </trkpt>
      <trkpt lat="35.93889281870372" lon="120.21506786876225">
        <time>2020-11-23T07:31:39.161000Z</time>
      </trkpt>
      <trkpt lat="35.93906659784987" lon="120.21506371470183">
        <time>2020-11-23T07:31:45.061000Z</time>
      </trkpt>
      <trkpt lat="35.93914989815656" lon="120.21504926837831">
        <time>2020-11-23T07:31:48.061000Z</time>
      </trkpt>
      <trkpt lat="35.939689367443" lon="120.21489031574043">
        <time>2020-11-23T07:32:09.161000Z</time>
      </trkpt>
      <trkpt lat="35.93989339644624" lon="120.21484740188112">
        <time>2020-11-23T07:32:18.061000Z</time>
      </trkpt>
      <trkpt lat="35.9399355542509" lon="120.21482722640407">
        <time>2020-11-23T07:32:21.061000Z</time>
      </trkpt>
      <trkpt lat="35.94002195408157" lon="120.21471026863374">
        <time>2020-11-23T07:32:30.061000Z</time>
      </trkpt>
      <trkpt lat="35.94009408450575" lon="120.21468636532477">
        <time>2020-11-23T07:32:36.061000Z</time>
      </trkpt>
      <trkpt lat="35.94022704328578" lon="120.21466015329082">
        <time>2020-11-23T07:32:42.061000Z</time>
      </trkpt>
      <trkpt lat="35.94029849288832" lon="120.21463674870354">
        <time>2020-11-23T07:32:45.061000Z</time>
      </trkpt>
      <trkpt lat="35.94049112519403" lon="120.21448644544007">
        <time>2020-11-23T07:32:54.061000Z</time>
      </trkpt>
      <trkpt lat="35.94064714968033" lon="120.21438693107793">
        <time>2020-11-23T07:33:00.161000Z</time>
      </trkpt>
      <trkpt lat="35.94072043408537" lon="120.21432379747927">
        <time>2020-11-23T07:33:03.061000Z</time>
      </trkpt>
      <trkpt lat="35.94094516199304" lon="120.21419075485686">
        <time>2020-11-23T07:33:12.061000Z</time>
      </trkpt>
      <trkpt lat="35.94102726235585" lon="120.21416162612037">
        <time>2020-11-23T07:33:15.061000Z</time>
      </trkpt>
      <trkpt lat="35.94110908160206" lon="120.21412597395376">
        <time>2020-11-23T07:33:18.061000Z</time>
      </trkpt>
      <trkpt lat="35.9413692530198" lon="120.21412855065537">
        <time>2020-11-23T07:33:30.161000Z</time>
      </trkpt>
      <trkpt lat="35.941414468379584" lon="120.21421325968898">
        <time>2020-11-23T07:33:33.061000Z</time>
      </trkpt>
      <trkpt lat="35.941457369105734" lon="120.21428642800035">
        <time>2020-11-23T07:33:36.161000Z</time>
      </trkpt>
      <trkpt lat="35.94172924076235" lon="120.21435690376363">
        <time>2020-11-23T07:33:48.161000Z</time>
      </trkpt>
      <trkpt lat="35.94211701128348" lon="120.21433942267409">
        <time>2020-11-23T07:34:03.061000Z</time>
      </trkpt>
      <trkpt lat="35.94219144372578" lon="120.21431458224461">
        <time>2020-11-23T07:34:06.061000Z</time>
      </trkpt>
      <trkpt lat="35.942267792706346" lon="120.21428531323049">
        <time>2020-11-23T07:34:09.061000Z</time>
      </trkpt>
      <trkpt lat="35.94242594188731" lon="120.21424886974424">
        <time>2020-11-23T07:34:15.061000Z</time>
      </trkpt>
      <trkpt lat="35.94256756115026" lon="120.21413629804645">
        <time>2020-11-23T07:34:21.061000Z</time>
      </trkpt>
      <trkpt lat="35.94285363707366" lon="120.21400159596679">
        <time>2020-11-23T07:34:33.061000Z</time>
      </trkpt>
      <trkpt lat="35.94292241845824" lon="120.21396936412269">
        <time>2020-11-23T07:34:36.061000Z</time>
      </trkpt>
      <trkpt lat="35.94306930524022" lon="120.21394736324602">
        <time>2020-11-23T07:34:42.061000Z</time>
      </trkpt>
      <trkpt lat="35.943144898246516" lon="120.21394430777889">
        <time>2020-11-23T07:34:45.161000Z</time>
      </trkpt>
      <trkpt lat="35.94322396069342" lon="120.21394956146928">
        <time>2020-11-23T07:34:48.161000Z</time>
      </trkpt>
      <trkpt lat="35.943472631078116" lon="120.21386337321205">
        <time>2020-11-23T07:34:57.161000Z</time>
      </trkpt>
      <trkpt lat="35.943560071952845" lon="120.21382043049324">
        <time>2020-11-23T07:35:00.161000Z</time>
      </trkpt>
      <trkpt lat="35.94380204579886" lon="120.213730711022">
        <time>2020-11-23T07:35:09.061000Z</time>
      </trkpt>
      <trkpt lat="35.94388656265186" lon="120.21372646940303">
        <time>2020-11-23T07:35:15.061000Z</time>
      </trkpt>
      <trkpt lat="35.943921590483825" lon="120.21374159392433">
        <time>2020-11-23T07:35:18.161000Z</time>
      </trkpt>
      <trkpt lat="35.9439519863306" lon="120.21376457798284">
        <time>2020-11-23T07:35:21.061000Z</time>
      </trkpt>
      <trkpt lat="35.94400575832437" lon="120.21378732475297">
        <time>2020-11-23T07:35:27.161000Z</time>
      </trkpt>
      <trkpt lat="35.94439435827873" lon="120.21394463858168">
        <time>2020-11-23T07:35:42.061000Z</time>
      </trkpt>
      <trkpt lat="35.94447517997408" lon="120.21394344883238">
        <time>2020-11-23T07:35:45.061000Z</time>
      </trkpt>
      <trkpt lat="35.944643737984364" lon="120.21392440238897">
        <time>2020-11-23T07:35:51.061000Z</time>
      </trkpt>
      <trkpt lat="35.944825500409905" lon="120.21388998628964">
        <time>2020-11-23T07:35:57.061000Z</time>
      </trkpt>
      <trkpt lat="35.94491508027989" lon="120.21387715698106">
        <time>2020-11-23T07:36:00.061000Z</time>
      </trkpt>
      <trkpt lat="35.94507497142969" lon="120.21385426959519">
        <time>2020-11-23T07:36:06.061000Z</time>
      </trkpt>
      <trkpt lat="35.94514626820334" lon="120.21382587834312">
        <time>2020-11-23T07:36:09.161000Z</time>
      </trkpt>
      <trkpt lat="35.945299316064066" lon="120.21380415741">
        <time>2020-11-23T07:36:15.061000Z</time>
      </trkpt>
      <trkpt lat="35.945382137931894" lon="120.2138104387912">
        <time>2020-11-23T07:36:18.161000Z</time>
      </trkpt>
      <trkpt lat="35.94565783114221" lon="120.21385043146172">
        <time>2020-11-23T07:36:27.061000Z</time>
      </trkpt>
      <trkpt lat="35.945742531118604" lon="120.21385115718063">
        <time>2020-11-23T07:36:30.161000Z</time>
      </trkpt>
      <trkpt lat="35.94591729810244" lon="120.21384119818406">
        <time>2020-11-23T07:36:36.161000Z</time>
      </trkpt>
      <trkpt lat="35.94600407273413" lon="120.21382438879436">
        <time>2020-11-23T07:36:39.161000Z</time>
      </trkpt>
      <trkpt lat="35.94608768221623" lon="120.21381075104259">
        <time>2020-11-23T07:36:42.161000Z</time>
      </trkpt>
      <trkpt lat="35.94619588092875" lon="120.21380934429891">
        <time>2020-11-23T07:36:48.061000Z</time>
      </trkpt>
      <trkpt lat="35.946255392916854" lon="120.21380407306076">
        <time>2020-11-23T07:36:51.161000Z</time>
      </trkpt>
      <trkpt lat="35.94632792925458" lon="120.21377622059313">
        <time>2020-11-23T07:36:54.061000Z</time>
      </trkpt>
      <trkpt lat="35.94669089304736" lon="120.21371530850242">
        <time>2020-11-23T07:37:09.161000Z</time>
      </trkpt>
      <trkpt lat="35.9468350960582" lon="120.21371721651707">
        <time>2020-11-23T07:37:15.061000Z</time>
      </trkpt>
      <trkpt lat="35.94690030763263" lon="120.21371326244117">
        <time>2020-11-23T07:37:18.161000Z</time>
      </trkpt>
      <trkpt lat="35.94701829532295" lon="120.21368535426191">
        <time>2020-11-23T07:37:24.061000Z</time>
      </trkpt>
      <trkpt lat="35.9471283299327" lon="120.21350651146473">
        <time>2020-11-23T07:37:33.061000Z</time>
      </trkpt>
      <trkpt lat="35.947133090999" lon="120.21340566026863">
        <time>2020-11-23T07:37:36.061000Z</time>
      </trkpt>
      <trkpt lat="35.94709089618193" lon="120.21322904977139">
        <time>2020-11-23T07:37:42.061000Z</time>
      </trkpt>
      <trkpt lat="35.94705789916096" lon="120.21317083645077">
        <time>2020-11-23T07:37:45.161000Z</time>
      </trkpt>
      <trkpt lat="35.94704160450757" lon="120.21290658559829">
        <time>2020-11-23T07:37:54.161000Z</time>
      </trkpt>
      <trkpt lat="35.94704557791078" lon="120.21272673048307">
        <time>2020-11-23T07:38:00.061000Z</time>
      </trkpt>
      <trkpt lat="35.94704552709705" lon="120.21252847374559">
        <time>2020-11-23T07:38:06.061000Z</time>
      </trkpt>
      <trkpt lat="35.947047242785466" lon="120.21242560072524">
        <time>2020-11-23T07:38:09.161000Z</time>
      </trkpt>
      <trkpt lat="35.94707246148948" lon="120.2122613596824">
        <time>2020-11-23T07:38:15.161000Z</time>
      </trkpt>
      <trkpt lat="35.94711549328651" lon="120.21217594577847">
        <time>2020-11-23T07:38:18.161000Z</time>
      </trkpt>
      <trkpt lat="35.94715584006824" lon="120.21210075522589">
        <time>2020-11-23T07:38:21.061000Z</time>
      </trkpt>
      <trkpt lat="35.9472698563916" lon="120.21173740432987">
        <time>2020-11-23T07:38:33.161000Z</time>
      </trkpt>
      <trkpt lat="35.94747305304466" lon="120.21135666130586">
        <time>2020-11-23T07:38:48.061000Z</time>
      </trkpt>
      <trkpt lat="35.94754417153637" lon="120.21115496860939">
        <time>2020-11-23T07:38:54.061000Z</time>
      </trkpt>
      <trkpt lat="35.94759623944035" lon="120.21105466777445">
        <time>2020-11-23T07:38:57.061000Z</time>
      </trkpt>
      <trkpt lat="35.94769844759224" lon="120.2108801778175">
        <time>2020-11-23T07:39:03.061000Z</time>
      </trkpt>
      <trkpt lat="35.94775857667487" lon="120.21071902969307">
        <time>2020-11-23T07:39:09.161000Z</time>
      </trkpt>
      <trkpt lat="35.94778222818335" lon="120.21063961229088">
        <time>2020-11-23T07:39:12.061000Z</time>
      </trkpt>
      <trkpt lat="35.94781606903797" lon="120.21056246995664">
        <time>2020-11-23T07:39:15.161000Z</time>
      </trkpt>
      <trkpt lat="35.947887104391484" lon="120.21039971864788">
        <time>2020-11-23T07:39:21.161000Z</time>
      </trkpt>
      <trkpt lat="35.94792655552692" lon="120.21030315906397">
        <time>2020-11-23T07:39:24.161000Z</time>
      </trkpt>
      <trkpt lat="35.94803439928489" lon="120.20980898784607">
        <time>2020-11-23T07:39:39.061000Z</time>
      </trkpt>
      <trkpt lat="35.94801422203111" lon="120.20960778524241">
        <time>2020-11-23T07:39:45.061000Z</time>
      </trkpt>
      <trkpt lat="35.94800455691274" lon="120.20952197471064">
        <time>2020-11-23T07:39:48.061000Z</time>
      </trkpt>
      <trkpt lat="35.948020703378305" lon="120.20931177131631">
        <time>2020-11-23T07:39:57.061000Z</time>
      </trkpt>
      <trkpt lat="35.94805886344439" lon="120.2093583593599">
        <time>2020-11-23T07:40:00.061000Z</time>
      </trkpt>
      <trkpt lat="35.94811782724483" lon="120.20939919479943">
        <time>2020-11-23T07:40:03.061000Z</time>
      </trkpt>
      <trkpt lat="35.94818733274706" lon="120.20944065954062">
        <time>2020-11-23T07:40:06.161000Z</time>
      </trkpt>
      <trkpt lat="35.94838565815737" lon="120.20954402959951">
        <time>2020-11-23T07:40:15.061000Z</time>
      </trkpt>
      <trkpt lat="35.94844615088817" lon="120.20959944627455">
        <time>2020-11-23T07:40:18.161000Z</time>
      </trkpt>
      <trkpt lat="35.94850253761157" lon="120.20965153160726">
        <time>2020-11-23T07:40:21.161000Z</time>
      </trkpt>
      <trkpt lat="35.94861080931749" lon="120.209769784398">
        <time>2020-11-23T07:40:27.061000Z</time>
      </trkpt>
      <trkpt lat="35.94867276226825" lon="120.20983226268014">
        <time>2020-11-23T07:40:30.061000Z</time>
      </trkpt>
      <trkpt lat="35.94878542353778" lon="120.20995188285248">
        <time>2020-11-23T07:40:36.161000Z</time>
      </trkpt>
      <trkpt lat="35.948848225769524" lon="120.2099880119347">
        <time>2020-11-23T07:40:39.061000Z</time>
      </trkpt>
      <trkpt lat="35.94894890307135" lon="120.21010861896484">
        <time>2020-11-23T07:40:45.061000Z</time>
      </trkpt>
      <trkpt lat="35.94900120149877" lon="120.21017970407875">
        <time>2020-11-23T07:40:48.161000Z</time>
      </trkpt>
      <trkpt lat="35.94905141995199" lon="120.21025732176126">
        <time>2020-11-23T07:40:51.061000Z</time>
      </trkpt>
      <trkpt lat="35.94915669192391" lon="120.21038286705605">
        <time>2020-11-23T07:40:57.161000Z</time>
      </trkpt>
      <trkpt lat="35.949275693217594" lon="120.21051144600442">
        <time>2020-11-23T07:41:03.061000Z</time>
      </trkpt>
      <trkpt lat="35.94933087809184" lon="120.21056535782165">
        <time>2020-11-23T07:41:06.161000Z</time>
      </trkpt>
      <trkpt lat="35.949388176438895" lon="120.2106104333541">
        <time>2020-11-23T07:41:09.061000Z</time>
      </trkpt>
      <trkpt lat="35.94950257349163" lon="120.2107210104712">
        <time>2020-11-23T07:41:15.061000Z</time>
      </trkpt>
      <trkpt lat="35.94962543419598" lon="120.21084447462918">
        <time>2020-11-23T07:41:21.161000Z</time>
      </trkpt>
      <trkpt lat="35.94969715419906" lon="120.21089105785275">
        <time>2020-11-23T07:41:24.061000Z</time>
      </trkpt>
      <trkpt lat="35.95001708170949" lon="120.21087807081183">
        <time>2020-11-23T07:41:36.161000Z</time>
      </trkpt>
      <trkpt lat="35.950324997317" lon="120.21075424602147">
        <time>2020-11-23T07:41:48.161000Z</time>
      </trkpt>
      <trkpt lat="35.950391705030285" lon="120.21071210361418">
        <time>2020-11-23T07:41:51.061000Z</time>
      </trkpt>
      <trkpt lat="35.95053949009372" lon="120.21065802016999">
        <time>2020-11-23T07:41:57.161000Z</time>
      </trkpt>
      <trkpt lat="35.95062278139243" lon="120.21063685374256">
        <time>2020-11-23T07:42:00.061000Z</time>
      </trkpt>
      <trkpt lat="35.95073984691711" lon="120.21044041570993">
        <time>2020-11-23T07:42:09.061000Z</time>
      </trkpt>
      <trkpt lat="35.95072946765695" lon="120.21034250515093">
        <time>2020-11-23T07:42:12.061000Z</time>
      </trkpt>
      <trkpt lat="35.95072177417929" lon="120.21024807585218">
        <time>2020-11-23T07:42:15.061000Z</time>
      </trkpt>
      <trkpt lat="35.95071018990044" lon="120.21004487669347">
        <time>2020-11-23T07:42:24.061000Z</time>
      </trkpt>
      <trkpt lat="35.95070112857545" lon="120.20998993261917">
        <time>2020-11-23T07:42:27.161000Z</time>
      </trkpt>
      <trkpt lat="35.95068373198501" lon="120.2099440037925">
        <time>2020-11-23T07:42:30.161000Z</time>
      </trkpt>
      <trkpt lat="35.95069214880186" lon="120.20994756502718">
        <time>2020-11-23T07:43:45.061000Z</time>
      </trkpt>
      <trkpt lat="35.95069890147679" lon="120.20995365934334">
        <time>2020-11-23T07:43:48.061000Z</time>
      </trkpt>
      <trkpt lat="35.95086616681522" lon="120.20984230211198">
        <time>2020-11-23T07:43:57.161000Z</time>
      </trkpt>
      <trkpt lat="35.95092476358924" lon="120.2097865266559">
        <time>2020-11-23T07:44:00.161000Z</time>
      </trkpt>
      <trkpt lat="35.95141648715819" lon="120.20961560876339">
        <time>2020-11-23T07:44:18.061000Z</time>
      </trkpt>
      <trkpt lat="35.95168107064452" lon="120.2095895523591">
        <time>2020-11-23T07:44:27.161000Z</time>
      </trkpt>
      <trkpt lat="35.95185593797058" lon="120.20958653610508">
        <time>2020-11-23T07:44:33.061000Z</time>
      </trkpt>
      <trkpt lat="35.95225294320873" lon="120.20960138180088">
        <time>2020-11-23T07:44:48.061000Z</time>
      </trkpt>
      <trkpt lat="35.952997210424606" lon="120.20934883702002">
        <time>2020-11-23T07:45:18.061000Z</time>
      </trkpt>
      <trkpt lat="35.953080215679165" lon="120.20933206957281">
        <time>2020-11-23T07:45:21.061000Z</time>
      </trkpt>
      <trkpt lat="35.95316318760025" lon="120.20929067842324">
        <time>2020-11-23T07:45:27.061000Z</time>
      </trkpt>
      <trkpt lat="35.95320414387687" lon="120.20926633763773">
        <time>2020-11-23T07:45:30.061000Z</time>
      </trkpt>
      <trkpt lat="35.953247988839955" lon="120.20926348923432">
        <time>2020-11-23T07:45:33.161000Z</time>
      </trkpt>
      <trkpt lat="35.95346224949078" lon="120.20925122145844">
        <time>2020-11-23T07:45:42.061000Z</time>
      </trkpt>
      <trkpt lat="35.95354243472843" lon="120.2092675646158">
        <time>2020-11-23T07:45:45.061000Z</time>
      </trkpt>
      <trkpt lat="35.953621941526904" lon="120.20927603891042">
        <time>2020-11-23T07:45:48.061000Z</time>
      </trkpt>
      <trkpt lat="35.95383070307932" lon="120.20924882090806">
        <time>2020-11-23T07:45:57.161000Z</time>
      </trkpt>
      <trkpt lat="35.95390183173595" lon="120.20922783381788">
        <time>2020-11-23T07:46:00.061000Z</time>
      </trkpt>
      <trkpt lat="35.953978981681345" lon="120.20921367886733">
        <time>2020-11-23T07:46:03.061000Z</time>
      </trkpt>
      <trkpt lat="35.954125551603966" lon="120.20915728401377">
        <time>2020-11-23T07:46:09.161000Z</time>
      </trkpt>
      <trkpt lat="35.954337321321084" lon="120.20907825616919">
        <time>2020-11-23T07:46:18.061000Z</time>
      </trkpt>
      <trkpt lat="35.95442090195808" lon="120.20907140215084">
        <time>2020-11-23T07:46:21.061000Z</time>
      </trkpt>
      <trkpt lat="35.95449940721487" lon="120.20906062826083">
        <time>2020-11-23T07:46:24.061000Z</time>
      </trkpt>
      <trkpt lat="35.95481776314582" lon="120.2090082781193">
        <time>2020-11-23T07:46:36.161000Z</time>
      </trkpt>
      <trkpt lat="35.95485454985679" lon="120.20900978733631">
        <time>2020-11-23T07:46:39.161000Z</time>
      </trkpt>
      <trkpt lat="35.95495941400395" lon="120.20903079000335">
        <time>2020-11-23T07:46:45.161000Z</time>
      </trkpt>
      <trkpt lat="35.95514897688844" lon="120.20905975876059">
        <time>2020-11-23T07:46:54.061000Z</time>
      </trkpt>
      <trkpt lat="35.95539705569755" lon="120.20928869373554">
        <time>2020-11-23T07:47:06.161000Z</time>
      </trkpt>
      <trkpt lat="35.95541989492786" lon="120.2094004550254">
        <time>2020-11-23T07:47:09.061000Z</time>
      </trkpt>
      <trkpt lat="35.95547249466686" lon="120.20960460133023">
        <time>2020-11-23T07:47:15.061000Z</time>
      </trkpt>
      <trkpt lat="35.95555909118058" lon="120.20991882741332">
        <time>2020-11-23T07:47:24.061000Z</time>
      </trkpt>
      <trkpt lat="35.95560844367575" lon="120.21028575278615">
        <time>2020-11-23T07:47:36.061000Z</time>
      </trkpt>
      <trkpt lat="35.955612521553874" lon="120.21037662132561">
        <time>2020-11-23T07:47:39.061000Z</time>
      </trkpt>
      <trkpt lat="35.95562251875257" lon="120.21046907643162">
        <time>2020-11-23T07:47:42.061000Z</time>
      </trkpt>
      <trkpt lat="35.9556477601443" lon="120.21065048717823">
        <time>2020-11-23T07:47:48.061000Z</time>
      </trkpt>
      <trkpt lat="35.95563116919188" lon="120.21075138831387">
        <time>2020-11-23T07:47:51.061000Z</time>
      </trkpt>
      <trkpt lat="35.955676494601896" lon="120.21106540227075">
        <time>2020-11-23T07:48:00.061000Z</time>
      </trkpt>
      <trkpt lat="35.955734627770696" lon="120.21125295313965">
        <time>2020-11-23T07:48:06.161000Z</time>
      </trkpt>
      <trkpt lat="35.95577526704565" lon="120.21133662658909">
        <time>2020-11-23T07:48:09.161000Z</time>
      </trkpt>
      <trkpt lat="35.95581766030497" lon="120.21141099486555">
        <time>2020-11-23T07:48:12.061000Z</time>
      </trkpt>
      <trkpt lat="35.955838789396736" lon="120.21173584475508">
        <time>2020-11-23T07:48:21.061000Z</time>
      </trkpt>
      <trkpt lat="35.95579676451485" lon="120.21208264510433">
        <time>2020-11-23T07:48:30.161000Z</time>
      </trkpt>
      <trkpt lat="35.95578481937586" lon="120.21247233069019">
        <time>2020-11-23T07:48:42.161000Z</time>
      </trkpt>
      <trkpt lat="35.955873412185255" lon="120.21273406073698">
        <time>2020-11-23T07:48:51.061000Z</time>
      </trkpt>
      <trkpt lat="35.95608357338586" lon="120.21279096244393">
        <time>2020-11-23T07:48:57.061000Z</time>
      </trkpt>
      <trkpt lat="35.95635515971878" lon="120.21273382441791">
        <time>2020-11-23T07:49:06.061000Z</time>
      </trkpt>
      <trkpt lat="35.95656554134529" lon="120.21270503767659">
        <time>2020-11-23T07:49:15.161000Z</time>
      </trkpt>
      <trkpt lat="35.9566308356671" lon="120.21267770423023">
        <time>2020-11-23T07:49:18.061000Z</time>
      </trkpt>
      <trkpt lat="35.95677129945092" lon="120.21280603498484">
        <time>2020-11-23T07:49:27.061000Z</time>
      </trkpt>
      <trkpt lat="35.95673386371854" lon="120.21301060382024">
        <time>2020-11-23T07:49:33.061000Z</time>
      </trkpt>
      <trkpt lat="35.956770207653925" lon="120.21348811033172">
        <time>2020-11-23T07:49:48.061000Z</time>
      </trkpt>
      <trkpt lat="35.95674602274125" lon="120.21377673031508">
        <time>2020-11-23T07:49:57.061000Z</time>
      </trkpt>
      <trkpt lat="35.9567221942142" lon="120.21425226848294">
        <time>2020-11-23T07:50:12.061000Z</time>
      </trkpt>
      <trkpt lat="35.956753093419366" lon="120.21435358448204">
        <time>2020-11-23T07:50:15.061000Z</time>
      </trkpt>
      <trkpt lat="35.95682383556837" lon="120.21455565971476">
        <time>2020-11-23T07:50:21.161000Z</time>
      </trkpt>
      <trkpt lat="35.95688758846645" lon="120.2148158792826">
        <time>2020-11-23T07:50:30.161000Z</time>
      </trkpt>
      <trkpt lat="35.956916278019044" lon="120.21486578626875">
        <time>2020-11-23T07:50:33.261000Z</time>
      </trkpt>
    </trkseg>
  </trk>
</gpx>