<?xml version="1.0" encoding="UTF-8"?>
<gpx xmlns="http://www.topografix.com/GPX/1/1" xmlns:gpxtpx="http://www.garmin.com/xmlschemas/TrackPointExtension/v1" xmlns:xsi="http://www.w3.org/2001/XMLSchema-instance" xsi:schemaLocation="http://www.topografix.com/GPX/1/1 http://www.topografix.com/GPX/1/1/gpx.xsd" version="1.1" creator="gpx.py -- https://github.com/tkrajina/gpxpy">
  <trk>
    <name>gpx from keep</name>
    <trkseg>
      <trkpt lat="35.95704535590278" lon="120.2149658203125">
        <ele>4</ele>
        <time>2018-01-15T11:10:48.900000Z</time>
      </trkpt>
      <trkpt lat="35.95706353081597" lon="120.2149769422743">
        <ele>4</ele>
        <time>2018-01-15T11:10:53Z</time>
      </trkpt>
      <trkpt lat="35.95715576171875" lon="120.21495524088542">
        <ele>4</ele>
        <time>2018-01-15T11:10:56.900000Z</time>
      </trkpt>
      <trkpt lat="35.95723551432292" lon="120.21493977864583">
        <ele>4</ele>
        <time>2018-01-15T11:11:00.900000Z</time>
      </trkpt>
      <trkpt lat="35.957271592881945" lon="120.21492784288195">
        <ele>3</ele>
        <time>2018-01-15T11:11:04Z</time>
      </trkpt>
      <trkpt lat="35.957469889322915" lon="120.21490180121528">
        <ele>4</ele>
        <time>2018-01-15T11:11:11.900000Z</time>
      </trkpt>
      <trkpt lat="35.957501356336806" lon="120.21489637586805">
        <ele>3</ele>
        <time>2018-01-15T11:11:15Z</time>
      </trkpt>
      <trkpt lat="35.957682020399304" lon="120.21483859592014">
        <ele>3</ele>
        <time>2018-01-15T11:11:23Z</time>
      </trkpt>
      <trkpt lat="35.9579296875" lon="120.21524956597223">
        <ele>3</ele>
        <time>2018-01-15T11:11:41Z</time>
      </trkpt>
      <trkpt lat="35.957928602430556" lon="120.215380859375">
        <ele>3</ele>
        <time>2018-01-15T11:11:44Z</time>
      </trkpt>
      <trkpt lat="35.95796305338542" lon="120.21559380425347">
        <ele>3</ele>
        <time>2018-01-15T11:11:51Z</time>
      </trkpt>
      <trkpt lat="35.95788791232639" lon="120.2158468967014">
        <ele>3</ele>
        <time>2018-01-15T11:12:01.900000Z</time>
      </trkpt>
      <trkpt lat="35.95775526258681" lon="120.21587239583333">
        <ele>3</ele>
        <time>2018-01-15T11:12:05.900000Z</time>
      </trkpt>
      <trkpt lat="35.95746120876736" lon="120.21590983072916">
        <ele>3</ele>
        <time>2018-01-15T11:12:16Z</time>
      </trkpt>
      <trkpt lat="35.95712944878472" lon="120.21592583550347">
        <ele>3</ele>
        <time>2018-01-15T11:12:27Z</time>
      </trkpt>
      <trkpt lat="35.9569921875" lon="120.21597710503472">
        <ele>3</ele>
        <time>2018-01-15T11:12:34Z</time>
      </trkpt>
      <trkpt lat="35.95682345920139" lon="120.21602620442708">
        <ele>3</ele>
        <time>2018-01-15T11:12:42Z</time>
      </trkpt>
      <trkpt lat="35.95671929253472" lon="120.21603705512153">
        <ele>3</ele>
        <time>2018-01-15T11:12:46Z</time>
      </trkpt>
      <trkpt lat="35.95653483072917" lon="120.21607394748264">
        <ele>3</ele>
        <time>2018-01-15T11:12:53Z</time>
      </trkpt>
      <trkpt lat="35.956435546875" lon="120.21610161675348">
        <ele>3</ele>
        <time>2018-01-15T11:12:56.900000Z</time>
      </trkpt>
      <trkpt lat="35.95635796440972" lon="120.2161168077257">
        <ele>3</ele>
        <time>2018-01-15T11:13:00Z</time>
      </trkpt>
      <trkpt lat="35.95616238064236" lon="120.21616156684028">
        <ele>3</ele>
        <time>2018-01-15T11:13:08Z</time>
      </trkpt>
      <trkpt lat="35.956064453125" lon="120.2161838107639">
        <ele>3</ele>
        <time>2018-01-15T11:13:11.900000Z</time>
      </trkpt>
      <trkpt lat="35.95598904079861" lon="120.21619194878473">
        <ele>3</ele>
        <time>2018-01-15T11:13:15Z</time>
      </trkpt>
      <trkpt lat="35.95570421006944" lon="120.21652723524305">
        <ele>3</ele>
        <time>2018-01-15T11:13:32Z</time>
      </trkpt>
      <trkpt lat="35.955624186197916" lon="120.21672281901041">
        <ele>3</ele>
        <time>2018-01-15T11:13:40Z</time>
      </trkpt>
      <trkpt lat="35.955692545572916" lon="120.21696153428819">
        <ele>3</ele>
        <time>2018-01-15T11:13:47.900000Z</time>
      </trkpt>
      <trkpt lat="35.95575466579861" lon="120.2171812608507">
        <ele>3</ele>
        <time>2018-01-15T11:13:54.900000Z</time>
      </trkpt>
      <trkpt lat="35.95577989366319" lon="120.21730116102431">
        <ele>3</ele>
        <time>2018-01-15T11:13:59Z</time>
      </trkpt>
      <trkpt lat="35.955799696180556" lon="120.21755262586805">
        <ele>3</ele>
        <time>2018-01-15T11:14:05.900000Z</time>
      </trkpt>
      <trkpt lat="35.95584228515625" lon="120.21773328993055">
        <ele>3</ele>
        <time>2018-01-15T11:14:12Z</time>
      </trkpt>
      <trkpt lat="35.955928276909724" lon="120.21790256076389">
        <ele>3</ele>
        <time>2018-01-15T11:14:18.900000Z</time>
      </trkpt>
      <trkpt lat="35.95596489800347" lon="120.21798068576389">
        <ele>3</ele>
        <time>2018-01-15T11:14:21.900000Z</time>
      </trkpt>
      <trkpt lat="35.9560386827257" lon="120.21816569010417">
        <ele>3</ele>
        <time>2018-01-15T11:14:29Z</time>
      </trkpt>
      <trkpt lat="35.95581814236111" lon="120.21857828776042">
        <ele>3</ele>
        <time>2018-01-15T11:14:46Z</time>
      </trkpt>
      <trkpt lat="35.955728895399304" lon="120.21859049479167">
        <ele>3</ele>
        <time>2018-01-15T11:14:49.900000Z</time>
      </trkpt>
      <trkpt lat="35.95564480251736" lon="120.21860188802083">
        <ele>3</ele>
        <time>2018-01-15T11:14:53Z</time>
      </trkpt>
      <trkpt lat="35.95545844184028" lon="120.21862603081597">
        <ele>3</ele>
        <time>2018-01-15T11:14:59.900000Z</time>
      </trkpt>
      <trkpt lat="35.955387369791666" lon="120.21864284939237">
        <ele>3</ele>
        <time>2018-01-15T11:15:03Z</time>
      </trkpt>
      <trkpt lat="35.95531711154514" lon="120.21865641276041">
        <ele>3</ele>
        <time>2018-01-15T11:15:06Z</time>
      </trkpt>
      <trkpt lat="35.95516737196181" lon="120.21867838541667">
        <ele>3</ele>
        <time>2018-01-15T11:15:12.900000Z</time>
      </trkpt>
      <trkpt lat="35.955057508680554" lon="120.21871066623264">
        <ele>3</ele>
        <time>2018-01-15T11:15:16.900000Z</time>
      </trkpt>
      <trkpt lat="35.95460720486111" lon="120.21879421657987">
        <ele>3</ele>
        <time>2018-01-15T11:15:32.900000Z</time>
      </trkpt>
      <trkpt lat="35.954393717447914" lon="120.21879421657987">
        <ele>3</ele>
        <time>2018-01-15T11:15:39.900000Z</time>
      </trkpt>
      <trkpt lat="35.95429307725694" lon="120.21881103515625">
        <ele>3</ele>
        <time>2018-01-15T11:15:43.900000Z</time>
      </trkpt>
      <trkpt lat="35.954104817708334" lon="120.2188538953993">
        <ele>3</ele>
        <time>2018-01-15T11:15:50.900000Z</time>
      </trkpt>
      <trkpt lat="35.953717176649306" lon="120.2189767795139">
        <ele>3</ele>
        <time>2018-01-15T11:16:06.900000Z</time>
      </trkpt>
      <trkpt lat="35.953607855902774" lon="120.21900173611111">
        <ele>3</ele>
        <time>2018-01-15T11:16:11Z</time>
      </trkpt>
      <trkpt lat="35.95340494791667" lon="120.21903781467014">
        <ele>3</ele>
        <time>2018-01-15T11:16:18Z</time>
      </trkpt>
      <trkpt lat="35.95325737847222" lon="120.21900363498264">
        <ele>3</ele>
        <time>2018-01-15T11:16:24Z</time>
      </trkpt>
      <trkpt lat="35.953167588975695" lon="120.21894856770834">
        <ele>3</ele>
        <time>2018-01-15T11:16:27.900000Z</time>
      </trkpt>
      <trkpt lat="35.952899576822915" lon="120.2186390516493">
        <ele>3</ele>
        <time>2018-01-15T11:16:43Z</time>
      </trkpt>
      <trkpt lat="35.95287624782986" lon="120.21851236979167">
        <ele>4</ele>
        <time>2018-01-15T11:16:46.900000Z</time>
      </trkpt>
      <trkpt lat="35.952845323350694" lon="120.21830268012152">
        <ele>4</ele>
        <time>2018-01-15T11:16:53.900000Z</time>
      </trkpt>
      <trkpt lat="35.95282172309028" lon="120.21822374131945">
        <ele>4</ele>
        <time>2018-01-15T11:16:57Z</time>
      </trkpt>
      <trkpt lat="35.952799750434025" lon="120.21814832899305">
        <ele>4</ele>
        <time>2018-01-15T11:17:00Z</time>
      </trkpt>
      <trkpt lat="35.95275987413194" lon="120.21790798611111">
        <ele>4</ele>
        <time>2018-01-15T11:17:06.900000Z</time>
      </trkpt>
      <trkpt lat="35.95274495442708" lon="120.21780734592014">
        <ele>4</ele>
        <time>2018-01-15T11:17:09.900000Z</time>
      </trkpt>
      <trkpt lat="35.952723524305554" lon="120.21771918402777">
        <ele>4</ele>
        <time>2018-01-15T11:17:12.900000Z</time>
      </trkpt>
      <trkpt lat="35.952671983506946" lon="120.21746066623264">
        <ele>4</ele>
        <time>2018-01-15T11:17:20.900000Z</time>
      </trkpt>
      <trkpt lat="35.95263834635416" lon="120.21734049479167">
        <ele>4</ele>
        <time>2018-01-15T11:17:24.900000Z</time>
      </trkpt>
      <trkpt lat="35.952596028645836" lon="120.2171337890625">
        <ele>4</ele>
        <time>2018-01-15T11:17:32Z</time>
      </trkpt>
      <trkpt lat="35.952578938802084" lon="120.21705376519097">
        <ele>4</ele>
        <time>2018-01-15T11:17:35Z</time>
      </trkpt>
      <trkpt lat="35.9524853515625" lon="120.21681694878473">
        <ele>3</ele>
        <time>2018-01-15T11:17:42.900000Z</time>
      </trkpt>
      <trkpt lat="35.95246256510416" lon="120.21673692491319">
        <ele>3</ele>
        <time>2018-01-15T11:17:45.900000Z</time>
      </trkpt>
      <trkpt lat="35.952405327690975" lon="120.21651068793403">
        <ele>3</ele>
        <time>2018-01-15T11:17:53.900000Z</time>
      </trkpt>
      <trkpt lat="35.95238606770833" lon="120.21638726128472">
        <ele>3</ele>
        <time>2018-01-15T11:17:57.900000Z</time>
      </trkpt>
      <trkpt lat="35.95234375" lon="120.21617377387153">
        <ele>3</ele>
        <time>2018-01-15T11:18:04.900000Z</time>
      </trkpt>
      <trkpt lat="35.95232231987847" lon="120.21604736328125">
        <ele>3</ele>
        <time>2018-01-15T11:18:08.900000Z</time>
      </trkpt>
      <trkpt lat="35.9521142578125" lon="120.21584906684028">
        <ele>3</ele>
        <time>2018-01-15T11:18:21.900000Z</time>
      </trkpt>
      <trkpt lat="35.95190131293403" lon="120.2157701280382">
        <ele>3</ele>
        <time>2018-01-15T11:18:31.900000Z</time>
      </trkpt>
      <trkpt lat="35.95151285807292" lon="120.2157156032986">
        <ele>3</ele>
        <time>2018-01-15T11:18:48.900000Z</time>
      </trkpt>
      <trkpt lat="35.95144802517361" lon="120.21572184244792">
        <ele>3</ele>
        <time>2018-01-15T11:18:51.900000Z</time>
      </trkpt>
      <trkpt lat="35.95134602864584" lon="120.21576551649305">
        <ele>4</ele>
        <time>2018-01-15T11:18:55.900000Z</time>
      </trkpt>
      <trkpt lat="35.95115668402778" lon="120.21583713107638">
        <ele>4</ele>
        <time>2018-01-15T11:19:02.900000Z</time>
      </trkpt>
      <trkpt lat="35.951075846354165" lon="120.21585611979167">
        <ele>4</ele>
        <time>2018-01-15T11:19:05.900000Z</time>
      </trkpt>
      <trkpt lat="35.950870225694445" lon="120.21589138454861">
        <ele>4</ele>
        <time>2018-01-15T11:19:12.900000Z</time>
      </trkpt>
      <trkpt lat="35.950792914496525" lon="120.21591281467013">
        <ele>4</ele>
        <time>2018-01-15T11:19:15.900000Z</time>
      </trkpt>
      <trkpt lat="35.95069064670139" lon="120.21592556423612">
        <ele>4</ele>
        <time>2018-01-15T11:19:19.900000Z</time>
      </trkpt>
      <trkpt lat="35.950426432291664" lon="120.21600396050347">
        <ele>4</ele>
        <time>2018-01-15T11:19:30.900000Z</time>
      </trkpt>
      <trkpt lat="35.95035888671875" lon="120.21604682074653">
        <ele>4</ele>
        <time>2018-01-15T11:19:33.900000Z</time>
      </trkpt>
      <trkpt lat="35.95017171223958" lon="120.21612847222222">
        <ele>4</ele>
        <time>2018-01-15T11:19:41.900000Z</time>
      </trkpt>
      <trkpt lat="35.95008572048611" lon="120.21614963107639">
        <ele>4</ele>
        <time>2018-01-15T11:19:45.900000Z</time>
      </trkpt>
      <trkpt lat="35.949710557725695" lon="120.21618082682292">
        <ele>4</ele>
        <time>2018-01-15T11:20:00.900000Z</time>
      </trkpt>
      <trkpt lat="35.94961534288194" lon="120.21620225694444">
        <ele>4</ele>
        <time>2018-01-15T11:20:04.900000Z</time>
      </trkpt>
      <trkpt lat="35.94944064670139" lon="120.21623914930555">
        <ele>4</ele>
        <time>2018-01-15T11:20:11.900000Z</time>
      </trkpt>
      <trkpt lat="35.94933295355903" lon="120.21627794053819">
        <ele>4</ele>
        <time>2018-01-15T11:20:15.900000Z</time>
      </trkpt>
      <trkpt lat="35.949154459635416" lon="120.2163406032986">
        <ele>4</ele>
        <time>2018-01-15T11:20:22.900000Z</time>
      </trkpt>
      <trkpt lat="35.94905164930555" lon="120.21635986328126">
        <ele>4</ele>
        <time>2018-01-15T11:20:26.900000Z</time>
      </trkpt>
      <trkpt lat="35.948878851996525" lon="120.21638563368056">
        <ele>4</ele>
        <time>2018-01-15T11:20:32.900000Z</time>
      </trkpt>
      <trkpt lat="35.9488134765625" lon="120.2164013671875">
        <ele>3</ele>
        <time>2018-01-15T11:20:36Z</time>
      </trkpt>
      <trkpt lat="35.94854899088541" lon="120.21643853081598">
        <ele>4</ele>
        <time>2018-01-15T11:20:46.900000Z</time>
      </trkpt>
      <trkpt lat="35.94839382595486" lon="120.21643717447917">
        <ele>3</ele>
        <time>2018-01-15T11:20:53.900000Z</time>
      </trkpt>
      <trkpt lat="35.94831732855903" lon="120.21643853081598">
        <ele>3</ele>
        <time>2018-01-15T11:20:56.900000Z</time>
      </trkpt>
      <trkpt lat="35.94821723090278" lon="120.21646484375">
        <ele>3</ele>
        <time>2018-01-15T11:21:00.900000Z</time>
      </trkpt>
      <trkpt lat="35.94805257161458" lon="120.21650119357639">
        <ele>3</ele>
        <time>2018-01-15T11:21:06.900000Z</time>
      </trkpt>
      <trkpt lat="35.94798312717014" lon="120.2165345594618">
        <ele>3</ele>
        <time>2018-01-15T11:21:10Z</time>
      </trkpt>
      <trkpt lat="35.94787353515625" lon="120.21656141493055">
        <ele>3</ele>
        <time>2018-01-15T11:21:13.900000Z</time>
      </trkpt>
      <trkpt lat="35.94771538628472" lon="120.21658799913195">
        <ele>3</ele>
        <time>2018-01-15T11:21:19.900000Z</time>
      </trkpt>
      <trkpt lat="35.94761013454861" lon="120.21659342447917">
        <ele>3</ele>
        <time>2018-01-15T11:21:23.900000Z</time>
      </trkpt>
      <trkpt lat="35.947413736979165" lon="120.21663519965277">
        <ele>3</ele>
        <time>2018-01-15T11:21:30.900000Z</time>
      </trkpt>
      <trkpt lat="35.94734347873264" lon="120.21665337456598">
        <ele>3</ele>
        <time>2018-01-15T11:21:33.900000Z</time>
      </trkpt>
      <trkpt lat="35.94727077907986" lon="120.21667860243056">
        <ele>3</ele>
        <time>2018-01-15T11:21:36.900000Z</time>
      </trkpt>
      <trkpt lat="35.94706624348958" lon="120.21674289279514">
        <ele>3</ele>
        <time>2018-01-15T11:21:44.900000Z</time>
      </trkpt>
      <trkpt lat="35.946988118489585" lon="120.21676052517361">
        <ele>3</ele>
        <time>2018-01-15T11:21:47.900000Z</time>
      </trkpt>
      <trkpt lat="35.946729058159725" lon="120.2168470594618">
        <ele>3</ele>
        <time>2018-01-15T11:21:59Z</time>
      </trkpt>
      <trkpt lat="35.946567111545136" lon="120.2169091796875">
        <ele>3</ele>
        <time>2018-01-15T11:22:05.900000Z</time>
      </trkpt>
      <trkpt lat="35.946498752170136" lon="120.21692789713542">
        <ele>3</ele>
        <time>2018-01-15T11:22:08.900000Z</time>
      </trkpt>
      <trkpt lat="35.946255154079864" lon="120.21698486328125">
        <ele>3</ele>
        <time>2018-01-15T11:22:18.900000Z</time>
      </trkpt>
      <trkpt lat="35.94618082682292" lon="120.21701985677083">
        <ele>3</ele>
        <time>2018-01-15T11:22:21.900000Z</time>
      </trkpt>
      <trkpt lat="35.94611545138889" lon="120.21705810546875">
        <ele>3</ele>
        <time>2018-01-15T11:22:26Z</time>
      </trkpt>
      <trkpt lat="35.945948893229165" lon="120.2171373155382">
        <ele>3</ele>
        <time>2018-01-15T11:22:32.900000Z</time>
      </trkpt>
      <trkpt lat="35.94584798177083" lon="120.21717122395833">
        <ele>3</ele>
        <time>2018-01-15T11:22:36.900000Z</time>
      </trkpt>
      <trkpt lat="35.945673285590274" lon="120.21723931206597">
        <ele>3</ele>
        <time>2018-01-15T11:22:43.900000Z</time>
      </trkpt>
      <trkpt lat="35.94557074652778" lon="120.21727620442708">
        <ele>3</ele>
        <time>2018-01-15T11:22:47.900000Z</time>
      </trkpt>
      <trkpt lat="35.94551052517361" lon="120.2173025173611">
        <ele>3</ele>
        <time>2018-01-15T11:22:50.900000Z</time>
      </trkpt>
      <trkpt lat="35.945322265625" lon="120.21738850911458">
        <ele>3</ele>
        <time>2018-01-15T11:22:58.900000Z</time>
      </trkpt>
      <trkpt lat="35.945247667100695" lon="120.21742594401042">
        <ele>3</ele>
        <time>2018-01-15T11:23:01.900000Z</time>
      </trkpt>
      <trkpt lat="35.94506049262153" lon="120.217509765625">
        <ele>3</ele>
        <time>2018-01-15T11:23:09.900000Z</time>
      </trkpt>
      <trkpt lat="35.944895833333334" lon="120.2175830078125">
        <ele>3</ele>
        <time>2018-01-15T11:23:16.900000Z</time>
      </trkpt>
      <trkpt lat="35.94479275173611" lon="120.21763780381944">
        <ele>3</ele>
        <time>2018-01-15T11:23:21Z</time>
      </trkpt>
      <trkpt lat="35.94461100260417" lon="120.21773708767361">
        <ele>3</ele>
        <time>2018-01-15T11:23:29Z</time>
      </trkpt>
      <trkpt lat="35.94453993055556" lon="120.21777804904514">
        <ele>3</ele>
        <time>2018-01-15T11:23:32Z</time>
      </trkpt>
      <trkpt lat="35.94446424696181" lon="120.21781412760417">
        <ele>3</ele>
        <time>2018-01-15T11:23:35Z</time>
      </trkpt>
      <trkpt lat="35.94428819444445" lon="120.21791042751737">
        <ele>3</ele>
        <time>2018-01-15T11:23:42.900000Z</time>
      </trkpt>
      <trkpt lat="35.94418240017361" lon="120.2179771592882">
        <ele>3</ele>
        <time>2018-01-15T11:23:46.900000Z</time>
      </trkpt>
      <trkpt lat="35.943951009114585" lon="120.21811414930555">
        <ele>3</ele>
        <time>2018-01-15T11:23:57.900000Z</time>
      </trkpt>
      <trkpt lat="35.94384982638889" lon="120.21806260850694">
        <ele>3</ele>
        <time>2018-01-15T11:24:04.900000Z</time>
      </trkpt>
      <trkpt lat="35.94371934678819" lon="120.21785753038195">
        <ele>3</ele>
        <time>2018-01-15T11:24:12.900000Z</time>
      </trkpt>
      <trkpt lat="35.943454861111114" lon="120.2173744032118">
        <ele>3</ele>
        <time>2018-01-15T11:24:31.900000Z</time>
      </trkpt>
      <trkpt lat="35.94329861111111" lon="120.21710367838541">
        <ele>3</ele>
        <time>2018-01-15T11:24:43Z</time>
      </trkpt>
      <trkpt lat="35.94319715711806" lon="120.21691758897569">
        <ele>3</ele>
        <time>2018-01-15T11:24:50.900000Z</time>
      </trkpt>
      <trkpt lat="35.94315375434028" lon="120.21684787326389">
        <ele>3</ele>
        <time>2018-01-15T11:24:53.900000Z</time>
      </trkpt>
      <trkpt lat="35.94310574001736" lon="120.21677734375">
        <ele>3</ele>
        <time>2018-01-15T11:24:56.900000Z</time>
      </trkpt>
      <trkpt lat="35.94298828125" lon="120.21660074869791">
        <ele>3</ele>
        <time>2018-01-15T11:25:04Z</time>
      </trkpt>
      <trkpt lat="35.942928059895834" lon="120.21650716145834">
        <ele>3</ele>
        <time>2018-01-15T11:25:07.900000Z</time>
      </trkpt>
      <trkpt lat="35.94283094618056" lon="120.21633707682291">
        <ele>3</ele>
        <time>2018-01-15T11:25:14.900000Z</time>
      </trkpt>
      <trkpt lat="35.9427783203125" lon="120.21623589409722">
        <ele>3</ele>
        <time>2018-01-15T11:25:18.900000Z</time>
      </trkpt>
      <trkpt lat="35.94268174913194" lon="120.21610378689236">
        <ele>3</ele>
        <time>2018-01-15T11:25:24.900000Z</time>
      </trkpt>
      <trkpt lat="35.942621256510414" lon="120.21600775824653">
        <ele>3</ele>
        <time>2018-01-15T11:25:28.900000Z</time>
      </trkpt>
      <trkpt lat="35.94258761935764" lon="120.21593994140625">
        <ele>3</ele>
        <time>2018-01-15T11:25:31.900000Z</time>
      </trkpt>
      <trkpt lat="35.94249837239583" lon="120.21578586154514">
        <ele>3</ele>
        <time>2018-01-15T11:25:37.900000Z</time>
      </trkpt>
      <trkpt lat="35.94244194878472" lon="120.21569010416667">
        <ele>3</ele>
        <time>2018-01-15T11:25:41.900000Z</time>
      </trkpt>
      <trkpt lat="35.942394205729165" lon="120.2155970594618">
        <ele>3</ele>
        <time>2018-01-15T11:25:45.900000Z</time>
      </trkpt>
      <trkpt lat="35.94232964409722" lon="120.21543050130208">
        <ele>3</ele>
        <time>2018-01-15T11:25:52.900000Z</time>
      </trkpt>
      <trkpt lat="35.94229112413194" lon="120.21535101996528">
        <ele>3</ele>
        <time>2018-01-15T11:25:56Z</time>
      </trkpt>
      <trkpt lat="35.942173936631946" lon="120.21515245225694">
        <ele>3</ele>
        <time>2018-01-15T11:26:04Z</time>
      </trkpt>
      <trkpt lat="35.94212944878472" lon="120.21507866753473">
        <ele>3</ele>
        <time>2018-01-15T11:26:07Z</time>
      </trkpt>
      <trkpt lat="35.94195719401041" lon="120.21478190104166">
        <ele>3</ele>
        <time>2018-01-15T11:26:17.900000Z</time>
      </trkpt>
      <trkpt lat="35.941874457465275" lon="120.2147043185764">
        <ele>3</ele>
        <time>2018-01-15T11:26:21.900000Z</time>
      </trkpt>
      <trkpt lat="35.94202880859375" lon="120.21432671440972">
        <ele>3</ele>
        <time>2018-01-15T11:26:39.900000Z</time>
      </trkpt>
      <trkpt lat="35.942105034722225" lon="120.21431043836806">
        <ele>3</ele>
        <time>2018-01-15T11:26:42.900000Z</time>
      </trkpt>
      <trkpt lat="35.94228461371528" lon="120.21426133897569">
        <ele>3</ele>
        <time>2018-01-15T11:26:49.900000Z</time>
      </trkpt>
      <trkpt lat="35.942357042100696" lon="120.21423394097222">
        <ele>3</ele>
        <time>2018-01-15T11:26:53Z</time>
      </trkpt>
      <trkpt lat="35.94252739800347" lon="120.21414822048611">
        <ele>3</ele>
        <time>2018-01-15T11:26:59.900000Z</time>
      </trkpt>
      <trkpt lat="35.9426171875" lon="120.21409695095485">
        <ele>3</ele>
        <time>2018-01-15T11:27:03.900000Z</time>
      </trkpt>
      <trkpt lat="35.942776150173614" lon="120.21401448567708">
        <ele>3</ele>
        <time>2018-01-15T11:27:10.900000Z</time>
      </trkpt>
      <trkpt lat="35.94295383029514" lon="120.2139857313368">
        <ele>3</ele>
        <time>2018-01-15T11:27:17.900000Z</time>
      </trkpt>
      <trkpt lat="35.94302951388889" lon="120.2139794921875">
        <ele>3</ele>
        <time>2018-01-15T11:27:21Z</time>
      </trkpt>
      <trkpt lat="35.94313178168403" lon="120.21397026909722">
        <ele>3</ele>
        <time>2018-01-15T11:27:24.900000Z</time>
      </trkpt>
      <trkpt lat="35.943309733072915" lon="120.21395562065972">
        <ele>3</ele>
        <time>2018-01-15T11:27:31.900000Z</time>
      </trkpt>
      <trkpt lat="35.943385959201386" lon="120.2139369032118">
        <ele>3</ele>
        <time>2018-01-15T11:27:35Z</time>
      </trkpt>
      <trkpt lat="35.94355875651042" lon="120.2138636610243">
        <ele>3</ele>
        <time>2018-01-15T11:27:41.900000Z</time>
      </trkpt>
      <trkpt lat="35.94365532769097" lon="120.21382188585069">
        <ele>3</ele>
        <time>2018-01-15T11:27:45.900000Z</time>
      </trkpt>
      <trkpt lat="35.943814019097225" lon="120.21377983940972">
        <ele>3</ele>
        <time>2018-01-15T11:27:51.900000Z</time>
      </trkpt>
      <trkpt lat="35.94402262369792" lon="120.21380940755208">
        <ele>3</ele>
        <time>2018-01-15T11:27:59.900000Z</time>
      </trkpt>
      <trkpt lat="35.94417046440972" lon="120.21388156467015">
        <ele>3</ele>
        <time>2018-01-15T11:28:06Z</time>
      </trkpt>
      <trkpt lat="35.944264322916666" lon="120.21392930772569">
        <ele>3</ele>
        <time>2018-01-15T11:28:09.900000Z</time>
      </trkpt>
      <trkpt lat="35.94451199001736" lon="120.21398681640625">
        <ele>3</ele>
        <time>2018-01-15T11:28:20Z</time>
      </trkpt>
      <trkpt lat="35.94460259331597" lon="120.21396945529514">
        <ele>3</ele>
        <time>2018-01-15T11:28:23.900000Z</time>
      </trkpt>
      <trkpt lat="35.9447021484375" lon="120.21395453559028">
        <ele>3</ele>
        <time>2018-01-15T11:28:27.900000Z</time>
      </trkpt>
      <trkpt lat="35.94490939670139" lon="120.2139076063368">
        <ele>3</ele>
        <time>2018-01-15T11:28:35.900000Z</time>
      </trkpt>
      <trkpt lat="35.94498046875" lon="120.21388970269098">
        <ele>3</ele>
        <time>2018-01-15T11:28:39Z</time>
      </trkpt>
      <trkpt lat="35.945049913194445" lon="120.21387044270833">
        <ele>3</ele>
        <time>2018-01-15T11:28:42Z</time>
      </trkpt>
      <trkpt lat="35.945233289930556" lon="120.21384874131944">
        <ele>3</ele>
        <time>2018-01-15T11:28:48.900000Z</time>
      </trkpt>
      <trkpt lat="35.94531087239584" lon="120.2138441297743">
        <ele>3</ele>
        <time>2018-01-15T11:28:51.900000Z</time>
      </trkpt>
      <trkpt lat="35.94540418836806" lon="120.21383219401042">
        <ele>3</ele>
        <time>2018-01-15T11:28:55.900000Z</time>
      </trkpt>
      <trkpt lat="35.94557047526042" lon="120.21380045572917">
        <ele>3</ele>
        <time>2018-01-15T11:29:02.900000Z</time>
      </trkpt>
      <trkpt lat="35.945644259982636" lon="120.2137953016493">
        <ele>3</ele>
        <time>2018-01-15T11:29:05.900000Z</time>
      </trkpt>
      <trkpt lat="35.94581787109375" lon="120.21378662109375">
        <ele>3</ele>
        <time>2018-01-15T11:29:12.900000Z</time>
      </trkpt>
      <trkpt lat="35.9459242078993" lon="120.21377549913194">
        <ele>3</ele>
        <time>2018-01-15T11:29:16.900000Z</time>
      </trkpt>
      <trkpt lat="35.946126573350696" lon="120.21375569661458">
        <ele>3</ele>
        <time>2018-01-15T11:29:25Z</time>
      </trkpt>
      <trkpt lat="35.94622585720486" lon="120.21374701605903">
        <ele>3</ele>
        <time>2018-01-15T11:29:28.900000Z</time>
      </trkpt>
      <trkpt lat="35.94640380859375" lon="120.21372802734375">
        <ele>3</ele>
        <time>2018-01-15T11:29:35.900000Z</time>
      </trkpt>
      <trkpt lat="35.9464781358507" lon="120.21371826171875">
        <ele>3</ele>
        <time>2018-01-15T11:29:38.900000Z</time>
      </trkpt>
      <trkpt lat="35.946568467881946" lon="120.21369764539931">
        <ele>3</ele>
        <time>2018-01-15T11:29:42.900000Z</time>
      </trkpt>
      <trkpt lat="35.94677680121528" lon="120.21367078993056">
        <ele>3</ele>
        <time>2018-01-15T11:29:50.900000Z</time>
      </trkpt>
      <trkpt lat="35.94688720703125" lon="120.21365370008681">
        <ele>3</ele>
        <time>2018-01-15T11:29:54.900000Z</time>
      </trkpt>
      <trkpt lat="35.94715033637153" lon="120.2134752061632">
        <ele>3</ele>
        <time>2018-01-15T11:30:10Z</time>
      </trkpt>
      <trkpt lat="35.94713840060764" lon="120.21337483723958">
        <ele>3</ele>
        <time>2018-01-15T11:30:13Z</time>
      </trkpt>
      <trkpt lat="35.94712890625" lon="120.21324327256944">
        <ele>3</ele>
        <time>2018-01-15T11:30:16.900000Z</time>
      </trkpt>
      <trkpt lat="35.94709716796875" lon="120.21301730685764">
        <ele>3</ele>
        <time>2018-01-15T11:30:23.900000Z</time>
      </trkpt>
      <trkpt lat="35.94708550347222" lon="120.21292941623264">
        <ele>3</ele>
        <time>2018-01-15T11:30:27Z</time>
      </trkpt>
      <trkpt lat="35.94706759982639" lon="120.21272108289931">
        <ele>3</ele>
        <time>2018-01-15T11:30:34Z</time>
      </trkpt>
      <trkpt lat="35.947063530815974" lon="120.21263210720485">
        <ele>3</ele>
        <time>2018-01-15T11:30:37Z</time>
      </trkpt>
      <trkpt lat="35.94705240885417" lon="120.2125132921007">
        <ele>3</ele>
        <time>2018-01-15T11:30:40.900000Z</time>
      </trkpt>
      <trkpt lat="35.94710530598958" lon="120.21209391276042">
        <ele>3</ele>
        <time>2018-01-15T11:30:56Z</time>
      </trkpt>
      <trkpt lat="35.94716118706597" lon="120.21198838975694">
        <ele>3</ele>
        <time>2018-01-15T11:30:59.900000Z</time>
      </trkpt>
      <trkpt lat="35.94723470052083" lon="120.2118296983507">
        <ele>3</ele>
        <time>2018-01-15T11:31:05.900000Z</time>
      </trkpt>
      <trkpt lat="35.94728298611111" lon="120.2117249891493">
        <ele>3</ele>
        <time>2018-01-15T11:31:09.900000Z</time>
      </trkpt>
      <trkpt lat="35.94732747395833" lon="120.2116148546007">
        <ele>3</ele>
        <time>2018-01-15T11:31:13.900000Z</time>
      </trkpt>
      <trkpt lat="35.947414279513886" lon="120.21142985026042">
        <ele>3</ele>
        <time>2018-01-15T11:31:20.900000Z</time>
      </trkpt>
      <trkpt lat="35.94745144314236" lon="120.21134738498264">
        <ele>3</ele>
        <time>2018-01-15T11:31:23.900000Z</time>
      </trkpt>
      <trkpt lat="35.94749267578125" lon="120.21123480902777">
        <ele>3</ele>
        <time>2018-01-15T11:31:27.900000Z</time>
      </trkpt>
      <trkpt lat="35.94757161458333" lon="120.2110365125868">
        <ele>3</ele>
        <time>2018-01-15T11:31:34.900000Z</time>
      </trkpt>
      <trkpt lat="35.94760877821181" lon="120.21093044704861">
        <ele>3</ele>
        <time>2018-01-15T11:31:38.900000Z</time>
      </trkpt>
      <trkpt lat="35.947688802083334" lon="120.2107115342882">
        <ele>3</ele>
        <time>2018-01-15T11:31:46.900000Z</time>
      </trkpt>
      <trkpt lat="35.9477379014757" lon="120.21061442057292">
        <ele>3</ele>
        <time>2018-01-15T11:31:51Z</time>
      </trkpt>
      <trkpt lat="35.94782199435764" lon="120.21040147569444">
        <ele>3</ele>
        <time>2018-01-15T11:31:58.900000Z</time>
      </trkpt>
      <trkpt lat="35.94785319010417" lon="120.21031385633681">
        <ele>3</ele>
        <time>2018-01-15T11:32:02Z</time>
      </trkpt>
      <trkpt lat="35.947925618489585" lon="120.21012152777777">
        <ele>3</ele>
        <time>2018-01-15T11:32:08.900000Z</time>
      </trkpt>
      <trkpt lat="35.94798963758681" lon="120.20993028428819">
        <ele>3</ele>
        <time>2018-01-15T11:32:15.900000Z</time>
      </trkpt>
      <trkpt lat="35.9479994032118" lon="120.20969346788195">
        <ele>3</ele>
        <time>2018-01-15T11:32:23.900000Z</time>
      </trkpt>
      <trkpt lat="35.9479931640625" lon="120.20960611979167">
        <ele>3</ele>
        <time>2018-01-15T11:32:26.900000Z</time>
      </trkpt>
      <trkpt lat="35.94797498914931" lon="120.20949517144098">
        <ele>3</ele>
        <time>2018-01-15T11:32:30.900000Z</time>
      </trkpt>
      <trkpt lat="35.94816541883681" lon="120.2093701171875">
        <ele>3</ele>
        <time>2018-01-15T11:32:45Z</time>
      </trkpt>
      <trkpt lat="35.948262803819446" lon="120.20943386501736">
        <ele>3</ele>
        <time>2018-01-15T11:32:48.900000Z</time>
      </trkpt>
      <trkpt lat="35.94842719184028" lon="120.20954182942708">
        <ele>3</ele>
        <time>2018-01-15T11:32:55.900000Z</time>
      </trkpt>
      <trkpt lat="35.94857123480903" lon="120.20953097873264">
        <ele>3</ele>
        <time>2018-01-15T11:33:02Z</time>
      </trkpt>
      <trkpt lat="35.948825412326386" lon="120.20951009114583">
        <ele>3</ele>
        <time>2018-01-15T11:33:12.900000Z</time>
      </trkpt>
      <trkpt lat="35.94892768012153" lon="120.20953097873264">
        <ele>3</ele>
        <time>2018-01-15T11:33:16.900000Z</time>
      </trkpt>
      <trkpt lat="35.94900363498264" lon="120.20954020182292">
        <ele>3</ele>
        <time>2018-01-15T11:33:19.900000Z</time>
      </trkpt>
      <trkpt lat="35.949192708333335" lon="120.20955674913195">
        <ele>3</ele>
        <time>2018-01-15T11:33:27Z</time>
      </trkpt>
      <trkpt lat="35.94929361979167" lon="120.2095827907986">
        <ele>3</ele>
        <time>2018-01-15T11:33:30.900000Z</time>
      </trkpt>
      <trkpt lat="35.94936550564236" lon="120.20960476345486">
        <ele>3</ele>
        <time>2018-01-15T11:33:33.900000Z</time>
      </trkpt>
      <trkpt lat="35.94953586154514" lon="120.20964084201388">
        <ele>3</ele>
        <time>2018-01-15T11:33:40.900000Z</time>
      </trkpt>
      <trkpt lat="35.94964409722222" lon="120.20965603298612">
        <ele>3</ele>
        <time>2018-01-15T11:33:44.900000Z</time>
      </trkpt>
      <trkpt lat="35.94982611762153" lon="120.20967502170139">
        <ele>3</ele>
        <time>2018-01-15T11:33:51.900000Z</time>
      </trkpt>
      <trkpt lat="35.94992974175347" lon="120.20967502170139">
        <ele>3</ele>
        <time>2018-01-15T11:33:55.900000Z</time>
      </trkpt>
      <trkpt lat="35.95007052951389" lon="120.20972249348958">
        <ele>3</ele>
        <time>2018-01-15T11:34:01.900000Z</time>
      </trkpt>
      <trkpt lat="35.950199381510416" lon="120.2097252061632">
        <ele>3</ele>
        <time>2018-01-15T11:34:07.900000Z</time>
      </trkpt>
      <trkpt lat="35.950276150173615" lon="120.2096986219618">
        <ele>3</ele>
        <time>2018-01-15T11:34:11Z</time>
      </trkpt>
      <trkpt lat="35.95034695095486" lon="120.20966715494792">
        <ele>3</ele>
        <time>2018-01-15T11:34:14Z</time>
      </trkpt>
      <trkpt lat="35.95063069661458" lon="120.20972927517361">
        <ele>3</ele>
        <time>2018-01-15T11:34:28.900000Z</time>
      </trkpt>
      <trkpt lat="35.95063937717014" lon="120.20974500868056">
        <ele>3</ele>
        <time>2018-01-15T11:34:31.900000Z</time>
      </trkpt>
      <trkpt lat="35.95064453125" lon="120.20974419487847">
        <ele>3</ele>
        <time>2018-01-15T11:34:36Z</time>
      </trkpt>
      <trkpt lat="35.95064344618056" lon="120.20973470052083">
        <ele>3</ele>
        <time>2018-01-15T11:34:39.900000Z</time>
      </trkpt>
      <trkpt lat="35.95077555338542" lon="120.2096910264757">
        <ele>3</ele>
        <time>2018-01-15T11:34:52.900000Z</time>
      </trkpt>
      <trkpt lat="35.95086371527778" lon="120.20968451605903">
        <ele>3</ele>
        <time>2018-01-15T11:34:55.900000Z</time>
      </trkpt>
      <trkpt lat="35.95105821397569" lon="120.2096847873264">
        <ele>3</ele>
        <time>2018-01-15T11:35:02.900000Z</time>
      </trkpt>
      <trkpt lat="35.951166178385414" lon="120.20966335720486">
        <ele>3</ele>
        <time>2018-01-15T11:35:06.900000Z</time>
      </trkpt>
      <trkpt lat="35.95135769314236" lon="120.20962076822917">
        <ele>3</ele>
        <time>2018-01-15T11:35:14.900000Z</time>
      </trkpt>
      <trkpt lat="35.951435275607636" lon="120.20961073133681">
        <ele>3</ele>
        <time>2018-01-15T11:35:17.900000Z</time>
      </trkpt>
      <trkpt lat="35.95165066189236" lon="120.20957709418403">
        <ele>3</ele>
        <time>2018-01-15T11:35:25.900000Z</time>
      </trkpt>
      <trkpt lat="35.95174424913194" lon="120.2095591905382">
        <ele>3</ele>
        <time>2018-01-15T11:35:29.900000Z</time>
      </trkpt>
      <trkpt lat="35.951954210069445" lon="120.20953260633681">
        <ele>3</ele>
        <time>2018-01-15T11:35:37.900000Z</time>
      </trkpt>
      <trkpt lat="35.95205023871528" lon="120.20952338324653">
        <ele>3</ele>
        <time>2018-01-15T11:35:41.900000Z</time>
      </trkpt>
      <trkpt lat="35.952250434027775" lon="120.2094935438368">
        <ele>3</ele>
        <time>2018-01-15T11:35:49.900000Z</time>
      </trkpt>
      <trkpt lat="35.95233317057291" lon="120.20948187934027">
        <ele>3</ele>
        <time>2018-01-15T11:35:52.900000Z</time>
      </trkpt>
      <trkpt lat="35.95254530164931" lon="120.20944417317709">
        <ele>3</ele>
        <time>2018-01-15T11:36:00.900000Z</time>
      </trkpt>
      <trkpt lat="35.95261935763889" lon="120.20942735460069">
        <ele>3</ele>
        <time>2018-01-15T11:36:03.900000Z</time>
      </trkpt>
      <trkpt lat="35.95279839409722" lon="120.20937798394097">
        <ele>3</ele>
        <time>2018-01-15T11:36:11.900000Z</time>
      </trkpt>
      <trkpt lat="35.95287787543403" lon="120.20937554253472">
        <ele>3</ele>
        <time>2018-01-15T11:36:14.900000Z</time>
      </trkpt>
      <trkpt lat="35.95306450737847" lon="120.20936496310765">
        <ele>3</ele>
        <time>2018-01-15T11:36:22Z</time>
      </trkpt>
      <trkpt lat="35.95314968532986" lon="120.20935926649305">
        <ele>3</ele>
        <time>2018-01-15T11:36:25.900000Z</time>
      </trkpt>
      <trkpt lat="35.953304578993055" lon="120.20931911892362">
        <ele>3</ele>
        <time>2018-01-15T11:36:32.900000Z</time>
      </trkpt>
      <trkpt lat="35.953374565972226" lon="120.20930148654514">
        <ele>3</ele>
        <time>2018-01-15T11:36:35.900000Z</time>
      </trkpt>
      <trkpt lat="35.95345296223958" lon="120.20928683810764">
        <ele>3</ele>
        <time>2018-01-15T11:36:38.900000Z</time>
      </trkpt>
      <trkpt lat="35.95368435329861" lon="120.20924886067708">
        <ele>3</ele>
        <time>2018-01-15T11:36:46.900000Z</time>
      </trkpt>
      <trkpt lat="35.953761664496525" lon="120.20923231336806">
        <ele>3</ele>
        <time>2018-01-15T11:36:49.900000Z</time>
      </trkpt>
      <trkpt lat="35.953914659288195" lon="120.20920925564236">
        <ele>3</ele>
        <time>2018-01-15T11:36:55.900000Z</time>
      </trkpt>
      <trkpt lat="35.9540087890625" lon="120.20919352213542">
        <ele>3</ele>
        <time>2018-01-15T11:37:00Z</time>
      </trkpt>
      <trkpt lat="35.954182400173615" lon="120.20917317708333">
        <ele>3</ele>
        <time>2018-01-15T11:37:07Z</time>
      </trkpt>
      <trkpt lat="35.95427517361111" lon="120.20916042751736">
        <ele>3</ele>
        <time>2018-01-15T11:37:10.900000Z</time>
      </trkpt>
      <trkpt lat="35.954372287326386" lon="120.20914659288195">
        <ele>3</ele>
        <time>2018-01-15T11:37:14.900000Z</time>
      </trkpt>
      <trkpt lat="35.954546983506944" lon="120.2091246202257">
        <ele>3</ele>
        <time>2018-01-15T11:37:21.900000Z</time>
      </trkpt>
      <trkpt lat="35.95464301215278" lon="120.20911783854167">
        <ele>3</ele>
        <time>2018-01-15T11:37:25.900000Z</time>
      </trkpt>
      <trkpt lat="35.95483100043403" lon="120.20909966362848">
        <ele>3</ele>
        <time>2018-01-15T11:37:32.900000Z</time>
      </trkpt>
      <trkpt lat="35.95489963107639" lon="120.20909613715278">
        <ele>3</ele>
        <time>2018-01-15T11:37:35.900000Z</time>
      </trkpt>
      <trkpt lat="35.95523166232639" lon="120.20942301432292">
        <ele>3</ele>
        <time>2018-01-15T11:37:54.900000Z</time>
      </trkpt>
      <trkpt lat="35.95524549696181" lon="120.20951551649306">
        <ele>3</ele>
        <time>2018-01-15T11:37:57.900000Z</time>
      </trkpt>
      <trkpt lat="35.95527018229166" lon="120.20974012586805">
        <ele>3</ele>
        <time>2018-01-15T11:38:05.900000Z</time>
      </trkpt>
      <trkpt lat="35.95528401692708" lon="120.2098415798611">
        <ele>3</ele>
        <time>2018-01-15T11:38:09.900000Z</time>
      </trkpt>
      <trkpt lat="35.955341525607636" lon="120.21009928385416">
        <ele>3</ele>
        <time>2018-01-15T11:38:17.900000Z</time>
      </trkpt>
      <trkpt lat="35.95535970052083" lon="120.21019911024305">
        <ele>3</ele>
        <time>2018-01-15T11:38:20.900000Z</time>
      </trkpt>
      <trkpt lat="35.95539577907986" lon="120.21044053819445">
        <ele>3</ele>
        <time>2018-01-15T11:38:28.900000Z</time>
      </trkpt>
      <trkpt lat="35.95570583767361" lon="120.21086751302083">
        <ele>3</ele>
        <time>2018-01-15T11:38:49.900000Z</time>
      </trkpt>
      <trkpt lat="35.95572591145833" lon="120.21097113715278">
        <ele>3</ele>
        <time>2018-01-15T11:38:52.900000Z</time>
      </trkpt>
      <trkpt lat="35.9557554796007" lon="120.21117268880208">
        <ele>3</ele>
        <time>2018-01-15T11:38:59.900000Z</time>
      </trkpt>
      <trkpt lat="35.95576144748264" lon="120.21127495659722">
        <ele>3</ele>
        <time>2018-01-15T11:39:02.900000Z</time>
      </trkpt>
      <trkpt lat="35.95580783420139" lon="120.21162380642362">
        <ele>3</ele>
        <time>2018-01-15T11:39:12.900000Z</time>
      </trkpt>
      <trkpt lat="35.95581136067708" lon="120.21176567925347">
        <ele>3</ele>
        <time>2018-01-15T11:39:16.900000Z</time>
      </trkpt>
      <trkpt lat="35.95581325954861" lon="120.21197102864583">
        <ele>3</ele>
        <time>2018-01-15T11:39:22.900000Z</time>
      </trkpt>
      <trkpt lat="35.955828721788194" lon="120.21215955946181">
        <ele>3</ele>
        <time>2018-01-15T11:39:28.900000Z</time>
      </trkpt>
      <trkpt lat="35.95584120008681" lon="120.21244547526042">
        <ele>3</ele>
        <time>2018-01-15T11:39:36.900000Z</time>
      </trkpt>
      <trkpt lat="35.95583930121528" lon="120.21254611545139">
        <ele>3</ele>
        <time>2018-01-15T11:39:40Z</time>
      </trkpt>
      <trkpt lat="35.95646402994792" lon="120.21259114583333">
        <ele>3</ele>
        <time>2018-01-15T11:40:06.900000Z</time>
      </trkpt>
      <trkpt lat="35.95671251085069" lon="120.21327365451388">
        <ele>3</ele>
        <time>2018-01-15T11:40:36Z</time>
      </trkpt>
      <trkpt lat="35.95673828125" lon="120.21353624131945">
        <ele>3</ele>
        <time>2018-01-15T11:40:44Z</time>
      </trkpt>
      <trkpt lat="35.9567494032118" lon="120.21368543836806">
        <ele>3</ele>
        <time>2018-01-15T11:40:47.900000Z</time>
      </trkpt>
      <trkpt lat="35.95677897135417" lon="120.21384385850695">
        <ele>3</ele>
        <time>2018-01-15T11:40:54.900000Z</time>
      </trkpt>
      <trkpt lat="35.95678900824653" lon="120.21388943142361">
        <ele>3</ele>
        <time>2018-01-15T11:40:58.900000Z</time>
      </trkpt>
    </trkseg>
  </trk>
</gpx>