<?xml version="1.0" encoding="UTF-8"?>
<gpx xmlns="http://www.topografix.com/GPX/1/1" xmlns:gpxtpx="http://www.garmin.com/xmlschemas/TrackPointExtension/v1" xmlns:xsi="http://www.w3.org/2001/XMLSchema-instance" xsi:schemaLocation="http://www.topografix.com/GPX/1/1 http://www.topografix.com/GPX/1/1/gpx.xsd" version="1.1" creator="gpx.py -- https://github.com/tkrajina/gpxpy">
  <trk>
    <name>gpx from keep</name>
    <trkseg>
      <trkpt lat="35.957081434461806" lon="120.21484890407986">
        <ele>4</ele>
        <time>2018-01-21T06:54:57.100000Z</time>
      </trkpt>
      <trkpt lat="35.957097981770836" lon="120.21483940972222">
        <ele>4</ele>
        <time>2018-01-21T06:55:00.100000Z</time>
      </trkpt>
      <trkpt lat="35.95712809244792" lon="120.21485460069445">
        <ele>4</ele>
        <time>2018-01-21T06:55:03.100000Z</time>
      </trkpt>
      <trkpt lat="35.95715413411458" lon="120.21484917534723">
        <ele>4</ele>
        <time>2018-01-21T06:55:06.800000Z</time>
      </trkpt>
      <trkpt lat="35.95716091579861" lon="120.21483506944445">
        <ele>4</ele>
        <time>2018-01-21T06:55:10.100000Z</time>
      </trkpt>
      <trkpt lat="35.95721164279514" lon="120.21485405815972">
        <ele>4</ele>
        <time>2018-01-21T06:55:13.100000Z</time>
      </trkpt>
      <trkpt lat="35.95743625217014" lon="120.21484239366319">
        <ele>4</ele>
        <time>2018-01-21T06:55:20.200000Z</time>
      </trkpt>
      <trkpt lat="35.95753309461806" lon="120.2148179796007">
        <ele>4</ele>
        <time>2018-01-21T06:55:24.100000Z</time>
      </trkpt>
      <trkpt lat="35.95798502604167" lon="120.21498074001737">
        <ele>4</ele>
        <time>2018-01-21T06:55:40.100000Z</time>
      </trkpt>
      <trkpt lat="35.958140733506944" lon="120.21546766493056">
        <ele>3</ele>
        <time>2018-01-21T06:55:54.100000Z</time>
      </trkpt>
      <trkpt lat="35.95781846788194" lon="120.21576904296874">
        <ele>4</ele>
        <time>2018-01-21T06:56:08.100000Z</time>
      </trkpt>
      <trkpt lat="35.95745632595486" lon="120.21583170572917">
        <ele>3</ele>
        <time>2018-01-21T06:56:19.100000Z</time>
      </trkpt>
      <trkpt lat="35.95729329427083" lon="120.21588514539931">
        <ele>3</ele>
        <time>2018-01-21T06:56:25.200000Z</time>
      </trkpt>
      <trkpt lat="35.957081705729166" lon="120.21595675998265">
        <ele>3</ele>
        <time>2018-01-21T06:56:33.200000Z</time>
      </trkpt>
      <trkpt lat="35.957003851996525" lon="120.21599039713541">
        <ele>3</ele>
        <time>2018-01-21T06:56:36.200000Z</time>
      </trkpt>
      <trkpt lat="35.956781412760414" lon="120.2160093858507">
        <ele>3</ele>
        <time>2018-01-21T06:56:44.200000Z</time>
      </trkpt>
      <trkpt lat="35.95670166015625" lon="120.216005859375">
        <ele>3</ele>
        <time>2018-01-21T06:56:47.200000Z</time>
      </trkpt>
      <trkpt lat="35.956517469618056" lon="120.2160462782118">
        <ele>3</ele>
        <time>2018-01-21T06:56:54.200000Z</time>
      </trkpt>
      <trkpt lat="35.95630805121528" lon="120.2161021592882">
        <ele>3</ele>
        <time>2018-01-21T06:57:02.100000Z</time>
      </trkpt>
      <trkpt lat="35.95612928602431" lon="120.21611273871528">
        <ele>3</ele>
        <time>2018-01-21T06:57:09.200000Z</time>
      </trkpt>
      <trkpt lat="35.95595648871528" lon="120.21619032118056">
        <ele>3</ele>
        <time>2018-01-21T06:57:16.200000Z</time>
      </trkpt>
      <trkpt lat="35.95580105251736" lon="120.21647894965278">
        <ele>3</ele>
        <time>2018-01-21T06:57:30.200000Z</time>
      </trkpt>
      <trkpt lat="35.95568929036458" lon="120.21688042534723">
        <ele>3</ele>
        <time>2018-01-21T06:57:49.200000Z</time>
      </trkpt>
      <trkpt lat="35.95570529513889" lon="120.21701741536458">
        <ele>3</ele>
        <time>2018-01-21T06:57:53.100000Z</time>
      </trkpt>
      <trkpt lat="35.955746256510416" lon="120.21721408420139">
        <ele>3</ele>
        <time>2018-01-21T06:57:59.100000Z</time>
      </trkpt>
      <trkpt lat="35.95577473958333" lon="120.21735161675348">
        <ele>3</ele>
        <time>2018-01-21T06:58:03.100000Z</time>
      </trkpt>
      <trkpt lat="35.95581570095486" lon="120.21756157769097">
        <ele>3</ele>
        <time>2018-01-21T06:58:10.100000Z</time>
      </trkpt>
      <trkpt lat="35.95584147135417" lon="120.21764973958334">
        <ele>3</ele>
        <time>2018-01-21T06:58:13.100000Z</time>
      </trkpt>
      <trkpt lat="35.95587266710069" lon="120.21775933159722">
        <ele>3</ele>
        <time>2018-01-21T06:58:17.100000Z</time>
      </trkpt>
      <trkpt lat="35.955936143663195" lon="120.21800754123264">
        <ele>3</ele>
        <time>2018-01-21T06:58:24.100000Z</time>
      </trkpt>
      <trkpt lat="35.956011827256944" lon="120.21842963324653">
        <ele>3</ele>
        <time>2018-01-21T06:58:38.100000Z</time>
      </trkpt>
      <trkpt lat="35.95581027560764" lon="120.21856553819444">
        <ele>3</ele>
        <time>2018-01-21T06:58:48.100000Z</time>
      </trkpt>
      <trkpt lat="35.95558756510417" lon="120.21858181423612">
        <ele>3</ele>
        <time>2018-01-21T06:58:55.200000Z</time>
      </trkpt>
      <trkpt lat="35.95550238715278" lon="120.2185951063368">
        <ele>3</ele>
        <time>2018-01-21T06:58:58.200000Z</time>
      </trkpt>
      <trkpt lat="35.955303819444445" lon="120.21864203559028">
        <ele>3</ele>
        <time>2018-01-21T06:59:05.100000Z</time>
      </trkpt>
      <trkpt lat="35.95522325303819" lon="120.21866021050347">
        <ele>3</ele>
        <time>2018-01-21T06:59:08.100000Z</time>
      </trkpt>
      <trkpt lat="35.954890679253474" lon="120.21871988932291">
        <ele>3</ele>
        <time>2018-01-21T06:59:19.100000Z</time>
      </trkpt>
      <trkpt lat="35.95476264105903" lon="120.21874321831598">
        <ele>3</ele>
        <time>2018-01-21T06:59:23.100000Z</time>
      </trkpt>
      <trkpt lat="35.954593370225695" lon="120.21878716362848">
        <ele>3</ele>
        <time>2018-01-21T06:59:29.100000Z</time>
      </trkpt>
      <trkpt lat="35.9544482421875" lon="120.21884412977431">
        <ele>3</ele>
        <time>2018-01-21T06:59:36.100000Z</time>
      </trkpt>
      <trkpt lat="35.954151204427085" lon="120.21892198350695">
        <ele>3</ele>
        <time>2018-01-21T06:59:47.100000Z</time>
      </trkpt>
      <trkpt lat="35.953929850260415" lon="120.21900010850695">
        <ele>3</ele>
        <time>2018-01-21T06:59:54.100000Z</time>
      </trkpt>
      <trkpt lat="35.95360866970486" lon="120.21902479383681">
        <ele>3</ele>
        <time>2018-01-21T07:00:05.100000Z</time>
      </trkpt>
      <trkpt lat="35.95342230902778" lon="120.2190492078993">
        <ele>3</ele>
        <time>2018-01-21T07:00:13.100000Z</time>
      </trkpt>
      <trkpt lat="35.95321750217014" lon="120.21899115668403">
        <ele>3</ele>
        <time>2018-01-21T07:00:21.100000Z</time>
      </trkpt>
      <trkpt lat="35.953151312934025" lon="120.21894287109374">
        <ele>3</ele>
        <time>2018-01-21T07:00:24.100000Z</time>
      </trkpt>
      <trkpt lat="35.95307210286458" lon="120.21889973958334">
        <ele>3</ele>
        <time>2018-01-21T07:00:27.100000Z</time>
      </trkpt>
      <trkpt lat="35.9528941514757" lon="120.21866183810764">
        <ele>3</ele>
        <time>2018-01-21T07:00:37.100000Z</time>
      </trkpt>
      <trkpt lat="35.95287217881945" lon="120.21844835069444">
        <ele>3</ele>
        <time>2018-01-21T07:00:44.100000Z</time>
      </trkpt>
      <trkpt lat="35.95285915798611" lon="120.21832411024306">
        <ele>3</ele>
        <time>2018-01-21T07:00:48.100000Z</time>
      </trkpt>
      <trkpt lat="35.952823893229166" lon="120.21814073350694">
        <ele>3</ele>
        <time>2018-01-21T07:00:54.200000Z</time>
      </trkpt>
      <trkpt lat="35.95280327690972" lon="120.2179994032118">
        <ele>3</ele>
        <time>2018-01-21T07:00:58.200000Z</time>
      </trkpt>
      <trkpt lat="35.952778591579865" lon="120.21778049045139">
        <ele>4</ele>
        <time>2018-01-21T07:01:05.100000Z</time>
      </trkpt>
      <trkpt lat="35.9527490234375" lon="120.21767469618055">
        <ele>4</ele>
        <time>2018-01-21T07:01:08.200000Z</time>
      </trkpt>
      <trkpt lat="35.95265326605903" lon="120.21734564887153">
        <ele>3</ele>
        <time>2018-01-21T07:01:19.200000Z</time>
      </trkpt>
      <trkpt lat="35.95262722439236" lon="120.21722222222222">
        <ele>3</ele>
        <time>2018-01-21T07:01:23.100000Z</time>
      </trkpt>
      <trkpt lat="35.95260552300347" lon="120.21711724175347">
        <ele>3</ele>
        <time>2018-01-21T07:01:27.100000Z</time>
      </trkpt>
      <trkpt lat="35.952542588975696" lon="120.21689154730903">
        <ele>3</ele>
        <time>2018-01-21T07:01:34.100000Z</time>
      </trkpt>
      <trkpt lat="35.95248426649306" lon="120.21671468098958">
        <ele>3</ele>
        <time>2018-01-21T07:01:40.100000Z</time>
      </trkpt>
      <trkpt lat="35.95246148003472" lon="120.21661783854167">
        <ele>3</ele>
        <time>2018-01-21T07:01:43.100000Z</time>
      </trkpt>
      <trkpt lat="35.95241346571181" lon="120.21637858072917">
        <ele>3</ele>
        <time>2018-01-21T07:01:50.100000Z</time>
      </trkpt>
      <trkpt lat="35.95238498263889" lon="120.21625542534723">
        <ele>3</ele>
        <time>2018-01-21T07:01:54.100000Z</time>
      </trkpt>
      <trkpt lat="35.95236735026042" lon="120.21616183810764">
        <ele>3</ele>
        <time>2018-01-21T07:01:57.100000Z</time>
      </trkpt>
      <trkpt lat="35.9523193359375" lon="120.21594889322917">
        <ele>3</ele>
        <time>2018-01-21T07:02:04.100000Z</time>
      </trkpt>
      <trkpt lat="35.95230305989583" lon="120.21582845052083">
        <ele>3</ele>
        <time>2018-01-21T07:02:08.100000Z</time>
      </trkpt>
      <trkpt lat="35.95223361545139" lon="120.21556396484375">
        <ele>3</ele>
        <time>2018-01-21T07:02:16.100000Z</time>
      </trkpt>
      <trkpt lat="35.95201605902778" lon="120.21541449652777">
        <ele>3</ele>
        <time>2018-01-21T07:02:32.100000Z</time>
      </trkpt>
      <trkpt lat="35.952007921006945" lon="120.21543782552084">
        <ele>3</ele>
        <time>2018-01-21T07:02:35.100000Z</time>
      </trkpt>
      <trkpt lat="35.95182156032986" lon="120.21557590060763">
        <ele>3</ele>
        <time>2018-01-21T07:02:42.100000Z</time>
      </trkpt>
      <trkpt lat="35.9517298719618" lon="120.2156201171875">
        <ele>3</ele>
        <time>2018-01-21T07:02:45.200000Z</time>
      </trkpt>
      <trkpt lat="35.95142116970486" lon="120.21566514756944">
        <ele>3</ele>
        <time>2018-01-21T07:02:57.100000Z</time>
      </trkpt>
      <trkpt lat="35.95133409288194" lon="120.21568766276042">
        <ele>3</ele>
        <time>2018-01-21T07:03:00.200000Z</time>
      </trkpt>
      <trkpt lat="35.9509375" lon="120.2158468967014">
        <ele>6</ele>
        <time>2018-01-21T07:03:15.200000Z</time>
      </trkpt>
      <trkpt lat="35.95077365451389" lon="120.21582411024306">
        <ele>4</ele>
        <time>2018-01-21T07:03:22.100000Z</time>
      </trkpt>
      <trkpt lat="35.95058458116319" lon="120.21584038628473">
        <ele>4</ele>
        <time>2018-01-21T07:03:28.200000Z</time>
      </trkpt>
      <trkpt lat="35.9504261610243" lon="120.2158726671007">
        <ele>4</ele>
        <time>2018-01-21T07:03:35.200000Z</time>
      </trkpt>
      <trkpt lat="35.95023328993056" lon="120.21590250651042">
        <ele>4</ele>
        <time>2018-01-21T07:03:42.200000Z</time>
      </trkpt>
      <trkpt lat="35.950145399305555" lon="120.21593017578125">
        <ele>4</ele>
        <time>2018-01-21T07:03:46.100000Z</time>
      </trkpt>
      <trkpt lat="35.94998697916667" lon="120.21595540364584">
        <ele>4</ele>
        <time>2018-01-21T07:03:52.100000Z</time>
      </trkpt>
      <trkpt lat="35.949551323784725" lon="120.21601453993055">
        <ele>4</ele>
        <time>2018-01-21T07:04:10.100000Z</time>
      </trkpt>
      <trkpt lat="35.949178059895836" lon="120.2161328125">
        <ele>4</ele>
        <time>2018-01-21T07:04:24.100000Z</time>
      </trkpt>
      <trkpt lat="35.94909966362847" lon="120.21618516710069">
        <ele>4</ele>
        <time>2018-01-21T07:04:27.100000Z</time>
      </trkpt>
      <trkpt lat="35.94890353732639" lon="120.21628716362848">
        <ele>4</ele>
        <time>2018-01-21T07:04:34.200000Z</time>
      </trkpt>
      <trkpt lat="35.948788248697916" lon="120.21633572048611">
        <ele>4</ele>
        <time>2018-01-21T07:04:38.100000Z</time>
      </trkpt>
      <trkpt lat="35.948642035590275" lon="120.21637017144097">
        <ele>3</ele>
        <time>2018-01-21T07:04:44.200000Z</time>
      </trkpt>
      <trkpt lat="35.948567708333336" lon="120.21638102213542">
        <ele>3</ele>
        <time>2018-01-21T07:04:47.200000Z</time>
      </trkpt>
      <trkpt lat="35.94849283854167" lon="120.21639702690972">
        <ele>3</ele>
        <time>2018-01-21T07:04:50.200000Z</time>
      </trkpt>
      <trkpt lat="35.94830322265625" lon="120.2164488389757">
        <ele>3</ele>
        <time>2018-01-21T07:04:57.100000Z</time>
      </trkpt>
      <trkpt lat="35.94819308810764" lon="120.2164773220486">
        <ele>3</ele>
        <time>2018-01-21T07:05:01.100000Z</time>
      </trkpt>
      <trkpt lat="35.94802734375" lon="120.21650960286458">
        <ele>3</ele>
        <time>2018-01-21T07:05:07.100000Z</time>
      </trkpt>
      <trkpt lat="35.947917209201385" lon="120.21654975043403">
        <ele>3</ele>
        <time>2018-01-21T07:05:11.100000Z</time>
      </trkpt>
      <trkpt lat="35.947733561197914" lon="120.21657470703126">
        <ele>3</ele>
        <time>2018-01-21T07:05:19.100000Z</time>
      </trkpt>
      <trkpt lat="35.94765869140625" lon="120.21658121744791">
        <ele>3</ele>
        <time>2018-01-21T07:05:23.100000Z</time>
      </trkpt>
      <trkpt lat="35.947620171440974" lon="120.21658799913195">
        <ele>3</ele>
        <time>2018-01-21T07:05:26.100000Z</time>
      </trkpt>
      <trkpt lat="35.94756863064236" lon="120.21659884982638">
        <ele>3</ele>
        <time>2018-01-21T07:05:30.100000Z</time>
      </trkpt>
      <trkpt lat="35.94752631293403" lon="120.21660454644098">
        <ele>3</ele>
        <time>2018-01-21T07:05:33.100000Z</time>
      </trkpt>
      <trkpt lat="35.94744710286459" lon="120.21661702473958">
        <ele>3</ele>
        <time>2018-01-21T07:05:39.200000Z</time>
      </trkpt>
      <trkpt lat="35.94739013671875" lon="120.21661756727431">
        <ele>3</ele>
        <time>2018-01-21T07:05:43.100000Z</time>
      </trkpt>
      <trkpt lat="35.94735053168403" lon="120.21662434895833">
        <ele>3</ele>
        <time>2018-01-21T07:05:46.100000Z</time>
      </trkpt>
      <trkpt lat="35.9473179796007" lon="120.21663682725695">
        <ele>3</ele>
        <time>2018-01-21T07:05:49.200000Z</time>
      </trkpt>
      <trkpt lat="35.947269151475695" lon="120.216650390625">
        <ele>3</ele>
        <time>2018-01-21T07:05:53.200000Z</time>
      </trkpt>
      <trkpt lat="35.94716634114583" lon="120.21668375651042">
        <ele>3</ele>
        <time>2018-01-21T07:06:01.100000Z</time>
      </trkpt>
      <trkpt lat="35.94713161892361" lon="120.21670328776041">
        <ele>3</ele>
        <time>2018-01-21T07:06:04.200000Z</time>
      </trkpt>
      <trkpt lat="35.94708034939236" lon="120.21671712239583">
        <ele>3</ele>
        <time>2018-01-21T07:06:08.200000Z</time>
      </trkpt>
      <trkpt lat="35.9470263671875" lon="120.21673177083333">
        <ele>3</ele>
        <time>2018-01-21T07:06:12.200000Z</time>
      </trkpt>
      <trkpt lat="35.94697509765625" lon="120.21674560546874">
        <ele>3</ele>
        <time>2018-01-21T07:06:16.100000Z</time>
      </trkpt>
      <trkpt lat="35.94687717013889" lon="120.21678168402778">
        <ele>3</ele>
        <time>2018-01-21T07:06:24.100000Z</time>
      </trkpt>
      <trkpt lat="35.94684326171875" lon="120.21679117838542">
        <ele>3</ele>
        <time>2018-01-21T07:06:27.100000Z</time>
      </trkpt>
      <trkpt lat="35.94680908203125" lon="120.21680365668402">
        <ele>3</ele>
        <time>2018-01-21T07:06:30.100000Z</time>
      </trkpt>
      <trkpt lat="35.946773003472224" lon="120.21681640625">
        <ele>3</ele>
        <time>2018-01-21T07:06:33.100000Z</time>
      </trkpt>
      <trkpt lat="35.946696506076385" lon="120.21684651692708">
        <ele>3</ele>
        <time>2018-01-21T07:06:39.300000Z</time>
      </trkpt>
      <trkpt lat="35.94662651909722" lon="120.21688205295139">
        <ele>3</ele>
        <time>2018-01-21T07:06:43.100000Z</time>
      </trkpt>
      <trkpt lat="35.94656331380208" lon="120.21691216362848">
        <ele>3</ele>
        <time>2018-01-21T07:06:46.100000Z</time>
      </trkpt>
      <trkpt lat="35.94636366102431" lon="120.21697889539931">
        <ele>3</ele>
        <time>2018-01-21T07:06:54.100000Z</time>
      </trkpt>
      <trkpt lat="35.94629367404514" lon="120.21699869791667">
        <ele>3</ele>
        <time>2018-01-21T07:06:57.100000Z</time>
      </trkpt>
      <trkpt lat="35.94609619140625" lon="120.21708034939236">
        <ele>3</ele>
        <time>2018-01-21T07:07:04.200000Z</time>
      </trkpt>
      <trkpt lat="35.94598497178819" lon="120.21712348090277">
        <ele>3</ele>
        <time>2018-01-21T07:07:08.200000Z</time>
      </trkpt>
      <trkpt lat="35.94579291449653" lon="120.21719943576389">
        <ele>3</ele>
        <time>2018-01-21T07:07:15.100000Z</time>
      </trkpt>
      <trkpt lat="35.94567843967014" lon="120.21725043402778">
        <ele>3</ele>
        <time>2018-01-21T07:07:19.100000Z</time>
      </trkpt>
      <trkpt lat="35.94550455729166" lon="120.21732855902778">
        <ele>3</ele>
        <time>2018-01-21T07:07:26.100000Z</time>
      </trkpt>
      <trkpt lat="35.945408257378475" lon="120.21737223307292">
        <ele>3</ele>
        <time>2018-01-21T07:07:30.100000Z</time>
      </trkpt>
      <trkpt lat="35.945238715277775" lon="120.21744927300347">
        <ele>3</ele>
        <time>2018-01-21T07:07:37.100000Z</time>
      </trkpt>
      <trkpt lat="35.945157063802085" lon="120.21749430338542">
        <ele>3</ele>
        <time>2018-01-21T07:07:41.100000Z</time>
      </trkpt>
      <trkpt lat="35.94496365017361" lon="120.21758219401042">
        <ele>3</ele>
        <time>2018-01-21T07:07:48.100000Z</time>
      </trkpt>
      <trkpt lat="35.944890679253476" lon="120.21762749565973">
        <ele>3</ele>
        <time>2018-01-21T07:07:51.100000Z</time>
      </trkpt>
      <trkpt lat="35.944691026475695" lon="120.21772488064236">
        <ele>3</ele>
        <time>2018-01-21T07:07:59.100000Z</time>
      </trkpt>
      <trkpt lat="35.94458848741319" lon="120.21777398003472">
        <ele>3</ele>
        <time>2018-01-21T07:08:03.100000Z</time>
      </trkpt>
      <trkpt lat="35.944422743055554" lon="120.21785753038195">
        <ele>3</ele>
        <time>2018-01-21T07:08:10.100000Z</time>
      </trkpt>
      <trkpt lat="35.94432400173611" lon="120.21790364583333">
        <ele>3</ele>
        <time>2018-01-21T07:08:14.100000Z</time>
      </trkpt>
      <trkpt lat="35.94426540798611" lon="120.21793240017361">
        <ele>3</ele>
        <time>2018-01-21T07:08:17.100000Z</time>
      </trkpt>
      <trkpt lat="35.94393310546875" lon="120.2181165907118">
        <ele>3</ele>
        <time>2018-01-21T07:08:31.100000Z</time>
      </trkpt>
      <trkpt lat="35.943780924479164" lon="120.21800130208334">
        <ele>3</ele>
        <time>2018-01-21T07:08:41.100000Z</time>
      </trkpt>
      <trkpt lat="35.943638780381946" lon="120.21768174913194">
        <ele>3</ele>
        <time>2018-01-21T07:08:52.100000Z</time>
      </trkpt>
      <trkpt lat="35.94355794270833" lon="120.21758599175347">
        <ele>3</ele>
        <time>2018-01-21T07:08:56.100000Z</time>
      </trkpt>
      <trkpt lat="35.94343451605903" lon="120.2174365234375">
        <ele>3</ele>
        <time>2018-01-21T07:09:03.100000Z</time>
      </trkpt>
      <trkpt lat="35.94332356770833" lon="120.21721652560764">
        <ele>4</ele>
        <time>2018-01-21T07:09:11.100000Z</time>
      </trkpt>
      <trkpt lat="35.9432505967882" lon="120.21700303819445">
        <ele>3</ele>
        <time>2018-01-21T07:09:18.100000Z</time>
      </trkpt>
      <trkpt lat="35.943218858506945" lon="120.21692437065973">
        <ele>3</ele>
        <time>2018-01-21T07:09:22.100000Z</time>
      </trkpt>
      <trkpt lat="35.943171929253474" lon="120.21684624565972">
        <ele>3</ele>
        <time>2018-01-21T07:09:25.100000Z</time>
      </trkpt>
      <trkpt lat="35.9430712890625" lon="120.21667317708334">
        <ele>3</ele>
        <time>2018-01-21T07:09:31.200000Z</time>
      </trkpt>
      <trkpt lat="35.943011610243055" lon="120.21658338758681">
        <ele>3</ele>
        <time>2018-01-21T07:09:34.200000Z</time>
      </trkpt>
      <trkpt lat="35.94274739583334" lon="120.21612169053819">
        <ele>3</ele>
        <time>2018-01-21T07:09:50.200000Z</time>
      </trkpt>
      <trkpt lat="35.94266520182292" lon="120.21600748697917">
        <ele>3</ele>
        <time>2018-01-21T07:09:54.200000Z</time>
      </trkpt>
      <trkpt lat="35.94248779296875" lon="120.21571506076388">
        <ele>3</ele>
        <time>2018-01-21T07:10:05.100000Z</time>
      </trkpt>
      <trkpt lat="35.94245035807292" lon="120.21557047526042">
        <ele>3</ele>
        <time>2018-01-21T07:10:09.100000Z</time>
      </trkpt>
      <trkpt lat="35.9423695203993" lon="120.21537434895833">
        <ele>3</ele>
        <time>2018-01-21T07:10:15.100000Z</time>
      </trkpt>
      <trkpt lat="35.94231255425347" lon="120.21530300564235">
        <ele>3</ele>
        <time>2018-01-21T07:10:18.100000Z</time>
      </trkpt>
      <trkpt lat="35.94221408420139" lon="120.21512424045139">
        <ele>3</ele>
        <time>2018-01-21T07:10:25.100000Z</time>
      </trkpt>
      <trkpt lat="35.94215359157986" lon="120.21501844618055">
        <ele>3</ele>
        <time>2018-01-21T07:10:29.100000Z</time>
      </trkpt>
      <trkpt lat="35.94195502387153" lon="120.21474039713542">
        <ele>3</ele>
        <time>2018-01-21T07:10:41.100000Z</time>
      </trkpt>
      <trkpt lat="35.94184380425347" lon="120.21458089192708">
        <ele>3</ele>
        <time>2018-01-21T07:10:49.100000Z</time>
      </trkpt>
      <trkpt lat="35.94194634331597" lon="120.21432454427084">
        <ele>3</ele>
        <time>2018-01-21T07:11:03.200000Z</time>
      </trkpt>
      <trkpt lat="35.94201904296875" lon="120.21431694878473">
        <ele>3</ele>
        <time>2018-01-21T07:11:06.200000Z</time>
      </trkpt>
      <trkpt lat="35.94211398654514" lon="120.21429606119791">
        <ele>3</ele>
        <time>2018-01-21T07:11:09.200000Z</time>
      </trkpt>
      <trkpt lat="35.942296006944446" lon="120.21425130208333">
        <ele>3</ele>
        <time>2018-01-21T07:11:16.100000Z</time>
      </trkpt>
      <trkpt lat="35.942371419270835" lon="120.21422634548611">
        <ele>3</ele>
        <time>2018-01-21T07:11:19.100000Z</time>
      </trkpt>
      <trkpt lat="35.94253716362847" lon="120.21414279513888">
        <ele>3</ele>
        <time>2018-01-21T07:11:26.100000Z</time>
      </trkpt>
      <trkpt lat="35.94263943142361" lon="120.214091796875">
        <ele>3</ele>
        <time>2018-01-21T07:11:30.100000Z</time>
      </trkpt>
      <trkpt lat="35.94275716145833" lon="120.21402289496528">
        <ele>3</ele>
        <time>2018-01-21T07:11:36.100000Z</time>
      </trkpt>
      <trkpt lat="35.94290228949653" lon="120.21399142795138">
        <ele>3</ele>
        <time>2018-01-21T07:11:42.200000Z</time>
      </trkpt>
      <trkpt lat="35.942982313368056" lon="120.21399332682292">
        <ele>3</ele>
        <time>2018-01-21T07:11:45.200000Z</time>
      </trkpt>
      <trkpt lat="35.94316162109375" lon="120.21394911024305">
        <ele>3</ele>
        <time>2018-01-21T07:11:53.100000Z</time>
      </trkpt>
      <trkpt lat="35.943240831163195" lon="120.21392469618056">
        <ele>3</ele>
        <time>2018-01-21T07:11:56.100000Z</time>
      </trkpt>
      <trkpt lat="35.94331570095486" lon="120.21390109592014">
        <ele>3</ele>
        <time>2018-01-21T07:11:59.100000Z</time>
      </trkpt>
      <trkpt lat="35.94348822699653" lon="120.2138490125868">
        <ele>3</ele>
        <time>2018-01-21T07:12:05.200000Z</time>
      </trkpt>
      <trkpt lat="35.94357150607639" lon="120.21381781684028">
        <ele>3</ele>
        <time>2018-01-21T07:12:08.200000Z</time>
      </trkpt>
      <trkpt lat="35.94388617621528" lon="120.21376844618055">
        <ele>3</ele>
        <time>2018-01-21T07:12:20.200000Z</time>
      </trkpt>
      <trkpt lat="35.94399305555555" lon="120.21379964192708">
        <ele>3</ele>
        <time>2018-01-21T07:12:24.200000Z</time>
      </trkpt>
      <trkpt lat="35.94419650607639" lon="120.21387179904514">
        <ele>3</ele>
        <time>2018-01-21T07:12:32.100000Z</time>
      </trkpt>
      <trkpt lat="35.94438042534722" lon="120.21395968967013">
        <ele>3</ele>
        <time>2018-01-21T07:12:39.100000Z</time>
      </trkpt>
      <trkpt lat="35.94467692057292" lon="120.21394124348959">
        <ele>3</ele>
        <time>2018-01-21T07:12:50.100000Z</time>
      </trkpt>
      <trkpt lat="35.94475830078125" lon="120.21391276041666">
        <ele>3</ele>
        <time>2018-01-21T07:12:53.200000Z</time>
      </trkpt>
      <trkpt lat="35.94496365017361" lon="120.21385281032985">
        <ele>3</ele>
        <time>2018-01-21T07:13:01.100000Z</time>
      </trkpt>
      <trkpt lat="35.945033365885415" lon="120.21383192274305">
        <ele>3</ele>
        <time>2018-01-21T07:13:04.200000Z</time>
      </trkpt>
      <trkpt lat="35.94521402994792" lon="120.21380154079861">
        <ele>3</ele>
        <time>2018-01-21T07:13:11.100000Z</time>
      </trkpt>
      <trkpt lat="35.94531765407986" lon="120.21380832248263">
        <ele>3</ele>
        <time>2018-01-21T07:13:15.100000Z</time>
      </trkpt>
      <trkpt lat="35.94553141276042" lon="120.21379313151041">
        <ele>3</ele>
        <time>2018-01-21T07:13:23.100000Z</time>
      </trkpt>
      <trkpt lat="35.9456089952257" lon="120.21377821180556">
        <ele>3</ele>
        <time>2018-01-21T07:13:26.100000Z</time>
      </trkpt>
      <trkpt lat="35.945805121527776" lon="120.21376763237848">
        <ele>3</ele>
        <time>2018-01-21T07:13:33.200000Z</time>
      </trkpt>
      <trkpt lat="35.9458851453993" lon="120.21375379774305">
        <ele>3</ele>
        <time>2018-01-21T07:13:36.200000Z</time>
      </trkpt>
      <trkpt lat="35.94609754774306" lon="120.21375054253473">
        <ele>3</ele>
        <time>2018-01-21T07:13:44.100000Z</time>
      </trkpt>
      <trkpt lat="35.94626790364583" lon="120.21372151692708">
        <ele>3</ele>
        <time>2018-01-21T07:13:51.100000Z</time>
      </trkpt>
      <trkpt lat="35.94634060329861" lon="120.21370822482639">
        <ele>3</ele>
        <time>2018-01-21T07:13:54.100000Z</time>
      </trkpt>
      <trkpt lat="35.94653917100695" lon="120.21369900173612">
        <ele>3</ele>
        <time>2018-01-21T07:14:01.100000Z</time>
      </trkpt>
      <trkpt lat="35.94661376953125" lon="120.21369873046875">
        <ele>3</ele>
        <time>2018-01-21T07:14:04.100000Z</time>
      </trkpt>
      <trkpt lat="35.94671115451389" lon="120.21368082682292">
        <ele>3</ele>
        <time>2018-01-21T07:14:08.100000Z</time>
      </trkpt>
      <trkpt lat="35.94687581380208" lon="120.21364501953126">
        <ele>3</ele>
        <time>2018-01-21T07:14:15.100000Z</time>
      </trkpt>
      <trkpt lat="35.946988389756946" lon="120.2136376953125">
        <ele>3</ele>
        <time>2018-01-21T07:14:19.100000Z</time>
      </trkpt>
      <trkpt lat="35.94713107638889" lon="120.21334743923612">
        <ele>3</ele>
        <time>2018-01-21T07:14:33.100000Z</time>
      </trkpt>
      <trkpt lat="35.94711181640625" lon="120.21322211371528">
        <ele>3</ele>
        <time>2018-01-21T07:14:37.100000Z</time>
      </trkpt>
      <trkpt lat="35.947093098958334" lon="120.21299479166667">
        <ele>3</ele>
        <time>2018-01-21T07:14:44.200000Z</time>
      </trkpt>
      <trkpt lat="35.94709933810764" lon="120.21288058810764">
        <ele>3</ele>
        <time>2018-01-21T07:14:48.100000Z</time>
      </trkpt>
      <trkpt lat="35.94706895616319" lon="120.21265869140625">
        <ele>3</ele>
        <time>2018-01-21T07:14:55.100000Z</time>
      </trkpt>
      <trkpt lat="35.947056749131946" lon="120.2124058702257">
        <ele>3</ele>
        <time>2018-01-21T07:15:03.100000Z</time>
      </trkpt>
      <trkpt lat="35.94713595920139" lon="120.21209879557291">
        <ele>3</ele>
        <time>2018-01-21T07:15:13.200000Z</time>
      </trkpt>
      <trkpt lat="35.9471812608507" lon="120.21198540581597">
        <ele>3</ele>
        <time>2018-01-21T07:15:17.100000Z</time>
      </trkpt>
      <trkpt lat="35.94729519314236" lon="120.21177680121528">
        <ele>3</ele>
        <time>2018-01-21T07:15:25.100000Z</time>
      </trkpt>
      <trkpt lat="35.94734185112847" lon="120.2116663953993">
        <ele>3</ele>
        <time>2018-01-21T07:15:29.100000Z</time>
      </trkpt>
      <trkpt lat="35.94741590711806" lon="120.21144911024305">
        <ele>3</ele>
        <time>2018-01-21T07:15:37.100000Z</time>
      </trkpt>
      <trkpt lat="35.947482638888886" lon="120.21128987630209">
        <ele>3</ele>
        <time>2018-01-21T07:15:43.100000Z</time>
      </trkpt>
      <trkpt lat="35.94751980251736" lon="120.2112109375">
        <ele>3</ele>
        <time>2018-01-21T07:15:46.200000Z</time>
      </trkpt>
      <trkpt lat="35.947560221354166" lon="120.21110432942709">
        <ele>3</ele>
        <time>2018-01-21T07:15:50.200000Z</time>
      </trkpt>
      <trkpt lat="35.94764214409722" lon="120.21088704427083">
        <ele>3</ele>
        <time>2018-01-21T07:15:58.100000Z</time>
      </trkpt>
      <trkpt lat="35.94774766710069" lon="120.21069390190972">
        <ele>3</ele>
        <time>2018-01-21T07:16:05.200000Z</time>
      </trkpt>
      <trkpt lat="35.94785373263889" lon="120.21038818359375">
        <ele>3</ele>
        <time>2018-01-21T07:16:16.100000Z</time>
      </trkpt>
      <trkpt lat="35.94789686414931" lon="120.21031222873263">
        <ele>3</ele>
        <time>2018-01-21T07:16:19.100000Z</time>
      </trkpt>
      <trkpt lat="35.94797281901042" lon="120.21000189887152">
        <ele>3</ele>
        <time>2018-01-21T07:16:29.100000Z</time>
      </trkpt>
      <trkpt lat="35.947998046875" lon="120.20988226996528">
        <ele>3</ele>
        <time>2018-01-21T07:16:33.100000Z</time>
      </trkpt>
      <trkpt lat="35.94802083333333" lon="120.20958523220486">
        <ele>3</ele>
        <time>2018-01-21T07:16:43.100000Z</time>
      </trkpt>
      <trkpt lat="35.94818332248264" lon="120.20936577690972">
        <ele>3</ele>
        <time>2018-01-21T07:17:00.100000Z</time>
      </trkpt>
      <trkpt lat="35.94825466579861" lon="120.20940836588542">
        <ele>3</ele>
        <time>2018-01-21T07:17:03.200000Z</time>
      </trkpt>
      <trkpt lat="35.94862331814236" lon="120.20950629340278">
        <ele>3</ele>
        <time>2018-01-21T07:17:20.200000Z</time>
      </trkpt>
      <trkpt lat="35.9487855360243" lon="120.20947970920139">
        <ele>3</ele>
        <time>2018-01-21T07:17:27.100000Z</time>
      </trkpt>
      <trkpt lat="35.948857964409726" lon="120.20949869791667">
        <ele>3</ele>
        <time>2018-01-21T07:17:30.100000Z</time>
      </trkpt>
      <trkpt lat="35.94892903645833" lon="120.20951361762152">
        <ele>3</ele>
        <time>2018-01-21T07:17:33.100000Z</time>
      </trkpt>
      <trkpt lat="35.949100477430555" lon="120.2095396592882">
        <ele>3</ele>
        <time>2018-01-21T07:17:40.100000Z</time>
      </trkpt>
      <trkpt lat="35.949183213975694" lon="120.20954210069445">
        <ele>3</ele>
        <time>2018-01-21T07:17:43.100000Z</time>
      </trkpt>
      <trkpt lat="35.94936387803819" lon="120.2095920138889">
        <ele>3</ele>
        <time>2018-01-21T07:17:50.100000Z</time>
      </trkpt>
      <trkpt lat="35.94943820529514" lon="120.20961642795139">
        <ele>3</ele>
        <time>2018-01-21T07:17:53.100000Z</time>
      </trkpt>
      <trkpt lat="35.94960801866319" lon="120.20964274088541">
        <ele>3</ele>
        <time>2018-01-21T07:18:00.100000Z</time>
      </trkpt>
      <trkpt lat="35.94968315972222" lon="120.20965793185763">
        <ele>3</ele>
        <time>2018-01-21T07:18:03.100000Z</time>
      </trkpt>
      <trkpt lat="35.94986572265625" lon="120.20966227213542">
        <ele>3</ele>
        <time>2018-01-21T07:18:10.100000Z</time>
      </trkpt>
      <trkpt lat="35.94996527777778" lon="120.20967203776041">
        <ele>3</ele>
        <time>2018-01-21T07:18:14.100000Z</time>
      </trkpt>
      <trkpt lat="35.950039605034725" lon="120.20967854817708">
        <ele>3</ele>
        <time>2018-01-21T07:18:17.200000Z</time>
      </trkpt>
      <trkpt lat="35.950214301215276" lon="120.20966389973958">
        <ele>3</ele>
        <time>2018-01-21T07:18:24.200000Z</time>
      </trkpt>
      <trkpt lat="35.950283745659725" lon="120.2096484375">
        <ele>3</ele>
        <time>2018-01-21T07:18:27.200000Z</time>
      </trkpt>
      <trkpt lat="35.95037353515625" lon="120.20963270399305">
        <ele>3</ele>
        <time>2018-01-21T07:18:31.200000Z</time>
      </trkpt>
      <trkpt lat="35.950633680555555" lon="120.20972357855902">
        <ele>3</ele>
        <time>2018-01-21T07:18:50.100000Z</time>
      </trkpt>
      <trkpt lat="35.9506285264757" lon="120.20972900390625">
        <ele>3</ele>
        <time>2018-01-21T07:18:54.100000Z</time>
      </trkpt>
      <trkpt lat="35.95062147352431" lon="120.20972764756945">
        <ele>3</ele>
        <time>2018-01-21T07:18:58.100000Z</time>
      </trkpt>
      <trkpt lat="35.95062065972222" lon="120.20972710503472">
        <ele>3</ele>
        <time>2018-01-21T07:19:01.100000Z</time>
      </trkpt>
      <trkpt lat="35.95061794704861" lon="120.2097287326389">
        <ele>3</ele>
        <time>2018-01-21T07:19:05.100000Z</time>
      </trkpt>
      <trkpt lat="35.95061414930556" lon="120.20972412109376">
        <ele>3</ele>
        <time>2018-01-21T07:19:16.100000Z</time>
      </trkpt>
      <trkpt lat="35.95061414930556" lon="120.20972412109376">
        <ele>3</ele>
        <time>2018-01-21T07:19:20.100000Z</time>
      </trkpt>
      <trkpt lat="35.95061414930556" lon="120.20972412109376">
        <ele>3</ele>
        <time>2018-01-21T07:19:23.100000Z</time>
      </trkpt>
      <trkpt lat="35.95061414930556" lon="120.20972412109376">
        <ele>3</ele>
        <time>2018-01-21T07:19:39.100000Z</time>
      </trkpt>
      <trkpt lat="35.95061414930556" lon="120.20972412109376">
        <ele>3</ele>
        <time>2018-01-21T07:19:43.100000Z</time>
      </trkpt>
      <trkpt lat="35.95061414930556" lon="120.20972412109376">
        <ele>3</ele>
        <time>2018-01-21T07:19:47.100000Z</time>
      </trkpt>
      <trkpt lat="35.950611436631945" lon="120.20971137152777">
        <ele>3</ele>
        <time>2018-01-21T07:20:04.100000Z</time>
      </trkpt>
      <trkpt lat="35.950755479600694" lon="120.20969482421874">
        <ele>3</ele>
        <time>2018-01-21T07:20:23.100000Z</time>
      </trkpt>
      <trkpt lat="35.95086371527778" lon="120.20967475043403">
        <ele>3</ele>
        <time>2018-01-21T07:20:27.100000Z</time>
      </trkpt>
      <trkpt lat="35.9510337999132" lon="120.20965196397569">
        <ele>3</ele>
        <time>2018-01-21T07:20:34.100000Z</time>
      </trkpt>
      <trkpt lat="35.951153157552085" lon="120.2096435546875">
        <ele>3</ele>
        <time>2018-01-21T07:20:38.100000Z</time>
      </trkpt>
      <trkpt lat="35.95133924696181" lon="120.20962429470487">
        <ele>3</ele>
        <time>2018-01-21T07:20:45.100000Z</time>
      </trkpt>
      <trkpt lat="35.95144070095486" lon="120.20961018880209">
        <ele>3</ele>
        <time>2018-01-21T07:20:49.100000Z</time>
      </trkpt>
      <trkpt lat="35.951519097222224" lon="120.20960042317708">
        <ele>3</ele>
        <time>2018-01-21T07:20:52.100000Z</time>
      </trkpt>
      <trkpt lat="35.95173800998264" lon="120.20957058376736">
        <ele>3</ele>
        <time>2018-01-21T07:21:00.100000Z</time>
      </trkpt>
      <trkpt lat="35.951816948784725" lon="120.2095591905382">
        <ele>3</ele>
        <time>2018-01-21T07:21:03.100000Z</time>
      </trkpt>
      <trkpt lat="35.951884223090275" lon="120.20953884548611">
        <ele>3</ele>
        <time>2018-01-21T07:21:06.100000Z</time>
      </trkpt>
      <trkpt lat="35.9520458984375" lon="120.20950602213541">
        <ele>3</ele>
        <time>2018-01-21T07:21:13.200000Z</time>
      </trkpt>
      <trkpt lat="35.952128092447914" lon="120.20948838975694">
        <ele>3</ele>
        <time>2018-01-21T07:21:17.100000Z</time>
      </trkpt>
      <trkpt lat="35.952205403645834" lon="120.20948269314236">
        <ele>3</ele>
        <time>2018-01-21T07:21:20.100000Z</time>
      </trkpt>
      <trkpt lat="35.95241346571181" lon="120.20944498697916">
        <ele>3</ele>
        <time>2018-01-21T07:21:28.100000Z</time>
      </trkpt>
      <trkpt lat="35.95253119574653" lon="120.209443359375">
        <ele>3</ele>
        <time>2018-01-21T07:21:32.100000Z</time>
      </trkpt>
      <trkpt lat="35.95268391927083" lon="120.20943739149305">
        <ele>3</ele>
        <time>2018-01-21T07:21:38.100000Z</time>
      </trkpt>
      <trkpt lat="35.95278374565972" lon="120.20941596137153">
        <ele>3</ele>
        <time>2018-01-21T07:21:42.100000Z</time>
      </trkpt>
      <trkpt lat="35.95294379340278" lon="120.20938232421875">
        <ele>3</ele>
        <time>2018-01-21T07:21:49.100000Z</time>
      </trkpt>
      <trkpt lat="35.953206380208336" lon="120.20930284288194">
        <ele>3</ele>
        <time>2018-01-21T07:22:00.100000Z</time>
      </trkpt>
      <trkpt lat="35.95328694661458" lon="120.209287109375">
        <ele>3</ele>
        <time>2018-01-21T07:22:03.200000Z</time>
      </trkpt>
      <trkpt lat="35.953502604166665" lon="120.20928846571181">
        <ele>3</ele>
        <time>2018-01-21T07:22:10.100000Z</time>
      </trkpt>
      <trkpt lat="35.95356743706597" lon="120.2092724609375">
        <ele>3</ele>
        <time>2018-01-21T07:22:13.100000Z</time>
      </trkpt>
      <trkpt lat="35.953670518663195" lon="120.20925320095486">
        <ele>3</ele>
        <time>2018-01-21T07:22:17.100000Z</time>
      </trkpt>
      <trkpt lat="35.95383544921875" lon="120.20921983506945">
        <ele>3</ele>
        <time>2018-01-21T07:22:24.200000Z</time>
      </trkpt>
      <trkpt lat="35.953892957899306" lon="120.20921902126736">
        <ele>3</ele>
        <time>2018-01-21T07:22:27.200000Z</time>
      </trkpt>
      <trkpt lat="35.953983018663195" lon="120.20919677734375">
        <ele>3</ele>
        <time>2018-01-21T07:22:31.100000Z</time>
      </trkpt>
      <trkpt lat="35.95435926649306" lon="120.20919514973959">
        <ele>3</ele>
        <time>2018-01-21T07:22:45.100000Z</time>
      </trkpt>
      <trkpt lat="35.95461968315972" lon="120.2091238064236">
        <ele>3</ele>
        <time>2018-01-21T07:22:55.100000Z</time>
      </trkpt>
      <trkpt lat="35.954691297743054" lon="120.2091091579861">
        <ele>3</ele>
        <time>2018-01-21T07:22:59.100000Z</time>
      </trkpt>
      <trkpt lat="35.95476318359375" lon="120.2090833875868">
        <ele>3</ele>
        <time>2018-01-21T07:23:03.100000Z</time>
      </trkpt>
      <trkpt lat="35.955233561197915" lon="120.20933648003472">
        <ele>3</ele>
        <time>2018-01-21T07:23:24.200000Z</time>
      </trkpt>
      <trkpt lat="35.95525661892361" lon="120.20946017795139">
        <ele>3</ele>
        <time>2018-01-21T07:23:28.200000Z</time>
      </trkpt>
      <trkpt lat="35.955302191840275" lon="120.20970296223959">
        <ele>3</ele>
        <time>2018-01-21T07:23:38.200000Z</time>
      </trkpt>
      <trkpt lat="35.955325792100695" lon="120.20978054470486">
        <ele>3</ele>
        <time>2018-01-21T07:23:41.200000Z</time>
      </trkpt>
      <trkpt lat="35.95539143880208" lon="120.21000244140625">
        <ele>3</ele>
        <time>2018-01-21T07:23:49.100000Z</time>
      </trkpt>
      <trkpt lat="35.95539849175347" lon="120.2100830078125">
        <ele>3</ele>
        <time>2018-01-21T07:23:52.100000Z</time>
      </trkpt>
      <trkpt lat="35.95541612413194" lon="120.21020670572916">
        <ele>3</ele>
        <time>2018-01-21T07:23:56.100000Z</time>
      </trkpt>
      <trkpt lat="35.955448404947916" lon="120.21043240017362">
        <ele>3</ele>
        <time>2018-01-21T07:24:03.100000Z</time>
      </trkpt>
      <trkpt lat="35.95572726779514" lon="120.21081515842013">
        <ele>3</ele>
        <time>2018-01-21T07:24:21.100000Z</time>
      </trkpt>
      <trkpt lat="35.95574137369792" lon="120.21088894314236">
        <ele>3</ele>
        <time>2018-01-21T07:24:24.100000Z</time>
      </trkpt>
      <trkpt lat="35.95575629340278" lon="120.21096761067709">
        <ele>3</ele>
        <time>2018-01-21T07:24:28.100000Z</time>
      </trkpt>
      <trkpt lat="35.95580430772569" lon="120.21128390842014">
        <ele>3</ele>
        <time>2018-01-21T07:24:38.200000Z</time>
      </trkpt>
      <trkpt lat="35.955821940104165" lon="120.2114195421007">
        <ele>3</ele>
        <time>2018-01-21T07:24:42.200000Z</time>
      </trkpt>
      <trkpt lat="35.95583984375" lon="120.21165093315972">
        <ele>3</ele>
        <time>2018-01-21T07:24:49.200000Z</time>
      </trkpt>
      <trkpt lat="35.955858832465275" lon="120.21177354600694">
        <ele>3</ele>
        <time>2018-01-21T07:24:53.200000Z</time>
      </trkpt>
      <trkpt lat="35.95585476345486" lon="120.21187445746527">
        <ele>3</ele>
        <time>2018-01-21T07:24:56.200000Z</time>
      </trkpt>
      <trkpt lat="35.95585015190972" lon="120.21211561414931">
        <ele>3</ele>
        <time>2018-01-21T07:25:03.100000Z</time>
      </trkpt>
      <trkpt lat="35.95584852430556" lon="120.21224555121528">
        <ele>3</ele>
        <time>2018-01-21T07:25:07.100000Z</time>
      </trkpt>
      <trkpt lat="35.955860460069445" lon="120.21254774305555">
        <ele>3</ele>
        <time>2018-01-21T07:25:17.100000Z</time>
      </trkpt>
      <trkpt lat="35.95609076605903" lon="120.21270263671875">
        <ele>3</ele>
        <time>2018-01-21T07:25:30.100000Z</time>
      </trkpt>
      <trkpt lat="35.95617485894097" lon="120.21267415364584">
        <ele>3</ele>
        <time>2018-01-21T07:25:34.100000Z</time>
      </trkpt>
      <trkpt lat="35.956249457465276" lon="120.2126646592882">
        <ele>3</ele>
        <time>2018-01-21T07:25:37.100000Z</time>
      </trkpt>
      <trkpt lat="35.956487630208336" lon="120.2126060655382">
        <ele>3</ele>
        <time>2018-01-21T07:25:45.100000Z</time>
      </trkpt>
      <trkpt lat="35.95671902126736" lon="120.21277045355903">
        <ele>3</ele>
        <time>2018-01-21T07:25:59.100000Z</time>
      </trkpt>
      <trkpt lat="35.956729329427084" lon="120.2129079861111">
        <ele>3</ele>
        <time>2018-01-21T07:26:03.100000Z</time>
      </trkpt>
      <trkpt lat="35.956746690538196" lon="120.21314127604167">
        <ele>3</ele>
        <time>2018-01-21T07:26:10.100000Z</time>
      </trkpt>
      <trkpt lat="35.95675021701389" lon="120.21324110243056">
        <ele>3</ele>
        <time>2018-01-21T07:26:13.200000Z</time>
      </trkpt>
      <trkpt lat="35.95675537109375" lon="120.21335693359374">
        <ele>3</ele>
        <time>2018-01-21T07:26:16.200000Z</time>
      </trkpt>
      <trkpt lat="35.95678114149305" lon="120.21364637586805">
        <ele>3</ele>
        <time>2018-01-21T07:26:24.100000Z</time>
      </trkpt>
      <trkpt lat="35.95678629557292" lon="120.21374837239583">
        <ele>3</ele>
        <time>2018-01-21T07:26:27.100000Z</time>
      </trkpt>
      <trkpt lat="35.9568115234375" lon="120.21394829644098">
        <ele>3</ele>
        <time>2018-01-21T07:26:34.100000Z</time>
      </trkpt>
      <trkpt lat="35.95681857638889" lon="120.21406711154513">
        <ele>3</ele>
        <time>2018-01-21T07:26:38.100000Z</time>
      </trkpt>
      <trkpt lat="35.95684000651042" lon="120.21431667751736">
        <ele>3</ele>
        <time>2018-01-21T07:26:45.100000Z</time>
      </trkpt>
      <trkpt lat="35.95685845269097" lon="120.21442084418403">
        <ele>3</ele>
        <time>2018-01-21T07:26:49.400000Z</time>
      </trkpt>
      <trkpt lat="35.95690321180555" lon="120.21467854817708">
        <ele>3</ele>
        <time>2018-01-21T07:26:56.100000Z</time>
      </trkpt>
      <trkpt lat="35.956922200520836" lon="120.21478271484375">
        <ele>3</ele>
        <time>2018-01-21T07:26:59.100000Z</time>
      </trkpt>
      <trkpt lat="35.956942274305554" lon="120.21487413194444">
        <ele>3</ele>
        <time>2018-01-21T07:27:02.100000Z</time>
      </trkpt>
    </trkseg>
  </trk>
</gpx>