<?xml version="1.0" encoding="UTF-8"?>
<gpx xmlns="http://www.topografix.com/GPX/1/1" xmlns:gpxtpx="http://www.garmin.com/xmlschemas/TrackPointExtension/v1" xmlns:xsi="http://www.w3.org/2001/XMLSchema-instance" xsi:schemaLocation="http://www.topografix.com/GPX/1/1 http://www.topografix.com/GPX/1/1/gpx.xsd" version="1.1" creator="gpx.py -- https://github.com/tkrajina/gpxpy">
  <trk>
    <name>gpx from keep</name>
    <trkseg>
      <trkpt lat="35.956898328993056" lon="120.21464463975694">
        <ele>6.891392584134262</ele>
        <time>2021-07-27T21:18:17.400000Z</time>
      </trkpt>
      <trkpt lat="35.956874186197915" lon="120.21456244574652">
        <ele>6.2332023707291455</ele>
        <time>2021-07-27T21:18:21.200000Z</time>
      </trkpt>
      <trkpt lat="35.956858995225694" lon="120.21444308810764">
        <ele>6.269331750154687</ele>
        <time>2021-07-27T21:18:25.100000Z</time>
      </trkpt>
      <trkpt lat="35.95683078342014" lon="120.2142711046007">
        <ele>6.226393189788577</ele>
        <time>2021-07-27T21:18:31.100000Z</time>
      </trkpt>
      <trkpt lat="35.956814778645835" lon="120.2142041015625">
        <ele>2.8488576415411413</ele>
        <time>2021-07-27T21:18:34.100000Z</time>
      </trkpt>
      <trkpt lat="35.956805284288194" lon="120.21412109375">
        <ele>3.027753563340237</ele>
        <time>2021-07-27T21:18:37.100000Z</time>
      </trkpt>
      <trkpt lat="35.9567857530382" lon="120.21393853081597">
        <ele>3.070840118204046</ele>
        <time>2021-07-27T21:18:43.100000Z</time>
      </trkpt>
      <trkpt lat="35.95677218967014" lon="120.21385416666666">
        <ele>3.0966842289805103</ele>
        <time>2021-07-27T21:18:46.100000Z</time>
      </trkpt>
      <trkpt lat="35.95675645616319" lon="120.21378689236111">
        <ele>3.0889563975841043</ele>
        <time>2021-07-27T21:18:49.100000Z</time>
      </trkpt>
      <trkpt lat="35.956737738715276" lon="120.21354573567709">
        <ele>2.8213153205978507</ele>
        <time>2021-07-27T21:18:58.100000Z</time>
      </trkpt>
      <trkpt lat="35.956707899305556" lon="120.2133908420139">
        <ele>2.645714748965113</ele>
        <time>2021-07-27T21:19:04.100000Z</time>
      </trkpt>
      <trkpt lat="35.95668023003472" lon="120.21319742838541">
        <ele>2.7219683055423554</ele>
        <time>2021-07-27T21:19:10.100000Z</time>
      </trkpt>
      <trkpt lat="35.95667507595486" lon="120.21309407552083">
        <ele>2.7787716114692085</ele>
        <time>2021-07-27T21:19:13.100000Z</time>
      </trkpt>
      <trkpt lat="35.95666965060764" lon="120.21301784939236">
        <ele>2.898510494837862</ele>
        <time>2021-07-27T21:19:16.100000Z</time>
      </trkpt>
      <trkpt lat="35.9566517469618" lon="120.212861328125">
        <ele>3.0099999941559425</ele>
        <time>2021-07-27T21:19:22.100000Z</time>
      </trkpt>
      <trkpt lat="35.95664116753472" lon="120.21278754340278">
        <ele>3.0088949769229174</ele>
        <time>2021-07-27T21:19:25.100000Z</time>
      </trkpt>
      <trkpt lat="35.95645372178819" lon="120.21259521484374">
        <ele>3.055666359446189</ele>
        <time>2021-07-27T21:19:37.100000Z</time>
      </trkpt>
      <trkpt lat="35.9563916015625" lon="120.21260199652778">
        <ele>3.09491960490305</ele>
        <time>2021-07-27T21:19:40.100000Z</time>
      </trkpt>
      <trkpt lat="35.95632948133681" lon="120.21261583116319">
        <ele>3.044193503312947</ele>
        <time>2021-07-27T21:19:43.100000Z</time>
      </trkpt>
      <trkpt lat="35.956265190972225" lon="120.2126283094618">
        <ele>2.933154169621358</ele>
        <time>2021-07-27T21:19:46.100000Z</time>
      </trkpt>
      <trkpt lat="35.95607150607639" lon="120.21266357421875">
        <ele>2.9883869064984796</ele>
        <time>2021-07-27T21:19:55.100000Z</time>
      </trkpt>
      <trkpt lat="35.955997450086805" lon="120.21267632378472">
        <ele>2.930715249466523</ele>
        <time>2021-07-27T21:19:58.100000Z</time>
      </trkpt>
      <trkpt lat="35.955928548177084" lon="120.21268907335069">
        <ele>2.898764540123315</ele>
        <time>2021-07-27T21:20:01.100000Z</time>
      </trkpt>
      <trkpt lat="35.955791015625" lon="120.2126988389757">
        <ele>2.935266020097409</ele>
        <time>2021-07-27T21:20:07.100000Z</time>
      </trkpt>
      <trkpt lat="35.955646701388886" lon="120.21269639756945">
        <ele>3.0515169600917966</ele>
        <time>2021-07-27T21:20:13.100000Z</time>
      </trkpt>
      <trkpt lat="35.95556423611111" lon="120.21272271050347">
        <ele>3.0165360106907846</ele>
        <time>2021-07-27T21:20:17.100000Z</time>
      </trkpt>
      <trkpt lat="35.955477973090275" lon="120.2127454969618">
        <ele>3.022566147423077</ele>
        <time>2021-07-27T21:20:21.100000Z</time>
      </trkpt>
      <trkpt lat="35.95530029296875" lon="120.2127747938368">
        <ele>3.038935645552877</ele>
        <time>2021-07-27T21:20:29.100000Z</time>
      </trkpt>
      <trkpt lat="35.95521240234375" lon="120.21279242621527">
        <ele>2.9815067593820226</ele>
        <time>2021-07-27T21:20:33.100000Z</time>
      </trkpt>
      <trkpt lat="35.95512505425347" lon="120.21280544704861">
        <ele>2.867065712077901</ele>
        <time>2021-07-27T21:20:37.100000Z</time>
      </trkpt>
      <trkpt lat="35.95494411892361" lon="120.2128564453125">
        <ele>2.579591267508637</ele>
        <time>2021-07-27T21:20:45.100000Z</time>
      </trkpt>
      <trkpt lat="35.95484266493055" lon="120.21288275824652">
        <ele>2.5814514551882075</ele>
        <time>2021-07-27T21:20:49.100000Z</time>
      </trkpt>
      <trkpt lat="35.954662000868055" lon="120.21294704861111">
        <ele>2.8156269417057667</ele>
        <time>2021-07-27T21:20:57.100000Z</time>
      </trkpt>
      <trkpt lat="35.9545738389757" lon="120.21298285590278">
        <ele>2.83664066709121</ele>
        <time>2021-07-27T21:21:01.100000Z</time>
      </trkpt>
      <trkpt lat="35.95442843967014" lon="120.21305230034723">
        <ele>2.7971089382558763</ele>
        <time>2021-07-27T21:21:08.100000Z</time>
      </trkpt>
      <trkpt lat="35.954365776909725" lon="120.2130970594618">
        <ele>2.7497704702558288</ele>
        <time>2021-07-27T21:21:11.100000Z</time>
      </trkpt>
      <trkpt lat="35.954303385416665" lon="120.21313666449653">
        <ele>2.7587891405729588</ele>
        <time>2021-07-27T21:21:14.100000Z</time>
      </trkpt>
      <trkpt lat="35.95418728298611" lon="120.21323676215277">
        <ele>2.91667844528742</ele>
        <time>2021-07-27T21:21:20.100000Z</time>
      </trkpt>
      <trkpt lat="35.954128689236114" lon="120.21328586154515">
        <ele>2.869046964868351</ele>
        <time>2021-07-27T21:21:23.100000Z</time>
      </trkpt>
      <trkpt lat="35.95402479383681" lon="120.21341010199653">
        <ele>2.89361116097124</ele>
        <time>2021-07-27T21:21:29.100000Z</time>
      </trkpt>
      <trkpt lat="35.95397216796875" lon="120.21346761067709">
        <ele>2.852251422572574</ele>
        <time>2021-07-27T21:21:32.100000Z</time>
      </trkpt>
      <trkpt lat="35.95392795138889" lon="120.21354112413195">
        <ele>2.90774499611998</ele>
        <time>2021-07-27T21:21:35.100000Z</time>
      </trkpt>
      <trkpt lat="35.95385281032986" lon="120.21367268880208">
        <ele>3.017356702361908</ele>
        <time>2021-07-27T21:21:41.100000Z</time>
      </trkpt>
      <trkpt lat="35.95381184895833" lon="120.2137353515625">
        <ele>2.973718663094817</ele>
        <time>2021-07-27T21:21:44.100000Z</time>
      </trkpt>
      <trkpt lat="35.953775770399304" lon="120.21381293402777">
        <ele>2.942692232883861</ele>
        <time>2021-07-27T21:21:47.100000Z</time>
      </trkpt>
      <trkpt lat="35.953694932725696" lon="120.21394314236112">
        <ele>2.945783437806866</ele>
        <time>2021-07-27T21:21:53.100000Z</time>
      </trkpt>
      <trkpt lat="35.95365776909722" lon="120.21400851779514">
        <ele>2.946253092867726</ele>
        <time>2021-07-27T21:21:56.100000Z</time>
      </trkpt>
      <trkpt lat="35.953623860677084" lon="120.21408447265625">
        <ele>2.98853038316355</ele>
        <time>2021-07-27T21:21:59.100000Z</time>
      </trkpt>
      <trkpt lat="35.95359185112847" lon="120.21414957682292">
        <ele>3.0201949812813376</ele>
        <time>2021-07-27T21:22:02.100000Z</time>
      </trkpt>
      <trkpt lat="35.953526746961806" lon="120.21429633246528">
        <ele>2.9501878484383157</ele>
        <time>2021-07-27T21:22:08.100000Z</time>
      </trkpt>
      <trkpt lat="35.953426649305555" lon="120.21451144748264">
        <ele>2.9025710314044617</ele>
        <time>2021-07-27T21:22:17.100000Z</time>
      </trkpt>
      <trkpt lat="35.95339002821181" lon="120.21458360460069">
        <ele>2.921883478176391</ele>
        <time>2021-07-27T21:22:20.100000Z</time>
      </trkpt>
      <trkpt lat="35.95334065755208" lon="120.21466986762152">
        <ele>2.937860590476034</ele>
        <time>2021-07-27T21:22:24.100000Z</time>
      </trkpt>
      <trkpt lat="35.9531640625" lon="120.21489963107639">
        <ele>3.0412502260004066</ele>
        <time>2021-07-27T21:22:36.100000Z</time>
      </trkpt>
      <trkpt lat="35.953028428819444" lon="120.21505316840278">
        <ele>3.042787917268677</ele>
        <time>2021-07-27T21:22:44.100000Z</time>
      </trkpt>
      <trkpt lat="35.95295979817708" lon="120.21512722439236">
        <ele>3.0899872946896614</ele>
        <time>2021-07-27T21:22:48.100000Z</time>
      </trkpt>
      <trkpt lat="35.95266031901042" lon="120.21526991102431">
        <ele>2.882499774455762</ele>
        <time>2021-07-27T21:23:04.100000Z</time>
      </trkpt>
      <trkpt lat="35.95257269965278" lon="120.21534478081597">
        <ele>2.8944904237141516</ele>
        <time>2021-07-27T21:23:08.100000Z</time>
      </trkpt>
      <trkpt lat="35.952496202256945" lon="120.2154074435764">
        <ele>3.0651341069080837</ele>
        <time>2021-07-27T21:23:12.100000Z</time>
      </trkpt>
      <trkpt lat="35.95230712890625" lon="120.21546630859375">
        <ele>3.2185642942920527</ele>
        <time>2021-07-27T21:23:24.100000Z</time>
      </trkpt>
      <trkpt lat="35.952249891493054" lon="120.21540825737847">
        <ele>3.0124954650379943</ele>
        <time>2021-07-27T21:23:32.100000Z</time>
      </trkpt>
      <trkpt lat="35.95218804253472" lon="120.21539740668403">
        <ele>3.1101009847317758</ele>
        <time>2021-07-27T21:23:40.100000Z</time>
      </trkpt>
      <trkpt lat="35.95220296223958" lon="120.21540934244791">
        <ele>3.001522231925203</ele>
        <time>2021-07-27T21:23:44.100000Z</time>
      </trkpt>
      <trkpt lat="35.952220865885415" lon="120.21542317708334">
        <ele>2.635334524142956</ele>
        <time>2021-07-27T21:23:48.100000Z</time>
      </trkpt>
      <trkpt lat="35.95223361545139" lon="120.21542941623264">
        <ele>2.886696506438648</ele>
        <time>2021-07-27T21:23:56.100000Z</time>
      </trkpt>
      <trkpt lat="35.95196343315972" lon="120.21552842881944">
        <ele>3.052477930044359</ele>
        <time>2021-07-27T21:24:21.100000Z</time>
      </trkpt>
      <trkpt lat="35.9517152235243" lon="120.21561116536458">
        <ele>2.9830374252681007</ele>
        <time>2021-07-27T21:24:32.100000Z</time>
      </trkpt>
      <trkpt lat="35.95162760416667" lon="120.21564534505208">
        <ele>2.830103416984121</ele>
        <time>2021-07-27T21:24:36.100000Z</time>
      </trkpt>
      <trkpt lat="35.95135606553819" lon="120.21578803168403">
        <ele>2.2163289454247415</ele>
        <time>2021-07-27T21:24:48.100000Z</time>
      </trkpt>
      <trkpt lat="35.95124267578125" lon="120.21581868489584">
        <ele>2.3998032657251733</ele>
        <time>2021-07-27T21:24:52.100000Z</time>
      </trkpt>
      <trkpt lat="35.95104058159722" lon="120.21584852430556">
        <ele>2.69078705714753</ele>
        <time>2021-07-27T21:25:00.100000Z</time>
      </trkpt>
      <trkpt lat="35.95095947265625" lon="120.21584662543403">
        <ele>2.589712507655776</ele>
        <time>2021-07-27T21:25:04.100000Z</time>
      </trkpt>
      <trkpt lat="35.95074408637153" lon="120.21587510850695">
        <ele>2.700212566260304</ele>
        <time>2021-07-27T21:25:12.100000Z</time>
      </trkpt>
      <trkpt lat="35.95045355902778" lon="120.21597574869791">
        <ele>2.513279480193124</ele>
        <time>2021-07-27T21:25:24.100000Z</time>
      </trkpt>
      <trkpt lat="35.95029296875" lon="120.21607611762153">
        <ele>2.1758828345532626</ele>
        <time>2021-07-27T21:25:32.100000Z</time>
      </trkpt>
      <trkpt lat="35.95011176215278" lon="120.21615505642362">
        <ele>2.3631021112435233</ele>
        <time>2021-07-27T21:25:40.100000Z</time>
      </trkpt>
      <trkpt lat="35.950009765625" lon="120.21617350260416">
        <ele>2.374834387234302</ele>
        <time>2021-07-27T21:25:44.100000Z</time>
      </trkpt>
      <trkpt lat="35.94981255425347" lon="120.2162820095486">
        <ele>2.411696193471438</ele>
        <time>2021-07-27T21:25:52.100000Z</time>
      </trkpt>
      <trkpt lat="35.94971571180555" lon="120.21637315538194">
        <ele>2.2124964721035156</ele>
        <time>2021-07-27T21:25:56.100000Z</time>
      </trkpt>
      <trkpt lat="35.94925509982639" lon="120.21636935763888">
        <ele>2.3210413958493317</ele>
        <time>2021-07-27T21:26:16.100000Z</time>
      </trkpt>
      <trkpt lat="35.94906792534722" lon="120.21640814887152">
        <ele>1.962901103599297</ele>
        <time>2021-07-27T21:26:24.100000Z</time>
      </trkpt>
      <trkpt lat="35.94887505425347" lon="120.21645100911458">
        <ele>2.165738334383527</ele>
        <time>2021-07-27T21:26:31.100000Z</time>
      </trkpt>
      <trkpt lat="35.94864040798611" lon="120.21651882595486">
        <ele>2.7665011303796723</ele>
        <time>2021-07-27T21:26:39.100000Z</time>
      </trkpt>
      <trkpt lat="35.94854085286458" lon="120.21652913411458">
        <ele>2.869679273837649</ele>
        <time>2021-07-27T21:26:43.100000Z</time>
      </trkpt>
      <trkpt lat="35.94836615668403" lon="120.21653076171874">
        <ele>2.8844788710455287</ele>
        <time>2021-07-27T21:26:51.100000Z</time>
      </trkpt>
      <trkpt lat="35.94827880859375" lon="120.2165060763889">
        <ele>2.900438962463464</ele>
        <time>2021-07-27T21:26:55.100000Z</time>
      </trkpt>
      <trkpt lat="35.94811089409722" lon="120.21652262369791">
        <ele>2.9081699317376977</ele>
        <time>2021-07-27T21:27:03.100000Z</time>
      </trkpt>
      <trkpt lat="35.947763671875" lon="120.21656494140625">
        <ele>2.824652146873873</ele>
        <time>2021-07-27T21:27:19.100000Z</time>
      </trkpt>
      <trkpt lat="35.94766818576389" lon="120.21658528645834">
        <ele>2.853125920217279</ele>
        <time>2021-07-27T21:27:23.100000Z</time>
      </trkpt>
      <trkpt lat="35.94747097439236" lon="120.21661675347222">
        <ele>2.961822605157439</ele>
        <time>2021-07-27T21:27:31.100000Z</time>
      </trkpt>
      <trkpt lat="35.94737874348959" lon="120.21664252387153">
        <ele>2.997638080037603</ele>
        <time>2021-07-27T21:27:35.100000Z</time>
      </trkpt>
      <trkpt lat="35.94724799262153" lon="120.21666015625">
        <ele>3.061081833322828</ele>
        <time>2021-07-27T21:27:43.100000Z</time>
      </trkpt>
      <trkpt lat="35.94711317274306" lon="120.21669080946181">
        <ele>3.0716025862722747</ele>
        <time>2021-07-27T21:27:51.100000Z</time>
      </trkpt>
      <trkpt lat="35.94705050998264" lon="120.21671576605902">
        <ele>3.039671176669484</ele>
        <time>2021-07-27T21:27:55.100000Z</time>
      </trkpt>
      <trkpt lat="35.94699164496528" lon="120.2167418077257">
        <ele>3.1010430722940834</ele>
        <time>2021-07-27T21:27:59.100000Z</time>
      </trkpt>
      <trkpt lat="35.946926812065975" lon="120.21676323784722">
        <ele>3.104614817586592</ele>
        <time>2021-07-27T21:28:03.100000Z</time>
      </trkpt>
      <trkpt lat="35.94677056206597" lon="120.21680636935764">
        <ele>3.055735556993081</ele>
        <time>2021-07-27T21:28:11.100000Z</time>
      </trkpt>
      <trkpt lat="35.94667263454861" lon="120.21682725694444">
        <ele>3.031590926835487</ele>
        <time>2021-07-27T21:28:15.100000Z</time>
      </trkpt>
      <trkpt lat="35.94648681640625" lon="120.21689398871528">
        <ele>3.0488427423759634</ele>
        <time>2021-07-27T21:28:23.100000Z</time>
      </trkpt>
      <trkpt lat="35.9463978407118" lon="120.2169091796875">
        <ele>3.0269768039555482</ele>
        <time>2021-07-27T21:28:27.100000Z</time>
      </trkpt>
      <trkpt lat="35.94621202256945" lon="120.21697889539931">
        <ele>3.0013057587235963</ele>
        <time>2021-07-27T21:28:35.100000Z</time>
      </trkpt>
      <trkpt lat="35.94615017361111" lon="120.21700846354166">
        <ele>2.9999169510914023</ele>
        <time>2021-07-27T21:28:38.100000Z</time>
      </trkpt>
      <trkpt lat="35.94605848524306" lon="120.21703938802084">
        <ele>2.9848656011492</ele>
        <time>2021-07-27T21:28:42.100000Z</time>
      </trkpt>
      <trkpt lat="35.94586480034722" lon="120.21711832682291">
        <ele>3.072598000949616</ele>
        <time>2021-07-27T21:28:50.100000Z</time>
      </trkpt>
      <trkpt lat="35.94576253255208" lon="120.21715277777778">
        <ele>3.065206161998623</ele>
        <time>2021-07-27T21:28:54.100000Z</time>
      </trkpt>
      <trkpt lat="35.945582953559025" lon="120.21722439236112">
        <ele>2.926337868260563</ele>
        <time>2021-07-27T21:29:02.100000Z</time>
      </trkpt>
      <trkpt lat="35.945499131944445" lon="120.21726236979167">
        <ele>2.8117962968189274</ele>
        <time>2021-07-27T21:29:06.100000Z</time>
      </trkpt>
      <trkpt lat="35.94530544704861" lon="120.21735243055555">
        <ele>2.8846283063723273</ele>
        <time>2021-07-27T21:29:14.100000Z</time>
      </trkpt>
      <trkpt lat="35.94521294487847" lon="120.21739827473958">
        <ele>2.890856263235059</ele>
        <time>2021-07-27T21:29:18.100000Z</time>
      </trkpt>
      <trkpt lat="35.9450390625" lon="120.21749864366319">
        <ele>2.969569162829348</ele>
        <time>2021-07-27T21:29:26.100000Z</time>
      </trkpt>
      <trkpt lat="35.94494873046875" lon="120.21755723741319">
        <ele>2.7983425483216786</ele>
        <time>2021-07-27T21:29:30.100000Z</time>
      </trkpt>
      <trkpt lat="35.944755859375" lon="120.21765814887152">
        <ele>2.7151518918603856</ele>
        <time>2021-07-27T21:29:38.100000Z</time>
      </trkpt>
      <trkpt lat="35.94467990451389" lon="120.21768608940972">
        <ele>2.613050118475744</ele>
        <time>2021-07-27T21:29:41.100000Z</time>
      </trkpt>
      <trkpt lat="35.94460476345486" lon="120.21773247612848">
        <ele>2.691209743085451</ele>
        <time>2021-07-27T21:29:45.100000Z</time>
      </trkpt>
      <trkpt lat="35.944484592013886" lon="120.21779296875">
        <ele>2.898385767830914</ele>
        <time>2021-07-27T21:29:53.100000Z</time>
      </trkpt>
      <trkpt lat="35.94437527126736" lon="120.21785074869791">
        <ele>2.9742470450424916</ele>
        <time>2021-07-27T21:30:01.100000Z</time>
      </trkpt>
      <trkpt lat="35.94428005642361" lon="120.21790500217014">
        <ele>3.0696118771857703</ele>
        <time>2021-07-27T21:30:09.100000Z</time>
      </trkpt>
      <trkpt lat="35.94414252387153" lon="120.21798963758681">
        <ele>2.9641377833006626</ele>
        <time>2021-07-27T21:30:17.100000Z</time>
      </trkpt>
      <trkpt lat="35.94405897352431" lon="120.21802218967014">
        <ele>2.966382997959716</ele>
        <time>2021-07-27T21:30:21.100000Z</time>
      </trkpt>
      <trkpt lat="35.943888075086804" lon="120.21803358289931">
        <ele>2.934596215156908</ele>
        <time>2021-07-27T21:30:29.100000Z</time>
      </trkpt>
      <trkpt lat="35.943729926215276" lon="120.21788655598958">
        <ele>2.6725136843894326</ele>
        <time>2021-07-27T21:30:37.100000Z</time>
      </trkpt>
      <trkpt lat="35.94366156684028" lon="120.2178076171875">
        <ele>2.6362574567464114</ele>
        <time>2021-07-27T21:30:41.100000Z</time>
      </trkpt>
      <trkpt lat="35.94355794270833" lon="120.2176624891493">
        <ele>2.640957021230323</ele>
        <time>2021-07-27T21:30:48.100000Z</time>
      </trkpt>
      <trkpt lat="35.94349636501736" lon="120.21757649739584">
        <ele>2.6269596017367123</ele>
        <time>2021-07-27T21:30:52.100000Z</time>
      </trkpt>
      <trkpt lat="35.94338975694444" lon="120.21741238064236">
        <ele>2.247678248692527</ele>
        <time>2021-07-27T21:30:59.100000Z</time>
      </trkpt>
      <trkpt lat="35.94326985677083" lon="120.2172314453125">
        <ele>2.15078026192828</ele>
        <time>2021-07-27T21:31:07.100000Z</time>
      </trkpt>
      <trkpt lat="35.94317762586805" lon="120.21703043619792">
        <ele>2.3956855989183885</ele>
        <time>2021-07-27T21:31:15.100000Z</time>
      </trkpt>
      <trkpt lat="35.943126898871526" lon="120.21694525824653">
        <ele>2.58842724365409</ele>
        <time>2021-07-27T21:31:19.100000Z</time>
      </trkpt>
      <trkpt lat="35.943074815538196" lon="120.21685655381944">
        <ele>2.6910636511611874</ele>
        <time>2021-07-27T21:31:23.100000Z</time>
      </trkpt>
      <trkpt lat="35.942965766059025" lon="120.21670491536459">
        <ele>2.571376136213072</ele>
        <time>2021-07-27T21:31:31.100000Z</time>
      </trkpt>
      <trkpt lat="35.942897677951386" lon="120.21663140190972">
        <ele>2.441768365537067</ele>
        <time>2021-07-27T21:31:35.100000Z</time>
      </trkpt>
      <trkpt lat="35.9426429578993" lon="120.21628228081597">
        <ele>2.6526159114154573</ele>
        <time>2021-07-27T21:31:51.100000Z</time>
      </trkpt>
      <trkpt lat="35.942555067274306" lon="120.21606879340278">
        <ele>2.7868560337896913</ele>
        <time>2021-07-27T21:31:59.100000Z</time>
      </trkpt>
      <trkpt lat="35.942499457465274" lon="120.2159828016493">
        <ele>2.6717877130756063</ele>
        <time>2021-07-27T21:32:03.100000Z</time>
      </trkpt>
      <trkpt lat="35.942402886284725" lon="120.21578396267361">
        <ele>2.6900286458125153</ele>
        <time>2021-07-27T21:32:11.100000Z</time>
      </trkpt>
      <trkpt lat="35.94235432942708" lon="120.21566921657985">
        <ele>2.764814578294683</ele>
        <time>2021-07-27T21:32:15.100000Z</time>
      </trkpt>
      <trkpt lat="35.9422474500868" lon="120.21546793619791">
        <ele>2.7537173690872376</ele>
        <time>2021-07-27T21:32:23.100000Z</time>
      </trkpt>
      <trkpt lat="35.94220811631944" lon="120.21534966362847">
        <ele>2.876107977469179</ele>
        <time>2021-07-27T21:32:27.100000Z</time>
      </trkpt>
      <trkpt lat="35.94211181640625" lon="120.21513346354166">
        <ele>2.9524480739212047</ele>
        <time>2021-07-27T21:32:35.100000Z</time>
      </trkpt>
      <trkpt lat="35.942057562934025" lon="120.21504774305555">
        <ele>2.94272588065197</ele>
        <time>2021-07-27T21:32:39.100000Z</time>
      </trkpt>
      <trkpt lat="35.941959092881945" lon="120.21485921223959">
        <ele>3.039984765455666</ele>
        <time>2021-07-27T21:32:47.100000Z</time>
      </trkpt>
      <trkpt lat="35.941905924479165" lon="120.21477349175348">
        <ele>3.0949625994894236</ele>
        <time>2021-07-27T21:32:50.100000Z</time>
      </trkpt>
      <trkpt lat="35.941822916666666" lon="120.21456895616319">
        <ele>3.1612284234757104</ele>
        <time>2021-07-27T21:32:58.100000Z</time>
      </trkpt>
      <trkpt lat="35.941624891493056" lon="120.21435167100694">
        <ele>3.19128514287026</ele>
        <time>2021-07-27T21:33:10.100000Z</time>
      </trkpt>
      <trkpt lat="35.941411946614586" lon="120.21419053819444">
        <ele>3.2013348629668688</ele>
        <time>2021-07-27T21:33:22.100000Z</time>
      </trkpt>
      <trkpt lat="35.94128716362847" lon="120.21402289496528">
        <ele>3.2388693499532537</ele>
        <time>2021-07-27T21:33:30.100000Z</time>
      </trkpt>
      <trkpt lat="35.94121310763889" lon="120.21395562065972">
        <ele>3.2290788406413995</ele>
        <time>2021-07-27T21:33:34.100000Z</time>
      </trkpt>
      <trkpt lat="35.94113796657986" lon="120.2138525390625">
        <ele>3.161335883403888</ele>
        <time>2021-07-27T21:33:42.100000Z</time>
      </trkpt>
      <trkpt lat="35.941142849392364" lon="120.21386284722222">
        <ele>3.0386701550741435</ele>
        <time>2021-07-27T21:33:46.100000Z</time>
      </trkpt>
      <trkpt lat="35.94114990234375" lon="120.2138791232639">
        <ele>3.1259631689842906</ele>
        <time>2021-07-27T21:33:50.100000Z</time>
      </trkpt>
      <trkpt lat="35.94106879340278" lon="120.21386773003472">
        <ele>3.140775274566596</ele>
        <time>2021-07-27T21:34:01.100000Z</time>
      </trkpt>
      <trkpt lat="35.940883246527775" lon="120.21387858072917">
        <ele>3.1968434283539193</ele>
        <time>2021-07-27T21:34:09.100000Z</time>
      </trkpt>
      <trkpt lat="35.9407261827257" lon="120.21395399305555">
        <ele>3.190633428896021</ele>
        <time>2021-07-27T21:34:17.100000Z</time>
      </trkpt>
      <trkpt lat="35.94052680121528" lon="120.21415907118056">
        <ele>3.211651111514388</ele>
        <time>2021-07-27T21:34:29.100000Z</time>
      </trkpt>
      <trkpt lat="35.94046630859375" lon="120.21436876085069">
        <ele>3.2260482603676337</ele>
        <time>2021-07-27T21:34:37.100000Z</time>
      </trkpt>
      <trkpt lat="35.94045654296875" lon="120.21447726779513">
        <ele>3.2237280197792035</ele>
        <time>2021-07-27T21:34:41.100000Z</time>
      </trkpt>
      <trkpt lat="35.94035319010417" lon="120.21459201388889">
        <ele>3.2074349320188595</ele>
        <time>2021-07-27T21:34:49.100000Z</time>
      </trkpt>
      <trkpt lat="35.94023898654514" lon="120.2146324327257">
        <ele>3.243661969162846</ele>
        <time>2021-07-27T21:34:56.100000Z</time>
      </trkpt>
      <trkpt lat="35.94017957899305" lon="120.21465142144098">
        <ele>3.2534199789765337</ele>
        <time>2021-07-27T21:35:00.100000Z</time>
      </trkpt>
      <trkpt lat="35.94012559678819" lon="120.21467122395833">
        <ele>3.2396792874488867</ele>
        <time>2021-07-27T21:35:03.100000Z</time>
      </trkpt>
      <trkpt lat="35.94007215711805" lon="120.2146861436632">
        <ele>3.2511366592038144</ele>
        <time>2021-07-27T21:35:06.100000Z</time>
      </trkpt>
      <trkpt lat="35.939928385416664" lon="120.21474663628472">
        <ele>3.2153523495101632</ele>
        <time>2021-07-27T21:35:12.100000Z</time>
      </trkpt>
      <trkpt lat="35.93985758463542" lon="120.21477593315973">
        <ele>3.2061333452484866</ele>
        <time>2021-07-27T21:35:15.100000Z</time>
      </trkpt>
      <trkpt lat="35.93975992838541" lon="120.21480902777778">
        <ele>3.2178930576690936</ele>
        <time>2021-07-27T21:35:19.100000Z</time>
      </trkpt>
      <trkpt lat="35.93957573784722" lon="120.21487413194444">
        <ele>3.189526083078421</ele>
        <time>2021-07-27T21:35:27.100000Z</time>
      </trkpt>
      <trkpt lat="35.93948187934028" lon="120.21490695529513">
        <ele>3.1770942911170486</ele>
        <time>2021-07-27T21:35:31.100000Z</time>
      </trkpt>
      <trkpt lat="35.939296875" lon="120.21496012369792">
        <ele>3.2122406548171933</ele>
        <time>2021-07-27T21:35:39.200000Z</time>
      </trkpt>
      <trkpt lat="35.93920925564236" lon="120.21499213324653">
        <ele>3.211063917792886</ele>
        <time>2021-07-27T21:35:43.100000Z</time>
      </trkpt>
      <trkpt lat="35.93902587890625" lon="120.21503390842014">
        <ele>3.2171449116082784</ele>
        <time>2021-07-27T21:35:51.100000Z</time>
      </trkpt>
      <trkpt lat="35.938930392795136" lon="120.21504340277778">
        <ele>3.2165030798478775</ele>
        <time>2021-07-27T21:35:55.100000Z</time>
      </trkpt>
      <trkpt lat="35.93874186197917" lon="120.21506998697917">
        <ele>3.2177322768023817</ele>
        <time>2021-07-27T21:36:03.100000Z</time>
      </trkpt>
      <trkpt lat="35.938646918402775" lon="120.21507107204862">
        <ele>3.223707098278198</ele>
        <time>2021-07-27T21:36:07.100000Z</time>
      </trkpt>
      <trkpt lat="35.93845377604167" lon="120.21504014756944">
        <ele>3.23708741615219</ele>
        <time>2021-07-27T21:36:15.100000Z</time>
      </trkpt>
      <trkpt lat="35.93833902994792" lon="120.21498752170139">
        <ele>3.2530970372078047</ele>
        <time>2021-07-27T21:36:23.100000Z</time>
      </trkpt>
      <trkpt lat="35.93823269314236" lon="120.21493733723959">
        <ele>3.2877046548133393</ele>
        <time>2021-07-27T21:36:31.100000Z</time>
      </trkpt>
      <trkpt lat="35.93817355685764" lon="120.21492377387153">
        <ele>3.280343024762419</ele>
        <time>2021-07-27T21:36:35.500000Z</time>
      </trkpt>
      <trkpt lat="35.93795654296875" lon="120.21479600694444">
        <ele>3.2682811050032874</ele>
        <time>2021-07-27T21:36:47.100000Z</time>
      </trkpt>
      <trkpt lat="35.93787353515625" lon="120.21472954644098">
        <ele>3.2474570055823655</ele>
        <time>2021-07-27T21:36:51.100000Z</time>
      </trkpt>
      <trkpt lat="35.937785915798614" lon="120.21468017578125">
        <ele>3.2585244112807588</ele>
        <time>2021-07-27T21:36:55.100000Z</time>
      </trkpt>
      <trkpt lat="35.93764322916667" lon="120.21456732855903">
        <ele>3.2457899799139778</ele>
        <time>2021-07-27T21:37:02.100000Z</time>
      </trkpt>
      <trkpt lat="35.937564290364584" lon="120.21450873480903">
        <ele>3.2434555226407187</ele>
        <time>2021-07-27T21:37:06.100000Z</time>
      </trkpt>
      <trkpt lat="35.93748046875" lon="120.2144447157118">
        <ele>3.2299717731882183</ele>
        <time>2021-07-27T21:37:10.100000Z</time>
      </trkpt>
      <trkpt lat="35.93731472439236" lon="120.21431098090278">
        <ele>3.254052826824772</ele>
        <time>2021-07-27T21:37:18.100000Z</time>
      </trkpt>
      <trkpt lat="35.93722900390625" lon="120.21425238715278">
        <ele>3.2447625832202456</ele>
        <time>2021-07-27T21:37:22.100000Z</time>
      </trkpt>
      <trkpt lat="35.937067328559024" lon="120.2141140407986">
        <ele>3.243686790793954</ele>
        <time>2021-07-27T21:37:30.100000Z</time>
      </trkpt>
      <trkpt lat="35.93698676215278" lon="120.21403700086806">
        <ele>3.2377881843119427</ele>
        <time>2021-07-27T21:37:34.100000Z</time>
      </trkpt>
      <trkpt lat="35.93682373046875" lon="120.21389133029514">
        <ele>3.252238237627182</ele>
        <time>2021-07-27T21:37:42.100000Z</time>
      </trkpt>
      <trkpt lat="35.936749403211806" lon="120.21381320529514">
        <ele>3.2755190401338337</ele>
        <time>2021-07-27T21:37:46.100000Z</time>
      </trkpt>
      <trkpt lat="35.93659206814236" lon="120.21366129557292">
        <ele>3.239382174018478</ele>
        <time>2021-07-27T21:37:54.200000Z</time>
      </trkpt>
      <trkpt lat="35.93652180989584" lon="120.2135826280382">
        <ele>3.227536857799815</ele>
        <time>2021-07-27T21:37:58.100000Z</time>
      </trkpt>
      <trkpt lat="35.936375054253475" lon="120.21341986762152">
        <ele>3.213207939391435</ele>
        <time>2021-07-27T21:38:06.100000Z</time>
      </trkpt>
      <trkpt lat="35.93630452473958" lon="120.21333089192709">
        <ele>3.2279061272180045</ele>
        <time>2021-07-27T21:38:10.100000Z</time>
      </trkpt>
      <trkpt lat="35.936161024305555" lon="120.21316460503472">
        <ele>3.226657218344544</ele>
        <time>2021-07-27T21:38:18.100000Z</time>
      </trkpt>
      <trkpt lat="35.93609700520833" lon="120.2130845811632">
        <ele>3.2209626767009873</ele>
        <time>2021-07-27T21:38:22.100000Z</time>
      </trkpt>
      <trkpt lat="35.9359716796875" lon="120.21290473090278">
        <ele>3.2190704538272734</ele>
        <time>2021-07-27T21:38:30.100000Z</time>
      </trkpt>
      <trkpt lat="35.93590711805555" lon="120.21282660590278">
        <ele>3.21098013145752</ele>
        <time>2021-07-27T21:38:34.200000Z</time>
      </trkpt>
      <trkpt lat="35.935780164930556" lon="120.21263509114583">
        <ele>3.2121967107204434</ele>
        <time>2021-07-27T21:38:42.100000Z</time>
      </trkpt>
      <trkpt lat="35.935716959635414" lon="120.2125501844618">
        <ele>3.2172871978094593</ele>
        <time>2021-07-27T21:38:46.100000Z</time>
      </trkpt>
      <trkpt lat="35.935597330729166" lon="120.2123668077257">
        <ele>3.2104666690078862</ele>
        <time>2021-07-27T21:38:54.200000Z</time>
      </trkpt>
      <trkpt lat="35.9355322265625" lon="120.21226888020833">
        <ele>3.233431666429212</ele>
        <time>2021-07-27T21:38:58.100000Z</time>
      </trkpt>
      <trkpt lat="35.93544921875" lon="120.21210557725695">
        <ele>3.2513509743622913</ele>
        <time>2021-07-27T21:39:06.100000Z</time>
      </trkpt>
      <trkpt lat="35.93543267144097" lon="120.21202935112848">
        <ele>3.18115089582315</ele>
        <time>2021-07-27T21:39:14.100000Z</time>
      </trkpt>
      <trkpt lat="35.93543728298611" lon="120.21202935112848">
        <ele>3.082853820841453</ele>
        <time>2021-07-27T21:39:18.100000Z</time>
      </trkpt>
      <trkpt lat="35.93544026692708" lon="120.21203423394097">
        <ele>3.0947347732187573</ele>
        <time>2021-07-27T21:39:22.100000Z</time>
      </trkpt>
      <trkpt lat="35.93551622178819" lon="120.21221923828125">
        <ele>3.0056939514122036</ele>
        <time>2021-07-27T21:39:52.100000Z</time>
      </trkpt>
      <trkpt lat="35.93557101779514" lon="120.21229437934028">
        <ele>3.0737583555220542</ele>
        <time>2021-07-27T21:39:56.100000Z</time>
      </trkpt>
      <trkpt lat="35.935643174913196" lon="120.21238362630208">
        <ele>3.1218675961805613</ele>
        <time>2021-07-27T21:40:00.100000Z</time>
      </trkpt>
      <trkpt lat="35.93577609592014" lon="120.21256564670139">
        <ele>3.19273802284518</ele>
        <time>2021-07-27T21:40:08.100000Z</time>
      </trkpt>
      <trkpt lat="35.935831976996525" lon="120.21265462239583">
        <ele>3.2273948768479404</ele>
        <time>2021-07-27T21:40:12.100000Z</time>
      </trkpt>
      <trkpt lat="35.93595757378472" lon="120.21283582899305">
        <ele>3.2273447014065377</ele>
        <time>2021-07-27T21:40:20.100000Z</time>
      </trkpt>
      <trkpt lat="35.93601833767361" lon="120.21293240017361">
        <ele>3.246356898052972</ele>
        <time>2021-07-27T21:40:24.100000Z</time>
      </trkpt>
      <trkpt lat="35.936145833333335" lon="120.21311550564236">
        <ele>3.2282814327797733</ele>
        <time>2021-07-27T21:40:32.100000Z</time>
      </trkpt>
      <trkpt lat="35.93621554904514" lon="120.21319986979167">
        <ele>3.205796586159165</ele>
        <time>2021-07-27T21:40:36.100000Z</time>
      </trkpt>
      <trkpt lat="35.93635715060764" lon="120.21336941189236">
        <ele>3.177003506644645</ele>
        <time>2021-07-27T21:40:44.100000Z</time>
      </trkpt>
      <trkpt lat="35.93643283420139" lon="120.21344753689236">
        <ele>3.1624439624045646</ele>
        <time>2021-07-27T21:40:48.100000Z</time>
      </trkpt>
      <trkpt lat="35.9365785047743" lon="120.21361355251736">
        <ele>3.1395323237475274</ele>
        <time>2021-07-27T21:40:56.100000Z</time>
      </trkpt>
      <trkpt lat="35.936641981336805" lon="120.21370686848958">
        <ele>3.0816516017266453</ele>
        <time>2021-07-27T21:41:00.100000Z</time>
      </trkpt>
      <trkpt lat="35.93679823133681" lon="120.21384765625">
        <ele>3.0273457591777526</ele>
        <time>2021-07-27T21:41:08.100000Z</time>
      </trkpt>
      <trkpt lat="35.9368763563368" lon="120.21392578125">
        <ele>3.0345505700384368</ele>
        <time>2021-07-27T21:41:12.100000Z</time>
      </trkpt>
      <trkpt lat="35.936998969184025" lon="120.21404758029514">
        <ele>3.0360216667062234</ele>
        <time>2021-07-27T21:41:18.100000Z</time>
      </trkpt>
      <trkpt lat="35.93706027560764" lon="120.2141064453125">
        <ele>3.042801318485798</ele>
        <time>2021-07-27T21:41:21.100000Z</time>
      </trkpt>
      <trkpt lat="35.93719482421875" lon="120.21422010633681">
        <ele>3.0039334682701346</ele>
        <time>2021-07-27T21:41:27.100000Z</time>
      </trkpt>
      <trkpt lat="35.93725748697916" lon="120.21427680121528">
        <ele>2.9204999440761155</ele>
        <time>2021-07-27T21:41:30.100000Z</time>
      </trkpt>
      <trkpt lat="35.93732421875" lon="120.2143177625868">
        <ele>2.918562419211008</ele>
        <time>2021-07-27T21:41:33.100000Z</time>
      </trkpt>
      <trkpt lat="35.93749321831597" lon="120.2144544813368">
        <ele>2.9848483003848583</ele>
        <time>2021-07-27T21:41:41.100000Z</time>
      </trkpt>
      <trkpt lat="35.93757514105903" lon="120.21453477647569">
        <ele>2.9904399017086933</ele>
        <time>2021-07-27T21:41:45.100000Z</time>
      </trkpt>
      <trkpt lat="35.9377427842882" lon="120.21465087890626">
        <ele>3.031028220884441</ele>
        <time>2021-07-27T21:41:53.100000Z</time>
      </trkpt>
      <trkpt lat="35.93783799913194" lon="120.2147097439236">
        <ele>3.019325638182147</ele>
        <time>2021-07-27T21:41:57.100000Z</time>
      </trkpt>
      <trkpt lat="35.93802408854167" lon="120.21482584635417">
        <ele>2.782953345628042</ele>
        <time>2021-07-27T21:42:05.100000Z</time>
      </trkpt>
      <trkpt lat="35.93811550564236" lon="120.21488878038194">
        <ele>2.7593320948694466</ele>
        <time>2021-07-27T21:42:09.100000Z</time>
      </trkpt>
      <trkpt lat="35.93830674913195" lon="120.21498860677083">
        <ele>2.8833610640627367</ele>
        <time>2021-07-27T21:42:17.100000Z</time>
      </trkpt>
      <trkpt lat="35.93839762369792" lon="120.21502387152778">
        <ele>2.9281183798737085</ele>
        <time>2021-07-27T21:42:21.100000Z</time>
      </trkpt>
      <trkpt lat="35.938692762586804" lon="120.21508734809028">
        <ele>3.0391469930741395</ele>
        <time>2021-07-27T21:42:33.100000Z</time>
      </trkpt>
      <trkpt lat="35.93879367404514" lon="120.21509765625">
        <ele>3.031772637275661</ele>
        <time>2021-07-27T21:42:37.100000Z</time>
      </trkpt>
      <trkpt lat="35.93907986111111" lon="120.21503580729167">
        <ele>3.0388699493714233</ele>
        <time>2021-07-27T21:42:49.100000Z</time>
      </trkpt>
      <trkpt lat="35.939188639322914" lon="120.21500515407986">
        <ele>3.1182514913705637</ele>
        <time>2021-07-27T21:42:53.100000Z</time>
      </trkpt>
      <trkpt lat="35.939403211805555" lon="120.2149449327257">
        <ele>3.1536981226117144</ele>
        <time>2021-07-27T21:43:01.100000Z</time>
      </trkpt>
      <trkpt lat="35.939508734809024" lon="120.21489718967014">
        <ele>3.1598486298499506</ele>
        <time>2021-07-27T21:43:05.100000Z</time>
      </trkpt>
      <trkpt lat="35.93971245659722" lon="120.21482828776041">
        <ele>3.1239220758008344</ele>
        <time>2021-07-27T21:43:13.100000Z</time>
      </trkpt>
      <trkpt lat="35.93981825086806" lon="120.21478488498263">
        <ele>3.1432239582869803</ele>
        <time>2021-07-27T21:43:17.100000Z</time>
      </trkpt>
      <trkpt lat="35.93997856987847" lon="120.21473768446181">
        <ele>3.1563024940269107</ele>
        <time>2021-07-27T21:43:23.100000Z</time>
      </trkpt>
      <trkpt lat="35.94006591796875" lon="120.21470838758681">
        <ele>3.154249508809781</ele>
        <time>2021-07-27T21:43:26.100000Z</time>
      </trkpt>
      <trkpt lat="35.940143771701386" lon="120.21468180338542">
        <ele>3.126501599715517</ele>
        <time>2021-07-27T21:43:29.100000Z</time>
      </trkpt>
      <trkpt lat="35.9403089735243" lon="120.21461534288194">
        <ele>3.1176567661335803</ele>
        <time>2021-07-27T21:43:35.100000Z</time>
      </trkpt>
      <trkpt lat="35.940633138020836" lon="120.2141322157118">
        <ele>3.039611713155037</ele>
        <time>2021-07-27T21:43:54.100000Z</time>
      </trkpt>
      <trkpt lat="35.94082112630208" lon="120.21401258680555">
        <ele>3.1139088194785494</ele>
        <time>2021-07-27T21:44:02.100000Z</time>
      </trkpt>
      <trkpt lat="35.94103000217014" lon="120.21399007161459">
        <ele>3.0994261253750226</ele>
        <time>2021-07-27T21:44:10.100000Z</time>
      </trkpt>
      <trkpt lat="35.94110785590278" lon="120.21400200737847">
        <ele>3.057025430539695</ele>
        <time>2021-07-27T21:44:14.100000Z</time>
      </trkpt>
      <trkpt lat="35.941217719184024" lon="120.21405002170138">
        <ele>3.2239562109103828</ele>
        <time>2021-07-27T21:44:22.100000Z</time>
      </trkpt>
      <trkpt lat="35.94126654730903" lon="120.21408393012153">
        <ele>3.2533753861143486</ele>
        <time>2021-07-27T21:44:26.100000Z</time>
      </trkpt>
      <trkpt lat="35.9413511827257" lon="120.21418538411459">
        <ele>3.307970960392344</ele>
        <time>2021-07-27T21:44:34.100000Z</time>
      </trkpt>
      <trkpt lat="35.941650390625" lon="120.21439778645833">
        <ele>3.1517090607848743</ele>
        <time>2021-07-27T21:44:50.100000Z</time>
      </trkpt>
      <trkpt lat="35.94175537109375" lon="120.21440131293403">
        <ele>3.129941949314824</ele>
        <time>2021-07-27T21:44:54.100000Z</time>
      </trkpt>
      <trkpt lat="35.94197211371528" lon="120.21440348307291">
        <ele>3.1326347689609353</ele>
        <time>2021-07-27T21:45:02.100000Z</time>
      </trkpt>
      <trkpt lat="35.942081163194445" lon="120.21439046223958">
        <ele>3.1301410807871206</ele>
        <time>2021-07-27T21:45:06.100000Z</time>
      </trkpt>
      <trkpt lat="35.94239122178819" lon="120.21430067274305">
        <ele>3.1063727942371053</ele>
        <time>2021-07-27T21:45:18.100000Z</time>
      </trkpt>
      <trkpt lat="35.94248345269097" lon="120.21424831814237">
        <ele>3.012630915426462</ele>
        <time>2021-07-27T21:45:22.100000Z</time>
      </trkpt>
      <trkpt lat="35.94261501736111" lon="120.21418077256945">
        <ele>3.075182023508811</ele>
        <time>2021-07-27T21:45:28.100000Z</time>
      </trkpt>
      <trkpt lat="35.942684733072916" lon="120.21416232638889">
        <ele>3.1720975253373185</ele>
        <time>2021-07-27T21:45:32.100000Z</time>
      </trkpt>
      <trkpt lat="35.942752278645834" lon="120.21414388020834">
        <ele>3.215295310457013</ele>
        <time>2021-07-27T21:45:36.100000Z</time>
      </trkpt>
      <trkpt lat="35.94280843098959" lon="120.21412407769097">
        <ele>3.2546316516549325</ele>
        <time>2021-07-27T21:45:40.100000Z</time>
      </trkpt>
      <trkpt lat="35.942935384114584" lon="120.21409342447917">
        <ele>3.284288854069015</ele>
        <time>2021-07-27T21:45:48.100000Z</time>
      </trkpt>
      <trkpt lat="35.943004286024305" lon="120.2140785047743">
        <ele>3.301424722257894</ele>
        <time>2021-07-27T21:45:52.100000Z</time>
      </trkpt>
      <trkpt lat="35.94309407552083" lon="120.21406358506944">
        <ele>3.272719813349482</ele>
        <time>2021-07-27T21:45:56.100000Z</time>
      </trkpt>
      <trkpt lat="35.94332085503472" lon="120.21401177300348">
        <ele>3.19559761098815</ele>
        <time>2021-07-27T21:46:04.100000Z</time>
      </trkpt>
      <trkpt lat="35.943438856336805" lon="120.21397894965278">
        <ele>3.174845659180583</ele>
        <time>2021-07-27T21:46:08.100000Z</time>
      </trkpt>
      <trkpt lat="35.94387261284722" lon="120.21387125651042">
        <ele>3.1285209062478936</ele>
        <time>2021-07-27T21:46:24.100000Z</time>
      </trkpt>
      <trkpt lat="35.9441015625" lon="120.21392740885416">
        <ele>3.0545318634969125</ele>
        <time>2021-07-27T21:46:32.100000Z</time>
      </trkpt>
      <trkpt lat="35.94421115451389" lon="120.21396918402777">
        <ele>3.023304730188795</ele>
        <time>2021-07-27T21:46:36.100000Z</time>
      </trkpt>
      <trkpt lat="35.94442925347222" lon="120.21400282118056">
        <ele>2.9926590830257815</ele>
        <time>2021-07-27T21:46:44.100000Z</time>
      </trkpt>
      <trkpt lat="35.944538302951386" lon="120.21398980034722">
        <ele>2.890743691186899</ele>
        <time>2021-07-27T21:46:48.100000Z</time>
      </trkpt>
      <trkpt lat="35.94478759765625" lon="120.21396050347222">
        <ele>3.0873651220221987</ele>
        <time>2021-07-27T21:46:56.100000Z</time>
      </trkpt>
      <trkpt lat="35.94490125868055" lon="120.21394558376736">
        <ele>3.1135379972824655</ele>
        <time>2021-07-27T21:47:00.100000Z</time>
      </trkpt>
      <trkpt lat="35.945125596788195" lon="120.2139013671875">
        <ele>3.15259664226264</ele>
        <time>2021-07-27T21:47:08.100000Z</time>
      </trkpt>
      <trkpt lat="35.945345865885415" lon="120.21387939453125">
        <ele>3.1292136537356936</ele>
        <time>2021-07-27T21:47:16.100000Z</time>
      </trkpt>
      <trkpt lat="35.94546630859375" lon="120.21386773003472">
        <ele>3.09284085807099</ele>
        <time>2021-07-27T21:47:20.100000Z</time>
      </trkpt>
      <trkpt lat="35.945667860243056" lon="120.21384711371527">
        <ele>3.0498534477026435</ele>
        <time>2021-07-27T21:47:28.100000Z</time>
      </trkpt>
      <trkpt lat="35.945720757378474" lon="120.21384494357639">
        <ele>3.135311478306706</ele>
        <time>2021-07-27T21:47:31.100000Z</time>
      </trkpt>
      <trkpt lat="35.9457874891493" lon="120.21384331597223">
        <ele>3.2110386773067607</ele>
        <time>2021-07-27T21:47:35.100000Z</time>
      </trkpt>
      <trkpt lat="35.94583685980903" lon="120.21384575737848">
        <ele>3.2220895777919547</ele>
        <time>2021-07-27T21:47:38.100000Z</time>
      </trkpt>
      <trkpt lat="35.94594672309028" lon="120.21382866753473">
        <ele>3.2583285727610853</ele>
        <time>2021-07-27T21:47:46.100000Z</time>
      </trkpt>
      <trkpt lat="35.94601426866319" lon="120.21382351345486">
        <ele>3.28378920738631</ele>
        <time>2021-07-27T21:47:50.100000Z</time>
      </trkpt>
      <trkpt lat="35.94608642578125" lon="120.21380181206597">
        <ele>3.259800199828159</ele>
        <time>2021-07-27T21:47:54.100000Z</time>
      </trkpt>
      <trkpt lat="35.946283365885414" lon="120.21378336588542">
        <ele>3.2434154293420345</ele>
        <time>2021-07-27T21:48:02.100000Z</time>
      </trkpt>
      <trkpt lat="35.94639729817708" lon="120.21376220703125">
        <ele>3.2174968302745297</ele>
        <time>2021-07-27T21:48:06.100000Z</time>
      </trkpt>
      <trkpt lat="35.94661078559028" lon="120.21373101128472">
        <ele>3.1842728151581756</ele>
        <time>2021-07-27T21:48:14.100000Z</time>
      </trkpt>
      <trkpt lat="35.94693006727431" lon="120.21369737413194">
        <ele>3.1581002942636967</ele>
        <time>2021-07-27T21:48:26.100000Z</time>
      </trkpt>
      <trkpt lat="35.94703152126736" lon="120.21367567274305">
        <ele>3.1499504141386545</ele>
        <time>2021-07-27T21:48:30.100000Z</time>
      </trkpt>
      <trkpt lat="35.94711480034722" lon="120.21336751302083">
        <ele>3.1939746016092125</ele>
        <time>2021-07-27T21:48:42.100000Z</time>
      </trkpt>
      <trkpt lat="35.94709852430555" lon="120.21310655381944">
        <ele>3.2175441936056046</ele>
        <time>2021-07-27T21:48:50.100000Z</time>
      </trkpt>
      <trkpt lat="35.94708550347222" lon="120.21297932942709">
        <ele>3.1990997588128582</ele>
        <time>2021-07-27T21:48:54.100000Z</time>
      </trkpt>
      <trkpt lat="35.947078721788195" lon="120.21271294487848">
        <ele>3.065384814119859</ele>
        <time>2021-07-27T21:49:02.100000Z</time>
      </trkpt>
      <trkpt lat="35.94706841362847" lon="120.212578125">
        <ele>3.1138587883276787</ele>
        <time>2021-07-27T21:49:06.100000Z</time>
      </trkpt>
      <trkpt lat="35.94713134765625" lon="120.21209065755208">
        <ele>3.2207082108791694</ele>
        <time>2021-07-27T21:49:22.100000Z</time>
      </trkpt>
      <trkpt lat="35.947177191840275" lon="120.21200222439236">
        <ele>3.2569500836966756</ele>
        <time>2021-07-27T21:49:26.100000Z</time>
      </trkpt>
      <trkpt lat="35.94720947265625" lon="120.21193576388889">
        <ele>3.2714673119303663</ele>
        <time>2021-07-27T21:49:30.100000Z</time>
      </trkpt>
      <trkpt lat="35.94727430555555" lon="120.21182291666666">
        <ele>3.2606428583834774</ele>
        <time>2021-07-27T21:49:37.100000Z</time>
      </trkpt>
      <trkpt lat="35.94729654947917" lon="120.21177327473958">
        <ele>3.278627947972732</ele>
        <time>2021-07-27T21:49:40.100000Z</time>
      </trkpt>
      <trkpt lat="35.94732503255209" lon="120.21171468098959">
        <ele>3.2879137109007153</ele>
        <time>2021-07-27T21:49:44.100000Z</time>
      </trkpt>
      <trkpt lat="35.947367078993054" lon="120.21157877604166">
        <ele>3.2794870953928243</ele>
        <time>2021-07-27T21:49:52.100000Z</time>
      </trkpt>
      <trkpt lat="35.94740125868056" lon="120.21150634765625">
        <ele>3.275593135277635</ele>
        <time>2021-07-27T21:49:56.100000Z</time>
      </trkpt>
      <trkpt lat="35.94743326822917" lon="120.21142713758681">
        <ele>3.2826218903341613</ele>
        <time>2021-07-27T21:50:00.100000Z</time>
      </trkpt>
      <trkpt lat="35.94753092447917" lon="120.21118218315972">
        <ele>3.2728745586859365</ele>
        <time>2021-07-27T21:50:08.100000Z</time>
      </trkpt>
      <trkpt lat="35.94756971571181" lon="120.21105875651041">
        <ele>3.2612268827499262</ele>
        <time>2021-07-27T21:50:12.100000Z</time>
      </trkpt>
      <trkpt lat="35.94766818576389" lon="120.21082302517361">
        <ele>3.2327289817308547</ele>
        <time>2021-07-27T21:50:20.100000Z</time>
      </trkpt>
      <trkpt lat="35.94771647135417" lon="120.21070231119792">
        <ele>3.232310355223507</ele>
        <time>2021-07-27T21:50:24.100000Z</time>
      </trkpt>
      <trkpt lat="35.94781575520833" lon="120.21045708550348">
        <ele>3.2618786322818587</ele>
        <time>2021-07-27T21:50:32.100000Z</time>
      </trkpt>
      <trkpt lat="35.94785942925347" lon="120.21034233940972">
        <ele>3.2542718314453287</ele>
        <time>2021-07-27T21:50:36.100000Z</time>
      </trkpt>
      <trkpt lat="35.94798231336806" lon="120.20996310763888">
        <ele>3.2423082072860696</ele>
        <time>2021-07-27T21:50:48.100000Z</time>
      </trkpt>
      <trkpt lat="35.94800455729167" lon="120.2097021484375">
        <ele>3.1952822843953337</ele>
        <time>2021-07-27T21:50:56.100000Z</time>
      </trkpt>
      <trkpt lat="35.94799750434028" lon="120.20957411024305">
        <ele>3.2149018708459933</ele>
        <time>2021-07-27T21:51:00.100000Z</time>
      </trkpt>
      <trkpt lat="35.94808213975694" lon="120.209326171875">
        <ele>3.2705475738202954</ele>
        <time>2021-07-27T21:51:16.100000Z</time>
      </trkpt>
      <trkpt lat="35.94813802083333" lon="120.20935791015626">
        <ele>3.2882916615500797</ele>
        <time>2021-07-27T21:51:20.100000Z</time>
      </trkpt>
      <trkpt lat="35.94818277994791" lon="120.20938856336805">
        <ele>3.322785846252144</ele>
        <time>2021-07-27T21:51:24.100000Z</time>
      </trkpt>
      <trkpt lat="35.94823215060764" lon="120.20943467881945">
        <ele>3.338829419860396</ele>
        <time>2021-07-27T21:51:28.100000Z</time>
      </trkpt>
      <trkpt lat="35.94834852430556" lon="120.20954318576389">
        <ele>3.3026541390156656</ele>
        <time>2021-07-27T21:51:36.100000Z</time>
      </trkpt>
      <trkpt lat="35.948390842013886" lon="120.20959147135417">
        <ele>3.3010501141117983</ele>
        <time>2021-07-27T21:51:39.100000Z</time>
      </trkpt>
      <trkpt lat="35.94843722873264" lon="120.20963433159723">
        <ele>3.2970988090498574</ele>
        <time>2021-07-27T21:51:42.100000Z</time>
      </trkpt>
      <trkpt lat="35.94857584635417" lon="120.20976019965278">
        <ele>3.221295130728227</ele>
        <time>2021-07-27T21:51:48.100000Z</time>
      </trkpt>
      <trkpt lat="35.94867404513889" lon="120.2098486328125">
        <ele>3.2292634710080463</ele>
        <time>2021-07-27T21:51:52.100000Z</time>
      </trkpt>
      <trkpt lat="35.948871527777776" lon="120.2100244140625">
        <ele>3.198215076395169</ele>
        <time>2021-07-27T21:52:00.100000Z</time>
      </trkpt>
      <trkpt lat="35.9489501953125" lon="120.21010850694445">
        <ele>3.180718537225251</ele>
        <time>2021-07-27T21:52:04.100000Z</time>
      </trkpt>
      <trkpt lat="35.94911349826389" lon="120.21028862847223">
        <ele>3.14260440270489</ele>
        <time>2021-07-27T21:52:12.100000Z</time>
      </trkpt>
      <trkpt lat="35.94917453342014" lon="120.2103480360243">
        <ele>3.223888030400257</ele>
        <time>2021-07-27T21:52:16.100000Z</time>
      </trkpt>
      <trkpt lat="35.94931233723958" lon="120.21048638237848">
        <ele>3.29419134187366</ele>
        <time>2021-07-27T21:52:28.100000Z</time>
      </trkpt>
      <trkpt lat="35.949360622829865" lon="120.21054850260417">
        <ele>3.2929704043802333</ele>
        <time>2021-07-27T21:52:32.100000Z</time>
      </trkpt>
      <trkpt lat="35.949405924479166" lon="120.210615234375">
        <ele>3.2954279021501423</ele>
        <time>2021-07-27T21:52:36.100000Z</time>
      </trkpt>
      <trkpt lat="35.949634331597224" lon="120.21086046006944">
        <ele>3.2265356626920356</ele>
        <time>2021-07-27T21:52:48.100000Z</time>
      </trkpt>
      <trkpt lat="35.949718153211805" lon="120.2109486219618">
        <ele>3.150223362047913</ele>
        <time>2021-07-27T21:52:52.100000Z</time>
      </trkpt>
      <trkpt lat="35.94989963107639" lon="120.21100151909722">
        <ele>2.9898163839103513</ele>
        <time>2021-07-27T21:53:00.100000Z</time>
      </trkpt>
      <trkpt lat="35.94999837239583" lon="120.2109583875868">
        <ele>3.0545867462757834</ele>
        <time>2021-07-27T21:53:04.100000Z</time>
      </trkpt>
      <trkpt lat="35.95019368489584" lon="120.21087782118056">
        <ele>3.116890459237555</ele>
        <time>2021-07-27T21:53:12.100000Z</time>
      </trkpt>
      <trkpt lat="35.950289984809025" lon="120.21084038628472">
        <ele>3.1259585783719044</ele>
        <time>2021-07-27T21:53:16.100000Z</time>
      </trkpt>
      <trkpt lat="35.95049343532986" lon="120.21078776041666">
        <ele>3.022506669843776</ele>
        <time>2021-07-27T21:53:24.100000Z</time>
      </trkpt>
      <trkpt lat="35.95076850043403" lon="120.21048394097222">
        <ele>3.1947456607698275</ele>
        <time>2021-07-27T21:53:45.100000Z</time>
      </trkpt>
      <trkpt lat="35.95072889539931" lon="120.21024359809027">
        <ele>3.197221362498695</ele>
        <time>2021-07-27T21:53:52.100000Z</time>
      </trkpt>
      <trkpt lat="35.950702582465276" lon="120.21012125651042">
        <ele>3.1808271947237357</ele>
        <time>2021-07-27T21:53:56.100000Z</time>
      </trkpt>
      <trkpt lat="35.95076009114583" lon="120.20989284939236">
        <ele>3.2655652038508642</ele>
        <time>2021-07-27T21:54:12.100000Z</time>
      </trkpt>
      <trkpt lat="35.95088026258681" lon="120.20983479817708">
        <ele>3.2677054501883145</ele>
        <time>2021-07-27T21:54:20.100000Z</time>
      </trkpt>
      <trkpt lat="35.9511558702257" lon="120.20968587239584">
        <ele>3.1240232614279635</ele>
        <time>2021-07-27T21:54:32.100000Z</time>
      </trkpt>
      <trkpt lat="35.95125596788194" lon="120.20964274088541">
        <ele>3.0844928980012125</ele>
        <time>2021-07-27T21:54:36.100000Z</time>
      </trkpt>
      <trkpt lat="35.95169949001736" lon="120.20946099175347">
        <ele>3.0349516729363715</ele>
        <time>2021-07-27T21:54:52.100000Z</time>
      </trkpt>
      <trkpt lat="35.95180718315972" lon="120.2094552951389">
        <ele>3.0065090368332164</ele>
        <time>2021-07-27T21:54:56.100000Z</time>
      </trkpt>
      <trkpt lat="35.95195692274306" lon="120.20942518446181">
        <ele>3.048830053108214</ele>
        <time>2021-07-27T21:55:04.100000Z</time>
      </trkpt>
      <trkpt lat="35.95206787109375" lon="120.20936713324653">
        <ele>3.0348113930903935</ele>
        <time>2021-07-27T21:55:12.100000Z</time>
      </trkpt>
      <trkpt lat="35.952213812934026" lon="120.20933810763889">
        <ele>3.1265057970075305</ele>
        <time>2021-07-27T21:55:20.100000Z</time>
      </trkpt>
      <trkpt lat="35.95231553819445" lon="120.20933648003472">
        <ele>3.1008308762516346</ele>
        <time>2021-07-27T21:55:24.100000Z</time>
      </trkpt>
      <trkpt lat="35.952518717447916" lon="120.20932020399306">
        <ele>2.9009281115389167</ele>
        <time>2021-07-27T21:55:32.100000Z</time>
      </trkpt>
      <trkpt lat="35.952625054253474" lon="120.20929009331597">
        <ele>2.7992438526394485</ele>
        <time>2021-07-27T21:55:36.100000Z</time>
      </trkpt>
      <trkpt lat="35.9528466796875" lon="120.20927815755208">
        <ele>2.798181496239403</ele>
        <time>2021-07-27T21:55:44.100000Z</time>
      </trkpt>
      <trkpt lat="35.952967664930554" lon="120.20927029079861">
        <ele>2.80113281160906</ele>
        <time>2021-07-27T21:55:48.100000Z</time>
      </trkpt>
      <trkpt lat="35.953180338541664" lon="120.20928792317709">
        <ele>2.7977185633870394</ele>
        <time>2021-07-27T21:55:55.100000Z</time>
      </trkpt>
      <trkpt lat="35.95343478732639" lon="120.20925699869791">
        <ele>2.7899583780740893</ele>
        <time>2021-07-27T21:56:06.100000Z</time>
      </trkpt>
      <trkpt lat="35.95350477430556" lon="120.20925075954861">
        <ele>2.7472514685107217</ele>
        <time>2021-07-27T21:56:10.100000Z</time>
      </trkpt>
      <trkpt lat="35.95355441623264" lon="120.20924207899306">
        <ele>2.7265413783892534</ele>
        <time>2021-07-27T21:56:14.100000Z</time>
      </trkpt>
      <trkpt lat="35.95357720269097" lon="120.20925672743056">
        <ele>2.7359952378650654</ele>
        <time>2021-07-27T21:56:18.100000Z</time>
      </trkpt>
      <trkpt lat="35.95390245225695" lon="120.20917697482639">
        <ele>2.5148857254524892</ele>
        <time>2021-07-27T21:56:34.100000Z</time>
      </trkpt>
      <trkpt lat="35.95400824652778" lon="120.20915283203125">
        <ele>2.5578340382848164</ele>
        <time>2021-07-27T21:56:38.100000Z</time>
      </trkpt>
      <trkpt lat="35.95422281901042" lon="120.20913330078125">
        <ele>2.7652355573446705</ele>
        <time>2021-07-27T21:56:46.100000Z</time>
      </trkpt>
      <trkpt lat="35.95431315104167" lon="120.20911892361111">
        <ele>2.8499840714766065</ele>
        <time>2021-07-27T21:56:50.100000Z</time>
      </trkpt>
      <trkpt lat="35.95451117621528" lon="120.20910183376736">
        <ele>2.8287335133347877</ele>
        <time>2021-07-27T21:56:58.100000Z</time>
      </trkpt>
      <trkpt lat="35.95461263020833" lon="120.2091015625">
        <ele>2.748653222166015</ele>
        <time>2021-07-27T21:57:02.100000Z</time>
      </trkpt>
      <trkpt lat="35.95477376302083" lon="120.20910834418403">
        <ele>2.7888993944218208</ele>
        <time>2021-07-27T21:57:10.100000Z</time>
      </trkpt>
      <trkpt lat="35.95496283637153" lon="120.20908365885417">
        <ele>2.9878113883567723</ele>
        <time>2021-07-27T21:57:22.100000Z</time>
      </trkpt>
      <trkpt lat="35.955036078559026" lon="120.2090980360243">
        <ele>3.0683323441014845</ele>
        <time>2021-07-27T21:57:26.100000Z</time>
      </trkpt>
      <trkpt lat="35.95540011935764" lon="120.20928412543402">
        <ele>2.962097614736867</ele>
        <time>2021-07-27T21:57:42.100000Z</time>
      </trkpt>
      <trkpt lat="35.9554296875" lon="120.2093896484375">
        <ele>2.8568751728061628</ele>
        <time>2021-07-27T21:57:46.100000Z</time>
      </trkpt>
      <trkpt lat="35.95548963758681" lon="120.20962999131945">
        <ele>2.089979485291374</ele>
        <time>2021-07-27T21:57:54.100000Z</time>
      </trkpt>
      <trkpt lat="35.95555636935764" lon="120.20992078993055">
        <ele>1.5263986791918354</ele>
        <time>2021-07-27T21:58:04.100000Z</time>
      </trkpt>
      <trkpt lat="35.955600043402775" lon="120.210166015625">
        <ele>2.139117895847747</ele>
        <time>2021-07-27T21:58:12.100000Z</time>
      </trkpt>
      <trkpt lat="35.95564263237847" lon="120.21040337456597">
        <ele>2.5676141298026844</ele>
        <time>2021-07-27T21:58:20.100000Z</time>
      </trkpt>
      <trkpt lat="35.95566379123264" lon="120.21052571614584">
        <ele>2.798089879824301</ele>
        <time>2021-07-27T21:58:24.100000Z</time>
      </trkpt>
      <trkpt lat="35.95573187934028" lon="120.21087646484375">
        <ele>3.050734442209946</ele>
        <time>2021-07-27T21:58:36.100000Z</time>
      </trkpt>
      <trkpt lat="35.955745985243055" lon="120.210986328125">
        <ele>3.017309811437839</ele>
        <time>2021-07-27T21:58:40.100000Z</time>
      </trkpt>
      <trkpt lat="35.95578586154514" lon="120.21124294704862">
        <ele>2.9816231557243196</ele>
        <time>2021-07-27T21:58:48.100000Z</time>
      </trkpt>
      <trkpt lat="35.95580295138889" lon="120.21138617621527">
        <ele>2.9541490809231723</ele>
        <time>2021-07-27T21:58:52.100000Z</time>
      </trkpt>
      <trkpt lat="35.95582845052083" lon="120.2116295030382">
        <ele>2.802350697486171</ele>
        <time>2021-07-27T21:59:00.100000Z</time>
      </trkpt>
      <trkpt lat="35.955844184027775" lon="120.21188639322916">
        <ele>2.9343453980584173</ele>
        <time>2021-07-27T21:59:08.100000Z</time>
      </trkpt>
      <trkpt lat="35.95584716796875" lon="120.21200764973959">
        <ele>2.8534709315770734</ele>
        <time>2021-07-27T21:59:12.100000Z</time>
      </trkpt>
      <trkpt lat="35.9558629014757" lon="120.21226236979167">
        <ele>2.804636676161911</ele>
        <time>2021-07-27T21:59:20.100000Z</time>
      </trkpt>
      <trkpt lat="35.95584255642361" lon="120.21245822482639">
        <ele>2.9309834705218796</ele>
        <time>2021-07-27T21:59:28.100000Z</time>
      </trkpt>
      <trkpt lat="35.95582845052083" lon="120.21254611545139">
        <ele>3.053624692362383</ele>
        <time>2021-07-27T21:59:32.100000Z</time>
      </trkpt>
    </trkseg>
  </trk>
</gpx>