<?xml version="1.0" encoding="UTF-8"?>
<gpx xmlns="http://www.topografix.com/GPX/1/1" xmlns:gpxtpx="http://www.garmin.com/xmlschemas/TrackPointExtension/v1" xmlns:xsi="http://www.w3.org/2001/XMLSchema-instance" xsi:schemaLocation="http://www.topografix.com/GPX/1/1 http://www.topografix.com/GPX/1/1/gpx.xsd" version="1.1" creator="gpx.py -- https://github.com/tkrajina/gpxpy">
  <trk>
    <name>gpx from keep</name>
    <trkseg>
      <trkpt lat="35.95693386501736" lon="120.2147683376736">
        <ele>3</ele>
        <time>2018-01-13T05:58:12.300000Z</time>
      </trkpt>
      <trkpt lat="35.956920030381944" lon="120.21454155815972">
        <ele>3</ele>
        <time>2018-01-13T05:58:19.300000Z</time>
      </trkpt>
      <trkpt lat="35.95689425998264" lon="120.21441650390625">
        <ele>3</ele>
        <time>2018-01-13T05:58:23.300000Z</time>
      </trkpt>
      <trkpt lat="35.95686252170139" lon="120.21426025390625">
        <ele>3</ele>
        <time>2018-01-13T05:58:29.400000Z</time>
      </trkpt>
      <trkpt lat="35.95681640625" lon="120.2138525390625">
        <ele>3</ele>
        <time>2018-01-13T05:58:44.400000Z</time>
      </trkpt>
      <trkpt lat="35.956767849392364" lon="120.21362087673612">
        <ele>3</ele>
        <time>2018-01-13T05:58:51.400000Z</time>
      </trkpt>
      <trkpt lat="35.95674750434028" lon="120.21329698350695">
        <ele>3</ele>
        <time>2018-01-13T05:59:01.400000Z</time>
      </trkpt>
      <trkpt lat="35.95672309027778" lon="120.21304117838541">
        <ele>3</ele>
        <time>2018-01-13T05:59:09.300000Z</time>
      </trkpt>
      <trkpt lat="35.95667697482639" lon="120.2128076171875">
        <ele>3</ele>
        <time>2018-01-13T05:59:16.300000Z</time>
      </trkpt>
      <trkpt lat="35.95648383246528" lon="120.21248996310764">
        <ele>3</ele>
        <time>2018-01-13T05:59:32.400000Z</time>
      </trkpt>
      <trkpt lat="35.95629665798611" lon="120.21254340277778">
        <ele>3</ele>
        <time>2018-01-13T05:59:39.400000Z</time>
      </trkpt>
      <trkpt lat="35.95619764539931" lon="120.21257731119792">
        <ele>3</ele>
        <time>2018-01-13T05:59:43.400000Z</time>
      </trkpt>
      <trkpt lat="35.956043565538195" lon="120.21262505425348">
        <ele>3</ele>
        <time>2018-01-13T05:59:50.400000Z</time>
      </trkpt>
      <trkpt lat="35.9558154296875" lon="120.21249186197916">
        <ele>3</ele>
        <time>2018-01-13T06:00:04.400000Z</time>
      </trkpt>
      <trkpt lat="35.95583550347222" lon="120.21236626519097">
        <ele>3</ele>
        <time>2018-01-13T06:00:08.300000Z</time>
      </trkpt>
      <trkpt lat="35.95584309895833" lon="120.2121666124132">
        <ele>3</ele>
        <time>2018-01-13T06:00:15.300000Z</time>
      </trkpt>
      <trkpt lat="35.95584065755208" lon="120.21205756293402">
        <ele>3</ele>
        <time>2018-01-13T06:00:19.400000Z</time>
      </trkpt>
      <trkpt lat="35.955836588541665" lon="120.2118101671007">
        <ele>3</ele>
        <time>2018-01-13T06:00:27.300000Z</time>
      </trkpt>
      <trkpt lat="35.95581787109375" lon="120.21161268446181">
        <ele>3</ele>
        <time>2018-01-13T06:00:34.400000Z</time>
      </trkpt>
      <trkpt lat="35.95580322265625" lon="120.21152072482639">
        <ele>3</ele>
        <time>2018-01-13T06:00:37.400000Z</time>
      </trkpt>
      <trkpt lat="35.955776909722225" lon="120.21140625">
        <ele>3</ele>
        <time>2018-01-13T06:00:41.400000Z</time>
      </trkpt>
      <trkpt lat="35.95575737847222" lon="120.21120144314236">
        <ele>3</ele>
        <time>2018-01-13T06:00:49.300000Z</time>
      </trkpt>
      <trkpt lat="35.95575792100694" lon="120.21114339192708">
        <ele>3</ele>
        <time>2018-01-13T06:00:52.400000Z</time>
      </trkpt>
      <trkpt lat="35.955622016059024" lon="120.21106987847222">
        <ele>3</ele>
        <time>2018-01-13T06:01:03.300000Z</time>
      </trkpt>
      <trkpt lat="35.955547960069445" lon="120.21109537760417">
        <ele>3</ele>
        <time>2018-01-13T06:01:06.400000Z</time>
      </trkpt>
      <trkpt lat="35.955440266927084" lon="120.2110769314236">
        <ele>3</ele>
        <time>2018-01-13T06:01:14.300000Z</time>
      </trkpt>
      <trkpt lat="35.95544162326389" lon="120.21102240668402">
        <ele>3</ele>
        <time>2018-01-13T06:01:17.300000Z</time>
      </trkpt>
      <trkpt lat="35.95543511284722" lon="120.21097140842014">
        <ele>3</ele>
        <time>2018-01-13T06:01:20.400000Z</time>
      </trkpt>
      <trkpt lat="35.95542182074653" lon="120.210771484375">
        <ele>3</ele>
        <time>2018-01-13T06:01:28.400000Z</time>
      </trkpt>
      <trkpt lat="35.95541232638889" lon="120.21059488932292">
        <ele>3</ele>
        <time>2018-01-13T06:01:35.300000Z</time>
      </trkpt>
      <trkpt lat="35.95539659288195" lon="120.210517578125">
        <ele>3</ele>
        <time>2018-01-13T06:01:38.300000Z</time>
      </trkpt>
      <trkpt lat="35.95537624782986" lon="120.21043891059028">
        <ele>3</ele>
        <time>2018-01-13T06:01:41.300000Z</time>
      </trkpt>
      <trkpt lat="35.955340440538194" lon="120.21022569444445">
        <ele>3</ele>
        <time>2018-01-13T06:01:48.300000Z</time>
      </trkpt>
      <trkpt lat="35.95532063802084" lon="120.21011420355903">
        <ele>3</ele>
        <time>2018-01-13T06:01:52.300000Z</time>
      </trkpt>
      <trkpt lat="35.955302191840275" lon="120.21002495659722">
        <ele>3</ele>
        <time>2018-01-13T06:01:55.400000Z</time>
      </trkpt>
      <trkpt lat="35.95526123046875" lon="120.20981499565973">
        <ele>3</ele>
        <time>2018-01-13T06:02:02.400000Z</time>
      </trkpt>
      <trkpt lat="35.9552392578125" lon="120.20970811631945">
        <ele>3</ele>
        <time>2018-01-13T06:02:06.400000Z</time>
      </trkpt>
      <trkpt lat="35.955224609375" lon="120.20962022569445">
        <ele>3</ele>
        <time>2018-01-13T06:02:09.400000Z</time>
      </trkpt>
      <trkpt lat="35.95518825954861" lon="120.2093972439236">
        <ele>3</ele>
        <time>2018-01-13T06:02:16.400000Z</time>
      </trkpt>
      <trkpt lat="35.955173068576386" lon="120.20927978515626">
        <ele>3</ele>
        <time>2018-01-13T06:02:20.300000Z</time>
      </trkpt>
      <trkpt lat="35.95487250434028" lon="120.20905029296875">
        <ele>3</ele>
        <time>2018-01-13T06:02:37.400000Z</time>
      </trkpt>
      <trkpt lat="35.95476101345486" lon="120.20907741970485">
        <ele>3</ele>
        <time>2018-01-13T06:02:41.300000Z</time>
      </trkpt>
      <trkpt lat="35.95458062065972" lon="120.20910780164931">
        <ele>3</ele>
        <time>2018-01-13T06:02:48.300000Z</time>
      </trkpt>
      <trkpt lat="35.95447808159722" lon="120.20913248697917">
        <ele>3</ele>
        <time>2018-01-13T06:02:52.300000Z</time>
      </trkpt>
      <trkpt lat="35.95440212673611" lon="120.20914740668402">
        <ele>3</ele>
        <time>2018-01-13T06:02:55.400000Z</time>
      </trkpt>
      <trkpt lat="35.95422580295139" lon="120.20916259765625">
        <ele>3</ele>
        <time>2018-01-13T06:03:02.300000Z</time>
      </trkpt>
      <trkpt lat="35.95415744357639" lon="120.20917805989583">
        <ele>3</ele>
        <time>2018-01-13T06:03:05.300000Z</time>
      </trkpt>
      <trkpt lat="35.95396375868056" lon="120.20921576605903">
        <ele>3</ele>
        <time>2018-01-13T06:03:13.300000Z</time>
      </trkpt>
      <trkpt lat="35.95386664496528" lon="120.20923638237848">
        <ele>3</ele>
        <time>2018-01-13T06:03:17.300000Z</time>
      </trkpt>
      <trkpt lat="35.953700629340275" lon="120.2092689344618">
        <ele>3</ele>
        <time>2018-01-13T06:03:23.400000Z</time>
      </trkpt>
      <trkpt lat="35.953594835069445" lon="120.20928276909723">
        <ele>3</ele>
        <time>2018-01-13T06:03:27.300000Z</time>
      </trkpt>
      <trkpt lat="35.95342827690972" lon="120.20930935329861">
        <ele>3</ele>
        <time>2018-01-13T06:03:34.300000Z</time>
      </trkpt>
      <trkpt lat="35.953358561197916" lon="120.20932101779513">
        <ele>3</ele>
        <time>2018-01-13T06:03:37.400000Z</time>
      </trkpt>
      <trkpt lat="35.95325900607639" lon="120.20934109157986">
        <ele>3</ele>
        <time>2018-01-13T06:03:41.300000Z</time>
      </trkpt>
      <trkpt lat="35.95309597439236" lon="120.2093679470486">
        <ele>3</ele>
        <time>2018-01-13T06:03:48.300000Z</time>
      </trkpt>
      <trkpt lat="35.95299831814236" lon="120.2093825954861">
        <ele>3</ele>
        <time>2018-01-13T06:03:52.300000Z</time>
      </trkpt>
      <trkpt lat="35.95282741970486" lon="120.20939778645834">
        <ele>3</ele>
        <time>2018-01-13T06:03:58.300000Z</time>
      </trkpt>
      <trkpt lat="35.95275119357639" lon="120.20940999348959">
        <ele>3</ele>
        <time>2018-01-13T06:04:01.300000Z</time>
      </trkpt>
      <trkpt lat="35.952672254774306" lon="120.2094175889757">
        <ele>3</ele>
        <time>2018-01-13T06:04:04.400000Z</time>
      </trkpt>
      <trkpt lat="35.95248508029514" lon="120.20945285373264">
        <ele>3</ele>
        <time>2018-01-13T06:04:12.400000Z</time>
      </trkpt>
      <trkpt lat="35.952405598958336" lon="120.20946668836805">
        <ele>3</ele>
        <time>2018-01-13T06:04:15.400000Z</time>
      </trkpt>
      <trkpt lat="35.952314453125" lon="120.20948866102431">
        <ele>3</ele>
        <time>2018-01-13T06:04:19.400000Z</time>
      </trkpt>
      <trkpt lat="35.952107476128475" lon="120.20951551649306">
        <ele>3</ele>
        <time>2018-01-13T06:04:27.400000Z</time>
      </trkpt>
      <trkpt lat="35.952029622395834" lon="120.20952528211805">
        <ele>3</ele>
        <time>2018-01-13T06:04:30.400000Z</time>
      </trkpt>
      <trkpt lat="35.95184814453125" lon="120.20957139756945">
        <ele>3</ele>
        <time>2018-01-13T06:04:37.300000Z</time>
      </trkpt>
      <trkpt lat="35.951778700086805" lon="120.20958577473958">
        <ele>3</ele>
        <time>2018-01-13T06:04:40.400000Z</time>
      </trkpt>
      <trkpt lat="35.95169189453125" lon="120.20961398654514">
        <ele>3</ele>
        <time>2018-01-13T06:04:44.300000Z</time>
      </trkpt>
      <trkpt lat="35.95150065104167" lon="120.20965087890625">
        <ele>3</ele>
        <time>2018-01-13T06:04:52.300000Z</time>
      </trkpt>
      <trkpt lat="35.95139973958333" lon="120.20966715494792">
        <ele>3</ele>
        <time>2018-01-13T06:04:56.300000Z</time>
      </trkpt>
      <trkpt lat="35.95132541232639" lon="120.20967963324652">
        <ele>3</ele>
        <time>2018-01-13T06:04:59.300000Z</time>
      </trkpt>
      <trkpt lat="35.95111789279514" lon="120.2097105577257">
        <ele>3</ele>
        <time>2018-01-13T06:05:06.400000Z</time>
      </trkpt>
      <trkpt lat="35.95095838758681" lon="120.20970730251736">
        <ele>3</ele>
        <time>2018-01-13T06:05:13.400000Z</time>
      </trkpt>
      <trkpt lat="35.95089680989583" lon="120.20965115017361">
        <ele>3</ele>
        <time>2018-01-13T06:05:21.300000Z</time>
      </trkpt>
      <trkpt lat="35.950901963975696" lon="120.20964545355903">
        <ele>3</ele>
        <time>2018-01-13T06:05:24.300000Z</time>
      </trkpt>
      <trkpt lat="35.95091335720486" lon="120.20964409722222">
        <ele>3</ele>
        <time>2018-01-13T06:05:27.300000Z</time>
      </trkpt>
      <trkpt lat="35.95092013888889" lon="120.20964545355903">
        <ele>3</ele>
        <time>2018-01-13T06:05:30.400000Z</time>
      </trkpt>
      <trkpt lat="35.950924207899305" lon="120.20965060763889">
        <ele>3</ele>
        <time>2018-01-13T06:05:33.400000Z</time>
      </trkpt>
      <trkpt lat="35.95092122395833" lon="120.20964952256945">
        <ele>3</ele>
        <time>2018-01-13T06:05:36.400000Z</time>
      </trkpt>
      <trkpt lat="35.95091200086806" lon="120.20964680989583">
        <ele>3</ele>
        <time>2018-01-13T06:05:39.600000Z</time>
      </trkpt>
      <trkpt lat="35.95091254340278" lon="120.20964680989583">
        <ele>3</ele>
        <time>2018-01-13T06:05:43.300000Z</time>
      </trkpt>
      <trkpt lat="35.950917154947916" lon="120.20964029947916">
        <ele>3</ele>
        <time>2018-01-13T06:05:46.400000Z</time>
      </trkpt>
      <trkpt lat="35.95091037326389" lon="120.20963595920139">
        <ele>3</ele>
        <time>2018-01-13T06:05:50.300000Z</time>
      </trkpt>
      <trkpt lat="35.950908745659724" lon="120.20964029947916">
        <ele>3</ele>
        <time>2018-01-13T06:05:53.400000Z</time>
      </trkpt>
      <trkpt lat="35.95090440538195" lon="120.2096470811632">
        <ele>3</ele>
        <time>2018-01-13T06:06:13.300000Z</time>
      </trkpt>
      <trkpt lat="35.95090440538195" lon="120.2096470811632">
        <ele>3</ele>
        <time>2018-01-13T06:06:23.300000Z</time>
      </trkpt>
      <trkpt lat="35.95090440538195" lon="120.2096470811632">
        <ele>3</ele>
        <time>2018-01-13T06:06:27.300000Z</time>
      </trkpt>
      <trkpt lat="35.95090440538195" lon="120.2096470811632">
        <ele>3</ele>
        <time>2018-01-13T06:06:31.300000Z</time>
      </trkpt>
      <trkpt lat="35.95071207682292" lon="120.20968071831597">
        <ele>3</ele>
        <time>2018-01-13T06:06:43.400000Z</time>
      </trkpt>
      <trkpt lat="35.95060682508681" lon="120.20993245442709">
        <ele>3</ele>
        <time>2018-01-13T06:06:54.400000Z</time>
      </trkpt>
      <trkpt lat="35.95050103081597" lon="120.21024576822917">
        <ele>3</ele>
        <time>2018-01-13T06:07:10.300000Z</time>
      </trkpt>
      <trkpt lat="35.950419921875" lon="120.21025933159723">
        <ele>3</ele>
        <time>2018-01-13T06:07:13.300000Z</time>
      </trkpt>
      <trkpt lat="35.95025661892361" lon="120.21030734592014">
        <ele>3</ele>
        <time>2018-01-13T06:07:19.400000Z</time>
      </trkpt>
      <trkpt lat="35.95015516493056" lon="120.21033718532986">
        <ele>3</ele>
        <time>2018-01-13T06:07:23.300000Z</time>
      </trkpt>
      <trkpt lat="35.94982259114583" lon="120.21061333550347">
        <ele>3</ele>
        <time>2018-01-13T06:07:40.400000Z</time>
      </trkpt>
      <trkpt lat="35.94978461371528" lon="120.21073486328125">
        <ele>3</ele>
        <time>2018-01-13T06:07:44.400000Z</time>
      </trkpt>
      <trkpt lat="35.94965983072917" lon="120.2108091905382">
        <ele>3</ele>
        <time>2018-01-13T06:07:52.400000Z</time>
      </trkpt>
      <trkpt lat="35.94956244574653" lon="120.21075249565972">
        <ele>3</ele>
        <time>2018-01-13T06:07:56.400000Z</time>
      </trkpt>
      <trkpt lat="35.94936930338542" lon="120.21066541883681">
        <ele>3</ele>
        <time>2018-01-13T06:08:03.400000Z</time>
      </trkpt>
      <trkpt lat="35.94912190755208" lon="120.2105224609375">
        <ele>3</ele>
        <time>2018-01-13T06:08:13.400000Z</time>
      </trkpt>
      <trkpt lat="35.94904079861111" lon="120.21044867621528">
        <ele>3</ele>
        <time>2018-01-13T06:08:17.400000Z</time>
      </trkpt>
      <trkpt lat="35.94897271050347" lon="120.21039306640625">
        <ele>3</ele>
        <time>2018-01-13T06:08:20.400000Z</time>
      </trkpt>
      <trkpt lat="35.94883626302083" lon="120.210244140625">
        <ele>3</ele>
        <time>2018-01-13T06:08:27.300000Z</time>
      </trkpt>
      <trkpt lat="35.948756781684025" lon="120.2101548936632">
        <ele>3</ele>
        <time>2018-01-13T06:08:31.300000Z</time>
      </trkpt>
      <trkpt lat="35.94869818793403" lon="120.210087890625">
        <ele>3</ele>
        <time>2018-01-13T06:08:34.300000Z</time>
      </trkpt>
      <trkpt lat="35.94856336805555" lon="120.20994439019097">
        <ele>3</ele>
        <time>2018-01-13T06:08:41.300000Z</time>
      </trkpt>
      <trkpt lat="35.94848117404514" lon="120.20985405815972">
        <ele>3</ele>
        <time>2018-01-13T06:08:45.300000Z</time>
      </trkpt>
      <trkpt lat="35.948351508246525" lon="120.20970350477431">
        <ele>3</ele>
        <time>2018-01-13T06:08:52.400000Z</time>
      </trkpt>
      <trkpt lat="35.948291829427085" lon="120.20963704427083">
        <ele>3</ele>
        <time>2018-01-13T06:08:55.400000Z</time>
      </trkpt>
      <trkpt lat="35.94821261935764" lon="120.20955023871528">
        <ele>3</ele>
        <time>2018-01-13T06:08:59.400000Z</time>
      </trkpt>
      <trkpt lat="35.948077799479165" lon="120.20939778645834">
        <ele>3</ele>
        <time>2018-01-13T06:09:06.400000Z</time>
      </trkpt>
      <trkpt lat="35.94793646918403" lon="120.20942708333334">
        <ele>3</ele>
        <time>2018-01-13T06:09:16.400000Z</time>
      </trkpt>
      <trkpt lat="35.94794325086806" lon="120.20953206380209">
        <ele>3</ele>
        <time>2018-01-13T06:09:19.600000Z</time>
      </trkpt>
      <trkpt lat="35.94795274522569" lon="120.20976453993056">
        <ele>3</ele>
        <time>2018-01-13T06:09:26.400000Z</time>
      </trkpt>
      <trkpt lat="35.94795166015625" lon="120.20984917534722">
        <ele>3</ele>
        <time>2018-01-13T06:09:29.500000Z</time>
      </trkpt>
      <trkpt lat="35.94789089626736" lon="120.21016357421875">
        <ele>3</ele>
        <time>2018-01-13T06:09:41.400000Z</time>
      </trkpt>
      <trkpt lat="35.94784478081597" lon="120.21026963975694">
        <ele>3</ele>
        <time>2018-01-13T06:09:45.400000Z</time>
      </trkpt>
      <trkpt lat="35.94776611328125" lon="120.21049045138889">
        <ele>3</ele>
        <time>2018-01-13T06:09:53.400000Z</time>
      </trkpt>
      <trkpt lat="35.94772542317708" lon="120.21059977213541">
        <ele>3</ele>
        <time>2018-01-13T06:09:57.300000Z</time>
      </trkpt>
      <trkpt lat="35.94763292100694" lon="120.21080512152778">
        <ele>3</ele>
        <time>2018-01-13T06:10:05.300000Z</time>
      </trkpt>
      <trkpt lat="35.94759168836806" lon="120.2108824327257">
        <ele>3</ele>
        <time>2018-01-13T06:10:08.400000Z</time>
      </trkpt>
      <trkpt lat="35.94750135633681" lon="120.21111518012152">
        <ele>3</ele>
        <time>2018-01-13T06:10:16.400000Z</time>
      </trkpt>
      <trkpt lat="35.94746961805556" lon="120.21118679470486">
        <ele>3</ele>
        <time>2018-01-13T06:10:19.400000Z</time>
      </trkpt>
      <trkpt lat="35.94743136935764" lon="120.21128879123263">
        <ele>3</ele>
        <time>2018-01-13T06:10:23.400000Z</time>
      </trkpt>
      <trkpt lat="35.94734049479167" lon="120.21150146484375">
        <ele>3</ele>
        <time>2018-01-13T06:10:31.400000Z</time>
      </trkpt>
      <trkpt lat="35.9473046875" lon="120.21158257378472">
        <ele>3</ele>
        <time>2018-01-13T06:10:34.400000Z</time>
      </trkpt>
      <trkpt lat="35.94726725260416" lon="120.21168484157987">
        <ele>3</ele>
        <time>2018-01-13T06:10:38.300000Z</time>
      </trkpt>
      <trkpt lat="35.94719482421875" lon="120.21185845269098">
        <ele>3</ele>
        <time>2018-01-13T06:10:45.400000Z</time>
      </trkpt>
      <trkpt lat="35.947148980034726" lon="120.21197862413194">
        <ele>3</ele>
        <time>2018-01-13T06:10:49.400000Z</time>
      </trkpt>
      <trkpt lat="35.94705973307292" lon="120.21219509548611">
        <ele>3</ele>
        <time>2018-01-13T06:10:57.400000Z</time>
      </trkpt>
      <trkpt lat="35.94702989366319" lon="120.21242296006945">
        <ele>3</ele>
        <time>2018-01-13T06:11:05.300000Z</time>
      </trkpt>
      <trkpt lat="35.94705268012153" lon="120.21253987630209">
        <ele>3</ele>
        <time>2018-01-13T06:11:09.300000Z</time>
      </trkpt>
      <trkpt lat="35.947062717013885" lon="120.21262939453125">
        <ele>3</ele>
        <time>2018-01-13T06:11:12.300000Z</time>
      </trkpt>
      <trkpt lat="35.947069498697914" lon="120.21286675347223">
        <ele>3</ele>
        <time>2018-01-13T06:11:19.300000Z</time>
      </trkpt>
      <trkpt lat="35.9470751953125" lon="120.21299262152777">
        <ele>3</ele>
        <time>2018-01-13T06:11:23.300000Z</time>
      </trkpt>
      <trkpt lat="35.947078450520834" lon="120.21309299045139">
        <ele>3</ele>
        <time>2018-01-13T06:11:26.400000Z</time>
      </trkpt>
      <trkpt lat="35.947088216145836" lon="120.21330376519097">
        <ele>3</ele>
        <time>2018-01-13T06:11:33.400000Z</time>
      </trkpt>
      <trkpt lat="35.947103135850696" lon="120.21341579861111">
        <ele>3</ele>
        <time>2018-01-13T06:11:37.400000Z</time>
      </trkpt>
      <trkpt lat="35.94695231119792" lon="120.21365261501737">
        <ele>3</ele>
        <time>2018-01-13T06:11:51.300000Z</time>
      </trkpt>
      <trkpt lat="35.946875" lon="120.21365831163195">
        <ele>3</ele>
        <time>2018-01-13T06:11:54.300000Z</time>
      </trkpt>
      <trkpt lat="35.946805284288196" lon="120.2136697048611">
        <ele>3</ele>
        <time>2018-01-13T06:11:57.300000Z</time>
      </trkpt>
      <trkpt lat="35.94663167317708" lon="120.2136949327257">
        <ele>3</ele>
        <time>2018-01-13T06:12:04.300000Z</time>
      </trkpt>
      <trkpt lat="35.94655056423611" lon="120.21369330512152">
        <ele>3</ele>
        <time>2018-01-13T06:12:07.300000Z</time>
      </trkpt>
      <trkpt lat="35.946446668836806" lon="120.21370062934028">
        <ele>3</ele>
        <time>2018-01-13T06:12:11.400000Z</time>
      </trkpt>
      <trkpt lat="35.946263292100696" lon="120.21371419270834">
        <ele>3</ele>
        <time>2018-01-13T06:12:18.400000Z</time>
      </trkpt>
      <trkpt lat="35.946162109375" lon="120.21372612847222">
        <ele>3</ele>
        <time>2018-01-13T06:12:22.400000Z</time>
      </trkpt>
      <trkpt lat="35.94609564887153" lon="120.21373263888889">
        <ele>3</ele>
        <time>2018-01-13T06:12:39.100000Z</time>
      </trkpt>
      <trkpt lat="35.945933702256944" lon="120.21376953125">
        <ele>3</ele>
        <time>2018-01-13T06:12:43.100000Z</time>
      </trkpt>
      <trkpt lat="35.9456947157118" lon="120.21378309461805">
        <ele>3</ele>
        <time>2018-01-13T06:12:52.300000Z</time>
      </trkpt>
      <trkpt lat="35.9456236436632" lon="120.21379448784722">
        <ele>3</ele>
        <time>2018-01-13T06:12:55.400000Z</time>
      </trkpt>
      <trkpt lat="35.94552598741319" lon="120.21380479600694">
        <ele>3</ele>
        <time>2018-01-13T06:12:59.300000Z</time>
      </trkpt>
      <trkpt lat="35.945377332899305" lon="120.21383056640624">
        <ele>3</ele>
        <time>2018-01-13T06:13:05.300000Z</time>
      </trkpt>
      <trkpt lat="35.94528835720486" lon="120.21384738498264">
        <ele>3</ele>
        <time>2018-01-13T06:13:09.300000Z</time>
      </trkpt>
      <trkpt lat="35.94522108289931" lon="120.21386474609375">
        <ele>3</ele>
        <time>2018-01-13T06:13:12.300000Z</time>
      </trkpt>
      <trkpt lat="35.945042046440975" lon="120.2138853624132">
        <ele>3</ele>
        <time>2018-01-13T06:13:20.300000Z</time>
      </trkpt>
      <trkpt lat="35.944972330729165" lon="120.21389512803819">
        <ele>3</ele>
        <time>2018-01-13T06:13:23.300000Z</time>
      </trkpt>
      <trkpt lat="35.944905870225696" lon="120.21390543619792">
        <ele>3</ele>
        <time>2018-01-13T06:13:26.400000Z</time>
      </trkpt>
      <trkpt lat="35.944736056857636" lon="120.21393663194445">
        <ele>3</ele>
        <time>2018-01-13T06:13:33.300000Z</time>
      </trkpt>
      <trkpt lat="35.9446240234375" lon="120.21394612630208">
        <ele>3</ele>
        <time>2018-01-13T06:13:37.300000Z</time>
      </trkpt>
      <trkpt lat="35.944478081597225" lon="120.21395751953125">
        <ele>3</ele>
        <time>2018-01-13T06:13:43.400000Z</time>
      </trkpt>
      <trkpt lat="35.944408094618055" lon="120.21395833333334">
        <ele>3</ele>
        <time>2018-01-13T06:13:46.400000Z</time>
      </trkpt>
      <trkpt lat="35.94424424913194" lon="120.21391845703126">
        <ele>3</ele>
        <time>2018-01-13T06:13:53.400000Z</time>
      </trkpt>
      <trkpt lat="35.94416693793403" lon="120.21388753255208">
        <ele>3</ele>
        <time>2018-01-13T06:13:56.400000Z</time>
      </trkpt>
      <trkpt lat="35.944072808159724" lon="120.21384575737848">
        <ele>3</ele>
        <time>2018-01-13T06:14:00.400000Z</time>
      </trkpt>
      <trkpt lat="35.94377658420139" lon="120.21377332899306">
        <ele>3</ele>
        <time>2018-01-13T06:14:12.300000Z</time>
      </trkpt>
      <trkpt lat="35.94371717664931" lon="120.21379041883681">
        <ele>3</ele>
        <time>2018-01-13T06:14:15.300000Z</time>
      </trkpt>
      <trkpt lat="35.943639051649306" lon="120.21380777994791">
        <ele>3</ele>
        <time>2018-01-13T06:14:18.300000Z</time>
      </trkpt>
      <trkpt lat="35.943492024739584" lon="120.2138587782118">
        <ele>3</ele>
        <time>2018-01-13T06:14:24.400000Z</time>
      </trkpt>
      <trkpt lat="35.94341742621528" lon="120.21388590494792">
        <ele>3</ele>
        <time>2018-01-13T06:14:27.400000Z</time>
      </trkpt>
      <trkpt lat="35.94335015190972" lon="120.21390652126736">
        <ele>3</ele>
        <time>2018-01-13T06:14:30.400000Z</time>
      </trkpt>
      <trkpt lat="35.94318576388889" lon="120.21394721137153">
        <ele>3</ele>
        <time>2018-01-13T06:14:37.400000Z</time>
      </trkpt>
      <trkpt lat="35.9430859375" lon="120.21395616319444">
        <ele>3</ele>
        <time>2018-01-13T06:14:41.300000Z</time>
      </trkpt>
      <trkpt lat="35.94302354600694" lon="120.21396565755208">
        <ele>3</ele>
        <time>2018-01-13T06:14:44.300000Z</time>
      </trkpt>
      <trkpt lat="35.942890082465276" lon="120.21399305555556">
        <ele>3</ele>
        <time>2018-01-13T06:14:50.400000Z</time>
      </trkpt>
      <trkpt lat="35.94267903645834" lon="120.21404351128473">
        <ele>3</ele>
        <time>2018-01-13T06:14:58.400000Z</time>
      </trkpt>
      <trkpt lat="35.942599826388886" lon="120.21408230251735">
        <ele>3</ele>
        <time>2018-01-13T06:15:01.400000Z</time>
      </trkpt>
      <trkpt lat="35.94243923611111" lon="120.21416422526042">
        <ele>3</ele>
        <time>2018-01-13T06:15:08.300000Z</time>
      </trkpt>
      <trkpt lat="35.94237413194445" lon="120.21420600043403">
        <ele>3</ele>
        <time>2018-01-13T06:15:11.300000Z</time>
      </trkpt>
      <trkpt lat="35.942311197916666" lon="120.21424235026042">
        <ele>3</ele>
        <time>2018-01-13T06:15:14.300000Z</time>
      </trkpt>
      <trkpt lat="35.942164984809025" lon="120.21430501302083">
        <ele>3</ele>
        <time>2018-01-13T06:15:21.400000Z</time>
      </trkpt>
      <trkpt lat="35.94207302517361" lon="120.21432562934028">
        <ele>3</ele>
        <time>2018-01-13T06:15:25.400000Z</time>
      </trkpt>
      <trkpt lat="35.94190212673611" lon="120.21433213975695">
        <ele>3</ele>
        <time>2018-01-13T06:15:32.400000Z</time>
      </trkpt>
      <trkpt lat="35.94180311414931" lon="120.21432725694444">
        <ele>3</ele>
        <time>2018-01-13T06:15:36.300000Z</time>
      </trkpt>
      <trkpt lat="35.94164116753472" lon="120.21432942708333">
        <ele>3</ele>
        <time>2018-01-13T06:15:43.300000Z</time>
      </trkpt>
      <trkpt lat="35.9415673828125" lon="120.21433783637153">
        <ele>3</ele>
        <time>2018-01-13T06:15:46.400000Z</time>
      </trkpt>
      <trkpt lat="35.94136800130208" lon="120.21418158637152">
        <ele>3</ele>
        <time>2018-01-13T06:15:56.400000Z</time>
      </trkpt>
      <trkpt lat="35.94122205946181" lon="120.21404866536459">
        <ele>3</ele>
        <time>2018-01-13T06:16:04.400000Z</time>
      </trkpt>
      <trkpt lat="35.94113796657986" lon="120.21400472005209">
        <ele>3</ele>
        <time>2018-01-13T06:16:08.300000Z</time>
      </trkpt>
      <trkpt lat="35.94096571180555" lon="120.21395941840278">
        <ele>3</ele>
        <time>2018-01-13T06:16:15.300000Z</time>
      </trkpt>
      <trkpt lat="35.940801595052086" lon="120.21401258680555">
        <ele>3</ele>
        <time>2018-01-13T06:16:22.300000Z</time>
      </trkpt>
      <trkpt lat="35.94074300130208" lon="120.21405463324653">
        <ele>3</ele>
        <time>2018-01-13T06:16:25.400000Z</time>
      </trkpt>
      <trkpt lat="35.94057996961806" lon="120.21420952690973">
        <ele>3</ele>
        <time>2018-01-13T06:16:33.400000Z</time>
      </trkpt>
      <trkpt lat="35.940442437065975" lon="120.21450656467015">
        <ele>3</ele>
        <time>2018-01-13T06:16:44.400000Z</time>
      </trkpt>
      <trkpt lat="35.94032497829861" lon="120.2146546766493">
        <ele>3</ele>
        <time>2018-01-13T06:16:52.400000Z</time>
      </trkpt>
      <trkpt lat="35.94025309244792" lon="120.21466579861111">
        <ele>3</ele>
        <time>2018-01-13T06:16:55.400000Z</time>
      </trkpt>
      <trkpt lat="35.94018527560764" lon="120.21468071831598">
        <ele>3</ele>
        <time>2018-01-13T06:16:58.400000Z</time>
      </trkpt>
      <trkpt lat="35.94000406901041" lon="120.21473497178819">
        <ele>3</ele>
        <time>2018-01-13T06:17:06.400000Z</time>
      </trkpt>
      <trkpt lat="35.93982693142361" lon="120.21477430555555">
        <ele>3</ele>
        <time>2018-01-13T06:17:13.300000Z</time>
      </trkpt>
      <trkpt lat="35.939730631510415" lon="120.2148046875">
        <ele>3</ele>
        <time>2018-01-13T06:17:17.300000Z</time>
      </trkpt>
      <trkpt lat="35.939661729600694" lon="120.21482449001736">
        <ele>3</ele>
        <time>2018-01-13T06:17:20.400000Z</time>
      </trkpt>
      <trkpt lat="35.939510362413195" lon="120.21488932291666">
        <ele>3</ele>
        <time>2018-01-13T06:17:27.400000Z</time>
      </trkpt>
      <trkpt lat="35.93944715711805" lon="120.21491672092014">
        <ele>3</ele>
        <time>2018-01-13T06:17:30.400000Z</time>
      </trkpt>
      <trkpt lat="35.939349772135415" lon="120.21494303385417">
        <ele>3</ele>
        <time>2018-01-13T06:17:34.400000Z</time>
      </trkpt>
      <trkpt lat="35.939182942708335" lon="120.21498969184027">
        <ele>3</ele>
        <time>2018-01-13T06:17:41.400000Z</time>
      </trkpt>
      <trkpt lat="35.93908962673611" lon="120.21501573350695">
        <ele>3</ele>
        <time>2018-01-13T06:17:45.400000Z</time>
      </trkpt>
      <trkpt lat="35.93894341362847" lon="120.21506510416667">
        <ele>3</ele>
        <time>2018-01-13T06:17:52.400000Z</time>
      </trkpt>
      <trkpt lat="35.93884874131945" lon="120.21507215711806">
        <ele>3</ele>
        <time>2018-01-13T06:17:56.300000Z</time>
      </trkpt>
      <trkpt lat="35.938777669270834" lon="120.21507486979166">
        <ele>3</ele>
        <time>2018-01-13T06:17:59.400000Z</time>
      </trkpt>
      <trkpt lat="35.93858100043403" lon="120.21506781684027">
        <ele>3</ele>
        <time>2018-01-13T06:18:07.400000Z</time>
      </trkpt>
      <trkpt lat="35.93850721571181" lon="120.2150537109375">
        <ele>3</ele>
        <time>2018-01-13T06:18:10.400000Z</time>
      </trkpt>
      <trkpt lat="35.93834228515625" lon="120.21500298394098">
        <ele>3</ele>
        <time>2018-01-13T06:18:17.300000Z</time>
      </trkpt>
      <trkpt lat="35.9382470703125" lon="120.21496473524306">
        <ele>3</ele>
        <time>2018-01-13T06:18:21.400000Z</time>
      </trkpt>
      <trkpt lat="35.93808702256945" lon="120.21488037109376">
        <ele>3</ele>
        <time>2018-01-13T06:18:28.400000Z</time>
      </trkpt>
      <trkpt lat="35.938023546006946" lon="120.21483588324652">
        <ele>3</ele>
        <time>2018-01-13T06:18:31.400000Z</time>
      </trkpt>
      <trkpt lat="35.93793619791666" lon="120.21478271484375">
        <ele>3</ele>
        <time>2018-01-13T06:18:35.400000Z</time>
      </trkpt>
      <trkpt lat="35.93775987413194" lon="120.21466037326388">
        <ele>3</ele>
        <time>2018-01-13T06:18:43.400000Z</time>
      </trkpt>
      <trkpt lat="35.93766954210069" lon="120.21460286458333">
        <ele>3</ele>
        <time>2018-01-13T06:18:47.400000Z</time>
      </trkpt>
      <trkpt lat="35.93752902560764" lon="120.21449408637153">
        <ele>3</ele>
        <time>2018-01-13T06:18:54.400000Z</time>
      </trkpt>
      <trkpt lat="35.93746961805556" lon="120.2144509548611">
        <ele>3</ele>
        <time>2018-01-13T06:18:57.400000Z</time>
      </trkpt>
      <trkpt lat="35.93738715277778" lon="120.21438693576388">
        <ele>3</ele>
        <time>2018-01-13T06:19:01.400000Z</time>
      </trkpt>
      <trkpt lat="35.93724175347222" lon="120.21426676432291">
        <ele>3</ele>
        <time>2018-01-13T06:19:08.400000Z</time>
      </trkpt>
      <trkpt lat="35.937161187065975" lon="120.21419921875">
        <ele>3</ele>
        <time>2018-01-13T06:19:12.300000Z</time>
      </trkpt>
      <trkpt lat="35.937085774739586" lon="120.21414252387153">
        <ele>3</ele>
        <time>2018-01-13T06:19:16.300000Z</time>
      </trkpt>
      <trkpt lat="35.93692708333333" lon="120.21398708767362">
        <ele>3</ele>
        <time>2018-01-13T06:19:24.300000Z</time>
      </trkpt>
      <trkpt lat="35.936848958333336" lon="120.21391194661459">
        <ele>3</ele>
        <time>2018-01-13T06:19:28.300000Z</time>
      </trkpt>
      <trkpt lat="35.93671142578125" lon="120.21377115885417">
        <ele>3</ele>
        <time>2018-01-13T06:19:35.300000Z</time>
      </trkpt>
      <trkpt lat="35.936656087239584" lon="120.21371175130209">
        <ele>3</ele>
        <time>2018-01-13T06:19:38.300000Z</time>
      </trkpt>
      <trkpt lat="35.93659993489583" lon="120.21364854600695">
        <ele>3</ele>
        <time>2018-01-13T06:19:41.400000Z</time>
      </trkpt>
      <trkpt lat="35.93647623697917" lon="120.21350613064236">
        <ele>3</ele>
        <time>2018-01-13T06:19:48.300000Z</time>
      </trkpt>
      <trkpt lat="35.93642225477431" lon="120.21344699435764">
        <ele>3</ele>
        <time>2018-01-13T06:19:51.300000Z</time>
      </trkpt>
      <trkpt lat="35.936345757378476" lon="120.21336534288194">
        <ele>3</ele>
        <time>2018-01-13T06:19:55.300000Z</time>
      </trkpt>
      <trkpt lat="35.93624186197917" lon="120.21323893229167">
        <ele>3</ele>
        <time>2018-01-13T06:20:01.300000Z</time>
      </trkpt>
      <trkpt lat="35.93617078993056" lon="120.21314887152778">
        <ele>3</ele>
        <time>2018-01-13T06:20:05.300000Z</time>
      </trkpt>
      <trkpt lat="35.93611924913194" lon="120.21307888454861">
        <ele>3</ele>
        <time>2018-01-13T06:20:08.400000Z</time>
      </trkpt>
      <trkpt lat="35.93600613064236" lon="120.21292182074653">
        <ele>3</ele>
        <time>2018-01-13T06:20:15.400000Z</time>
      </trkpt>
      <trkpt lat="35.93595757378472" lon="120.21285210503473">
        <ele>3</ele>
        <time>2018-01-13T06:20:18.400000Z</time>
      </trkpt>
      <trkpt lat="35.93589545355903" lon="120.2127623155382">
        <ele>3</ele>
        <time>2018-01-13T06:20:22.400000Z</time>
      </trkpt>
      <trkpt lat="35.93577392578125" lon="120.21259847005209">
        <ele>3</ele>
        <time>2018-01-13T06:20:29.400000Z</time>
      </trkpt>
      <trkpt lat="35.93571316189236" lon="120.21250271267361">
        <ele>3</ele>
        <time>2018-01-13T06:20:33.400000Z</time>
      </trkpt>
      <trkpt lat="35.93558837890625" lon="120.21230441623264">
        <ele>3</ele>
        <time>2018-01-13T06:20:41.400000Z</time>
      </trkpt>
      <trkpt lat="35.93552463107639" lon="120.21219997829861">
        <ele>3</ele>
        <time>2018-01-13T06:20:45.300000Z</time>
      </trkpt>
      <trkpt lat="35.93543863932292" lon="120.21201090494792">
        <ele>3</ele>
        <time>2018-01-13T06:20:52.300000Z</time>
      </trkpt>
      <trkpt lat="35.9353404405382" lon="120.21184190538195">
        <ele>3</ele>
        <time>2018-01-13T06:20:59.400000Z</time>
      </trkpt>
      <trkpt lat="35.93530056423611" lon="120.21177680121528">
        <ele>3</ele>
        <time>2018-01-13T06:21:02.400000Z</time>
      </trkpt>
      <trkpt lat="35.935223253038195" lon="120.21162679036458">
        <ele>3</ele>
        <time>2018-01-13T06:21:08.400000Z</time>
      </trkpt>
      <trkpt lat="35.93518690321181" lon="120.21154568142362">
        <ele>3</ele>
        <time>2018-01-13T06:21:11.400000Z</time>
      </trkpt>
      <trkpt lat="35.93513916015625" lon="120.21143500434027">
        <ele>3</ele>
        <time>2018-01-13T06:21:15.300000Z</time>
      </trkpt>
      <trkpt lat="35.93506564670139" lon="120.21127495659722">
        <ele>3</ele>
        <time>2018-01-13T06:21:21.300000Z</time>
      </trkpt>
      <trkpt lat="35.93502848307292" lon="120.2112025282118">
        <ele>3</ele>
        <time>2018-01-13T06:21:24.400000Z</time>
      </trkpt>
      <trkpt lat="35.93497477213542" lon="120.21108100043402">
        <ele>3</ele>
        <time>2018-01-13T06:21:28.400000Z</time>
      </trkpt>
      <trkpt lat="35.934893934461805" lon="120.21089870876736">
        <ele>3</ele>
        <time>2018-01-13T06:21:35.400000Z</time>
      </trkpt>
      <trkpt lat="35.934856499565974" lon="120.21083062065972">
        <ele>3</ele>
        <time>2018-01-13T06:21:38.400000Z</time>
      </trkpt>
      <trkpt lat="35.934817979600695" lon="120.21075168185764">
        <ele>3</ele>
        <time>2018-01-13T06:21:41.400000Z</time>
      </trkpt>
      <trkpt lat="35.93472520616319" lon="120.21054524739583">
        <ele>3</ele>
        <time>2018-01-13T06:21:49.400000Z</time>
      </trkpt>
      <trkpt lat="35.93468288845486" lon="120.2104408094618">
        <ele>3</ele>
        <time>2018-01-13T06:21:53.400000Z</time>
      </trkpt>
      <trkpt lat="35.934581434461805" lon="120.21021375868055">
        <ele>3</ele>
        <time>2018-01-13T06:22:01.400000Z</time>
      </trkpt>
      <trkpt lat="35.93454752604167" lon="120.21013129340278">
        <ele>3</ele>
        <time>2018-01-13T06:22:04.400000Z</time>
      </trkpt>
      <trkpt lat="35.9345166015625" lon="120.2100439453125">
        <ele>3</ele>
        <time>2018-01-13T06:22:07.400000Z</time>
      </trkpt>
      <trkpt lat="35.93439398871528" lon="120.20979627821181">
        <ele>3</ele>
        <time>2018-01-13T06:22:17.400000Z</time>
      </trkpt>
      <trkpt lat="35.93434163411458" lon="120.20970160590278">
        <ele>3</ele>
        <time>2018-01-13T06:22:21.400000Z</time>
      </trkpt>
      <trkpt lat="35.934261067708334" lon="120.20954644097222">
        <ele>3</ele>
        <time>2018-01-13T06:22:28.400000Z</time>
      </trkpt>
      <trkpt lat="35.93423312717014" lon="120.20946451822917">
        <ele>3</ele>
        <time>2018-01-13T06:22:31.400000Z</time>
      </trkpt>
      <trkpt lat="35.93419026692708" lon="120.20935709635417">
        <ele>3</ele>
        <time>2018-01-13T06:22:35.400000Z</time>
      </trkpt>
      <trkpt lat="35.93413492838542" lon="120.20920003255209">
        <ele>3</ele>
        <time>2018-01-13T06:22:41.400000Z</time>
      </trkpt>
      <trkpt lat="35.934078776041666" lon="120.20894097222222">
        <ele>3</ele>
        <time>2018-01-13T06:22:49.300000Z</time>
      </trkpt>
      <trkpt lat="35.93407172309028" lon="120.2088441297743">
        <ele>3</ele>
        <time>2018-01-13T06:22:52.300000Z</time>
      </trkpt>
      <trkpt lat="35.934063856336806" lon="120.20864529079861">
        <ele>3</ele>
        <time>2018-01-13T06:22:58.400000Z</time>
      </trkpt>
      <trkpt lat="35.934061414930554" lon="120.20854600694445">
        <ele>3</ele>
        <time>2018-01-13T06:23:01.400000Z</time>
      </trkpt>
      <trkpt lat="35.93405164930556" lon="120.20842475043403">
        <ele>3</ele>
        <time>2018-01-13T06:23:05.400000Z</time>
      </trkpt>
      <trkpt lat="35.934008246527775" lon="120.2081787109375">
        <ele>3</ele>
        <time>2018-01-13T06:23:13.400000Z</time>
      </trkpt>
      <trkpt lat="35.93396592881945" lon="120.20805908203126">
        <ele>3</ele>
        <time>2018-01-13T06:23:17.400000Z</time>
      </trkpt>
      <trkpt lat="35.93388454861111" lon="120.20787109375">
        <ele>3</ele>
        <time>2018-01-13T06:23:24.300000Z</time>
      </trkpt>
      <trkpt lat="35.933841959635416" lon="120.20775634765624">
        <ele>3</ele>
        <time>2018-01-13T06:23:28.300000Z</time>
      </trkpt>
      <trkpt lat="35.93376085069445" lon="120.20746202256944">
        <ele>3</ele>
        <time>2018-01-13T06:23:39.300000Z</time>
      </trkpt>
      <trkpt lat="35.9337451171875" lon="120.20737521701389">
        <ele>3</ele>
        <time>2018-01-13T06:23:42.400000Z</time>
      </trkpt>
      <trkpt lat="35.93372829861111" lon="120.20729302300347">
        <ele>3</ele>
        <time>2018-01-13T06:23:45.400000Z</time>
      </trkpt>
      <trkpt lat="35.93370930989583" lon="120.20709499782986">
        <ele>3</ele>
        <time>2018-01-13T06:23:52.400000Z</time>
      </trkpt>
      <trkpt lat="35.93369818793403" lon="120.20696967230903">
        <ele>3</ele>
        <time>2018-01-13T06:23:56.400000Z</time>
      </trkpt>
      <trkpt lat="35.93365342881945" lon="120.20675048828124">
        <ele>3</ele>
        <time>2018-01-13T06:24:03.400000Z</time>
      </trkpt>
      <trkpt lat="35.93362440321181" lon="120.20662000868056">
        <ele>3</ele>
        <time>2018-01-13T06:24:07.400000Z</time>
      </trkpt>
      <trkpt lat="35.93354763454861" lon="120.20639594184028">
        <ele>3</ele>
        <time>2018-01-13T06:24:15.400000Z</time>
      </trkpt>
      <trkpt lat="35.93344075520833" lon="120.20623209635417">
        <ele>3</ele>
        <time>2018-01-13T06:24:22.300000Z</time>
      </trkpt>
      <trkpt lat="35.93337483723958" lon="120.20614176432292">
        <ele>3</ele>
        <time>2018-01-13T06:24:26.300000Z</time>
      </trkpt>
      <trkpt lat="35.93332573784722" lon="120.20607611762152">
        <ele>3</ele>
        <time>2018-01-13T06:24:29.400000Z</time>
      </trkpt>
      <trkpt lat="35.93319715711806" lon="120.20593017578125">
        <ele>3</ele>
        <time>2018-01-13T06:24:36.400000Z</time>
      </trkpt>
      <trkpt lat="35.93312852647569" lon="120.20584526909722">
        <ele>3</ele>
        <time>2018-01-13T06:24:40.400000Z</time>
      </trkpt>
      <trkpt lat="35.9330677625868" lon="120.2057603624132">
        <ele>3</ele>
        <time>2018-01-13T06:24:44.400000Z</time>
      </trkpt>
      <trkpt lat="35.932972005208335" lon="120.20558810763889">
        <ele>3</ele>
        <time>2018-01-13T06:24:51.400000Z</time>
      </trkpt>
      <trkpt lat="35.93294379340278" lon="120.20550699869791">
        <ele>3</ele>
        <time>2018-01-13T06:24:54.400000Z</time>
      </trkpt>
      <trkpt lat="35.93288275824653" lon="120.20528645833333">
        <ele>3</ele>
        <time>2018-01-13T06:25:02.400000Z</time>
      </trkpt>
      <trkpt lat="35.93287000868055" lon="120.20519314236111">
        <ele>3</ele>
        <time>2018-01-13T06:25:05.400000Z</time>
      </trkpt>
      <trkpt lat="35.93280544704861" lon="120.20497721354167">
        <ele>3</ele>
        <time>2018-01-13T06:25:13.400000Z</time>
      </trkpt>
      <trkpt lat="35.93277587890625" lon="120.20489095052083">
        <ele>3</ele>
        <time>2018-01-13T06:25:16.400000Z</time>
      </trkpt>
      <trkpt lat="35.93259250217014" lon="120.20486979166667">
        <ele>3</ele>
        <time>2018-01-13T06:25:26.400000Z</time>
      </trkpt>
      <trkpt lat="35.93251274956597" lon="120.20491997612847">
        <ele>3</ele>
        <time>2018-01-13T06:25:30.400000Z</time>
      </trkpt>
      <trkpt lat="35.93246473524306" lon="120.20538601345486">
        <ele>3</ele>
        <time>2018-01-13T06:25:46.300000Z</time>
      </trkpt>
      <trkpt lat="35.93252794053819" lon="120.20557590060764">
        <ele>3</ele>
        <time>2018-01-13T06:25:53.400000Z</time>
      </trkpt>
      <trkpt lat="35.93254041883681" lon="120.20570176866319">
        <ele>3</ele>
        <time>2018-01-13T06:25:57.300000Z</time>
      </trkpt>
      <trkpt lat="35.93261121961805" lon="120.20601616753473">
        <ele>3</ele>
        <time>2018-01-13T06:26:08.300000Z</time>
      </trkpt>
      <trkpt lat="35.93265733506944" lon="120.20608371310765">
        <ele>3</ele>
        <time>2018-01-13T06:26:11.400000Z</time>
      </trkpt>
      <trkpt lat="35.932703993055554" lon="120.20616129557291">
        <ele>3</ele>
        <time>2018-01-13T06:26:14.400000Z</time>
      </trkpt>
      <trkpt lat="35.93279812282986" lon="120.20631673177083">
        <ele>3</ele>
        <time>2018-01-13T06:26:21.400000Z</time>
      </trkpt>
      <trkpt lat="35.93290988498264" lon="120.20652777777778">
        <ele>3</ele>
        <time>2018-01-13T06:26:29.400000Z</time>
      </trkpt>
      <trkpt lat="35.932956000434025" lon="120.20672661675347">
        <ele>3</ele>
        <time>2018-01-13T06:26:37.400000Z</time>
      </trkpt>
      <trkpt lat="35.932964409722224" lon="120.20681884765625">
        <ele>3</ele>
        <time>2018-01-13T06:26:40.400000Z</time>
      </trkpt>
      <trkpt lat="35.93296549479167" lon="120.20690999348959">
        <ele>3</ele>
        <time>2018-01-13T06:26:43.400000Z</time>
      </trkpt>
      <trkpt lat="35.93302218967014" lon="120.2071630859375">
        <ele>3</ele>
        <time>2018-01-13T06:26:51.300000Z</time>
      </trkpt>
      <trkpt lat="35.93305338541666" lon="120.20724527994791">
        <ele>3</ele>
        <time>2018-01-13T06:26:54.400000Z</time>
      </trkpt>
      <trkpt lat="35.93314371744792" lon="120.20741102430556">
        <ele>3</ele>
        <time>2018-01-13T06:27:01.300000Z</time>
      </trkpt>
      <trkpt lat="35.933193901909725" lon="120.20747856987848">
        <ele>3</ele>
        <time>2018-01-13T06:27:04.400000Z</time>
      </trkpt>
      <trkpt lat="35.93328179253472" lon="120.20775390625">
        <ele>3</ele>
        <time>2018-01-13T06:27:14.400000Z</time>
      </trkpt>
      <trkpt lat="35.9332826063368" lon="120.20786295572917">
        <ele>3</ele>
        <time>2018-01-13T06:27:17.400000Z</time>
      </trkpt>
      <trkpt lat="35.933291829427084" lon="120.20811360677084">
        <ele>3</ele>
        <time>2018-01-13T06:27:24.300000Z</time>
      </trkpt>
      <trkpt lat="35.93332139756944" lon="120.208310546875">
        <ele>3</ele>
        <time>2018-01-13T06:27:30.400000Z</time>
      </trkpt>
      <trkpt lat="35.93338894314236" lon="120.20849989149306">
        <ele>3</ele>
        <time>2018-01-13T06:27:37.400000Z</time>
      </trkpt>
      <trkpt lat="35.93343451605903" lon="120.20858018663195">
        <ele>3</ele>
        <time>2018-01-13T06:27:40.400000Z</time>
      </trkpt>
      <trkpt lat="35.933490668402776" lon="120.20867024739583">
        <ele>3</ele>
        <time>2018-01-13T06:27:44.400000Z</time>
      </trkpt>
      <trkpt lat="35.933574761284724" lon="120.20884575737847">
        <ele>3</ele>
        <time>2018-01-13T06:27:51.400000Z</time>
      </trkpt>
      <trkpt lat="35.93359836154514" lon="120.2089293077257">
        <ele>3</ele>
        <time>2018-01-13T06:27:54.400000Z</time>
      </trkpt>
      <trkpt lat="35.93367567274306" lon="120.2091468641493">
        <ele>3</ele>
        <time>2018-01-13T06:28:01.400000Z</time>
      </trkpt>
      <trkpt lat="35.933673773871526" lon="120.20953070746528">
        <ele>3</ele>
        <time>2018-01-13T06:28:13.400000Z</time>
      </trkpt>
      <trkpt lat="35.93364854600694" lon="120.20965304904514">
        <ele>3</ele>
        <time>2018-01-13T06:28:17.400000Z</time>
      </trkpt>
      <trkpt lat="35.933696560329864" lon="120.20998969184028">
        <ele>3</ele>
        <time>2018-01-13T06:28:28.400000Z</time>
      </trkpt>
      <trkpt lat="35.93389838324653" lon="120.21020073784722">
        <ele>3</ele>
        <time>2018-01-13T06:28:38.400000Z</time>
      </trkpt>
      <trkpt lat="35.93401828342014" lon="120.2103626844618">
        <ele>3</ele>
        <time>2018-01-13T06:28:45.400000Z</time>
      </trkpt>
      <trkpt lat="35.93408474392361" lon="120.21046278211806">
        <ele>3</ele>
        <time>2018-01-13T06:28:49.400000Z</time>
      </trkpt>
      <trkpt lat="35.93414171006945" lon="120.21067003038195">
        <ele>3</ele>
        <time>2018-01-13T06:28:56.400000Z</time>
      </trkpt>
      <trkpt lat="35.93415500217014" lon="120.21079264322917">
        <ele>3</ele>
        <time>2018-01-13T06:29:00.400000Z</time>
      </trkpt>
      <trkpt lat="35.934161783854165" lon="120.21088650173611">
        <ele>3</ele>
        <time>2018-01-13T06:29:03.400000Z</time>
      </trkpt>
      <trkpt lat="35.934223361545136" lon="120.21118326822916">
        <ele>3</ele>
        <time>2018-01-13T06:29:13.400000Z</time>
      </trkpt>
      <trkpt lat="35.93431939019097" lon="120.21137858072916">
        <ele>3</ele>
        <time>2018-01-13T06:29:20.400000Z</time>
      </trkpt>
      <trkpt lat="35.934375542534724" lon="120.21145399305556">
        <ele>3</ele>
        <time>2018-01-13T06:29:23.400000Z</time>
      </trkpt>
      <trkpt lat="35.934522298177086" lon="120.21163167317708">
        <ele>3</ele>
        <time>2018-01-13T06:29:31.400000Z</time>
      </trkpt>
      <trkpt lat="35.934695909288195" lon="120.21192762586806">
        <ele>3</ele>
        <time>2018-01-13T06:29:41.400000Z</time>
      </trkpt>
      <trkpt lat="35.93474690755208" lon="120.21203097873264">
        <ele>3</ele>
        <time>2018-01-13T06:29:45.400000Z</time>
      </trkpt>
      <trkpt lat="35.93486192491319" lon="120.21238172743055">
        <ele>3</ele>
        <time>2018-01-13T06:29:57.400000Z</time>
      </trkpt>
      <trkpt lat="35.93490695529514" lon="120.21245496961805">
        <ele>3</ele>
        <time>2018-01-13T06:30:00.400000Z</time>
      </trkpt>
      <trkpt lat="35.93503038194444" lon="120.21262424045139">
        <ele>3</ele>
        <time>2018-01-13T06:30:07.400000Z</time>
      </trkpt>
      <trkpt lat="35.93508355034722" lon="120.21268093532986">
        <ele>3</ele>
        <time>2018-01-13T06:30:10.500000Z</time>
      </trkpt>
      <trkpt lat="35.935153537326386" lon="120.21276340060764">
        <ele>3</ele>
        <time>2018-01-13T06:30:14.300000Z</time>
      </trkpt>
      <trkpt lat="35.93523871527778" lon="120.21294514973958">
        <ele>3</ele>
        <time>2018-01-13T06:30:21.400000Z</time>
      </trkpt>
      <trkpt lat="35.93532009548611" lon="120.21316216362847">
        <ele>3</ele>
        <time>2018-01-13T06:30:28.400000Z</time>
      </trkpt>
      <trkpt lat="35.93547037760417" lon="120.21328016493055">
        <ele>3</ele>
        <time>2018-01-13T06:30:35.300000Z</time>
      </trkpt>
      <trkpt lat="35.935702311197915" lon="120.2134743923611">
        <ele>3</ele>
        <time>2018-01-13T06:30:45.500000Z</time>
      </trkpt>
      <trkpt lat="35.9358740234375" lon="120.21362006293403">
        <ele>3</ele>
        <time>2018-01-13T06:30:53.300000Z</time>
      </trkpt>
      <trkpt lat="35.93593831380208" lon="120.21367051866319">
        <ele>3</ele>
        <time>2018-01-13T06:30:56.300000Z</time>
      </trkpt>
      <trkpt lat="35.936090766059024" lon="120.2138316514757">
        <ele>3</ele>
        <time>2018-01-13T06:31:03.400000Z</time>
      </trkpt>
      <trkpt lat="35.93614773220486" lon="120.2138991970486">
        <ele>3</ele>
        <time>2018-01-13T06:31:06.400000Z</time>
      </trkpt>
      <trkpt lat="35.93620388454861" lon="120.21396375868055">
        <ele>3</ele>
        <time>2018-01-13T06:31:09.400000Z</time>
      </trkpt>
      <trkpt lat="35.936337890625" lon="120.2141232638889">
        <ele>3</ele>
        <time>2018-01-13T06:31:16.500000Z</time>
      </trkpt>
      <trkpt lat="35.9364173719618" lon="120.2141943359375">
        <ele>3</ele>
        <time>2018-01-13T06:31:20.300000Z</time>
      </trkpt>
      <trkpt lat="35.93665934244792" lon="120.21443522135417">
        <ele>3</ele>
        <time>2018-01-13T06:31:32.300000Z</time>
      </trkpt>
      <trkpt lat="35.936717393663194" lon="120.2144886610243">
        <ele>3</ele>
        <time>2018-01-13T06:31:35.300000Z</time>
      </trkpt>
      <trkpt lat="35.93693413628472" lon="120.21476372612847">
        <ele>3</ele>
        <time>2018-01-13T06:31:47.300000Z</time>
      </trkpt>
      <trkpt lat="35.93704915364583" lon="120.21490831163194">
        <ele>3</ele>
        <time>2018-01-13T06:31:54.300000Z</time>
      </trkpt>
      <trkpt lat="35.937115614149306" lon="120.21495442708333">
        <ele>3</ele>
        <time>2018-01-13T06:31:57.300000Z</time>
      </trkpt>
      <trkpt lat="35.93718505859375" lon="120.21499403211806">
        <ele>3</ele>
        <time>2018-01-13T06:32:00.300000Z</time>
      </trkpt>
      <trkpt lat="35.93732666015625" lon="120.21508626302084">
        <ele>3</ele>
        <time>2018-01-13T06:32:06.400000Z</time>
      </trkpt>
      <trkpt lat="35.93751356336806" lon="120.21513373480903">
        <ele>3</ele>
        <time>2018-01-13T06:32:13.400000Z</time>
      </trkpt>
      <trkpt lat="35.93769911024305" lon="120.21521592881945">
        <ele>3</ele>
        <time>2018-01-13T06:32:20.300000Z</time>
      </trkpt>
      <trkpt lat="35.93777533637153" lon="120.21524848090277">
        <ele>3</ele>
        <time>2018-01-13T06:32:23.400000Z</time>
      </trkpt>
      <trkpt lat="35.93799452039931" lon="120.21553982204861">
        <ele>3</ele>
        <time>2018-01-13T06:32:38.400000Z</time>
      </trkpt>
      <trkpt lat="35.93811686197917" lon="120.2156884765625">
        <ele>3</ele>
        <time>2018-01-13T06:32:45.400000Z</time>
      </trkpt>
      <trkpt lat="35.938319227430554" lon="120.21574517144097">
        <ele>3</ele>
        <time>2018-01-13T06:32:52.400000Z</time>
      </trkpt>
      <trkpt lat="35.938421223958336" lon="120.2157679578993">
        <ele>3</ele>
        <time>2018-01-13T06:32:56.400000Z</time>
      </trkpt>
      <trkpt lat="35.938640407986114" lon="120.21580973307292">
        <ele>3</ele>
        <time>2018-01-13T06:33:03.400000Z</time>
      </trkpt>
      <trkpt lat="35.93876003689236" lon="120.21582600911458">
        <ele>3</ele>
        <time>2018-01-13T06:33:07.400000Z</time>
      </trkpt>
      <trkpt lat="35.93913194444445" lon="120.21577853732639">
        <ele>3</ele>
        <time>2018-01-13T06:33:21.400000Z</time>
      </trkpt>
      <trkpt lat="35.939235568576386" lon="120.2156920030382">
        <ele>3</ele>
        <time>2018-01-13T06:33:25.400000Z</time>
      </trkpt>
      <trkpt lat="35.939494900173614" lon="120.2155419921875">
        <ele>3</ele>
        <time>2018-01-13T06:33:35.800000Z</time>
      </trkpt>
      <trkpt lat="35.939601508246525" lon="120.21551866319444">
        <ele>3</ele>
        <time>2018-01-13T06:33:39.400000Z</time>
      </trkpt>
      <trkpt lat="35.939768880208334" lon="120.21548502604166">
        <ele>3</ele>
        <time>2018-01-13T06:33:46.300000Z</time>
      </trkpt>
      <trkpt lat="35.9398681640625" lon="120.21545383029513">
        <ele>3</ele>
        <time>2018-01-13T06:33:50.300000Z</time>
      </trkpt>
      <trkpt lat="35.9399400499132" lon="120.21542154947916">
        <ele>3</ele>
        <time>2018-01-13T06:33:53.300000Z</time>
      </trkpt>
      <trkpt lat="35.94008002387153" lon="120.21536024305556">
        <ele>3</ele>
        <time>2018-01-13T06:33:59.400000Z</time>
      </trkpt>
      <trkpt lat="35.94026774088542" lon="120.21532769097222">
        <ele>3</ele>
        <time>2018-01-13T06:34:06.400000Z</time>
      </trkpt>
      <trkpt lat="35.940692003038194" lon="120.21537299262152">
        <ele>3</ele>
        <time>2018-01-13T06:34:21.400000Z</time>
      </trkpt>
      <trkpt lat="35.94077473958333" lon="120.21538248697917">
        <ele>3</ele>
        <time>2018-01-13T06:34:24.400000Z</time>
      </trkpt>
      <trkpt lat="35.941005588107636" lon="120.21545789930556">
        <ele>3</ele>
        <time>2018-01-13T06:34:32.400000Z</time>
      </trkpt>
      <trkpt lat="35.941081814236114" lon="120.21550021701388">
        <ele>3</ele>
        <time>2018-01-13T06:34:35.400000Z</time>
      </trkpt>
      <trkpt lat="35.941328125" lon="120.21544650607639">
        <ele>3</ele>
        <time>2018-01-13T06:34:45.400000Z</time>
      </trkpt>
      <trkpt lat="35.94140896267361" lon="120.21538384331598">
        <ele>3</ele>
        <time>2018-01-13T06:34:49.400000Z</time>
      </trkpt>
      <trkpt lat="35.94153618706597" lon="120.21527262369791">
        <ele>3</ele>
        <time>2018-01-13T06:34:56.400000Z</time>
      </trkpt>
      <trkpt lat="35.941586100260416" lon="120.21521213107638">
        <ele>3</ele>
        <time>2018-01-13T06:34:59.400000Z</time>
      </trkpt>
      <trkpt lat="35.941930067274306" lon="120.21501925998264">
        <ele>3</ele>
        <time>2018-01-13T06:35:16.400000Z</time>
      </trkpt>
      <trkpt lat="35.942144097222226" lon="120.21514973958334">
        <ele>3</ele>
        <time>2018-01-13T06:35:26.400000Z</time>
      </trkpt>
      <trkpt lat="35.9421923828125" lon="120.21525743272569">
        <ele>3</ele>
        <time>2018-01-13T06:35:30.400000Z</time>
      </trkpt>
      <trkpt lat="35.9422314453125" lon="120.21534423828125">
        <ele>3</ele>
        <time>2018-01-13T06:35:33.400000Z</time>
      </trkpt>
      <trkpt lat="35.94235297309028" lon="120.21556722005208">
        <ele>3</ele>
        <time>2018-01-13T06:35:41.400000Z</time>
      </trkpt>
      <trkpt lat="35.94239664713542" lon="120.21564344618055">
        <ele>3</ele>
        <time>2018-01-13T06:35:44.400000Z</time>
      </trkpt>
      <trkpt lat="35.94250542534722" lon="120.21583414713541">
        <ele>3</ele>
        <time>2018-01-13T06:35:51.400000Z</time>
      </trkpt>
      <trkpt lat="35.94255262586805" lon="120.21591715494792">
        <ele>3</ele>
        <time>2018-01-13T06:35:54.400000Z</time>
      </trkpt>
      <trkpt lat="35.942705078125" lon="120.21621256510417">
        <ele>3</ele>
        <time>2018-01-13T06:36:05.500000Z</time>
      </trkpt>
      <trkpt lat="35.94275906032986" lon="120.21632649739583">
        <ele>3</ele>
        <time>2018-01-13T06:36:09.400000Z</time>
      </trkpt>
      <trkpt lat="35.94297037760417" lon="120.2166370985243">
        <ele>3</ele>
        <time>2018-01-13T06:36:21.300000Z</time>
      </trkpt>
      <trkpt lat="35.94307047526042" lon="120.21679361979167">
        <ele>3</ele>
        <time>2018-01-13T06:36:29.300000Z</time>
      </trkpt>
      <trkpt lat="35.9431494140625" lon="120.21692138671875">
        <ele>3</ele>
        <time>2018-01-13T06:36:32.300000Z</time>
      </trkpt>
      <trkpt lat="35.94328938802084" lon="120.21715983072917">
        <ele>3</ele>
        <time>2018-01-13T06:36:41.400000Z</time>
      </trkpt>
      <trkpt lat="35.94335042317709" lon="120.21725368923612">
        <ele>3</ele>
        <time>2018-01-13T06:36:45.400000Z</time>
      </trkpt>
      <trkpt lat="35.94339925130208" lon="120.2173171657986">
        <ele>3</ele>
        <time>2018-01-13T06:36:48.400000Z</time>
      </trkpt>
      <trkpt lat="35.94349039713541" lon="120.21750678168402">
        <ele>3</ele>
        <time>2018-01-13T06:36:55.400000Z</time>
      </trkpt>
      <trkpt lat="35.94359700520833" lon="120.21768391927084">
        <ele>3</ele>
        <time>2018-01-13T06:37:02.400000Z</time>
      </trkpt>
      <trkpt lat="35.943775227864585" lon="120.21799126519097">
        <ele>3</ele>
        <time>2018-01-13T06:37:13.400000Z</time>
      </trkpt>
      <trkpt lat="35.94382459852431" lon="120.21807101779514">
        <ele>3</ele>
        <time>2018-01-13T06:37:16.400000Z</time>
      </trkpt>
      <trkpt lat="35.9440966796875" lon="120.21807400173611">
        <ele>3</ele>
        <time>2018-01-13T06:37:30.400000Z</time>
      </trkpt>
      <trkpt lat="35.94415581597222" lon="120.21802978515625">
        <ele>3</ele>
        <time>2018-01-13T06:37:33.400000Z</time>
      </trkpt>
      <trkpt lat="35.94430447048611" lon="120.21793131510417">
        <ele>3</ele>
        <time>2018-01-13T06:37:40.400000Z</time>
      </trkpt>
      <trkpt lat="35.94440538194444" lon="120.21787217881945">
        <ele>3</ele>
        <time>2018-01-13T06:37:44.400000Z</time>
      </trkpt>
      <trkpt lat="35.944569227430556" lon="120.21779134114583">
        <ele>3</ele>
        <time>2018-01-13T06:37:51.400000Z</time>
      </trkpt>
      <trkpt lat="35.94465033637153" lon="120.21775580512153">
        <ele>3</ele>
        <time>2018-01-13T06:37:54.400000Z</time>
      </trkpt>
      <trkpt lat="35.9447412109375" lon="120.21769721137153">
        <ele>3</ele>
        <time>2018-01-13T06:37:58.400000Z</time>
      </trkpt>
      <trkpt lat="35.944920247395835" lon="120.21760308159722">
        <ele>3</ele>
        <time>2018-01-13T06:38:05.400000Z</time>
      </trkpt>
      <trkpt lat="35.944996473524306" lon="120.21756103515625">
        <ele>3</ele>
        <time>2018-01-13T06:38:08.400000Z</time>
      </trkpt>
      <trkpt lat="35.94508463541667" lon="120.21752061631945">
        <ele>3</ele>
        <time>2018-01-13T06:38:12.400000Z</time>
      </trkpt>
      <trkpt lat="35.945234375" lon="120.21744059244791">
        <ele>3</ele>
        <time>2018-01-13T06:38:19.400000Z</time>
      </trkpt>
      <trkpt lat="35.945408799913196" lon="120.2173744032118">
        <ele>3</ele>
        <time>2018-01-13T06:38:26.400000Z</time>
      </trkpt>
      <trkpt lat="35.94548068576389" lon="120.21734429253472">
        <ele>3</ele>
        <time>2018-01-13T06:38:29.400000Z</time>
      </trkpt>
      <trkpt lat="35.94564154730903" lon="120.21726969401041">
        <ele>3</ele>
        <time>2018-01-13T06:38:36.400000Z</time>
      </trkpt>
      <trkpt lat="35.94575656467014" lon="120.2172314453125">
        <ele>3</ele>
        <time>2018-01-13T06:38:40.400000Z</time>
      </trkpt>
      <trkpt lat="35.945933430989584" lon="120.2171546766493">
        <ele>3</ele>
        <time>2018-01-13T06:38:47.300000Z</time>
      </trkpt>
      <trkpt lat="35.94600477430556" lon="120.2171226671007">
        <ele>3</ele>
        <time>2018-01-13T06:38:50.300000Z</time>
      </trkpt>
      <trkpt lat="35.946078016493054" lon="120.21709255642361">
        <ele>3</ele>
        <time>2018-01-13T06:38:53.300000Z</time>
      </trkpt>
      <trkpt lat="35.94622504340278" lon="120.21703504774305">
        <ele>3</ele>
        <time>2018-01-13T06:38:59.300000Z</time>
      </trkpt>
      <trkpt lat="35.9463134765625" lon="120.21699517144097">
        <ele>3</ele>
        <time>2018-01-13T06:39:03.300000Z</time>
      </trkpt>
      <trkpt lat="35.94641303168403" lon="120.21695882161458">
        <ele>3</ele>
        <time>2018-01-13T06:39:07.300000Z</time>
      </trkpt>
      <trkpt lat="35.94658718532986" lon="120.21690592447916">
        <ele>3</ele>
        <time>2018-01-13T06:39:14.300000Z</time>
      </trkpt>
      <trkpt lat="35.94665798611111" lon="120.2168834092882">
        <ele>3</ele>
        <time>2018-01-13T06:39:17.400000Z</time>
      </trkpt>
      <trkpt lat="35.94673394097222" lon="120.21686008029513">
        <ele>3</ele>
        <time>2018-01-13T06:39:20.400000Z</time>
      </trkpt>
      <trkpt lat="35.94694254557292" lon="120.21679660373263">
        <ele>3</ele>
        <time>2018-01-13T06:39:28.300000Z</time>
      </trkpt>
      <trkpt lat="35.947041829427086" lon="120.2167711046007">
        <ele>3</ele>
        <time>2018-01-13T06:39:32.300000Z</time>
      </trkpt>
      <trkpt lat="35.947193467881945" lon="120.2167298719618">
        <ele>3</ele>
        <time>2018-01-13T06:39:38.400000Z</time>
      </trkpt>
      <trkpt lat="35.94735758463542" lon="120.21667507595487">
        <ele>3</ele>
        <time>2018-01-13T06:39:44.400000Z</time>
      </trkpt>
      <trkpt lat="35.94747395833333" lon="120.21665093315973">
        <ele>3</ele>
        <time>2018-01-13T06:39:48.300000Z</time>
      </trkpt>
      <trkpt lat="35.94765435112847" lon="120.21661376953125">
        <ele>3</ele>
        <time>2018-01-13T06:39:55.300000Z</time>
      </trkpt>
      <trkpt lat="35.94773627387153" lon="120.2165966796875">
        <ele>3</ele>
        <time>2018-01-13T06:39:58.400000Z</time>
      </trkpt>
      <trkpt lat="35.94784450954861" lon="120.21657524956598">
        <ele>3</ele>
        <time>2018-01-13T06:40:02.400000Z</time>
      </trkpt>
      <trkpt lat="35.94802110460069" lon="120.2165207248264">
        <ele>3</ele>
        <time>2018-01-13T06:40:10.400000Z</time>
      </trkpt>
      <trkpt lat="35.9481898328993" lon="120.21649088541666">
        <ele>3</ele>
        <time>2018-01-13T06:40:16.400000Z</time>
      </trkpt>
      <trkpt lat="35.948316243489586" lon="120.21647650824653">
        <ele>3</ele>
        <time>2018-01-13T06:40:20.400000Z</time>
      </trkpt>
      <trkpt lat="35.948619791666665" lon="120.21639973958334">
        <ele>3</ele>
        <time>2018-01-13T06:40:31.300000Z</time>
      </trkpt>
      <trkpt lat="35.94873101128472" lon="120.21635470920138">
        <ele>3</ele>
        <time>2018-01-13T06:40:35.300000Z</time>
      </trkpt>
      <trkpt lat="35.948896484375" lon="120.21633653428819">
        <ele>3</ele>
        <time>2018-01-13T06:40:42.300000Z</time>
      </trkpt>
      <trkpt lat="35.9490234375" lon="120.21630723741319">
        <ele>3</ele>
        <time>2018-01-13T06:40:48.400000Z</time>
      </trkpt>
      <trkpt lat="35.94911349826389" lon="120.21625732421874">
        <ele>3</ele>
        <time>2018-01-13T06:40:52.400000Z</time>
      </trkpt>
      <trkpt lat="35.94941921657986" lon="120.21625162760417">
        <ele>4</ele>
        <time>2018-01-13T06:41:06.400000Z</time>
      </trkpt>
      <trkpt lat="35.94951199001736" lon="120.2162331814236">
        <ele>4</ele>
        <time>2018-01-13T06:41:09.400000Z</time>
      </trkpt>
      <trkpt lat="35.94975884331597" lon="120.21614230685763">
        <ele>3</ele>
        <time>2018-01-13T06:41:20.300000Z</time>
      </trkpt>
      <trkpt lat="35.94983181423611" lon="120.2160964626736">
        <ele>3</ele>
        <time>2018-01-13T06:41:23.400000Z</time>
      </trkpt>
      <trkpt lat="35.95001383463541" lon="120.21601752387153">
        <ele>4</ele>
        <time>2018-01-13T06:41:31.400000Z</time>
      </trkpt>
      <trkpt lat="35.95013319227431" lon="120.21600287543403">
        <ele>4</ele>
        <time>2018-01-13T06:41:35.400000Z</time>
      </trkpt>
      <trkpt lat="35.95028727213542" lon="120.2159800889757">
        <ele>3</ele>
        <time>2018-01-13T06:41:41.400000Z</time>
      </trkpt>
      <trkpt lat="35.95037055121528" lon="120.21596435546876">
        <ele>4</ele>
        <time>2018-01-13T06:41:44.400000Z</time>
      </trkpt>
      <trkpt lat="35.95116563585069" lon="120.21614284939236">
        <ele>3</ele>
        <time>2018-01-13T06:42:22.300000Z</time>
      </trkpt>
      <trkpt lat="35.951244303385415" lon="120.21611273871528">
        <ele>4</ele>
        <time>2018-01-13T06:42:25.300000Z</time>
      </trkpt>
      <trkpt lat="35.951571994357636" lon="120.21606635199653">
        <ele>3</ele>
        <time>2018-01-13T06:42:36.300000Z</time>
      </trkpt>
      <trkpt lat="35.95165256076389" lon="120.21603922526042">
        <ele>3</ele>
        <time>2018-01-13T06:42:39.400000Z</time>
      </trkpt>
      <trkpt lat="35.95181830512153" lon="120.21598497178819">
        <ele>3</ele>
        <time>2018-01-13T06:42:46.400000Z</time>
      </trkpt>
      <trkpt lat="35.95199354383681" lon="120.21593912760417">
        <ele>3</ele>
        <time>2018-01-13T06:42:59.200000Z</time>
      </trkpt>
      <trkpt lat="35.9520423719618" lon="120.21630750868056">
        <ele>3</ele>
        <time>2018-01-13T06:43:07.300000Z</time>
      </trkpt>
      <trkpt lat="35.952052951388886" lon="120.21640597873264">
        <ele>3</ele>
        <time>2018-01-13T06:43:10.400000Z</time>
      </trkpt>
      <trkpt lat="35.95206976996528" lon="120.21653130425348">
        <ele>3</ele>
        <time>2018-01-13T06:43:14.400000Z</time>
      </trkpt>
      <trkpt lat="35.952122395833335" lon="120.21672932942708">
        <ele>3</ele>
        <time>2018-01-13T06:43:21.400000Z</time>
      </trkpt>
      <trkpt lat="35.95214599609375" lon="120.21696940104167">
        <ele>3</ele>
        <time>2018-01-13T06:43:28.400000Z</time>
      </trkpt>
      <trkpt lat="35.952161458333336" lon="120.21709147135417">
        <ele>3</ele>
        <time>2018-01-13T06:43:32.400000Z</time>
      </trkpt>
      <trkpt lat="35.952212999131945" lon="120.2173681640625">
        <ele>3</ele>
        <time>2018-01-13T06:43:40.400000Z</time>
      </trkpt>
      <trkpt lat="35.95224772135417" lon="120.21745551215278">
        <ele>3</ele>
        <time>2018-01-13T06:43:43.400000Z</time>
      </trkpt>
      <trkpt lat="35.952289496527776" lon="120.21767415364583">
        <ele>3</ele>
        <time>2018-01-13T06:43:50.300000Z</time>
      </trkpt>
      <trkpt lat="35.95230767144097" lon="120.21781331380208">
        <ele>3</ele>
        <time>2018-01-13T06:43:54.300000Z</time>
      </trkpt>
      <trkpt lat="35.95236219618056" lon="120.21808159722222">
        <ele>3</ele>
        <time>2018-01-13T06:44:02.400000Z</time>
      </trkpt>
      <trkpt lat="35.95239529079861" lon="120.2181947157118">
        <ele>3</ele>
        <time>2018-01-13T06:44:06.400000Z</time>
      </trkpt>
      <trkpt lat="35.95247721354167" lon="120.21854546440973">
        <ele>3</ele>
        <time>2018-01-13T06:44:18.300000Z</time>
      </trkpt>
      <trkpt lat="35.952503255208335" lon="120.21863525390626">
        <ele>3</ele>
        <time>2018-01-13T06:44:21.300000Z</time>
      </trkpt>
      <trkpt lat="35.952527669270836" lon="120.21872856987848">
        <ele>3</ele>
        <time>2018-01-13T06:44:24.400000Z</time>
      </trkpt>
      <trkpt lat="35.95264892578125" lon="120.21904595269098">
        <ele>3</ele>
        <time>2018-01-13T06:44:34.300000Z</time>
      </trkpt>
      <trkpt lat="35.95266682942708" lon="120.219150390625">
        <ele>3</ele>
        <time>2018-01-13T06:44:38.300000Z</time>
      </trkpt>
      <trkpt lat="35.95268744574653" lon="120.21923095703124">
        <ele>3</ele>
        <time>2018-01-13T06:44:41.300000Z</time>
      </trkpt>
      <trkpt lat="35.95288899739583" lon="120.21930555555555">
        <ele>3</ele>
        <time>2018-01-13T06:44:51.300000Z</time>
      </trkpt>
      <trkpt lat="35.95296685112847" lon="120.2192578125">
        <ele>3</ele>
        <time>2018-01-13T06:44:54.400000Z</time>
      </trkpt>
      <trkpt lat="35.953152126736114" lon="120.21907090928819">
        <ele>3</ele>
        <time>2018-01-13T06:45:05.300000Z</time>
      </trkpt>
      <trkpt lat="35.9533021375868" lon="120.21907741970486">
        <ele>3</ele>
        <time>2018-01-13T06:45:12.300000Z</time>
      </trkpt>
      <trkpt lat="35.95346652560764" lon="120.2190904405382">
        <ele>3</ele>
        <time>2018-01-13T06:45:19.300000Z</time>
      </trkpt>
      <trkpt lat="35.95354031032986" lon="120.21907769097223">
        <ele>3</ele>
        <time>2018-01-13T06:45:22.400000Z</time>
      </trkpt>
      <trkpt lat="35.953778211805556" lon="120.21903293185764">
        <ele>3</ele>
        <time>2018-01-13T06:45:30.400000Z</time>
      </trkpt>
      <trkpt lat="35.95385715060764" lon="120.2190123155382">
        <ele>3</ele>
        <time>2018-01-13T06:45:33.400000Z</time>
      </trkpt>
      <trkpt lat="35.95403754340278" lon="120.21896701388889">
        <ele>3</ele>
        <time>2018-01-13T06:45:40.400000Z</time>
      </trkpt>
      <trkpt lat="35.95413302951389" lon="120.21894314236111">
        <ele>3</ele>
        <time>2018-01-13T06:45:44.400000Z</time>
      </trkpt>
      <trkpt lat="35.9542236328125" lon="120.21893093532987">
        <ele>3</ele>
        <time>2018-01-13T06:45:48.300000Z</time>
      </trkpt>
      <trkpt lat="35.95443549262153" lon="120.21888888888888">
        <ele>3</ele>
        <time>2018-01-13T06:45:56.400000Z</time>
      </trkpt>
      <trkpt lat="35.95454237196181" lon="120.21886393229167">
        <ele>3</ele>
        <time>2018-01-13T06:46:00.300000Z</time>
      </trkpt>
      <trkpt lat="35.954745279947915" lon="120.21880099826389">
        <ele>3</ele>
        <time>2018-01-13T06:46:07.400000Z</time>
      </trkpt>
      <trkpt lat="35.95484890407986" lon="120.21878336588541">
        <ele>3</ele>
        <time>2018-01-13T06:46:11.300000Z</time>
      </trkpt>
      <trkpt lat="35.95490831163195" lon="120.21876383463541">
        <ele>3</ele>
        <time>2018-01-13T06:46:14.300000Z</time>
      </trkpt>
      <trkpt lat="35.9550927734375" lon="120.21870985243055">
        <ele>3</ele>
        <time>2018-01-13T06:46:21.300000Z</time>
      </trkpt>
      <trkpt lat="35.955173611111114" lon="120.21868570963542">
        <ele>3</ele>
        <time>2018-01-13T06:46:24.400000Z</time>
      </trkpt>
      <trkpt lat="35.95532443576389" lon="120.21865152994792">
        <ele>3</ele>
        <time>2018-01-13T06:46:30.400000Z</time>
      </trkpt>
      <trkpt lat="35.95539794921875" lon="120.21862630208334">
        <ele>3</ele>
        <time>2018-01-13T06:46:33.400000Z</time>
      </trkpt>
      <trkpt lat="35.955501573350695" lon="120.21859619140625">
        <ele>3</ele>
        <time>2018-01-13T06:46:37.400000Z</time>
      </trkpt>
      <trkpt lat="35.95568820529514" lon="120.21855387369791">
        <ele>3</ele>
        <time>2018-01-13T06:46:44.300000Z</time>
      </trkpt>
      <trkpt lat="35.95580159505209" lon="120.21852945963542">
        <ele>3</ele>
        <time>2018-01-13T06:46:48.300000Z</time>
      </trkpt>
      <trkpt lat="35.955990397135416" lon="120.21839925130209">
        <ele>3</ele>
        <time>2018-01-13T06:46:57.400000Z</time>
      </trkpt>
      <trkpt lat="35.95599853515625" lon="120.21808865017361">
        <ele>3</ele>
        <time>2018-01-13T06:47:07.400000Z</time>
      </trkpt>
      <trkpt lat="35.955966525607636" lon="120.21799424913195">
        <ele>3</ele>
        <time>2018-01-13T06:47:10.400000Z</time>
      </trkpt>
      <trkpt lat="35.95592502170139" lon="120.2178781467014">
        <ele>3</ele>
        <time>2018-01-13T06:47:14.400000Z</time>
      </trkpt>
      <trkpt lat="35.955828993055555" lon="120.21767171223958">
        <ele>3</ele>
        <time>2018-01-13T06:47:22.400000Z</time>
      </trkpt>
      <trkpt lat="35.95577880859375" lon="120.21746826171875">
        <ele>3</ele>
        <time>2018-01-13T06:47:29.300000Z</time>
      </trkpt>
      <trkpt lat="35.95576307508681" lon="120.21737087673611">
        <ele>3</ele>
        <time>2018-01-13T06:47:32.400000Z</time>
      </trkpt>
      <trkpt lat="35.95571343315972" lon="120.21712185329861">
        <ele>3</ele>
        <time>2018-01-13T06:47:40.400000Z</time>
      </trkpt>
      <trkpt lat="35.955703125" lon="120.21702935112847">
        <ele>3</ele>
        <time>2018-01-13T06:47:43.400000Z</time>
      </trkpt>
      <trkpt lat="35.9556871202257" lon="120.21695421006945">
        <ele>3</ele>
        <time>2018-01-13T06:47:46.400000Z</time>
      </trkpt>
      <trkpt lat="35.95566569010417" lon="120.21671142578126">
        <ele>4</ele>
        <time>2018-01-13T06:47:53.400000Z</time>
      </trkpt>
      <trkpt lat="35.95565565321181" lon="120.21657552083333">
        <ele>3</ele>
        <time>2018-01-13T06:47:57.400000Z</time>
      </trkpt>
      <trkpt lat="35.95567301432292" lon="120.21644639756944">
        <ele>3</ele>
        <time>2018-01-13T06:48:04.400000Z</time>
      </trkpt>
      <trkpt lat="35.95572564019097" lon="120.21645046657986">
        <ele>3</ele>
        <time>2018-01-13T06:48:08.400000Z</time>
      </trkpt>
      <trkpt lat="35.9558544921875" lon="120.21629828559028">
        <ele>3</ele>
        <time>2018-01-13T06:48:15.400000Z</time>
      </trkpt>
      <trkpt lat="35.956075032552086" lon="120.21619113498264">
        <ele>3</ele>
        <time>2018-01-13T06:48:25.400000Z</time>
      </trkpt>
      <trkpt lat="35.95615288628472" lon="120.21619574652777">
        <ele>3</ele>
        <time>2018-01-13T06:48:28.400000Z</time>
      </trkpt>
      <trkpt lat="35.956341145833335" lon="120.21617567274305">
        <ele>3</ele>
        <time>2018-01-13T06:48:35.400000Z</time>
      </trkpt>
      <trkpt lat="35.95650282118056" lon="120.21615342881944">
        <ele>3</ele>
        <time>2018-01-13T06:48:42.400000Z</time>
      </trkpt>
      <trkpt lat="35.95657145182292" lon="120.21614284939236">
        <ele>3</ele>
        <time>2018-01-13T06:48:45.400000Z</time>
      </trkpt>
      <trkpt lat="35.956767849392364" lon="120.21607096354167">
        <ele>3</ele>
        <time>2018-01-13T06:48:53.400000Z</time>
      </trkpt>
      <trkpt lat="35.95710422092014" lon="120.21605550130208">
        <ele>3</ele>
        <time>2018-01-13T06:49:07.400000Z</time>
      </trkpt>
      <trkpt lat="35.957226019965276" lon="120.2160267469618">
        <ele>3</ele>
        <time>2018-01-13T06:49:15.400000Z</time>
      </trkpt>
      <trkpt lat="35.95725830078125" lon="120.21601643880209">
        <ele>3</ele>
        <time>2018-01-13T06:49:18.400000Z</time>
      </trkpt>
    </trkseg>
  </trk>
</gpx>