<?xml version="1.0" encoding="UTF-8"?>
<gpx xmlns="http://www.topografix.com/GPX/1/1" xmlns:gpxtpx="http://www.garmin.com/xmlschemas/TrackPointExtension/v1" xmlns:xsi="http://www.w3.org/2001/XMLSchema-instance" xsi:schemaLocation="http://www.topografix.com/GPX/1/1 http://www.topografix.com/GPX/1/1/gpx.xsd" version="1.1" creator="gpx.py -- https://github.com/tkrajina/gpxpy">
  <trk>
    <name>gpx from keep</name>
    <trkseg>
      <trkpt lat="35.957049424913194" lon="120.2150208875868">
        <time>2021-03-17T11:35:01.327000Z</time>
      </trkpt>
      <trkpt lat="35.95710150824653" lon="120.21501274956597">
        <time>2021-03-17T11:35:04.327000Z</time>
      </trkpt>
      <trkpt lat="35.95723741319444" lon="120.21502766927084">
        <time>2021-03-17T11:35:10.327000Z</time>
      </trkpt>
      <trkpt lat="35.95727430555556" lon="120.21502468532987">
        <time>2021-03-17T11:35:13.327000Z</time>
      </trkpt>
      <trkpt lat="35.95740044487847" lon="120.21500868055556">
        <time>2021-03-17T11:35:19.327000Z</time>
      </trkpt>
      <trkpt lat="35.95742133246528" lon="120.21500868055556">
        <time>2021-03-17T11:35:22.327000Z</time>
      </trkpt>
      <trkpt lat="35.95746527777778" lon="120.21498372395833">
        <time>2021-03-17T11:35:25.327000Z</time>
      </trkpt>
      <trkpt lat="35.95753336588542" lon="120.214970703125">
        <time>2021-03-17T11:35:28.327000Z</time>
      </trkpt>
      <trkpt lat="35.95773139105903" lon="120.21516710069444">
        <time>2021-03-17T11:35:46.327000Z</time>
      </trkpt>
      <trkpt lat="35.95770399305555" lon="120.2152818467882">
        <time>2021-03-17T11:35:52.327000Z</time>
      </trkpt>
      <trkpt lat="35.95779486762153" lon="120.21557047526042">
        <time>2021-03-17T11:36:01.327000Z</time>
      </trkpt>
      <trkpt lat="35.95779568142361" lon="120.21575873480903">
        <time>2021-03-17T11:36:07.327000Z</time>
      </trkpt>
      <trkpt lat="35.9577503797743" lon="120.2158287217882">
        <time>2021-03-17T11:36:13.327000Z</time>
      </trkpt>
      <trkpt lat="35.95771620008681" lon="120.21581488715277">
        <time>2021-03-17T11:36:16.327000Z</time>
      </trkpt>
      <trkpt lat="35.95765543619792" lon="120.21582356770833">
        <time>2021-03-17T11:36:19.327000Z</time>
      </trkpt>
      <trkpt lat="35.957356228298615" lon="120.2158957248264">
        <time>2021-03-17T11:36:34.327000Z</time>
      </trkpt>
      <trkpt lat="35.95729926215278" lon="120.21589762369791">
        <time>2021-03-17T11:36:37.327000Z</time>
      </trkpt>
      <trkpt lat="35.957135145399306" lon="120.21596245659723">
        <time>2021-03-17T11:36:43.327000Z</time>
      </trkpt>
      <trkpt lat="35.957051052517365" lon="120.21598741319444">
        <time>2021-03-17T11:36:46.327000Z</time>
      </trkpt>
      <trkpt lat="35.956988932291665" lon="120.21601996527778">
        <time>2021-03-17T11:36:49.327000Z</time>
      </trkpt>
      <trkpt lat="35.9567578125" lon="120.21606201171875">
        <time>2021-03-17T11:36:58.327000Z</time>
      </trkpt>
      <trkpt lat="35.956685655381946" lon="120.21608317057292">
        <time>2021-03-17T11:37:01.327000Z</time>
      </trkpt>
      <trkpt lat="35.956591796875" lon="120.21610785590278">
        <time>2021-03-17T11:37:04.327000Z</time>
      </trkpt>
      <trkpt lat="35.95615451388889" lon="120.21621663411459">
        <time>2021-03-17T11:37:22.327000Z</time>
      </trkpt>
      <trkpt lat="35.95604546440972" lon="120.21623643663195">
        <time>2021-03-17T11:37:28.327000Z</time>
      </trkpt>
      <trkpt lat="35.95600721571181" lon="120.21634223090278">
        <time>2021-03-17T11:37:34.327000Z</time>
      </trkpt>
      <trkpt lat="35.955968153211806" lon="120.21638617621528">
        <time>2021-03-17T11:37:40.327000Z</time>
      </trkpt>
      <trkpt lat="35.955960286458335" lon="120.21637532552083">
        <time>2021-03-17T11:37:43.327000Z</time>
      </trkpt>
      <trkpt lat="35.95594618055556" lon="120.21635823567708">
        <time>2021-03-17T11:37:46.327000Z</time>
      </trkpt>
      <trkpt lat="35.9559521484375" lon="120.21637315538194">
        <time>2021-03-17T11:37:49.327000Z</time>
      </trkpt>
      <trkpt lat="35.95596408420139" lon="120.21638834635417">
        <time>2021-03-17T11:37:52.327000Z</time>
      </trkpt>
      <trkpt lat="35.95596218532986" lon="120.21638916015625">
        <time>2021-03-17T11:37:55.327000Z</time>
      </trkpt>
      <trkpt lat="35.95593912760417" lon="120.21636121961805">
        <time>2021-03-17T11:37:58.327000Z</time>
      </trkpt>
      <trkpt lat="35.955768229166665" lon="120.21641899956597">
        <time>2021-03-17T11:38:10.327000Z</time>
      </trkpt>
      <trkpt lat="35.955769856770836" lon="120.21649386935763">
        <time>2021-03-17T11:38:13.327000Z</time>
      </trkpt>
      <trkpt lat="35.9557666015625" lon="120.2167431640625">
        <time>2021-03-17T11:38:22.327000Z</time>
      </trkpt>
      <trkpt lat="35.955769585503475" lon="120.21683783637152">
        <time>2021-03-17T11:38:25.327000Z</time>
      </trkpt>
      <trkpt lat="35.95578748914931" lon="120.2169189453125">
        <time>2021-03-17T11:38:28.327000Z</time>
      </trkpt>
      <trkpt lat="35.955791286892364" lon="120.21709038628472">
        <time>2021-03-17T11:38:34.327000Z</time>
      </trkpt>
      <trkpt lat="35.955816243489586" lon="120.21727213541666">
        <time>2021-03-17T11:38:40.327000Z</time>
      </trkpt>
      <trkpt lat="35.955858832465275" lon="120.21743760850694">
        <time>2021-03-17T11:38:46.327000Z</time>
      </trkpt>
      <trkpt lat="35.95587999131944" lon="120.21752414279514">
        <time>2021-03-17T11:38:49.327000Z</time>
      </trkpt>
      <trkpt lat="35.95590169270833" lon="120.21760823567708">
        <time>2021-03-17T11:38:52.327000Z</time>
      </trkpt>
      <trkpt lat="35.95599419487847" lon="120.21788140190972">
        <time>2021-03-17T11:39:01.327000Z</time>
      </trkpt>
      <trkpt lat="35.95602322048611" lon="120.21795735677084">
        <time>2021-03-17T11:39:04.327000Z</time>
      </trkpt>
      <trkpt lat="35.95604112413194" lon="120.218037109375">
        <time>2021-03-17T11:39:07.327000Z</time>
      </trkpt>
      <trkpt lat="35.95597249348958" lon="120.2184242078993">
        <time>2021-03-17T11:39:19.327000Z</time>
      </trkpt>
      <trkpt lat="35.95534532335069" lon="120.21866644965277">
        <time>2021-03-17T11:39:46.327000Z</time>
      </trkpt>
      <trkpt lat="35.95527126736111" lon="120.21868245442708">
        <time>2021-03-17T11:39:49.327000Z</time>
      </trkpt>
      <trkpt lat="35.95519992404514" lon="120.21869357638889">
        <time>2021-03-17T11:39:52.327000Z</time>
      </trkpt>
      <trkpt lat="35.95506293402778" lon="120.2187242296007">
        <time>2021-03-17T11:39:58.327000Z</time>
      </trkpt>
      <trkpt lat="35.95499186197917" lon="120.21875027126737">
        <time>2021-03-17T11:40:01.327000Z</time>
      </trkpt>
      <trkpt lat="35.95485785590278" lon="120.21878933376736">
        <time>2021-03-17T11:40:07.327000Z</time>
      </trkpt>
      <trkpt lat="35.954707845052084" lon="120.21877414279514">
        <time>2021-03-17T11:40:13.327000Z</time>
      </trkpt>
      <trkpt lat="35.95457356770833" lon="120.21881022135416">
        <time>2021-03-17T11:40:19.327000Z</time>
      </trkpt>
      <trkpt lat="35.95449761284722" lon="120.21883192274305">
        <time>2021-03-17T11:40:22.327000Z</time>
      </trkpt>
      <trkpt lat="35.954426812065975" lon="120.218837890625">
        <time>2021-03-17T11:40:25.327000Z</time>
      </trkpt>
      <trkpt lat="35.95424777560764" lon="120.21884494357639">
        <time>2021-03-17T11:40:31.327000Z</time>
      </trkpt>
      <trkpt lat="35.95416069878472" lon="120.21886393229167">
        <time>2021-03-17T11:40:34.327000Z</time>
      </trkpt>
      <trkpt lat="35.95408067491319" lon="120.21888699001737">
        <time>2021-03-17T11:40:37.327000Z</time>
      </trkpt>
      <trkpt lat="35.95390055338542" lon="120.21890869140626">
        <time>2021-03-17T11:40:43.327000Z</time>
      </trkpt>
      <trkpt lat="35.95372829861111" lon="120.21896484375">
        <time>2021-03-17T11:40:49.327000Z</time>
      </trkpt>
      <trkpt lat="35.95364230685764" lon="120.21900065104167">
        <time>2021-03-17T11:40:52.327000Z</time>
      </trkpt>
      <trkpt lat="35.953571506076386" lon="120.21901258680556">
        <time>2021-03-17T11:40:55.327000Z</time>
      </trkpt>
      <trkpt lat="35.95333116319444" lon="120.21903944227431">
        <time>2021-03-17T11:41:04.327000Z</time>
      </trkpt>
      <trkpt lat="35.95317816840278" lon="120.21898654513889">
        <time>2021-03-17T11:41:10.327000Z</time>
      </trkpt>
      <trkpt lat="35.95310709635417" lon="120.21893581814236">
        <time>2021-03-17T11:41:13.327000Z</time>
      </trkpt>
      <trkpt lat="35.953045518663195" lon="120.21889973958334">
        <time>2021-03-17T11:41:16.327000Z</time>
      </trkpt>
      <trkpt lat="35.952786187065975" lon="120.218193359375">
        <time>2021-03-17T11:41:43.327000Z</time>
      </trkpt>
      <trkpt lat="35.95275227864583" lon="120.21809950086805">
        <time>2021-03-17T11:41:46.327000Z</time>
      </trkpt>
      <trkpt lat="35.95272922092014" lon="120.21801079644098">
        <time>2021-03-17T11:41:49.327000Z</time>
      </trkpt>
      <trkpt lat="35.95271945529514" lon="120.21789225260417">
        <time>2021-03-17T11:41:55.327000Z</time>
      </trkpt>
      <trkpt lat="35.952701551649305" lon="120.21785129123263">
        <time>2021-03-17T11:41:58.327000Z</time>
      </trkpt>
      <trkpt lat="35.95269558376736" lon="120.2177845594618">
        <time>2021-03-17T11:42:01.327000Z</time>
      </trkpt>
      <trkpt lat="35.9526917860243" lon="120.2177503797743">
        <time>2021-03-17T11:42:04.327000Z</time>
      </trkpt>
      <trkpt lat="35.95268880208334" lon="120.21773057725694">
        <time>2021-03-17T11:42:07.327000Z</time>
      </trkpt>
      <trkpt lat="35.95267686631944" lon="120.21766981336806">
        <time>2021-03-17T11:42:10.327000Z</time>
      </trkpt>
      <trkpt lat="35.95265869140625" lon="120.21758707682292">
        <time>2021-03-17T11:42:16.327000Z</time>
      </trkpt>
      <trkpt lat="35.952654893663194" lon="120.21757188585069">
        <time>2021-03-17T11:42:19.327000Z</time>
      </trkpt>
      <trkpt lat="35.95264485677083" lon="120.21753797743055">
        <time>2021-03-17T11:42:22.327000Z</time>
      </trkpt>
      <trkpt lat="35.95263617621528" lon="120.21749403211805">
        <time>2021-03-17T11:42:25.327000Z</time>
      </trkpt>
      <trkpt lat="35.952610948350696" lon="120.21739827473958">
        <time>2021-03-17T11:42:28.327000Z</time>
      </trkpt>
      <trkpt lat="35.952581380208336" lon="120.2173025173611">
        <time>2021-03-17T11:42:31.327000Z</time>
      </trkpt>
      <trkpt lat="35.952541232638886" lon="120.2171421983507">
        <time>2021-03-17T11:42:37.327000Z</time>
      </trkpt>
      <trkpt lat="35.952533637152776" lon="120.21697943793403">
        <time>2021-03-17T11:42:43.327000Z</time>
      </trkpt>
      <trkpt lat="35.952533637152776" lon="120.21690673828125">
        <time>2021-03-17T11:42:46.327000Z</time>
      </trkpt>
      <trkpt lat="35.95246826171875" lon="120.21663302951389">
        <time>2021-03-17T11:42:55.327000Z</time>
      </trkpt>
      <trkpt lat="35.95243950737847" lon="120.21642768012153">
        <time>2021-03-17T11:43:01.327000Z</time>
      </trkpt>
      <trkpt lat="35.95242431640625" lon="120.21624620225694">
        <time>2021-03-17T11:43:07.327000Z</time>
      </trkpt>
      <trkpt lat="35.95239176432292" lon="120.21605143229166">
        <time>2021-03-17T11:43:13.327000Z</time>
      </trkpt>
      <trkpt lat="35.95236789279514" lon="120.21594970703126">
        <time>2021-03-17T11:43:16.327000Z</time>
      </trkpt>
      <trkpt lat="35.952335069444445" lon="120.21585096571181">
        <time>2021-03-17T11:43:19.327000Z</time>
      </trkpt>
      <trkpt lat="35.95229220920139" lon="120.2156627061632">
        <time>2021-03-17T11:43:25.327000Z</time>
      </trkpt>
      <trkpt lat="35.95225857204861" lon="120.21557698567709">
        <time>2021-03-17T11:43:28.327000Z</time>
      </trkpt>
      <trkpt lat="35.95224039713542" lon="120.21551974826389">
        <time>2021-03-17T11:43:31.327000Z</time>
      </trkpt>
      <trkpt lat="35.952183430989585" lon="120.21543918185763">
        <time>2021-03-17T11:43:37.327000Z</time>
      </trkpt>
      <trkpt lat="35.952166612413194" lon="120.2154421657986">
        <time>2021-03-17T11:43:43.327000Z</time>
      </trkpt>
      <trkpt lat="35.95216254340278" lon="120.21544108072916">
        <time>2021-03-17T11:43:46.327000Z</time>
      </trkpt>
      <trkpt lat="35.952161458333336" lon="120.21543918185763">
        <time>2021-03-17T11:43:49.327000Z</time>
      </trkpt>
      <trkpt lat="35.95216037326389" lon="120.21543701171875">
        <time>2021-03-17T11:43:52.327000Z</time>
      </trkpt>
      <trkpt lat="35.95215359157986" lon="120.21542805989583">
        <time>2021-03-17T11:43:55.327000Z</time>
      </trkpt>
      <trkpt lat="35.95211642795139" lon="120.21538113064236">
        <time>2021-03-17T11:44:01.327000Z</time>
      </trkpt>
      <trkpt lat="35.95196343315972" lon="120.21548394097222">
        <time>2021-03-17T11:44:07.327000Z</time>
      </trkpt>
      <trkpt lat="35.95190511067708" lon="120.21552680121528">
        <time>2021-03-17T11:44:10.327000Z</time>
      </trkpt>
      <trkpt lat="35.95184624565972" lon="120.21559271918403">
        <time>2021-03-17T11:44:13.327000Z</time>
      </trkpt>
      <trkpt lat="35.95171115451389" lon="120.21565565321181">
        <time>2021-03-17T11:44:19.327000Z</time>
      </trkpt>
      <trkpt lat="35.95166124131944" lon="120.21568223741319">
        <time>2021-03-17T11:44:22.327000Z</time>
      </trkpt>
      <trkpt lat="35.951580946180556" lon="120.21570421006945">
        <time>2021-03-17T11:44:25.327000Z</time>
      </trkpt>
      <trkpt lat="35.951368001302086" lon="120.21576741536458">
        <time>2021-03-17T11:44:34.327000Z</time>
      </trkpt>
      <trkpt lat="35.95129204644097" lon="120.21577501085069">
        <time>2021-03-17T11:44:37.327000Z</time>
      </trkpt>
      <trkpt lat="35.951191948784725" lon="120.215791015625">
        <time>2021-03-17T11:44:40.327000Z</time>
      </trkpt>
      <trkpt lat="35.95097954644097" lon="120.21582899305555">
        <time>2021-03-17T11:44:46.327000Z</time>
      </trkpt>
      <trkpt lat="35.95090467664931" lon="120.21584011501736">
        <time>2021-03-17T11:44:49.327000Z</time>
      </trkpt>
      <trkpt lat="35.950772569444446" lon="120.21586886935764">
        <time>2021-03-17T11:44:55.327000Z</time>
      </trkpt>
      <trkpt lat="35.950724555121525" lon="120.21587782118056">
        <time>2021-03-17T11:44:58.327000Z</time>
      </trkpt>
      <trkpt lat="35.950520290798615" lon="120.21595947265625">
        <time>2021-03-17T11:45:07.327000Z</time>
      </trkpt>
      <trkpt lat="35.950382486979166" lon="120.2159974500868">
        <time>2021-03-17T11:45:13.327000Z</time>
      </trkpt>
      <trkpt lat="35.95031032986111" lon="120.21601264105902">
        <time>2021-03-17T11:45:16.327000Z</time>
      </trkpt>
      <trkpt lat="35.95024251302083" lon="120.21602756076389">
        <time>2021-03-17T11:45:19.327000Z</time>
      </trkpt>
      <trkpt lat="35.95005913628472" lon="120.21609917534722">
        <time>2021-03-17T11:45:28.327000Z</time>
      </trkpt>
      <trkpt lat="35.94997802734375" lon="120.21609917534722">
        <time>2021-03-17T11:45:31.327000Z</time>
      </trkpt>
      <trkpt lat="35.94990614149305" lon="120.21611518012153">
        <time>2021-03-17T11:45:34.327000Z</time>
      </trkpt>
      <trkpt lat="35.94971381293403" lon="120.21623209635416">
        <time>2021-03-17T11:45:43.327000Z</time>
      </trkpt>
      <trkpt lat="35.949412706163194" lon="120.21638346354166">
        <time>2021-03-17T11:45:55.327000Z</time>
      </trkpt>
      <trkpt lat="35.949237467447915" lon="120.21640950520833">
        <time>2021-03-17T11:46:01.327000Z</time>
      </trkpt>
      <trkpt lat="35.94906765407986" lon="120.21639431423611">
        <time>2021-03-17T11:46:07.327000Z</time>
      </trkpt>
      <trkpt lat="35.948819444444446" lon="120.216396484375">
        <time>2021-03-17T11:46:16.327000Z</time>
      </trkpt>
      <trkpt lat="35.94864637586806" lon="120.2164271375868">
        <time>2021-03-17T11:46:22.327000Z</time>
      </trkpt>
      <trkpt lat="35.948560384114586" lon="120.21644721137153">
        <time>2021-03-17T11:46:25.327000Z</time>
      </trkpt>
      <trkpt lat="35.94848524305556" lon="120.21646321614584">
        <time>2021-03-17T11:46:28.327000Z</time>
      </trkpt>
      <trkpt lat="35.948377278645836" lon="120.21647026909723">
        <time>2021-03-17T11:46:34.327000Z</time>
      </trkpt>
      <trkpt lat="35.94832845052083" lon="120.21646402994791">
        <time>2021-03-17T11:46:37.327000Z</time>
      </trkpt>
      <trkpt lat="35.94824408637153" lon="120.21647026909723">
        <time>2021-03-17T11:46:43.327000Z</time>
      </trkpt>
      <trkpt lat="35.94818305121528" lon="120.21649224175347">
        <time>2021-03-17T11:46:46.327000Z</time>
      </trkpt>
      <trkpt lat="35.948148057725696" lon="120.21652180989584">
        <time>2021-03-17T11:46:49.327000Z</time>
      </trkpt>
      <trkpt lat="35.94811116536459" lon="120.21650309244792">
        <time>2021-03-17T11:46:52.327000Z</time>
      </trkpt>
      <trkpt lat="35.94805908203125" lon="120.21652587890625">
        <time>2021-03-17T11:46:55.327000Z</time>
      </trkpt>
      <trkpt lat="35.9479931640625" lon="120.2165407986111">
        <time>2021-03-17T11:46:58.327000Z</time>
      </trkpt>
      <trkpt lat="35.947856174045135" lon="120.21655598958333">
        <time>2021-03-17T11:47:04.327000Z</time>
      </trkpt>
      <trkpt lat="35.947795138888885" lon="120.21656901041666">
        <time>2021-03-17T11:47:07.327000Z</time>
      </trkpt>
      <trkpt lat="35.94772406684028" lon="120.21657199435764">
        <time>2021-03-17T11:47:10.327000Z</time>
      </trkpt>
      <trkpt lat="35.94757866753472" lon="120.21658393012153">
        <time>2021-03-17T11:47:16.327000Z</time>
      </trkpt>
      <trkpt lat="35.94751871744791" lon="120.21659586588542">
        <time>2021-03-17T11:47:19.327000Z</time>
      </trkpt>
      <trkpt lat="35.94733289930556" lon="120.21665852864584">
        <time>2021-03-17T11:47:25.327000Z</time>
      </trkpt>
      <trkpt lat="35.94724066840278" lon="120.2166845703125">
        <time>2021-03-17T11:47:28.327000Z</time>
      </trkpt>
      <trkpt lat="35.94707356770834" lon="120.21674235026042">
        <time>2021-03-17T11:47:34.327000Z</time>
      </trkpt>
      <trkpt lat="35.946988389756946" lon="120.21676920572916">
        <time>2021-03-17T11:47:37.327000Z</time>
      </trkpt>
      <trkpt lat="35.94681342230903" lon="120.21680908203125">
        <time>2021-03-17T11:47:43.327000Z</time>
      </trkpt>
      <trkpt lat="35.94673719618056" lon="120.21683512369792">
        <time>2021-03-17T11:47:46.327000Z</time>
      </trkpt>
      <trkpt lat="35.94665635850694" lon="120.21686008029513">
        <time>2021-03-17T11:47:49.327000Z</time>
      </trkpt>
      <trkpt lat="35.94650119357639" lon="120.21689290364583">
        <time>2021-03-17T11:47:55.327000Z</time>
      </trkpt>
      <trkpt lat="35.94642035590278" lon="120.2169308810764">
        <time>2021-03-17T11:47:58.327000Z</time>
      </trkpt>
      <trkpt lat="35.94632893880208" lon="120.21697482638889">
        <time>2021-03-17T11:48:01.327000Z</time>
      </trkpt>
      <trkpt lat="35.946185980902776" lon="120.21704047309028">
        <time>2021-03-17T11:48:07.327000Z</time>
      </trkpt>
      <trkpt lat="35.946131998697915" lon="120.21707139756944">
        <time>2021-03-17T11:48:10.327000Z</time>
      </trkpt>
      <trkpt lat="35.94607774522569" lon="120.21710530598958">
        <time>2021-03-17T11:48:13.327000Z</time>
      </trkpt>
      <trkpt lat="35.946024576822914" lon="120.21713324652778">
        <time>2021-03-17T11:48:16.327000Z</time>
      </trkpt>
      <trkpt lat="35.945927734375" lon="120.21717122395833">
        <time>2021-03-17T11:48:22.327000Z</time>
      </trkpt>
      <trkpt lat="35.94587158203125" lon="120.21720187717014">
        <time>2021-03-17T11:48:25.327000Z</time>
      </trkpt>
      <trkpt lat="35.94578559027778" lon="120.21722493489584">
        <time>2021-03-17T11:48:31.327000Z</time>
      </trkpt>
      <trkpt lat="35.94570936414931" lon="120.21725206163194">
        <time>2021-03-17T11:48:34.327000Z</time>
      </trkpt>
      <trkpt lat="35.945636393229165" lon="120.21726996527778">
        <time>2021-03-17T11:48:37.327000Z</time>
      </trkpt>
      <trkpt lat="35.945568305121526" lon="120.21729682074653">
        <time>2021-03-17T11:48:40.327000Z</time>
      </trkpt>
      <trkpt lat="35.945439453125" lon="120.2173486328125">
        <time>2021-03-17T11:48:46.327000Z</time>
      </trkpt>
      <trkpt lat="35.945369194878474" lon="120.21737874348959">
        <time>2021-03-17T11:48:49.327000Z</time>
      </trkpt>
      <trkpt lat="35.9452992078993" lon="120.21741238064236">
        <time>2021-03-17T11:48:52.327000Z</time>
      </trkpt>
      <trkpt lat="35.94518202039931" lon="120.21745442708334">
        <time>2021-03-17T11:48:58.327000Z</time>
      </trkpt>
      <trkpt lat="35.945126139322916" lon="120.21748942057292">
        <time>2021-03-17T11:49:01.327000Z</time>
      </trkpt>
      <trkpt lat="35.944981011284725" lon="120.21754204644097">
        <time>2021-03-17T11:49:07.327000Z</time>
      </trkpt>
      <trkpt lat="35.94490695529514" lon="120.21758219401042">
        <time>2021-03-17T11:49:10.327000Z</time>
      </trkpt>
      <trkpt lat="35.944849989149304" lon="120.21761881510416">
        <time>2021-03-17T11:49:13.327000Z</time>
      </trkpt>
      <trkpt lat="35.944706488715276" lon="120.21768581814236">
        <time>2021-03-17T11:49:19.327000Z</time>
      </trkpt>
      <trkpt lat="35.944583604600695" lon="120.21773356119792">
        <time>2021-03-17T11:49:25.327000Z</time>
      </trkpt>
      <trkpt lat="35.94452365451389" lon="120.21778564453125">
        <time>2021-03-17T11:49:28.327000Z</time>
      </trkpt>
      <trkpt lat="35.94446072048611" lon="120.21782633463542">
        <time>2021-03-17T11:49:31.327000Z</time>
      </trkpt>
      <trkpt lat="35.94432834201389" lon="120.21791802300348">
        <time>2021-03-17T11:49:37.327000Z</time>
      </trkpt>
      <trkpt lat="35.94419108072917" lon="120.21798800998263">
        <time>2021-03-17T11:49:43.327000Z</time>
      </trkpt>
      <trkpt lat="35.94411512586805" lon="120.21801106770833">
        <time>2021-03-17T11:49:46.327000Z</time>
      </trkpt>
      <trkpt lat="35.94405300564236" lon="120.21803087022569">
        <time>2021-03-17T11:49:49.327000Z</time>
      </trkpt>
      <trkpt lat="35.94393012152778" lon="120.2180349392361">
        <time>2021-03-17T11:49:55.327000Z</time>
      </trkpt>
      <trkpt lat="35.94386501736111" lon="120.2180287000868">
        <time>2021-03-17T11:49:58.327000Z</time>
      </trkpt>
      <trkpt lat="35.943766004774304" lon="120.21794108072916">
        <time>2021-03-17T11:50:04.327000Z</time>
      </trkpt>
      <trkpt lat="35.94372829861111" lon="120.21788736979167">
        <time>2021-03-17T11:50:07.327000Z</time>
      </trkpt>
      <trkpt lat="35.94357530381944" lon="120.21779134114583">
        <time>2021-03-17T11:50:16.327000Z</time>
      </trkpt>
      <trkpt lat="35.94352023654514" lon="120.21774956597223">
        <time>2021-03-17T11:50:19.327000Z</time>
      </trkpt>
      <trkpt lat="35.943310004340276" lon="120.21723958333334">
        <time>2021-03-17T11:50:43.327000Z</time>
      </trkpt>
      <trkpt lat="35.94326578776042" lon="120.2171750217014">
        <time>2021-03-17T11:50:46.327000Z</time>
      </trkpt>
      <trkpt lat="35.94322916666667" lon="120.21710394965278">
        <time>2021-03-17T11:50:49.327000Z</time>
      </trkpt>
      <trkpt lat="35.94310818142361" lon="120.2169544813368">
        <time>2021-03-17T11:50:55.327000Z</time>
      </trkpt>
      <trkpt lat="35.94303738064236" lon="120.2168896484375">
        <time>2021-03-17T11:50:58.327000Z</time>
      </trkpt>
      <trkpt lat="35.942935655381945" lon="120.2166370985243">
        <time>2021-03-17T11:51:07.327000Z</time>
      </trkpt>
      <trkpt lat="35.94293267144097" lon="120.21660834418402">
        <time>2021-03-17T11:51:10.327000Z</time>
      </trkpt>
      <trkpt lat="35.942911783854164" lon="120.21648166232639">
        <time>2021-03-17T11:51:16.327000Z</time>
      </trkpt>
      <trkpt lat="35.94286078559028" lon="120.21647569444444">
        <time>2021-03-17T11:51:19.327000Z</time>
      </trkpt>
      <trkpt lat="35.942728949652775" lon="120.21625515407986">
        <time>2021-03-17T11:51:28.327000Z</time>
      </trkpt>
      <trkpt lat="35.942684190538195" lon="120.21618516710069">
        <time>2021-03-17T11:51:31.327000Z</time>
      </trkpt>
      <trkpt lat="35.94260226779514" lon="120.21605577256945">
        <time>2021-03-17T11:51:37.327000Z</time>
      </trkpt>
      <trkpt lat="35.9425572374132" lon="120.21600477430556">
        <time>2021-03-17T11:51:40.327000Z</time>
      </trkpt>
      <trkpt lat="35.94250244140625" lon="120.21595865885416">
        <time>2021-03-17T11:51:43.327000Z</time>
      </trkpt>
      <trkpt lat="35.94241861979167" lon="120.2158468967014">
        <time>2021-03-17T11:51:49.327000Z</time>
      </trkpt>
      <trkpt lat="35.942386610243055" lon="120.21577419704862">
        <time>2021-03-17T11:51:52.327000Z</time>
      </trkpt>
      <trkpt lat="35.942332899305555" lon="120.2156138780382">
        <time>2021-03-17T11:51:58.327000Z</time>
      </trkpt>
      <trkpt lat="35.94230685763889" lon="120.21553683810764">
        <time>2021-03-17T11:52:01.327000Z</time>
      </trkpt>
      <trkpt lat="35.94223117404514" lon="120.21539306640625">
        <time>2021-03-17T11:52:07.327000Z</time>
      </trkpt>
      <trkpt lat="35.94218505859375" lon="120.21531928168403">
        <time>2021-03-17T11:52:10.327000Z</time>
      </trkpt>
      <trkpt lat="35.9421533203125" lon="120.21524848090277">
        <time>2021-03-17T11:52:13.327000Z</time>
      </trkpt>
      <trkpt lat="35.94207546657986" lon="120.21508083767361">
        <time>2021-03-17T11:52:19.327000Z</time>
      </trkpt>
      <trkpt lat="35.94203857421875" lon="120.21500027126736">
        <time>2021-03-17T11:52:22.327000Z</time>
      </trkpt>
      <trkpt lat="35.941990559895835" lon="120.21491644965278">
        <time>2021-03-17T11:52:25.327000Z</time>
      </trkpt>
      <trkpt lat="35.941708170572916" lon="120.21452718098958">
        <time>2021-03-17T11:52:43.327000Z</time>
      </trkpt>
      <trkpt lat="35.941486273871526" lon="120.21430989583334">
        <time>2021-03-17T11:52:55.327000Z</time>
      </trkpt>
      <trkpt lat="35.94120171440972" lon="120.21404568142361">
        <time>2021-03-17T11:53:10.327000Z</time>
      </trkpt>
      <trkpt lat="35.941058756510415" lon="120.21400444878472">
        <time>2021-03-17T11:53:16.327000Z</time>
      </trkpt>
      <trkpt lat="35.9409876844618" lon="120.21400851779514">
        <time>2021-03-17T11:53:19.327000Z</time>
      </trkpt>
      <trkpt lat="35.94090766059028" lon="120.21400960286458">
        <time>2021-03-17T11:53:22.327000Z</time>
      </trkpt>
      <trkpt lat="35.94075249565972" lon="120.21404134114583">
        <time>2021-03-17T11:53:28.327000Z</time>
      </trkpt>
      <trkpt lat="35.94063530815972" lon="120.21414496527778">
        <time>2021-03-17T11:53:34.327000Z</time>
      </trkpt>
      <trkpt lat="35.940592176649304" lon="120.21421793619791">
        <time>2021-03-17T11:53:37.327000Z</time>
      </trkpt>
      <trkpt lat="35.940556098090276" lon="120.21429768880208">
        <time>2021-03-17T11:53:40.327000Z</time>
      </trkpt>
      <trkpt lat="35.94049180772569" lon="120.21446316189235">
        <time>2021-03-17T11:53:46.327000Z</time>
      </trkpt>
      <trkpt lat="35.940477973090275" lon="120.21454535590277">
        <time>2021-03-17T11:53:49.327000Z</time>
      </trkpt>
      <trkpt lat="35.94023166232639" lon="120.21468180338542">
        <time>2021-03-17T11:54:01.327000Z</time>
      </trkpt>
      <trkpt lat="35.94015462239583" lon="120.21469563802083">
        <time>2021-03-17T11:54:04.327000Z</time>
      </trkpt>
      <trkpt lat="35.940082194010415" lon="120.21470567491319">
        <time>2021-03-17T11:54:07.327000Z</time>
      </trkpt>
      <trkpt lat="35.93988335503472" lon="120.21478841145833">
        <time>2021-03-17T11:54:16.327000Z</time>
      </trkpt>
      <trkpt lat="35.93981635199653" lon="120.21481228298612">
        <time>2021-03-17T11:54:19.327000Z</time>
      </trkpt>
      <trkpt lat="35.939692925347224" lon="120.21486707899305">
        <time>2021-03-17T11:54:25.327000Z</time>
      </trkpt>
      <trkpt lat="35.93962700737847" lon="120.21489203559028">
        <time>2021-03-17T11:54:28.327000Z</time>
      </trkpt>
      <trkpt lat="35.93954996744792" lon="120.21491319444445">
        <time>2021-03-17T11:54:31.327000Z</time>
      </trkpt>
      <trkpt lat="35.93940592447917" lon="120.21494520399305">
        <time>2021-03-17T11:54:37.327000Z</time>
      </trkpt>
      <trkpt lat="35.93934109157986" lon="120.21496392144097">
        <time>2021-03-17T11:54:40.327000Z</time>
      </trkpt>
      <trkpt lat="35.93927164713541" lon="120.21499186197917">
        <time>2021-03-17T11:54:43.327000Z</time>
      </trkpt>
      <trkpt lat="35.939128689236114" lon="120.21504177517362">
        <time>2021-03-17T11:54:49.327000Z</time>
      </trkpt>
      <trkpt lat="35.93904866536458" lon="120.21507161458334">
        <time>2021-03-17T11:54:52.327000Z</time>
      </trkpt>
      <trkpt lat="35.93890163845486" lon="120.21509847005208">
        <time>2021-03-17T11:54:58.327000Z</time>
      </trkpt>
      <trkpt lat="35.93883056640625" lon="120.21509847005208">
        <time>2021-03-17T11:55:01.327000Z</time>
      </trkpt>
      <trkpt lat="35.93875352647569" lon="120.21510064019097">
        <time>2021-03-17T11:55:04.327000Z</time>
      </trkpt>
      <trkpt lat="35.9385986328125" lon="120.21509168836806">
        <time>2021-03-17T11:55:10.327000Z</time>
      </trkpt>
      <trkpt lat="35.93855848524306" lon="120.21508870442709">
        <time>2021-03-17T11:55:13.327000Z</time>
      </trkpt>
      <trkpt lat="35.93845458984375" lon="120.21507758246528">
        <time>2021-03-17T11:55:16.327000Z</time>
      </trkpt>
      <trkpt lat="35.93830756293403" lon="120.21502549913194">
        <time>2021-03-17T11:55:22.327000Z</time>
      </trkpt>
      <trkpt lat="35.93823160807292" lon="120.21498996310764">
        <time>2021-03-17T11:55:25.327000Z</time>
      </trkpt>
      <trkpt lat="35.93817355685764" lon="120.21495686848958">
        <time>2021-03-17T11:55:28.327000Z</time>
      </trkpt>
      <trkpt lat="35.93802490234375" lon="120.21487603081597">
        <time>2021-03-17T11:55:34.327000Z</time>
      </trkpt>
      <trkpt lat="35.93795681423611" lon="120.21482204861111">
        <time>2021-03-17T11:55:37.327000Z</time>
      </trkpt>
      <trkpt lat="35.93788764105903" lon="120.21477430555555">
        <time>2021-03-17T11:55:40.327000Z</time>
      </trkpt>
      <trkpt lat="35.937755805121526" lon="120.2146693250868">
        <time>2021-03-17T11:55:46.327000Z</time>
      </trkpt>
      <trkpt lat="35.93769911024305" lon="120.21462754991319">
        <time>2021-03-17T11:55:49.327000Z</time>
      </trkpt>
      <trkpt lat="35.93763210720486" lon="120.21458468967013">
        <time>2021-03-17T11:55:52.327000Z</time>
      </trkpt>
      <trkpt lat="35.93750895182291" lon="120.21449083116319">
        <time>2021-03-17T11:55:58.327000Z</time>
      </trkpt>
      <trkpt lat="35.937451985677086" lon="120.21443223741319">
        <time>2021-03-17T11:56:01.327000Z</time>
      </trkpt>
      <trkpt lat="35.9373912217882" lon="120.21437717013889">
        <time>2021-03-17T11:56:04.327000Z</time>
      </trkpt>
      <trkpt lat="35.937266438802084" lon="120.21427951388888">
        <time>2021-03-17T11:56:10.327000Z</time>
      </trkpt>
      <trkpt lat="35.93721028645833" lon="120.21424560546875">
        <time>2021-03-17T11:56:13.327000Z</time>
      </trkpt>
      <trkpt lat="35.9371533203125" lon="120.21419270833333">
        <time>2021-03-17T11:56:16.327000Z</time>
      </trkpt>
      <trkpt lat="35.93703450520833" lon="120.21408908420139">
        <time>2021-03-17T11:56:22.327000Z</time>
      </trkpt>
      <trkpt lat="35.93698866102431" lon="120.21402804904514">
        <time>2021-03-17T11:56:25.327000Z</time>
      </trkpt>
      <trkpt lat="35.936930609809025" lon="120.21397922092014">
        <time>2021-03-17T11:56:28.327000Z</time>
      </trkpt>
      <trkpt lat="35.936816948784724" lon="120.2138755967882">
        <time>2021-03-17T11:56:34.327000Z</time>
      </trkpt>
      <trkpt lat="35.936756727430556" lon="120.21381157769098">
        <time>2021-03-17T11:56:37.327000Z</time>
      </trkpt>
      <trkpt lat="35.93668294270833" lon="120.21373589409723">
        <time>2021-03-17T11:56:40.327000Z</time>
      </trkpt>
      <trkpt lat="35.936535101996526" lon="120.2135910373264">
        <time>2021-03-17T11:56:46.327000Z</time>
      </trkpt>
      <trkpt lat="35.9364710828993" lon="120.21352837456597">
        <time>2021-03-17T11:56:49.327000Z</time>
      </trkpt>
      <trkpt lat="35.936412217881944" lon="120.21345540364584">
        <time>2021-03-17T11:56:52.327000Z</time>
      </trkpt>
      <trkpt lat="35.93630126953125" lon="120.21330485026041">
        <time>2021-03-17T11:56:58.327000Z</time>
      </trkpt>
      <trkpt lat="35.93624647352431" lon="120.21323404947917">
        <time>2021-03-17T11:57:01.327000Z</time>
      </trkpt>
      <trkpt lat="35.93620062934028" lon="120.21318033854166">
        <time>2021-03-17T11:57:04.327000Z</time>
      </trkpt>
      <trkpt lat="35.936107584635415" lon="120.21306559244792">
        <time>2021-03-17T11:57:10.327000Z</time>
      </trkpt>
      <trkpt lat="35.936062554253475" lon="120.21298366970485">
        <time>2021-03-17T11:57:13.327000Z</time>
      </trkpt>
      <trkpt lat="35.93601806640625" lon="120.21291286892361">
        <time>2021-03-17T11:57:16.327000Z</time>
      </trkpt>
      <trkpt lat="35.935925835503475" lon="120.2127783203125">
        <time>2021-03-17T11:57:22.327000Z</time>
      </trkpt>
      <trkpt lat="35.935878092447915" lon="120.21272026909722">
        <time>2021-03-17T11:57:25.327000Z</time>
      </trkpt>
      <trkpt lat="35.935832248263885" lon="120.2126576063368">
        <time>2021-03-17T11:57:28.327000Z</time>
      </trkpt>
      <trkpt lat="35.93573920355903" lon="120.21253770616319">
        <time>2021-03-17T11:57:34.327000Z</time>
      </trkpt>
      <trkpt lat="35.93570149739583" lon="120.21249186197916">
        <time>2021-03-17T11:57:37.327000Z</time>
      </trkpt>
      <trkpt lat="35.935635579427085" lon="120.21240804036458">
        <time>2021-03-17T11:57:40.327000Z</time>
      </trkpt>
      <trkpt lat="35.935519748263886" lon="120.21228244357638">
        <time>2021-03-17T11:57:46.327000Z</time>
      </trkpt>
      <trkpt lat="35.93546088324653" lon="120.21211697048611">
        <time>2021-03-17T11:57:52.327000Z</time>
      </trkpt>
      <trkpt lat="35.93543212890625" lon="120.21202826605902">
        <time>2021-03-17T11:57:55.327000Z</time>
      </trkpt>
      <trkpt lat="35.935367024739584" lon="120.21189236111111">
        <time>2021-03-17T11:58:01.327000Z</time>
      </trkpt>
      <trkpt lat="35.93528537326389" lon="120.2117578125">
        <time>2021-03-17T11:58:07.327000Z</time>
      </trkpt>
      <trkpt lat="35.93524034288195" lon="120.21168294270834">
        <time>2021-03-17T11:58:10.327000Z</time>
      </trkpt>
      <trkpt lat="35.93517957899306" lon="120.21154025607639">
        <time>2021-03-17T11:58:16.327000Z</time>
      </trkpt>
      <trkpt lat="35.935137803819444" lon="120.2114586046007">
        <time>2021-03-17T11:58:19.327000Z</time>
      </trkpt>
      <trkpt lat="35.93510986328125" lon="120.21137478298611">
        <time>2021-03-17T11:58:22.327000Z</time>
      </trkpt>
      <trkpt lat="35.93503011067708" lon="120.21119113498264">
        <time>2021-03-17T11:58:28.327000Z</time>
      </trkpt>
      <trkpt lat="35.93498806423611" lon="120.21110324435764">
        <time>2021-03-17T11:58:31.327000Z</time>
      </trkpt>
      <trkpt lat="35.93494845920139" lon="120.21103054470485">
        <time>2021-03-17T11:58:34.327000Z</time>
      </trkpt>
      <trkpt lat="35.93487060546875" lon="120.21083116319444">
        <time>2021-03-17T11:58:40.327000Z</time>
      </trkpt>
      <trkpt lat="35.93481960720486" lon="120.21073947482638">
        <time>2021-03-17T11:58:43.327000Z</time>
      </trkpt>
      <trkpt lat="35.9347767469618" lon="120.2106556532118">
        <time>2021-03-17T11:58:46.327000Z</time>
      </trkpt>
      <trkpt lat="35.934695909288195" lon="120.21048502604167">
        <time>2021-03-17T11:58:52.327000Z</time>
      </trkpt>
      <trkpt lat="35.934650336371526" lon="120.21039930555555">
        <time>2021-03-17T11:58:55.327000Z</time>
      </trkpt>
      <trkpt lat="35.93461507161458" lon="120.2103125">
        <time>2021-03-17T11:58:58.327000Z</time>
      </trkpt>
      <trkpt lat="35.93453748914931" lon="120.21015787760416">
        <time>2021-03-17T11:59:04.327000Z</time>
      </trkpt>
      <trkpt lat="35.934503580729164" lon="120.21007595486111">
        <time>2021-03-17T11:59:07.327000Z</time>
      </trkpt>
      <trkpt lat="35.93446370442708" lon="120.21000325520833">
        <time>2021-03-17T11:59:10.327000Z</time>
      </trkpt>
      <trkpt lat="35.934392632378476" lon="120.20985649956597">
        <time>2021-03-17T11:59:16.327000Z</time>
      </trkpt>
      <trkpt lat="35.934351942274304" lon="120.20978000217013">
        <time>2021-03-17T11:59:19.327000Z</time>
      </trkpt>
      <trkpt lat="35.93430989583333" lon="120.20970404730903">
        <time>2021-03-17T11:59:22.327000Z</time>
      </trkpt>
      <trkpt lat="35.9342431640625" lon="120.20955647786458">
        <time>2021-03-17T11:59:28.327000Z</time>
      </trkpt>
      <trkpt lat="35.93420925564236" lon="120.20948567708334">
        <time>2021-03-17T11:59:31.327000Z</time>
      </trkpt>
      <trkpt lat="35.9341455078125" lon="120.20931233723958">
        <time>2021-03-17T11:59:37.327000Z</time>
      </trkpt>
      <trkpt lat="35.93412679036458" lon="120.20922824435763">
        <time>2021-03-17T11:59:40.327000Z</time>
      </trkpt>
      <trkpt lat="35.93411078559028" lon="120.20915147569444">
        <time>2021-03-17T11:59:43.327000Z</time>
      </trkpt>
      <trkpt lat="35.93408908420139" lon="120.20900119357638">
        <time>2021-03-17T11:59:49.327000Z</time>
      </trkpt>
      <trkpt lat="35.93407199435764" lon="120.20892903645833">
        <time>2021-03-17T11:59:52.327000Z</time>
      </trkpt>
      <trkpt lat="35.9340673828125" lon="120.20884223090277">
        <time>2021-03-17T11:59:55.327000Z</time>
      </trkpt>
      <trkpt lat="35.93405354817708" lon="120.20863498263888">
        <time>2021-03-17T12:00:01.327000Z</time>
      </trkpt>
      <trkpt lat="35.93405354817708" lon="120.20853705512152">
        <time>2021-03-17T12:00:04.327000Z</time>
      </trkpt>
      <trkpt lat="35.93404188368056" lon="120.20845052083334">
        <time>2021-03-17T12:00:07.327000Z</time>
      </trkpt>
      <trkpt lat="35.93402208116319" lon="120.20827907986111">
        <time>2021-03-17T12:00:13.327000Z</time>
      </trkpt>
      <trkpt lat="35.93400010850694" lon="120.20820231119792">
        <time>2021-03-17T12:00:16.327000Z</time>
      </trkpt>
      <trkpt lat="35.93393636067708" lon="120.20804036458334">
        <time>2021-03-17T12:00:22.327000Z</time>
      </trkpt>
      <trkpt lat="35.9338755967882" lon="120.20785617404513">
        <time>2021-03-17T12:00:28.327000Z</time>
      </trkpt>
      <trkpt lat="35.93384385850695" lon="120.20776529947916">
        <time>2021-03-17T12:00:31.327000Z</time>
      </trkpt>
      <trkpt lat="35.93381998697917" lon="120.20767659505208">
        <time>2021-03-17T12:00:34.327000Z</time>
      </trkpt>
      <trkpt lat="35.93376329210069" lon="120.20747314453125">
        <time>2021-03-17T12:00:40.327000Z</time>
      </trkpt>
      <trkpt lat="35.93374050564236" lon="120.20736138237847">
        <time>2021-03-17T12:00:43.327000Z</time>
      </trkpt>
      <trkpt lat="35.93372341579861" lon="120.20726453993055">
        <time>2021-03-17T12:00:46.327000Z</time>
      </trkpt>
      <trkpt lat="35.933695746527775" lon="120.20709526909722">
        <time>2021-03-17T12:00:52.327000Z</time>
      </trkpt>
      <trkpt lat="35.9336781141493" lon="120.20700141059028">
        <time>2021-03-17T12:00:55.327000Z</time>
      </trkpt>
      <trkpt lat="35.93366997612847" lon="120.20690266927083">
        <time>2021-03-17T12:00:58.327000Z</time>
      </trkpt>
      <trkpt lat="35.93364122178819" lon="120.20671006944444">
        <time>2021-03-17T12:01:04.327000Z</time>
      </trkpt>
      <trkpt lat="35.93357259114583" lon="120.20652452256944">
        <time>2021-03-17T12:01:10.327000Z</time>
      </trkpt>
      <trkpt lat="35.93352593315972" lon="120.20644287109376">
        <time>2021-03-17T12:01:13.327000Z</time>
      </trkpt>
      <trkpt lat="35.93347683376736" lon="120.20635416666667">
        <time>2021-03-17T12:01:16.327000Z</time>
      </trkpt>
      <trkpt lat="35.93337320963542" lon="120.20620632595487">
        <time>2021-03-17T12:01:22.327000Z</time>
      </trkpt>
      <trkpt lat="35.93331217447917" lon="120.20612277560764">
        <time>2021-03-17T12:01:25.327000Z</time>
      </trkpt>
      <trkpt lat="35.933177354600694" lon="120.2059792751736">
        <time>2021-03-17T12:01:31.327000Z</time>
      </trkpt>
      <trkpt lat="35.932977701822914" lon="120.205703125">
        <time>2021-03-17T12:01:43.327000Z</time>
      </trkpt>
      <trkpt lat="35.93294704861111" lon="120.2056201171875">
        <time>2021-03-17T12:01:46.327000Z</time>
      </trkpt>
      <trkpt lat="35.93291585286458" lon="120.2055322265625">
        <time>2021-03-17T12:01:49.327000Z</time>
      </trkpt>
      <trkpt lat="35.93287027994791" lon="120.20535671657986">
        <time>2021-03-17T12:01:55.327000Z</time>
      </trkpt>
      <trkpt lat="35.932848578559025" lon="120.20525499131945">
        <time>2021-03-17T12:01:58.327000Z</time>
      </trkpt>
      <trkpt lat="35.93283989800347" lon="120.2051513671875">
        <time>2021-03-17T12:02:01.327000Z</time>
      </trkpt>
      <trkpt lat="35.93280300564236" lon="120.20496500651042">
        <time>2021-03-17T12:02:07.327000Z</time>
      </trkpt>
      <trkpt lat="35.93280734592014" lon="120.20478651258681">
        <time>2021-03-17T12:02:13.327000Z</time>
      </trkpt>
      <trkpt lat="35.93289360894097" lon="120.20463107638889">
        <time>2021-03-17T12:02:22.327000Z</time>
      </trkpt>
      <trkpt lat="35.932941623263886" lon="120.20457112630208">
        <time>2021-03-17T12:02:28.327000Z</time>
      </trkpt>
      <trkpt lat="35.9330677625868" lon="120.20446614583334">
        <time>2021-03-17T12:06:10.327000Z</time>
      </trkpt>
      <trkpt lat="35.93308376736111" lon="120.20445421006944">
        <time>2021-03-17T12:06:13.327000Z</time>
      </trkpt>
      <trkpt lat="35.93310818142361" lon="120.20433783637152">
        <time>2021-03-17T12:06:16.327000Z</time>
      </trkpt>
      <trkpt lat="35.93296983506944" lon="120.20368543836805">
        <time>2021-03-17T12:06:37.327000Z</time>
      </trkpt>
      <trkpt lat="35.93280083550347" lon="120.20363878038195">
        <time>2021-03-17T12:06:43.327000Z</time>
      </trkpt>
      <trkpt lat="35.93262396918403" lon="120.20362358940972">
        <time>2021-03-17T12:06:49.327000Z</time>
      </trkpt>
      <trkpt lat="35.93242621527778" lon="120.203408203125">
        <time>2021-03-17T12:07:01.327000Z</time>
      </trkpt>
      <trkpt lat="35.932398546006944" lon="120.20333740234375">
        <time>2021-03-17T12:07:04.327000Z</time>
      </trkpt>
      <trkpt lat="35.93238145616319" lon="120.20323567708333">
        <time>2021-03-17T12:07:07.327000Z</time>
      </trkpt>
      <trkpt lat="35.932230360243054" lon="120.20277126736111">
        <time>2021-03-17T12:07:22.327000Z</time>
      </trkpt>
      <trkpt lat="35.93215169270833" lon="120.20257866753472">
        <time>2021-03-17T12:07:28.327000Z</time>
      </trkpt>
      <trkpt lat="35.932109917534724" lon="120.20247287326389">
        <time>2021-03-17T12:07:31.327000Z</time>
      </trkpt>
      <trkpt lat="35.93203125" lon="120.20226236979167">
        <time>2021-03-17T12:07:37.327000Z</time>
      </trkpt>
      <trkpt lat="35.93200737847222" lon="120.20215874565972">
        <time>2021-03-17T12:07:40.327000Z</time>
      </trkpt>
      <trkpt lat="35.93186170789931" lon="120.20181884765626">
        <time>2021-03-17T12:07:52.327000Z</time>
      </trkpt>
      <trkpt lat="35.9318359375" lon="120.20171820746528">
        <time>2021-03-17T12:07:55.327000Z</time>
      </trkpt>
      <trkpt lat="35.931812608506945" lon="120.20145290798611">
        <time>2021-03-17T12:08:04.327000Z</time>
      </trkpt>
      <trkpt lat="35.931872016059025" lon="120.20103298611112">
        <time>2021-03-17T12:08:16.327000Z</time>
      </trkpt>
      <trkpt lat="35.93191460503472" lon="120.20072292751736">
        <time>2021-03-17T12:08:25.327000Z</time>
      </trkpt>
      <trkpt lat="35.93194281684028" lon="120.20062147352431">
        <time>2021-03-17T12:08:28.327000Z</time>
      </trkpt>
      <trkpt lat="35.932040201822915" lon="120.20037706163194">
        <time>2021-03-17T12:08:37.327000Z</time>
      </trkpt>
      <trkpt lat="35.932108289930554" lon="120.20032307942708">
        <time>2021-03-17T12:08:40.327000Z</time>
      </trkpt>
      <trkpt lat="35.93218044704861" lon="120.20027913411458">
        <time>2021-03-17T12:08:43.327000Z</time>
      </trkpt>
      <trkpt lat="35.93236056857639" lon="120.20015272352431">
        <time>2021-03-17T12:08:55.327000Z</time>
      </trkpt>
      <trkpt lat="35.932323676215276" lon="120.20015869140624">
        <time>2021-03-17T12:08:58.327000Z</time>
      </trkpt>
      <trkpt lat="35.93218343098958" lon="120.20030327690972">
        <time>2021-03-17T12:09:04.327000Z</time>
      </trkpt>
      <trkpt lat="35.93213731553819" lon="120.20036187065972">
        <time>2021-03-17T12:09:07.327000Z</time>
      </trkpt>
      <trkpt lat="35.93190266927083" lon="120.20069607204861">
        <time>2021-03-17T12:09:22.327000Z</time>
      </trkpt>
      <trkpt lat="35.931888563368055" lon="120.20078586154514">
        <time>2021-03-17T12:09:25.327000Z</time>
      </trkpt>
      <trkpt lat="35.93187635633681" lon="120.20086751302084">
        <time>2021-03-17T12:09:28.327000Z</time>
      </trkpt>
      <trkpt lat="35.931872016059025" lon="120.20106309678819">
        <time>2021-03-17T12:09:34.327000Z</time>
      </trkpt>
      <trkpt lat="35.93187228732639" lon="120.20153374565972">
        <time>2021-03-17T12:09:49.327000Z</time>
      </trkpt>
      <trkpt lat="35.93193766276042" lon="120.20183892144097">
        <time>2021-03-17T12:10:01.327000Z</time>
      </trkpt>
      <trkpt lat="35.932116156684025" lon="120.2022496202257">
        <time>2021-03-17T12:10:16.327000Z</time>
      </trkpt>
      <trkpt lat="35.932140028211805" lon="120.20233534071181">
        <time>2021-03-17T12:10:19.327000Z</time>
      </trkpt>
      <trkpt lat="35.93216796875" lon="120.20242784288195">
        <time>2021-03-17T12:10:22.327000Z</time>
      </trkpt>
      <trkpt lat="35.93220947265625" lon="120.20259982638889">
        <time>2021-03-17T12:10:28.327000Z</time>
      </trkpt>
      <trkpt lat="35.93222629123264" lon="120.20270155164931">
        <time>2021-03-17T12:10:31.327000Z</time>
      </trkpt>
      <trkpt lat="35.932245279947914" lon="120.20280381944444">
        <time>2021-03-17T12:10:34.327000Z</time>
      </trkpt>
      <trkpt lat="35.93230712890625" lon="120.2030064561632">
        <time>2021-03-17T12:10:40.327000Z</time>
      </trkpt>
      <trkpt lat="35.932346733940975" lon="120.2031019422743">
        <time>2021-03-17T12:10:43.327000Z</time>
      </trkpt>
      <trkpt lat="35.93237982855903" lon="120.2031968858507">
        <time>2021-03-17T12:10:46.327000Z</time>
      </trkpt>
      <trkpt lat="35.93241644965278" lon="120.20335747612847">
        <time>2021-03-17T12:10:52.327000Z</time>
      </trkpt>
      <trkpt lat="35.93245632595486" lon="120.20344021267361">
        <time>2021-03-17T12:10:55.327000Z</time>
      </trkpt>
      <trkpt lat="35.9326158311632" lon="120.20361463758681">
        <time>2021-03-17T12:11:04.327000Z</time>
      </trkpt>
      <trkpt lat="35.93300862630208" lon="120.20396077473958">
        <time>2021-03-17T12:11:22.327000Z</time>
      </trkpt>
      <trkpt lat="35.93303521050347" lon="120.20416395399306">
        <time>2021-03-17T12:11:28.327000Z</time>
      </trkpt>
      <trkpt lat="35.93302001953125" lon="120.20427273220486">
        <time>2021-03-17T12:11:31.327000Z</time>
      </trkpt>
      <trkpt lat="35.93297878689236" lon="120.20447238498264">
        <time>2021-03-17T12:11:37.327000Z</time>
      </trkpt>
      <trkpt lat="35.93290662977431" lon="120.20463677300347">
        <time>2021-03-17T12:11:43.327000Z</time>
      </trkpt>
      <trkpt lat="35.932849934895835" lon="120.2049679904514">
        <time>2021-03-17T12:11:55.327000Z</time>
      </trkpt>
      <trkpt lat="35.93289740668403" lon="120.20529405381944">
        <time>2021-03-17T12:12:04.327000Z</time>
      </trkpt>
      <trkpt lat="35.93291612413194" lon="120.20539388020833">
        <time>2021-03-17T12:12:07.327000Z</time>
      </trkpt>
      <trkpt lat="35.932933213975694" lon="120.20548963758681">
        <time>2021-03-17T12:12:10.327000Z</time>
      </trkpt>
      <trkpt lat="35.9329820421007" lon="120.20566813151042">
        <time>2021-03-17T12:12:16.327000Z</time>
      </trkpt>
      <trkpt lat="35.933032769097224" lon="120.20575276692708">
        <time>2021-03-17T12:12:19.327000Z</time>
      </trkpt>
      <trkpt lat="35.93308159722222" lon="120.2058314344618">
        <time>2021-03-17T12:12:22.327000Z</time>
      </trkpt>
      <trkpt lat="35.93317654079861" lon="120.20596327039931">
        <time>2021-03-17T12:12:28.327000Z</time>
      </trkpt>
      <trkpt lat="35.93323649088541" lon="120.20603081597223">
        <time>2021-03-17T12:12:31.327000Z</time>
      </trkpt>
      <trkpt lat="35.93329020182291" lon="120.20609293619792">
        <time>2021-03-17T12:12:34.327000Z</time>
      </trkpt>
      <trkpt lat="35.933390299479164" lon="120.20622748480903">
        <time>2021-03-17T12:12:40.327000Z</time>
      </trkpt>
      <trkpt lat="35.93345377604167" lon="120.20630533854167">
        <time>2021-03-17T12:12:43.327000Z</time>
      </trkpt>
      <trkpt lat="35.93353976779514" lon="120.20646185980902">
        <time>2021-03-17T12:12:49.327000Z</time>
      </trkpt>
      <trkpt lat="35.933567708333335" lon="120.20652859157985">
        <time>2021-03-17T12:12:52.327000Z</time>
      </trkpt>
      <trkpt lat="35.933643391927085" lon="120.20679606119792">
        <time>2021-03-17T12:13:01.327000Z</time>
      </trkpt>
      <trkpt lat="35.93366916232639" lon="120.20688883463542">
        <time>2021-03-17T12:13:04.327000Z</time>
      </trkpt>
      <trkpt lat="35.93369194878472" lon="120.20695149739583">
        <time>2021-03-17T12:13:07.327000Z</time>
      </trkpt>
      <trkpt lat="35.93373074001736" lon="120.20715983072917">
        <time>2021-03-17T12:13:13.327000Z</time>
      </trkpt>
      <trkpt lat="35.933741590711804" lon="120.20725477430555">
        <time>2021-03-17T12:13:16.327000Z</time>
      </trkpt>
      <trkpt lat="35.933749457465275" lon="120.20735053168403">
        <time>2021-03-17T12:13:19.327000Z</time>
      </trkpt>
      <trkpt lat="35.93376437717014" lon="120.20753390842015">
        <time>2021-03-17T12:13:25.327000Z</time>
      </trkpt>
      <trkpt lat="35.93377495659722" lon="120.20762369791667">
        <time>2021-03-17T12:13:28.327000Z</time>
      </trkpt>
      <trkpt lat="35.934010145399306" lon="120.20822102864584">
        <time>2021-03-17T12:13:49.327000Z</time>
      </trkpt>
      <trkpt lat="35.93405924479167" lon="120.20831570095486">
        <time>2021-03-17T12:13:52.327000Z</time>
      </trkpt>
      <trkpt lat="35.9341259765625" lon="120.20850830078125">
        <time>2021-03-17T12:13:58.327000Z</time>
      </trkpt>
      <trkpt lat="35.93413058810764" lon="120.20860405815972">
        <time>2021-03-17T12:14:01.327000Z</time>
      </trkpt>
      <trkpt lat="35.93415662977431" lon="120.20938991970486">
        <time>2021-03-17T12:14:25.327000Z</time>
      </trkpt>
      <trkpt lat="35.934231228298614" lon="120.20955837673611">
        <time>2021-03-17T12:14:31.327000Z</time>
      </trkpt>
      <trkpt lat="35.93434814453125" lon="120.20980495876736">
        <time>2021-03-17T12:14:40.327000Z</time>
      </trkpt>
      <trkpt lat="35.93438883463541" lon="120.20987467447917">
        <time>2021-03-17T12:14:43.327000Z</time>
      </trkpt>
      <trkpt lat="35.93443467881944" lon="120.20994439019097">
        <time>2021-03-17T12:14:46.327000Z</time>
      </trkpt>
      <trkpt lat="35.93450954861111" lon="120.21010308159723">
        <time>2021-03-17T12:14:52.327000Z</time>
      </trkpt>
      <trkpt lat="35.934535590277775" lon="120.21016981336805">
        <time>2021-03-17T12:14:55.327000Z</time>
      </trkpt>
      <trkpt lat="35.93456841362847" lon="120.21024169921876">
        <time>2021-03-17T12:14:58.327000Z</time>
      </trkpt>
      <trkpt lat="35.93463107638889" lon="120.21042914496527">
        <time>2021-03-17T12:15:04.327000Z</time>
      </trkpt>
      <trkpt lat="35.934666883680556" lon="120.21053005642361">
        <time>2021-03-17T12:15:07.327000Z</time>
      </trkpt>
      <trkpt lat="35.93476155598958" lon="120.2107044813368">
        <time>2021-03-17T12:15:13.327000Z</time>
      </trkpt>
      <trkpt lat="35.9348046875" lon="120.21079020182292">
        <time>2021-03-17T12:15:16.327000Z</time>
      </trkpt>
      <trkpt lat="35.9348583984375" lon="120.21086805555555">
        <time>2021-03-17T12:15:19.327000Z</time>
      </trkpt>
      <trkpt lat="35.9349462890625" lon="120.21102159288195">
        <time>2021-03-17T12:15:25.327000Z</time>
      </trkpt>
      <trkpt lat="35.934977213541664" lon="120.21110243055556">
        <time>2021-03-17T12:15:28.327000Z</time>
      </trkpt>
      <trkpt lat="35.935008138020834" lon="120.2111990017361">
        <time>2021-03-17T12:15:31.327000Z</time>
      </trkpt>
      <trkpt lat="35.93509494357639" lon="120.21138075086806">
        <time>2021-03-17T12:15:37.327000Z</time>
      </trkpt>
      <trkpt lat="35.93512044270833" lon="120.21146755642361">
        <time>2021-03-17T12:15:40.327000Z</time>
      </trkpt>
      <trkpt lat="35.93515055338542" lon="120.21153835720486">
        <time>2021-03-17T12:15:43.327000Z</time>
      </trkpt>
      <trkpt lat="35.93520941840278" lon="120.21169406467014">
        <time>2021-03-17T12:15:49.327000Z</time>
      </trkpt>
      <trkpt lat="35.93524820963542" lon="120.21176161024306">
        <time>2021-03-17T12:15:52.327000Z</time>
      </trkpt>
      <trkpt lat="35.93527940538195" lon="120.2118185763889">
        <time>2021-03-17T12:15:55.327000Z</time>
      </trkpt>
      <trkpt lat="35.93538899739583" lon="120.21198920355903">
        <time>2021-03-17T12:16:07.327000Z</time>
      </trkpt>
      <trkpt lat="35.93545708550347" lon="120.21208794487848">
        <time>2021-03-17T12:16:13.327000Z</time>
      </trkpt>
      <trkpt lat="35.93549587673611" lon="120.21215657552084">
        <time>2021-03-17T12:16:16.327000Z</time>
      </trkpt>
      <trkpt lat="35.935535753038195" lon="120.21223551432291">
        <time>2021-03-17T12:16:19.327000Z</time>
      </trkpt>
      <trkpt lat="35.93558268229167" lon="120.2123033311632">
        <time>2021-03-17T12:16:22.327000Z</time>
      </trkpt>
      <trkpt lat="35.935679524739584" lon="120.21244520399306">
        <time>2021-03-17T12:16:28.327000Z</time>
      </trkpt>
      <trkpt lat="35.93585123697917" lon="120.21262966579862">
        <time>2021-03-17T12:16:37.327000Z</time>
      </trkpt>
      <trkpt lat="35.93590630425347" lon="120.21269341362847">
        <time>2021-03-17T12:16:40.327000Z</time>
      </trkpt>
      <trkpt lat="35.935948079427085" lon="120.21275933159723">
        <time>2021-03-17T12:16:43.327000Z</time>
      </trkpt>
      <trkpt lat="35.93605197482639" lon="120.2129296875">
        <time>2021-03-17T12:16:49.327000Z</time>
      </trkpt>
      <trkpt lat="35.936099717881945" lon="120.21301242404513">
        <time>2021-03-17T12:16:52.327000Z</time>
      </trkpt>
      <trkpt lat="35.936153700086805" lon="120.21310546875">
        <time>2021-03-17T12:16:55.327000Z</time>
      </trkpt>
      <trkpt lat="35.936275499131945" lon="120.21325981987847">
        <time>2021-03-17T12:17:01.327000Z</time>
      </trkpt>
      <trkpt lat="35.93632839626736" lon="120.21333279079862">
        <time>2021-03-17T12:17:04.327000Z</time>
      </trkpt>
      <trkpt lat="35.93638047960069" lon="120.21340766059028">
        <time>2021-03-17T12:17:07.327000Z</time>
      </trkpt>
      <trkpt lat="35.93649522569444" lon="120.21354248046875">
        <time>2021-03-17T12:17:13.327000Z</time>
      </trkpt>
      <trkpt lat="35.93655300564236" lon="120.21358913845486">
        <time>2021-03-17T12:17:16.327000Z</time>
      </trkpt>
      <trkpt lat="35.93666178385417" lon="120.21371473524306">
        <time>2021-03-17T12:17:22.327000Z</time>
      </trkpt>
      <trkpt lat="35.93671576605903" lon="120.21378445095486">
        <time>2021-03-17T12:17:25.327000Z</time>
      </trkpt>
      <trkpt lat="35.936824544270834" lon="120.21390028211806">
        <time>2021-03-17T12:17:31.327000Z</time>
      </trkpt>
      <trkpt lat="35.93688666449653" lon="120.21394124348959">
        <time>2021-03-17T12:17:34.327000Z</time>
      </trkpt>
      <trkpt lat="35.93699761284722" lon="120.21404893663194">
        <time>2021-03-17T12:17:40.327000Z</time>
      </trkpt>
      <trkpt lat="35.93705647786458" lon="120.21411865234376">
        <time>2021-03-17T12:17:43.327000Z</time>
      </trkpt>
      <trkpt lat="35.93720133463542" lon="120.21424153645833">
        <time>2021-03-17T12:17:49.327000Z</time>
      </trkpt>
      <trkpt lat="35.93726236979167" lon="120.21429036458333">
        <time>2021-03-17T12:17:52.327000Z</time>
      </trkpt>
      <trkpt lat="35.93733425564236" lon="120.21434217664931">
        <time>2021-03-17T12:17:55.327000Z</time>
      </trkpt>
      <trkpt lat="35.937451171875" lon="120.21442030164931">
        <time>2021-03-17T12:18:01.327000Z</time>
      </trkpt>
      <trkpt lat="35.9375160047743" lon="120.21446695963542">
        <time>2021-03-17T12:18:04.327000Z</time>
      </trkpt>
      <trkpt lat="35.93758192274306" lon="120.21451985677083">
        <time>2021-03-17T12:18:07.327000Z</time>
      </trkpt>
      <trkpt lat="35.937718098958335" lon="120.21462754991319">
        <time>2021-03-17T12:18:13.327000Z</time>
      </trkpt>
      <trkpt lat="35.937784830729164" lon="120.21467230902778">
        <time>2021-03-17T12:18:16.327000Z</time>
      </trkpt>
      <trkpt lat="35.937847764756945" lon="120.21472737630208">
        <time>2021-03-17T12:18:19.327000Z</time>
      </trkpt>
      <trkpt lat="35.93797281901042" lon="120.21480007595486">
        <time>2021-03-17T12:18:25.327000Z</time>
      </trkpt>
      <trkpt lat="35.93810980902778" lon="120.21488118489583">
        <time>2021-03-17T12:18:31.327000Z</time>
      </trkpt>
      <trkpt lat="35.93817979600694" lon="120.214921875">
        <time>2021-03-17T12:18:34.327000Z</time>
      </trkpt>
      <trkpt lat="35.93825547960069" lon="120.2149609375">
        <time>2021-03-17T12:18:37.327000Z</time>
      </trkpt>
      <trkpt lat="35.9383935546875" lon="120.21503146701389">
        <time>2021-03-17T12:18:43.327000Z</time>
      </trkpt>
      <trkpt lat="35.93847547743056" lon="120.21505154079861">
        <time>2021-03-17T12:18:46.327000Z</time>
      </trkpt>
      <trkpt lat="35.93863742404514" lon="120.21507866753473">
        <time>2021-03-17T12:18:52.327000Z</time>
      </trkpt>
      <trkpt lat="35.93871148003472" lon="120.2150697157118">
        <time>2021-03-17T12:18:55.327000Z</time>
      </trkpt>
      <trkpt lat="35.9387744140625" lon="120.21507649739583">
        <time>2021-03-17T12:18:58.327000Z</time>
      </trkpt>
      <trkpt lat="35.93891872829861" lon="120.21508355034722">
        <time>2021-03-17T12:19:04.327000Z</time>
      </trkpt>
      <trkpt lat="35.93899169921875" lon="120.21506673177083">
        <time>2021-03-17T12:19:07.327000Z</time>
      </trkpt>
      <trkpt lat="35.93905680338542" lon="120.21505154079861">
        <time>2021-03-17T12:19:10.327000Z</time>
      </trkpt>
      <trkpt lat="35.93921169704861" lon="120.2150328233507">
        <time>2021-03-17T12:19:16.327000Z</time>
      </trkpt>
      <trkpt lat="35.93937581380208" lon="120.21498779296876">
        <time>2021-03-17T12:19:22.327000Z</time>
      </trkpt>
      <trkpt lat="35.939542100694446" lon="120.21494303385417">
        <time>2021-03-17T12:19:28.327000Z</time>
      </trkpt>
      <trkpt lat="35.93961995442708" lon="120.21492106119791">
        <time>2021-03-17T12:19:31.327000Z</time>
      </trkpt>
      <trkpt lat="35.93976291232639" lon="120.21488308376736">
        <time>2021-03-17T12:19:37.327000Z</time>
      </trkpt>
      <trkpt lat="35.93983317057292" lon="120.21486707899305">
        <time>2021-03-17T12:19:40.327000Z</time>
      </trkpt>
      <trkpt lat="35.939906412760415" lon="120.21484429253472">
        <time>2021-03-17T12:19:43.327000Z</time>
      </trkpt>
      <trkpt lat="35.94006130642361" lon="120.21478732638889">
        <time>2021-03-17T12:19:49.327000Z</time>
      </trkpt>
      <trkpt lat="35.94014133029514" lon="120.21476372612847">
        <time>2021-03-17T12:19:52.327000Z</time>
      </trkpt>
      <trkpt lat="35.94021430121528" lon="120.21474066840278">
        <time>2021-03-17T12:19:55.327000Z</time>
      </trkpt>
      <trkpt lat="35.940340711805554" lon="120.21469265407985">
        <time>2021-03-17T12:20:01.327000Z</time>
      </trkpt>
      <trkpt lat="35.94048773871528" lon="120.21455430772569">
        <time>2021-03-17T12:20:10.327000Z</time>
      </trkpt>
      <trkpt lat="35.94049994574653" lon="120.21445719401042">
        <time>2021-03-17T12:20:13.327000Z</time>
      </trkpt>
      <trkpt lat="35.940511067708336" lon="120.21437337239583">
        <time>2021-03-17T12:20:16.327000Z</time>
      </trkpt>
      <trkpt lat="35.9407945421007" lon="120.21399169921875">
        <time>2021-03-17T12:22:10.327000Z</time>
      </trkpt>
      <trkpt lat="35.94086371527778" lon="120.21396755642361">
        <time>2021-03-17T12:22:13.327000Z</time>
      </trkpt>
      <trkpt lat="35.94099473741319" lon="120.21393283420139">
        <time>2021-03-17T12:22:19.327000Z</time>
      </trkpt>
      <trkpt lat="35.941204698350695" lon="120.21397162543403">
        <time>2021-03-17T12:22:28.327000Z</time>
      </trkpt>
      <trkpt lat="35.941385633680554" lon="120.21414822048611">
        <time>2021-03-17T12:22:37.327000Z</time>
      </trkpt>
      <trkpt lat="35.94142849392361" lon="120.21422200520833">
        <time>2021-03-17T12:22:40.327000Z</time>
      </trkpt>
      <trkpt lat="35.94169053819444" lon="120.21434163411459">
        <time>2021-03-17T12:22:52.327000Z</time>
      </trkpt>
      <trkpt lat="35.94177734375" lon="120.21433675130208">
        <time>2021-03-17T12:22:55.327000Z</time>
      </trkpt>
      <trkpt lat="35.94185546875" lon="120.21433485243055">
        <time>2021-03-17T12:22:58.327000Z</time>
      </trkpt>
      <trkpt lat="35.94214029947916" lon="120.21432590060763">
        <time>2021-03-17T12:23:07.327000Z</time>
      </trkpt>
      <trkpt lat="35.94222927517361" lon="120.21431369357639">
        <time>2021-03-17T12:23:10.327000Z</time>
      </trkpt>
      <trkpt lat="35.942423773871525" lon="120.21425103081597">
        <time>2021-03-17T12:23:16.327000Z</time>
      </trkpt>
      <trkpt lat="35.942524685329865" lon="120.2142013888889">
        <time>2021-03-17T12:23:19.327000Z</time>
      </trkpt>
      <trkpt lat="35.94283284505208" lon="120.21409152560764">
        <time>2021-03-17T12:23:31.327000Z</time>
      </trkpt>
      <trkpt lat="35.94290391710069" lon="120.21408745659723">
        <time>2021-03-17T12:23:34.327000Z</time>
      </trkpt>
      <trkpt lat="35.942988823784724" lon="120.21406358506944">
        <time>2021-03-17T12:23:37.327000Z</time>
      </trkpt>
      <trkpt lat="35.94325113932292" lon="120.21400689019097">
        <time>2021-03-17T12:23:46.327000Z</time>
      </trkpt>
      <trkpt lat="35.94334228515625" lon="120.2139919704861">
        <time>2021-03-17T12:23:49.327000Z</time>
      </trkpt>
      <trkpt lat="35.94351752387153" lon="120.21391818576389">
        <time>2021-03-17T12:23:55.327000Z</time>
      </trkpt>
      <trkpt lat="35.943603515625" lon="120.21387424045139">
        <time>2021-03-17T12:23:58.327000Z</time>
      </trkpt>
      <trkpt lat="35.9437806532118" lon="120.21380452473959">
        <time>2021-03-17T12:24:04.327000Z</time>
      </trkpt>
      <trkpt lat="35.94404676649305" lon="120.21378445095486">
        <time>2021-03-17T12:24:13.327000Z</time>
      </trkpt>
      <trkpt lat="35.94467176649306" lon="120.2139390733507">
        <time>2021-03-17T12:24:37.327000Z</time>
      </trkpt>
      <trkpt lat="35.94475287543403" lon="120.21392523871528">
        <time>2021-03-17T12:24:40.327000Z</time>
      </trkpt>
      <trkpt lat="35.94482666015625" lon="120.21391221788194">
        <time>2021-03-17T12:24:43.327000Z</time>
      </trkpt>
      <trkpt lat="35.945086805555555" lon="120.2138783094618">
        <time>2021-03-17T12:24:52.327000Z</time>
      </trkpt>
      <trkpt lat="35.94532199435764" lon="120.21385633680555">
        <time>2021-03-17T12:25:01.327000Z</time>
      </trkpt>
      <trkpt lat="35.94539713541667" lon="120.21384548611111">
        <time>2021-03-17T12:25:04.327000Z</time>
      </trkpt>
      <trkpt lat="35.94554796006945" lon="120.21381130642361">
        <time>2021-03-17T12:25:10.327000Z</time>
      </trkpt>
      <trkpt lat="35.94580702039931" lon="120.21379367404514">
        <time>2021-03-17T12:25:19.327000Z</time>
      </trkpt>
      <trkpt lat="35.945897352430556" lon="120.2137806532118">
        <time>2021-03-17T12:25:22.327000Z</time>
      </trkpt>
      <trkpt lat="35.94607638888889" lon="120.21378173828126">
        <time>2021-03-17T12:25:28.327000Z</time>
      </trkpt>
      <trkpt lat="35.94615342881944" lon="120.2137806532118">
        <time>2021-03-17T12:25:31.327000Z</time>
      </trkpt>
      <trkpt lat="35.94629937065972" lon="120.21376274956597">
        <time>2021-03-17T12:25:37.327000Z</time>
      </trkpt>
      <trkpt lat="35.94637424045139" lon="120.21374755859375">
        <time>2021-03-17T12:25:40.327000Z</time>
      </trkpt>
      <trkpt lat="35.94652723524305" lon="120.21374565972222">
        <time>2021-03-17T12:25:46.327000Z</time>
      </trkpt>
      <trkpt lat="35.946620551215275" lon="120.2137220594618">
        <time>2021-03-17T12:25:49.327000Z</time>
      </trkpt>
      <trkpt lat="35.946703559027775" lon="120.21370388454861">
        <time>2021-03-17T12:25:52.327000Z</time>
      </trkpt>
      <trkpt lat="35.94687852647569" lon="120.21365180121528">
        <time>2021-03-17T12:25:58.327000Z</time>
      </trkpt>
      <trkpt lat="35.94696560329861" lon="120.21363226996527">
        <time>2021-03-17T12:26:01.327000Z</time>
      </trkpt>
      <trkpt lat="35.9470458984375" lon="120.21362413194444">
        <time>2021-03-17T12:26:04.327000Z</time>
      </trkpt>
      <trkpt lat="35.947147081163195" lon="120.21342881944445">
        <time>2021-03-17T12:26:13.327000Z</time>
      </trkpt>
      <trkpt lat="35.94712999131944" lon="120.21332899305555">
        <time>2021-03-17T12:26:16.327000Z</time>
      </trkpt>
      <trkpt lat="35.947116427951386" lon="120.21323811848958">
        <time>2021-03-17T12:26:19.327000Z</time>
      </trkpt>
      <trkpt lat="35.947086046006945" lon="120.21285210503473">
        <time>2021-03-17T12:26:31.327000Z</time>
      </trkpt>
      <trkpt lat="35.94709092881944" lon="120.2127712673611">
        <time>2021-03-17T12:26:34.327000Z</time>
      </trkpt>
      <trkpt lat="35.94709282769097" lon="120.212685546875">
        <time>2021-03-17T12:26:37.327000Z</time>
      </trkpt>
      <trkpt lat="35.9470884874132" lon="120.212451171875">
        <time>2021-03-17T12:26:46.327000Z</time>
      </trkpt>
      <trkpt lat="35.9470884874132" lon="120.21228542751736">
        <time>2021-03-17T12:26:52.327000Z</time>
      </trkpt>
      <trkpt lat="35.947124837239585" lon="120.21220974392361">
        <time>2021-03-17T12:26:55.327000Z</time>
      </trkpt>
      <trkpt lat="35.947163628472225" lon="120.21213894314236">
        <time>2021-03-17T12:26:58.327000Z</time>
      </trkpt>
      <trkpt lat="35.94722113715278" lon="120.21195258246527">
        <time>2021-03-17T12:27:04.327000Z</time>
      </trkpt>
      <trkpt lat="35.947254231770835" lon="120.21185872395833">
        <time>2021-03-17T12:27:07.327000Z</time>
      </trkpt>
      <trkpt lat="35.94729736328125" lon="120.21175808376736">
        <time>2021-03-17T12:27:10.327000Z</time>
      </trkpt>
      <trkpt lat="35.947360568576386" lon="120.21157036675348">
        <time>2021-03-17T12:27:16.327000Z</time>
      </trkpt>
      <trkpt lat="35.947383897569445" lon="120.21149576822917">
        <time>2021-03-17T12:27:19.327000Z</time>
      </trkpt>
      <trkpt lat="35.94741590711806" lon="120.21143093532986">
        <time>2021-03-17T12:27:22.327000Z</time>
      </trkpt>
      <trkpt lat="35.94748101128472" lon="120.2113072374132">
        <time>2021-03-17T12:27:28.327000Z</time>
      </trkpt>
      <trkpt lat="35.947521158854165" lon="120.21122639973959">
        <time>2021-03-17T12:27:31.327000Z</time>
      </trkpt>
      <trkpt lat="35.94755642361111" lon="120.21115559895833">
        <time>2021-03-17T12:27:34.327000Z</time>
      </trkpt>
      <trkpt lat="35.947635633680555" lon="120.21100396050348">
        <time>2021-03-17T12:27:40.327000Z</time>
      </trkpt>
      <trkpt lat="35.94766764322917" lon="120.21092827690973">
        <time>2021-03-17T12:27:43.327000Z</time>
      </trkpt>
      <trkpt lat="35.94770779079861" lon="120.21084445529515">
        <time>2021-03-17T12:27:46.327000Z</time>
      </trkpt>
      <trkpt lat="35.9478125" lon="120.21051242404513">
        <time>2021-03-17T12:27:58.327000Z</time>
      </trkpt>
      <trkpt lat="35.947848578559025" lon="120.21042860243055">
        <time>2021-03-17T12:28:01.327000Z</time>
      </trkpt>
      <trkpt lat="35.94787760416666" lon="120.21033989800347">
        <time>2021-03-17T12:28:04.327000Z</time>
      </trkpt>
      <trkpt lat="35.94795193142361" lon="120.21015516493055">
        <time>2021-03-17T12:28:10.327000Z</time>
      </trkpt>
      <trkpt lat="35.94798936631945" lon="120.20997260199653">
        <time>2021-03-17T12:28:16.327000Z</time>
      </trkpt>
      <trkpt lat="35.9479931640625" lon="120.20987386067708">
        <time>2021-03-17T12:28:19.327000Z</time>
      </trkpt>
      <trkpt lat="35.94799967447916" lon="120.2097802734375">
        <time>2021-03-17T12:28:22.327000Z</time>
      </trkpt>
      <trkpt lat="35.948008897569444" lon="120.20961480034723">
        <time>2021-03-17T12:28:28.327000Z</time>
      </trkpt>
      <trkpt lat="35.94799994574653" lon="120.20952392578126">
        <time>2021-03-17T12:28:31.327000Z</time>
      </trkpt>
      <trkpt lat="35.947979058159724" lon="120.20944037543403">
        <time>2021-03-17T12:28:34.327000Z</time>
      </trkpt>
      <trkpt lat="35.94808213975694" lon="120.20934353298611">
        <time>2021-03-17T12:28:43.327000Z</time>
      </trkpt>
      <trkpt lat="35.948116048177084" lon="120.20935845269098">
        <time>2021-03-17T12:28:46.327000Z</time>
      </trkpt>
      <trkpt lat="35.94818603515625" lon="120.20938123914931">
        <time>2021-03-17T12:28:49.327000Z</time>
      </trkpt>
      <trkpt lat="35.94832682291667" lon="120.20951199001736">
        <time>2021-03-17T12:28:58.327000Z</time>
      </trkpt>
      <trkpt lat="35.94838189019097" lon="120.20956081814236">
        <time>2021-03-17T12:29:01.327000Z</time>
      </trkpt>
      <trkpt lat="35.948436686197915" lon="120.20961073133681">
        <time>2021-03-17T12:29:04.327000Z</time>
      </trkpt>
      <trkpt lat="35.94856363932292" lon="120.20974853515625">
        <time>2021-03-17T12:29:13.327000Z</time>
      </trkpt>
      <trkpt lat="35.94858751085069" lon="120.2097634548611">
        <time>2021-03-17T12:29:16.327000Z</time>
      </trkpt>
      <trkpt lat="35.94861355251736" lon="120.20977837456597">
        <time>2021-03-17T12:29:19.327000Z</time>
      </trkpt>
      <trkpt lat="35.94867567274306" lon="120.2098353407118">
        <time>2021-03-17T12:29:22.327000Z</time>
      </trkpt>
      <trkpt lat="35.94880750868055" lon="120.20994086371527">
        <time>2021-03-17T12:29:28.327000Z</time>
      </trkpt>
      <trkpt lat="35.94894232855903" lon="120.21003580729166">
        <time>2021-03-17T12:29:34.327000Z</time>
      </trkpt>
      <trkpt lat="35.949047309027776" lon="120.2101784939236">
        <time>2021-03-17T12:29:40.327000Z</time>
      </trkpt>
      <trkpt lat="35.9490980360243" lon="120.21025309244791">
        <time>2021-03-17T12:29:43.327000Z</time>
      </trkpt>
      <trkpt lat="35.94915011935764" lon="120.21033582899305">
        <time>2021-03-17T12:29:46.327000Z</time>
      </trkpt>
      <trkpt lat="35.94933078342014" lon="120.21054931640624">
        <time>2021-03-17T12:29:55.327000Z</time>
      </trkpt>
      <trkpt lat="35.949382595486114" lon="120.21060845269098">
        <time>2021-03-17T12:29:58.327000Z</time>
      </trkpt>
      <trkpt lat="35.949436577690975" lon="120.21067301432292">
        <time>2021-03-17T12:30:01.327000Z</time>
      </trkpt>
      <trkpt lat="35.94954752604167" lon="120.21081976996528">
        <time>2021-03-17T12:30:07.327000Z</time>
      </trkpt>
      <trkpt lat="35.94959716796875" lon="120.21088161892361">
        <time>2021-03-17T12:30:10.327000Z</time>
      </trkpt>
      <trkpt lat="35.9496533203125" lon="120.2109402126736">
        <time>2021-03-17T12:30:13.327000Z</time>
      </trkpt>
      <trkpt lat="35.9497740342882" lon="120.21106011284722">
        <time>2021-03-17T12:30:19.327000Z</time>
      </trkpt>
      <trkpt lat="35.94995090060764" lon="120.21110297309028">
        <time>2021-03-17T12:30:28.327000Z</time>
      </trkpt>
      <trkpt lat="35.9500181749132" lon="120.21104736328125">
        <time>2021-03-17T12:30:31.327000Z</time>
      </trkpt>
      <trkpt lat="35.95008816189236" lon="120.21099826388888">
        <time>2021-03-17T12:30:34.327000Z</time>
      </trkpt>
      <trkpt lat="35.95028645833333" lon="120.21090657552084">
        <time>2021-03-17T12:30:43.327000Z</time>
      </trkpt>
      <trkpt lat="35.95036946614584" lon="120.21086642795139">
        <time>2021-03-17T12:30:46.327000Z</time>
      </trkpt>
      <trkpt lat="35.950541720920135" lon="120.21078287760416">
        <time>2021-03-17T12:30:52.327000Z</time>
      </trkpt>
      <trkpt lat="35.95062065972222" lon="120.21074300130208">
        <time>2021-03-17T12:30:55.327000Z</time>
      </trkpt>
      <trkpt lat="35.950764973958336" lon="120.21053873697916">
        <time>2021-03-17T12:31:04.327000Z</time>
      </trkpt>
      <trkpt lat="35.950757378472225" lon="120.21033121744792">
        <time>2021-03-17T12:31:10.327000Z</time>
      </trkpt>
      <trkpt lat="35.95073567708334" lon="120.21024251302083">
        <time>2021-03-17T12:31:13.327000Z</time>
      </trkpt>
      <trkpt lat="35.95071560329861" lon="120.21016845703124">
        <time>2021-03-17T12:31:16.327000Z</time>
      </trkpt>
      <trkpt lat="35.95063585069445" lon="120.20997992621528">
        <time>2021-03-17T12:31:25.327000Z</time>
      </trkpt>
      <trkpt lat="35.95073513454861" lon="120.20989935980903">
        <time>2021-03-17T12:31:43.327000Z</time>
      </trkpt>
      <trkpt lat="35.95091010199653" lon="120.20980061848958">
        <time>2021-03-17T12:31:52.327000Z</time>
      </trkpt>
      <trkpt lat="35.95097222222222" lon="120.20975965711806">
        <time>2021-03-17T12:31:55.327000Z</time>
      </trkpt>
      <trkpt lat="35.951024305555556" lon="120.20972683376736">
        <time>2021-03-17T12:31:58.327000Z</time>
      </trkpt>
      <trkpt lat="35.95126329210069" lon="120.20967366536458">
        <time>2021-03-17T12:32:07.327000Z</time>
      </trkpt>
      <trkpt lat="35.95134738498264" lon="120.20968180338542">
        <time>2021-03-17T12:32:10.327000Z</time>
      </trkpt>
      <trkpt lat="35.95147650824653" lon="120.20962212456597">
        <time>2021-03-17T12:32:16.327000Z</time>
      </trkpt>
      <trkpt lat="35.95161349826389" lon="120.20957329644098">
        <time>2021-03-17T12:32:22.327000Z</time>
      </trkpt>
      <trkpt lat="35.951686740451386" lon="120.20955729166667">
        <time>2021-03-17T12:32:25.327000Z</time>
      </trkpt>
      <trkpt lat="35.951761881510414" lon="120.20952935112847">
        <time>2021-03-17T12:32:28.327000Z</time>
      </trkpt>
      <trkpt lat="35.95191786024306" lon="120.2095193142361">
        <time>2021-03-17T12:32:34.327000Z</time>
      </trkpt>
      <trkpt lat="35.95200900607639" lon="120.20952826605902">
        <time>2021-03-17T12:32:37.327000Z</time>
      </trkpt>
      <trkpt lat="35.95217800564236" lon="120.2094935438368">
        <time>2021-03-17T12:32:43.327000Z</time>
      </trkpt>
      <trkpt lat="35.95228000217014" lon="120.20950358072916">
        <time>2021-03-17T12:32:46.327000Z</time>
      </trkpt>
      <trkpt lat="35.95245307074653" lon="120.20946668836805">
        <time>2021-03-17T12:32:52.327000Z</time>
      </trkpt>
      <trkpt lat="35.952548285590275" lon="120.20945855034722">
        <time>2021-03-17T12:32:55.327000Z</time>
      </trkpt>
      <trkpt lat="35.95272922092014" lon="120.2094189453125">
        <time>2021-03-17T12:33:01.327000Z</time>
      </trkpt>
      <trkpt lat="35.95281711154514" lon="120.20938286675347">
        <time>2021-03-17T12:33:04.327000Z</time>
      </trkpt>
      <trkpt lat="35.95297146267361" lon="120.20934000651042">
        <time>2021-03-17T12:33:10.327000Z</time>
      </trkpt>
      <trkpt lat="35.95312255859375" lon="120.20930718315972">
        <time>2021-03-17T12:33:16.327000Z</time>
      </trkpt>
      <trkpt lat="35.95320855034722" lon="120.20930121527778">
        <time>2021-03-17T12:33:19.327000Z</time>
      </trkpt>
      <trkpt lat="35.95328450520833" lon="120.20928900824653">
        <time>2021-03-17T12:33:22.327000Z</time>
      </trkpt>
      <trkpt lat="35.953457845052085" lon="120.20924235026041">
        <time>2021-03-17T12:33:28.327000Z</time>
      </trkpt>
      <trkpt lat="35.953548719618055" lon="120.20922743055556">
        <time>2021-03-17T12:33:31.327000Z</time>
      </trkpt>
      <trkpt lat="35.9536376953125" lon="120.20922037760417">
        <time>2021-03-17T12:33:34.327000Z</time>
      </trkpt>
      <trkpt lat="35.95382080078125" lon="120.20921549479166">
        <time>2021-03-17T12:33:40.327000Z</time>
      </trkpt>
      <trkpt lat="35.953899739583335" lon="120.20920437282986">
        <time>2021-03-17T12:33:43.327000Z</time>
      </trkpt>
      <trkpt lat="35.95403211805556" lon="120.20917453342014">
        <time>2021-03-17T12:33:49.327000Z</time>
      </trkpt>
      <trkpt lat="35.954188910590275" lon="120.20914659288195">
        <time>2021-03-17T12:33:58.327000Z</time>
      </trkpt>
      <trkpt lat="35.95424099392361" lon="120.20918429904513">
        <time>2021-03-17T12:34:04.327000Z</time>
      </trkpt>
      <trkpt lat="35.954411078559026" lon="120.20918077256944">
        <time>2021-03-17T12:34:13.327000Z</time>
      </trkpt>
      <trkpt lat="35.954541015625" lon="120.20918077256944">
        <time>2021-03-17T12:34:19.327000Z</time>
      </trkpt>
      <trkpt lat="35.95458794487847" lon="120.20915581597222">
        <time>2021-03-17T12:34:22.327000Z</time>
      </trkpt>
      <trkpt lat="35.954647081163195" lon="120.20914577907986">
        <time>2021-03-17T12:34:25.327000Z</time>
      </trkpt>
      <trkpt lat="35.954700249565974" lon="120.20912760416667">
        <time>2021-03-17T12:34:28.327000Z</time>
      </trkpt>
      <trkpt lat="35.95480224609375" lon="120.20907796223959">
        <time>2021-03-17T12:34:34.327000Z</time>
      </trkpt>
      <trkpt lat="35.95487820095486" lon="120.20905083550348">
        <time>2021-03-17T12:34:40.327000Z</time>
      </trkpt>
      <trkpt lat="35.95494737413195" lon="120.20907307942709">
        <time>2021-03-17T12:34:43.327000Z</time>
      </trkpt>
      <trkpt lat="35.95508734809028" lon="120.20907687717013">
        <time>2021-03-17T12:34:49.327000Z</time>
      </trkpt>
      <trkpt lat="35.95516927083333" lon="120.2090709092882">
        <time>2021-03-17T12:34:52.327000Z</time>
      </trkpt>
      <trkpt lat="35.95542887369792" lon="120.20942111545139">
        <time>2021-03-17T12:35:07.327000Z</time>
      </trkpt>
      <trkpt lat="35.955464680989586" lon="120.20950792100695">
        <time>2021-03-17T12:35:10.327000Z</time>
      </trkpt>
      <trkpt lat="35.95552137586805" lon="120.20977403428819">
        <time>2021-03-17T12:35:19.327000Z</time>
      </trkpt>
      <trkpt lat="35.95555121527778" lon="120.2099644639757">
        <time>2021-03-17T12:35:25.327000Z</time>
      </trkpt>
      <trkpt lat="35.95556884765625" lon="120.21003146701389">
        <time>2021-03-17T12:35:28.327000Z</time>
      </trkpt>
      <trkpt lat="35.955591905381944" lon="120.2101123046875">
        <time>2021-03-17T12:35:31.327000Z</time>
      </trkpt>
      <trkpt lat="35.95561387803819" lon="120.21018500434027">
        <time>2021-03-17T12:35:34.327000Z</time>
      </trkpt>
      <trkpt lat="35.955638563368055" lon="120.21034478081597">
        <time>2021-03-17T12:35:40.327000Z</time>
      </trkpt>
      <trkpt lat="35.955653483072915" lon="120.2104283311632">
        <time>2021-03-17T12:35:43.327000Z</time>
      </trkpt>
      <trkpt lat="35.9556724717882" lon="120.21051025390625">
        <time>2021-03-17T12:35:46.327000Z</time>
      </trkpt>
      <trkpt lat="35.9556751844618" lon="120.2107107204861">
        <time>2021-03-17T12:35:52.327000Z</time>
      </trkpt>
      <trkpt lat="35.95567491319444" lon="120.2108043077257">
        <time>2021-03-17T12:35:55.327000Z</time>
      </trkpt>
      <trkpt lat="35.95569064670139" lon="120.21096788194444">
        <time>2021-03-17T12:36:01.327000Z</time>
      </trkpt>
      <trkpt lat="35.955699598524305" lon="120.2110267469618">
        <time>2021-03-17T12:36:04.327000Z</time>
      </trkpt>
      <trkpt lat="35.95573323567708" lon="120.21117160373264">
        <time>2021-03-17T12:36:10.327000Z</time>
      </trkpt>
      <trkpt lat="35.95575737847222" lon="120.21126736111111">
        <time>2021-03-17T12:36:13.327000Z</time>
      </trkpt>
      <trkpt lat="35.955783962673614" lon="120.21138373480903">
        <time>2021-03-17T12:36:16.327000Z</time>
      </trkpt>
      <trkpt lat="35.95581271701389" lon="120.21158854166667">
        <time>2021-03-17T12:36:22.327000Z</time>
      </trkpt>
      <trkpt lat="35.95581976996528" lon="120.21168511284722">
        <time>2021-03-17T12:36:25.327000Z</time>
      </trkpt>
      <trkpt lat="35.95582438151042" lon="120.2117808702257">
        <time>2021-03-17T12:36:28.327000Z</time>
      </trkpt>
      <trkpt lat="35.95583224826389" lon="120.21197835286458">
        <time>2021-03-17T12:36:34.327000Z</time>
      </trkpt>
      <trkpt lat="35.955844997829864" lon="120.21216579861111">
        <time>2021-03-17T12:36:40.327000Z</time>
      </trkpt>
      <trkpt lat="35.95585394965278" lon="120.21226752387153">
        <time>2021-03-17T12:36:43.327000Z</time>
      </trkpt>
      <trkpt lat="35.95586263020834" lon="120.21237114800347">
        <time>2021-03-17T12:36:46.327000Z</time>
      </trkpt>
      <trkpt lat="35.955883246527776" lon="120.2125648328993">
        <time>2021-03-17T12:36:52.327000Z</time>
      </trkpt>
      <trkpt lat="35.95605414496528" lon="120.21278510199653">
        <time>2021-03-17T12:37:04.327000Z</time>
      </trkpt>
      <trkpt lat="35.95610921223958" lon="120.21276828342013">
        <time>2021-03-17T12:37:07.327000Z</time>
      </trkpt>
      <trkpt lat="35.956348470052085" lon="120.2126784939236">
        <time>2021-03-17T12:37:19.327000Z</time>
      </trkpt>
      <trkpt lat="35.95663438585069" lon="120.21276448567708">
        <time>2021-03-17T12:37:34.327000Z</time>
      </trkpt>
      <trkpt lat="35.9566490342882" lon="120.21285915798612">
        <time>2021-03-17T12:37:37.327000Z</time>
      </trkpt>
      <trkpt lat="35.95666802300347" lon="120.21295193142362">
        <time>2021-03-17T12:37:40.327000Z</time>
      </trkpt>
      <trkpt lat="35.95668592664931" lon="120.21314127604167">
        <time>2021-03-17T12:37:46.327000Z</time>
      </trkpt>
      <trkpt lat="35.956729600694445" lon="120.21341959635417">
        <time>2021-03-17T12:37:55.327000Z</time>
      </trkpt>
      <trkpt lat="35.95674831814236" lon="120.21352132161458">
        <time>2021-03-17T12:37:58.327000Z</time>
      </trkpt>
      <trkpt lat="35.956796875" lon="120.21397515190972">
        <time>2021-03-17T12:38:13.327000Z</time>
      </trkpt>
      <trkpt lat="35.95683051215278" lon="120.21415879991319">
        <time>2021-03-17T12:38:19.327000Z</time>
      </trkpt>
      <trkpt lat="35.956866590711805" lon="120.21422770182292">
        <time>2021-03-17T12:38:22.327000Z</time>
      </trkpt>
      <trkpt lat="35.95689914279514" lon="120.21430338541667">
        <time>2021-03-17T12:38:25.327000Z</time>
      </trkpt>
      <trkpt lat="35.95695990668403" lon="120.2145529513889">
        <time>2021-03-17T12:38:34.327000Z</time>
      </trkpt>
      <trkpt lat="35.95696261935764" lon="120.21472222222222">
        <time>2021-03-17T12:38:40.327000Z</time>
      </trkpt>
    </trkseg>
  </trk>
</gpx>