<?xml version="1.0" encoding="UTF-8"?>
<gpx xmlns="http://www.topografix.com/GPX/1/1" xmlns:gpxtpx="http://www.garmin.com/xmlschemas/TrackPointExtension/v1" xmlns:xsi="http://www.w3.org/2001/XMLSchema-instance" xsi:schemaLocation="http://www.topografix.com/GPX/1/1 http://www.topografix.com/GPX/1/1/gpx.xsd" version="1.1" creator="gpx.py -- https://github.com/tkrajina/gpxpy">
  <trk>
    <name>gpx from keep</name>
    <trkseg>
      <trkpt lat="35.95711317274306" lon="120.2150550672743">
        <ele>4</ele>
        <time>2018-01-11T11:25:45.800000Z</time>
      </trkpt>
      <trkpt lat="35.957142740885416" lon="120.2150355360243">
        <ele>4</ele>
        <time>2018-01-11T11:25:48.900000Z</time>
      </trkpt>
      <trkpt lat="35.95721733940972" lon="120.2149924045139">
        <ele>4</ele>
        <time>2018-01-11T11:25:52.900000Z</time>
      </trkpt>
      <trkpt lat="35.95740451388889" lon="120.21491807725694">
        <ele>3</ele>
        <time>2018-01-11T11:26:00.800000Z</time>
      </trkpt>
      <trkpt lat="35.957841796875" lon="120.21516981336805">
        <ele>3</ele>
        <time>2018-01-11T11:26:25.900000Z</time>
      </trkpt>
      <trkpt lat="35.95773111979167" lon="120.21590223524305">
        <ele>3</ele>
        <time>2018-01-11T11:26:53.900000Z</time>
      </trkpt>
      <trkpt lat="35.95757107204861" lon="120.215947265625">
        <ele>3</ele>
        <time>2018-01-11T11:27:01.900000Z</time>
      </trkpt>
      <trkpt lat="35.95749050564236" lon="120.215966796875">
        <ele>3</ele>
        <time>2018-01-11T11:27:05.900000Z</time>
      </trkpt>
      <trkpt lat="35.95730821397569" lon="120.21599093967014">
        <ele>3</ele>
        <time>2018-01-11T11:27:13.900000Z</time>
      </trkpt>
      <trkpt lat="35.95720079210069" lon="120.21601264105902">
        <ele>3</ele>
        <time>2018-01-11T11:27:17.900000Z</time>
      </trkpt>
      <trkpt lat="35.95703070746528" lon="120.21603678385416">
        <ele>3</ele>
        <time>2018-01-11T11:27:24.900000Z</time>
      </trkpt>
      <trkpt lat="35.95692437065972" lon="120.2160582139757">
        <ele>3</ele>
        <time>2018-01-11T11:27:28.900000Z</time>
      </trkpt>
      <trkpt lat="35.95674858940972" lon="120.21609320746528">
        <ele>3</ele>
        <time>2018-01-11T11:27:35.900000Z</time>
      </trkpt>
      <trkpt lat="35.95664388020833" lon="120.21610595703125">
        <ele>3</ele>
        <time>2018-01-11T11:27:39.900000Z</time>
      </trkpt>
      <trkpt lat="35.95650282118056" lon="120.21613742404514">
        <ele>3</ele>
        <time>2018-01-11T11:27:45.900000Z</time>
      </trkpt>
      <trkpt lat="35.95642822265625" lon="120.21615695529513">
        <ele>3</ele>
        <time>2018-01-11T11:27:48.900000Z</time>
      </trkpt>
      <trkpt lat="35.95635362413194" lon="120.21618109809027">
        <ele>3</ele>
        <time>2018-01-11T11:27:51.900000Z</time>
      </trkpt>
      <trkpt lat="35.95617567274306" lon="120.21623833550348">
        <ele>3</ele>
        <time>2018-01-11T11:27:58.900000Z</time>
      </trkpt>
      <trkpt lat="35.95582790798611" lon="120.21632514105903">
        <ele>3</ele>
        <time>2018-01-11T11:28:13.900000Z</time>
      </trkpt>
      <trkpt lat="35.95575846354166" lon="120.21640055338541">
        <ele>3</ele>
        <time>2018-01-11T11:28:17.900000Z</time>
      </trkpt>
      <trkpt lat="35.955654296875" lon="120.21656656901041">
        <ele>3</ele>
        <time>2018-01-11T11:28:24.900000Z</time>
      </trkpt>
      <trkpt lat="35.95563042534722" lon="120.21680745442708">
        <ele>3</ele>
        <time>2018-01-11T11:28:32.900000Z</time>
      </trkpt>
      <trkpt lat="35.955652940538194" lon="120.21693413628472">
        <ele>3</ele>
        <time>2018-01-11T11:28:36.900000Z</time>
      </trkpt>
      <trkpt lat="35.955708550347225" lon="120.21715277777778">
        <ele>3</ele>
        <time>2018-01-11T11:28:44.800000Z</time>
      </trkpt>
      <trkpt lat="35.955731065538195" lon="120.217236328125">
        <ele>3</ele>
        <time>2018-01-11T11:28:47.800000Z</time>
      </trkpt>
      <trkpt lat="35.9557554796007" lon="120.21735595703124">
        <ele>3</ele>
        <time>2018-01-11T11:28:51.900000Z</time>
      </trkpt>
      <trkpt lat="35.95580864800347" lon="120.21760443793403">
        <ele>3</ele>
        <time>2018-01-11T11:28:59.900000Z</time>
      </trkpt>
      <trkpt lat="35.95583306206597" lon="120.2177197265625">
        <ele>3</ele>
        <time>2018-01-11T11:29:03.900000Z</time>
      </trkpt>
      <trkpt lat="35.95590087890625" lon="120.2179275173611">
        <ele>3</ele>
        <time>2018-01-11T11:29:11.900000Z</time>
      </trkpt>
      <trkpt lat="35.95593017578125" lon="120.21801079644098">
        <ele>3</ele>
        <time>2018-01-11T11:29:14.900000Z</time>
      </trkpt>
      <trkpt lat="35.955973036024304" lon="120.21811279296875">
        <ele>3</ele>
        <time>2018-01-11T11:29:18.900000Z</time>
      </trkpt>
      <trkpt lat="35.95579318576389" lon="120.21855984157986">
        <ele>3</ele>
        <time>2018-01-11T11:29:38.800000Z</time>
      </trkpt>
      <trkpt lat="35.955721571180554" lon="120.21857014973958">
        <ele>3</ele>
        <time>2018-01-11T11:29:41.900000Z</time>
      </trkpt>
      <trkpt lat="35.95565185546875" lon="120.21858778211805">
        <ele>3</ele>
        <time>2018-01-11T11:29:44.900000Z</time>
      </trkpt>
      <trkpt lat="35.95546223958333" lon="120.21860514322917">
        <ele>3</ele>
        <time>2018-01-11T11:29:51.900000Z</time>
      </trkpt>
      <trkpt lat="35.955364854600695" lon="120.21862603081597">
        <ele>3</ele>
        <time>2018-01-11T11:29:55.900000Z</time>
      </trkpt>
      <trkpt lat="35.95518500434028" lon="120.218681640625">
        <ele>3</ele>
        <time>2018-01-11T11:30:02.900000Z</time>
      </trkpt>
      <trkpt lat="35.95509006076389" lon="120.21870442708334">
        <ele>3</ele>
        <time>2018-01-11T11:30:06.900000Z</time>
      </trkpt>
      <trkpt lat="35.95488688151042" lon="120.21874484592014">
        <ele>3</ele>
        <time>2018-01-11T11:30:14.900000Z</time>
      </trkpt>
      <trkpt lat="35.95478678385417" lon="120.21876247829861">
        <ele>3</ele>
        <time>2018-01-11T11:30:18.800000Z</time>
      </trkpt>
      <trkpt lat="35.95462239583333" lon="120.218798828125">
        <ele>3</ele>
        <time>2018-01-11T11:30:24.800000Z</time>
      </trkpt>
      <trkpt lat="35.95455186631944" lon="120.21881917317708">
        <ele>3</ele>
        <time>2018-01-11T11:30:27.800000Z</time>
      </trkpt>
      <trkpt lat="35.95447401258681" lon="120.21883599175347">
        <ele>3</ele>
        <time>2018-01-11T11:30:30.900000Z</time>
      </trkpt>
      <trkpt lat="35.95429497612847" lon="120.21888481987847">
        <ele>3</ele>
        <time>2018-01-11T11:30:38Z</time>
      </trkpt>
      <trkpt lat="35.95419325086806" lon="120.21891791449653">
        <ele>3</ele>
        <time>2018-01-11T11:30:41.900000Z</time>
      </trkpt>
      <trkpt lat="35.95401584201389" lon="120.21894992404513">
        <ele>3</ele>
        <time>2018-01-11T11:30:48.900000Z</time>
      </trkpt>
      <trkpt lat="35.95394748263889" lon="120.21895724826389">
        <ele>3</ele>
        <time>2018-01-11T11:30:52.800000Z</time>
      </trkpt>
      <trkpt lat="35.953883734809025" lon="120.21898139105903">
        <ele>3</ele>
        <time>2018-01-11T11:30:55.900000Z</time>
      </trkpt>
      <trkpt lat="35.95369656032986" lon="120.21902289496528">
        <ele>3</ele>
        <time>2018-01-11T11:31:02.900000Z</time>
      </trkpt>
      <trkpt lat="35.953609754774305" lon="120.21903917100694">
        <ele>3</ele>
        <time>2018-01-11T11:31:05.900000Z</time>
      </trkpt>
      <trkpt lat="35.95353786892361" lon="120.21904839409723">
        <ele>3</ele>
        <time>2018-01-11T11:31:08.900000Z</time>
      </trkpt>
      <trkpt lat="35.95332953559028" lon="120.21904947916667">
        <ele>3</ele>
        <time>2018-01-11T11:31:17.900000Z</time>
      </trkpt>
      <trkpt lat="35.95315456814236" lon="120.2189599609375">
        <ele>3</ele>
        <time>2018-01-11T11:31:24.900000Z</time>
      </trkpt>
      <trkpt lat="35.95306342230903" lon="120.21889404296876">
        <ele>3</ele>
        <time>2018-01-11T11:31:28.900000Z</time>
      </trkpt>
      <trkpt lat="35.9529150390625" lon="120.21858452690972">
        <ele>3</ele>
        <time>2018-01-11T11:31:40.900000Z</time>
      </trkpt>
      <trkpt lat="35.95289659288194" lon="120.21849148220485">
        <ele>3</ele>
        <time>2018-01-11T11:31:43.900000Z</time>
      </trkpt>
      <trkpt lat="35.952837999131944" lon="120.21826497395833">
        <ele>3</ele>
        <time>2018-01-11T11:31:50.900000Z</time>
      </trkpt>
      <trkpt lat="35.952808430989585" lon="120.2181298828125">
        <ele>3</ele>
        <time>2018-01-11T11:31:54.900000Z</time>
      </trkpt>
      <trkpt lat="35.95276041666666" lon="120.21791585286458">
        <ele>3</ele>
        <time>2018-01-11T11:32:01.900000Z</time>
      </trkpt>
      <trkpt lat="35.952739529079864" lon="120.2178200954861">
        <ele>3</ele>
        <time>2018-01-11T11:32:04.900000Z</time>
      </trkpt>
      <trkpt lat="35.95269748263889" lon="120.21760064019097">
        <ele>3</ele>
        <time>2018-01-11T11:32:11.900000Z</time>
      </trkpt>
      <trkpt lat="35.95268012152778" lon="120.21750461154514">
        <ele>3</ele>
        <time>2018-01-11T11:32:14.900000Z</time>
      </trkpt>
      <trkpt lat="35.952649468315975" lon="120.2173876953125">
        <ele>3</ele>
        <time>2018-01-11T11:32:18.800000Z</time>
      </trkpt>
      <trkpt lat="35.95259331597222" lon="120.21717963324653">
        <ele>3</ele>
        <time>2018-01-11T11:32:25.800000Z</time>
      </trkpt>
      <trkpt lat="35.95255967881945" lon="120.21708848741319">
        <ele>3</ele>
        <time>2018-01-11T11:32:28.900000Z</time>
      </trkpt>
      <trkpt lat="35.952534450954865" lon="120.21699462890625">
        <ele>3</ele>
        <time>2018-01-11T11:32:32.800000Z</time>
      </trkpt>
      <trkpt lat="35.952490234375" lon="120.21683539496527">
        <ele>4</ele>
        <time>2018-01-11T11:32:38.900000Z</time>
      </trkpt>
      <trkpt lat="35.95246988932292" lon="120.21673638237847">
        <ele>3</ele>
        <time>2018-01-11T11:32:42Z</time>
      </trkpt>
      <trkpt lat="35.95244710286458" lon="120.21661295572916">
        <ele>3</ele>
        <time>2018-01-11T11:32:45.900000Z</time>
      </trkpt>
      <trkpt lat="35.95240098741319" lon="120.21638102213542">
        <ele>3</ele>
        <time>2018-01-11T11:32:53.900000Z</time>
      </trkpt>
      <trkpt lat="35.95238661024305" lon="120.21629774305555">
        <ele>3</ele>
        <time>2018-01-11T11:32:56.900000Z</time>
      </trkpt>
      <trkpt lat="35.95236436631944" lon="120.21617485894097">
        <ele>3</ele>
        <time>2018-01-11T11:33:00.900000Z</time>
      </trkpt>
      <trkpt lat="35.95232449001736" lon="120.21596869574653">
        <ele>3</ele>
        <time>2018-01-11T11:33:07.900000Z</time>
      </trkpt>
      <trkpt lat="35.95229953342014" lon="120.21584445529514">
        <ele>3</ele>
        <time>2018-01-11T11:33:11.800000Z</time>
      </trkpt>
      <trkpt lat="35.95227973090278" lon="120.21575629340278">
        <ele>3</ele>
        <time>2018-01-11T11:33:14.800000Z</time>
      </trkpt>
      <trkpt lat="35.95222574869792" lon="120.21550401475695">
        <ele>3</ele>
        <time>2018-01-11T11:33:22.800000Z</time>
      </trkpt>
      <trkpt lat="35.95221055772569" lon="120.21541097005208">
        <ele>3</ele>
        <time>2018-01-11T11:33:25.800000Z</time>
      </trkpt>
      <trkpt lat="35.95215766059028" lon="120.2152099609375">
        <ele>3</ele>
        <time>2018-01-11T11:33:32.900000Z</time>
      </trkpt>
      <trkpt lat="35.9521324327257" lon="120.21508382161458">
        <ele>3</ele>
        <time>2018-01-11T11:33:36.800000Z</time>
      </trkpt>
      <trkpt lat="35.95211588541667" lon="120.21499457465278">
        <ele>3</ele>
        <time>2018-01-11T11:33:39.800000Z</time>
      </trkpt>
      <trkpt lat="35.95207709418403" lon="120.21480631510417">
        <ele>3</ele>
        <time>2018-01-11T11:33:46.900000Z</time>
      </trkpt>
      <trkpt lat="35.95205702039931" lon="120.21471381293402">
        <ele>3</ele>
        <time>2018-01-11T11:33:49.900000Z</time>
      </trkpt>
      <trkpt lat="35.95203369140625" lon="120.21459445529514">
        <ele>3</ele>
        <time>2018-01-11T11:33:53.900000Z</time>
      </trkpt>
      <trkpt lat="35.95199490017361" lon="120.21437391493056">
        <ele>3</ele>
        <time>2018-01-11T11:34:00.900000Z</time>
      </trkpt>
      <trkpt lat="35.951962890625" lon="120.21427029079861">
        <ele>3</ele>
        <time>2018-01-11T11:34:04.900000Z</time>
      </trkpt>
      <trkpt lat="35.95191026475695" lon="120.21407877604166">
        <ele>3</ele>
        <time>2018-01-11T11:34:11.900000Z</time>
      </trkpt>
      <trkpt lat="35.95188178168403" lon="120.21396104600694">
        <ele>3</ele>
        <time>2018-01-11T11:34:15.900000Z</time>
      </trkpt>
      <trkpt lat="35.951865234375" lon="120.21387125651042">
        <ele>3</ele>
        <time>2018-01-11T11:34:18.900000Z</time>
      </trkpt>
      <trkpt lat="35.95183485243056" lon="120.21367594401042">
        <ele>3</ele>
        <time>2018-01-11T11:34:25.800000Z</time>
      </trkpt>
      <trkpt lat="35.95182183159722" lon="120.21358832465278">
        <ele>3</ele>
        <time>2018-01-11T11:34:28.900000Z</time>
      </trkpt>
      <trkpt lat="35.951801486545136" lon="120.2134947374132">
        <ele>3</ele>
        <time>2018-01-11T11:34:31.900000Z</time>
      </trkpt>
      <trkpt lat="35.951755099826386" lon="120.21327365451388">
        <ele>3</ele>
        <time>2018-01-11T11:34:38.900000Z</time>
      </trkpt>
      <trkpt lat="35.95172417534722" lon="120.21315402560764">
        <ele>3</ele>
        <time>2018-01-11T11:34:42.900000Z</time>
      </trkpt>
      <trkpt lat="35.95168131510417" lon="120.2129638671875">
        <ele>3</ele>
        <time>2018-01-11T11:34:49.900000Z</time>
      </trkpt>
      <trkpt lat="35.951656087239584" lon="120.21282606336806">
        <ele>3</ele>
        <time>2018-01-11T11:34:53.800000Z</time>
      </trkpt>
      <trkpt lat="35.95163926866319" lon="120.2127419704861">
        <ele>3</ele>
        <time>2018-01-11T11:34:56.800000Z</time>
      </trkpt>
      <trkpt lat="35.9515931532118" lon="120.21255181206597">
        <ele>3</ele>
        <time>2018-01-11T11:35:03.900000Z</time>
      </trkpt>
      <trkpt lat="35.951564398871525" lon="120.21244303385417">
        <ele>3</ele>
        <time>2018-01-11T11:35:07.800000Z</time>
      </trkpt>
      <trkpt lat="35.951543782552086" lon="120.21233371310764">
        <ele>3</ele>
        <time>2018-01-11T11:35:11.900000Z</time>
      </trkpt>
      <trkpt lat="35.951496039496526" lon="120.21212972005209">
        <ele>3</ele>
        <time>2018-01-11T11:35:18.900000Z</time>
      </trkpt>
      <trkpt lat="35.95146809895834" lon="120.21200547960069">
        <ele>3</ele>
        <time>2018-01-11T11:35:22.900000Z</time>
      </trkpt>
      <trkpt lat="35.95142442491319" lon="120.2118039279514">
        <ele>3</ele>
        <time>2018-01-11T11:35:29.800000Z</time>
      </trkpt>
      <trkpt lat="35.951403266059025" lon="120.21171332465278">
        <ele>3</ele>
        <time>2018-01-11T11:35:32.900000Z</time>
      </trkpt>
      <trkpt lat="35.95138020833333" lon="120.21162163628472">
        <ele>3</ele>
        <time>2018-01-11T11:35:35.900000Z</time>
      </trkpt>
      <trkpt lat="35.951328938802085" lon="120.21137125651042">
        <ele>3</ele>
        <time>2018-01-11T11:35:43.800000Z</time>
      </trkpt>
      <trkpt lat="35.95131483289931" lon="120.21128173828124">
        <ele>3</ele>
        <time>2018-01-11T11:35:46.800000Z</time>
      </trkpt>
      <trkpt lat="35.951298828125" lon="120.21119059244792">
        <ele>3</ele>
        <time>2018-01-11T11:35:49.900000Z</time>
      </trkpt>
      <trkpt lat="35.95125786675347" lon="120.21098795572917">
        <ele>3</ele>
        <time>2018-01-11T11:35:56.900000Z</time>
      </trkpt>
      <trkpt lat="35.95124647352431" lon="120.21090630425347">
        <ele>3</ele>
        <time>2018-01-11T11:35:59.900000Z</time>
      </trkpt>
      <trkpt lat="35.951221245659724" lon="120.2107888454861">
        <ele>3</ele>
        <time>2018-01-11T11:36:03.800000Z</time>
      </trkpt>
      <trkpt lat="35.9511669921875" lon="120.21055609809028">
        <ele>3</ele>
        <time>2018-01-11T11:36:11.800000Z</time>
      </trkpt>
      <trkpt lat="35.951143934461804" lon="120.21045871310764">
        <ele>3</ele>
        <time>2018-01-11T11:36:14.900000Z</time>
      </trkpt>
      <trkpt lat="35.951098090277775" lon="120.2102134874132">
        <ele>3</ele>
        <time>2018-01-11T11:36:22.900000Z</time>
      </trkpt>
      <trkpt lat="35.95107991536458" lon="120.21012722439237">
        <ele>3</ele>
        <time>2018-01-11T11:36:25.900000Z</time>
      </trkpt>
      <trkpt lat="35.95102783203125" lon="120.20989339192708">
        <ele>3</ele>
        <time>2018-01-11T11:36:33.900000Z</time>
      </trkpt>
      <trkpt lat="35.95111870659722" lon="120.20967339409722">
        <ele>3</ele>
        <time>2018-01-11T11:36:44.900000Z</time>
      </trkpt>
      <trkpt lat="35.951219889322914" lon="120.20966796875">
        <ele>3</ele>
        <time>2018-01-11T11:36:48.900000Z</time>
      </trkpt>
      <trkpt lat="35.9514404296875" lon="120.20964165581597">
        <ele>3</ele>
        <time>2018-01-11T11:36:56.900000Z</time>
      </trkpt>
      <trkpt lat="35.951541612413195" lon="120.20962293836806">
        <ele>3</ele>
        <time>2018-01-11T11:37:00.900000Z</time>
      </trkpt>
      <trkpt lat="35.951741536458336" lon="120.20959879557292">
        <ele>3</ele>
        <time>2018-01-11T11:37:08.900000Z</time>
      </trkpt>
      <trkpt lat="35.951853841145834" lon="120.2095827907986">
        <ele>3</ele>
        <time>2018-01-11T11:37:12.800000Z</time>
      </trkpt>
      <trkpt lat="35.95200846354167" lon="120.209560546875">
        <ele>3</ele>
        <time>2018-01-11T11:37:18.800000Z</time>
      </trkpt>
      <trkpt lat="35.95208984375" lon="120.20954969618056">
        <ele>3</ele>
        <time>2018-01-11T11:37:21.900000Z</time>
      </trkpt>
      <trkpt lat="35.95217068142361" lon="120.20953721788194">
        <ele>3</ele>
        <time>2018-01-11T11:37:24.900000Z</time>
      </trkpt>
      <trkpt lat="35.95233127170139" lon="120.20950629340278">
        <ele>3</ele>
        <time>2018-01-11T11:37:31.900000Z</time>
      </trkpt>
      <trkpt lat="35.952518988715276" lon="120.2094753689236">
        <ele>3</ele>
        <time>2018-01-11T11:37:39.900000Z</time>
      </trkpt>
      <trkpt lat="35.952587348090276" lon="120.20947129991319">
        <ele>3</ele>
        <time>2018-01-11T11:37:42.900000Z</time>
      </trkpt>
      <trkpt lat="35.952678493923614" lon="120.20946099175347">
        <ele>3</ele>
        <time>2018-01-11T11:37:47Z</time>
      </trkpt>
      <trkpt lat="35.95287082248264" lon="120.20943576388889">
        <ele>3</ele>
        <time>2018-01-11T11:37:54.900000Z</time>
      </trkpt>
      <trkpt lat="35.95293891059028" lon="120.20941514756944">
        <ele>3</ele>
        <time>2018-01-11T11:37:57.900000Z</time>
      </trkpt>
      <trkpt lat="35.95303141276042" lon="120.20938937717014">
        <ele>3</ele>
        <time>2018-01-11T11:38:01.800000Z</time>
      </trkpt>
      <trkpt lat="35.95317084418403" lon="120.20935221354166">
        <ele>3</ele>
        <time>2018-01-11T11:38:08.800000Z</time>
      </trkpt>
      <trkpt lat="35.95327772352431" lon="120.20932834201389">
        <ele>3</ele>
        <time>2018-01-11T11:38:12.800000Z</time>
      </trkpt>
      <trkpt lat="35.95346137152778" lon="120.2093150499132">
        <ele>3</ele>
        <time>2018-01-11T11:38:19.900000Z</time>
      </trkpt>
      <trkpt lat="35.95353597005208" lon="120.20931070963542">
        <ele>3</ele>
        <time>2018-01-11T11:38:22.900000Z</time>
      </trkpt>
      <trkpt lat="35.953631727430555" lon="120.20929334852431">
        <ele>3</ele>
        <time>2018-01-11T11:38:26.900000Z</time>
      </trkpt>
      <trkpt lat="35.953777126736114" lon="120.2092724609375">
        <ele>3</ele>
        <time>2018-01-11T11:38:32.900000Z</time>
      </trkpt>
      <trkpt lat="35.95386745876736" lon="120.20926703559027">
        <ele>3</ele>
        <time>2018-01-11T11:38:36.900000Z</time>
      </trkpt>
      <trkpt lat="35.95393636067708" lon="120.20926025390625">
        <ele>3</ele>
        <time>2018-01-11T11:38:39.900000Z</time>
      </trkpt>
      <trkpt lat="35.954083116319445" lon="120.2092258029514">
        <ele>3</ele>
        <time>2018-01-11T11:38:46.900000Z</time>
      </trkpt>
      <trkpt lat="35.95417778862847" lon="120.20920789930555">
        <ele>3</ele>
        <time>2018-01-11T11:38:50.800000Z</time>
      </trkpt>
      <trkpt lat="35.95424479166667" lon="120.20919352213542">
        <ele>3</ele>
        <time>2018-01-11T11:38:53.900000Z</time>
      </trkpt>
      <trkpt lat="35.954464518229166" lon="120.20916341145833">
        <ele>3</ele>
        <time>2018-01-11T11:39:02Z</time>
      </trkpt>
      <trkpt lat="35.954571126302085" lon="120.20914957682292">
        <ele>3</ele>
        <time>2018-01-11T11:39:05.800000Z</time>
      </trkpt>
      <trkpt lat="35.95470893012153" lon="120.20913194444445">
        <ele>3</ele>
        <time>2018-01-11T11:39:11.900000Z</time>
      </trkpt>
      <trkpt lat="35.95477973090278" lon="120.20912055121528">
        <ele>3</ele>
        <time>2018-01-11T11:39:14.900000Z</time>
      </trkpt>
      <trkpt lat="35.95485514322917" lon="120.20910319010417">
        <ele>3</ele>
        <time>2018-01-11T11:39:17.900000Z</time>
      </trkpt>
      <trkpt lat="35.95506890190972" lon="120.20906928168402">
        <ele>3</ele>
        <time>2018-01-11T11:39:27.900000Z</time>
      </trkpt>
      <trkpt lat="35.95512125651042" lon="120.2091175672743">
        <ele>3</ele>
        <time>2018-01-11T11:39:35.900000Z</time>
      </trkpt>
      <trkpt lat="35.95512586805555" lon="120.20912868923611">
        <ele>3</ele>
        <time>2018-01-11T11:39:39Z</time>
      </trkpt>
      <trkpt lat="35.9551478407118" lon="120.2091531032986">
        <ele>3</ele>
        <time>2018-01-11T11:39:45.900000Z</time>
      </trkpt>
      <trkpt lat="35.95518310546875" lon="120.20913818359375">
        <ele>3</ele>
        <time>2018-01-11T11:39:48.900000Z</time>
      </trkpt>
      <trkpt lat="35.955279405381944" lon="120.20910264756944">
        <ele>3</ele>
        <time>2018-01-11T11:39:52.900000Z</time>
      </trkpt>
      <trkpt lat="35.95536648220486" lon="120.2090625">
        <ele>3</ele>
        <time>2018-01-11T11:39:56.800000Z</time>
      </trkpt>
      <trkpt lat="35.95549560546875" lon="120.2089990234375">
        <ele>3</ele>
        <time>2018-01-11T11:40:02.800000Z</time>
      </trkpt>
      <trkpt lat="35.95555908203125" lon="120.20896809895834">
        <ele>3</ele>
        <time>2018-01-11T11:40:05.900000Z</time>
      </trkpt>
      <trkpt lat="35.95569797092014" lon="120.20893039279514">
        <ele>3</ele>
        <time>2018-01-11T11:40:12.900000Z</time>
      </trkpt>
      <trkpt lat="35.955791286892364" lon="120.20891981336806">
        <ele>3</ele>
        <time>2018-01-11T11:40:16.900000Z</time>
      </trkpt>
      <trkpt lat="35.955852864583335" lon="120.20891547309027">
        <ele>3</ele>
        <time>2018-01-11T11:40:19.900000Z</time>
      </trkpt>
      <trkpt lat="35.95600070529514" lon="120.20889214409722">
        <ele>3</ele>
        <time>2018-01-11T11:40:26.900000Z</time>
      </trkpt>
      <trkpt lat="35.95610134548611" lon="120.20887776692709">
        <ele>3</ele>
        <time>2018-01-11T11:40:30.800000Z</time>
      </trkpt>
      <trkpt lat="35.95626627604167" lon="120.20886528862847">
        <ele>3</ele>
        <time>2018-01-11T11:40:37.900000Z</time>
      </trkpt>
      <trkpt lat="35.95636203342014" lon="120.20885443793402">
        <ele>3</ele>
        <time>2018-01-11T11:40:41.900000Z</time>
      </trkpt>
      <trkpt lat="35.956433919270836" lon="120.20883897569445">
        <ele>3</ele>
        <time>2018-01-11T11:40:44.900000Z</time>
      </trkpt>
      <trkpt lat="35.95661349826389" lon="120.20881510416666">
        <ele>3</ele>
        <time>2018-01-11T11:40:51.800000Z</time>
      </trkpt>
      <trkpt lat="35.95668131510417" lon="120.20879638671875">
        <ele>3</ele>
        <time>2018-01-11T11:40:54.800000Z</time>
      </trkpt>
      <trkpt lat="35.95677815755209" lon="120.20877115885416">
        <ele>3</ele>
        <time>2018-01-11T11:40:58.800000Z</time>
      </trkpt>
      <trkpt lat="35.95694498697917" lon="120.20875108506945">
        <ele>3</ele>
        <time>2018-01-11T11:41:05.900000Z</time>
      </trkpt>
      <trkpt lat="35.95701931423611" lon="120.2087451171875">
        <ele>3</ele>
        <time>2018-01-11T11:41:08.900000Z</time>
      </trkpt>
      <trkpt lat="35.957195095486114" lon="120.20870768229166">
        <ele>3</ele>
        <time>2018-01-11T11:41:15.900000Z</time>
      </trkpt>
      <trkpt lat="35.9572913953993" lon="120.20868923611111">
        <ele>3</ele>
        <time>2018-01-11T11:41:19.900000Z</time>
      </trkpt>
      <trkpt lat="35.957384711371525" lon="120.20867540147569">
        <ele>3</ele>
        <time>2018-01-11T11:41:23.900000Z</time>
      </trkpt>
      <trkpt lat="35.95755669487847" lon="120.20865044487847">
        <ele>3</ele>
        <time>2018-01-11T11:41:31.900000Z</time>
      </trkpt>
      <trkpt lat="35.95762369791667" lon="120.2086447482639">
        <ele>3</ele>
        <time>2018-01-11T11:41:34.900000Z</time>
      </trkpt>
      <trkpt lat="35.957714029947915" lon="120.20863416883681">
        <ele>3</ele>
        <time>2018-01-11T11:41:38.900000Z</time>
      </trkpt>
      <trkpt lat="35.95786404079861" lon="120.20860324435763">
        <ele>3</ele>
        <time>2018-01-11T11:41:44.900000Z</time>
      </trkpt>
      <trkpt lat="35.957936197916666" lon="120.20858805338541">
        <ele>3</ele>
        <time>2018-01-11T11:41:47.900000Z</time>
      </trkpt>
      <trkpt lat="35.958004286024305" lon="120.2085777452257">
        <ele>3</ele>
        <time>2018-01-11T11:41:50.900000Z</time>
      </trkpt>
      <trkpt lat="35.958165418836806" lon="120.20854899088542">
        <ele>3</ele>
        <time>2018-01-11T11:41:57.900000Z</time>
      </trkpt>
      <trkpt lat="35.95825819227431" lon="120.20853814019097">
        <ele>3</ele>
        <time>2018-01-11T11:42:01.900000Z</time>
      </trkpt>
      <trkpt lat="35.958355034722224" lon="120.20852023654514">
        <ele>3</ele>
        <time>2018-01-11T11:42:05.800000Z</time>
      </trkpt>
      <trkpt lat="35.95850396050347" lon="120.20849527994791">
        <ele>3</ele>
        <time>2018-01-11T11:42:11.800000Z</time>
      </trkpt>
      <trkpt lat="35.95861111111111" lon="120.2084787326389">
        <ele>3</ele>
        <time>2018-01-11T11:42:15.900000Z</time>
      </trkpt>
      <trkpt lat="35.95869330512153" lon="120.20846896701389">
        <ele>3</ele>
        <time>2018-01-11T11:42:18.900000Z</time>
      </trkpt>
      <trkpt lat="35.95887424045139" lon="120.20842719184027">
        <ele>3</ele>
        <time>2018-01-11T11:42:25.900000Z</time>
      </trkpt>
      <trkpt lat="35.95897623697917" lon="120.20841227213542">
        <ele>3</ele>
        <time>2018-01-11T11:42:29.900000Z</time>
      </trkpt>
      <trkpt lat="35.95913709852431" lon="120.2083949110243">
        <ele>3</ele>
        <time>2018-01-11T11:42:35.900000Z</time>
      </trkpt>
      <trkpt lat="35.959247504340276" lon="120.20838568793403">
        <ele>3</ele>
        <time>2018-01-11T11:42:39.900000Z</time>
      </trkpt>
      <trkpt lat="35.95934814453125" lon="120.20862684461805">
        <ele>3</ele>
        <time>2018-01-11T11:42:50.900000Z</time>
      </trkpt>
      <trkpt lat="35.95935302734375" lon="120.208720703125">
        <ele>3</ele>
        <time>2018-01-11T11:42:53.900000Z</time>
      </trkpt>
      <trkpt lat="35.95939534505208" lon="120.20893744574653">
        <ele>3</ele>
        <time>2018-01-11T11:43:01.900000Z</time>
      </trkpt>
      <trkpt lat="35.95943576388889" lon="120.20905164930555">
        <ele>3</ele>
        <time>2018-01-11T11:43:05.900000Z</time>
      </trkpt>
      <trkpt lat="35.95950927734375" lon="120.20934651692708">
        <ele>3</ele>
        <time>2018-01-11T11:43:15.900000Z</time>
      </trkpt>
      <trkpt lat="35.959513888888885" lon="120.2094761827257">
        <ele>3</ele>
        <time>2018-01-11T11:43:19.900000Z</time>
      </trkpt>
      <trkpt lat="35.95951904296875" lon="120.20970323350694">
        <ele>3</ele>
        <time>2018-01-11T11:43:26.900000Z</time>
      </trkpt>
      <trkpt lat="35.95952121310764" lon="120.20978895399305">
        <ele>3</ele>
        <time>2018-01-11T11:43:29.900000Z</time>
      </trkpt>
      <trkpt lat="35.95952880859375" lon="120.20991238064236">
        <ele>3</ele>
        <time>2018-01-11T11:43:33.900000Z</time>
      </trkpt>
      <trkpt lat="35.95953342013889" lon="120.21010715060764">
        <ele>3</ele>
        <time>2018-01-11T11:43:40.900000Z</time>
      </trkpt>
      <trkpt lat="35.959536946614584" lon="120.21021945529515">
        <ele>3</ele>
        <time>2018-01-11T11:43:44.900000Z</time>
      </trkpt>
      <trkpt lat="35.9595458984375" lon="120.21034071180556">
        <ele>3</ele>
        <time>2018-01-11T11:43:48.900000Z</time>
      </trkpt>
      <trkpt lat="35.959574381510414" lon="120.21053412543402">
        <ele>3</ele>
        <time>2018-01-11T11:43:55.900000Z</time>
      </trkpt>
      <trkpt lat="35.959583604600695" lon="120.21064995659722">
        <ele>3</ele>
        <time>2018-01-11T11:43:59.900000Z</time>
      </trkpt>
      <trkpt lat="35.959597981770834" lon="120.21077799479167">
        <ele>3</ele>
        <time>2018-01-11T11:44:03.800000Z</time>
      </trkpt>
      <trkpt lat="35.9596337890625" lon="120.21099527994792">
        <ele>3</ele>
        <time>2018-01-11T11:44:10.900000Z</time>
      </trkpt>
      <trkpt lat="35.95965766059028" lon="120.21108968098959">
        <ele>3</ele>
        <time>2018-01-11T11:44:13.900000Z</time>
      </trkpt>
      <trkpt lat="35.959681803385415" lon="120.21121012369791">
        <ele>3</ele>
        <time>2018-01-11T11:44:17.900000Z</time>
      </trkpt>
      <trkpt lat="35.95973361545139" lon="120.21143120659723">
        <ele>3</ele>
        <time>2018-01-11T11:44:24.800000Z</time>
      </trkpt>
      <trkpt lat="35.95975694444444" lon="120.21151936848959">
        <ele>3</ele>
        <time>2018-01-11T11:44:27.900000Z</time>
      </trkpt>
      <trkpt lat="35.95981011284722" lon="120.2117711046007">
        <ele>3</ele>
        <time>2018-01-11T11:44:35.800000Z</time>
      </trkpt>
      <trkpt lat="35.9598228624132" lon="120.2118701171875">
        <ele>3</ele>
        <time>2018-01-11T11:44:38.900000Z</time>
      </trkpt>
      <trkpt lat="35.959872775607636" lon="120.21206841362847">
        <ele>3</ele>
        <time>2018-01-11T11:44:45.800000Z</time>
      </trkpt>
      <trkpt lat="35.95988742404514" lon="120.21216851128472">
        <ele>3</ele>
        <time>2018-01-11T11:44:48.900000Z</time>
      </trkpt>
      <trkpt lat="35.959904242621526" lon="120.212265625">
        <ele>3</ele>
        <time>2018-01-11T11:44:51.900000Z</time>
      </trkpt>
      <trkpt lat="35.95995144314236" lon="120.21248480902777">
        <ele>4</ele>
        <time>2018-01-11T11:44:58.900000Z</time>
      </trkpt>
      <trkpt lat="35.95996988932291" lon="120.21257622612848">
        <ele>4</ele>
        <time>2018-01-11T11:45:01.900000Z</time>
      </trkpt>
      <trkpt lat="35.96005343967014" lon="120.21286946614583">
        <ele>3</ele>
        <time>2018-01-11T11:45:11.900000Z</time>
      </trkpt>
      <trkpt lat="35.96008924696181" lon="120.21299750434028">
        <ele>3</ele>
        <time>2018-01-11T11:45:15.900000Z</time>
      </trkpt>
      <trkpt lat="35.96012939453125" lon="120.21321343315972">
        <ele>3</ele>
        <time>2018-01-11T11:45:22.800000Z</time>
      </trkpt>
      <trkpt lat="35.960139702690974" lon="120.21330783420139">
        <ele>3</ele>
        <time>2018-01-11T11:45:25.900000Z</time>
      </trkpt>
      <trkpt lat="35.960193684895835" lon="120.21351589626737">
        <ele>3</ele>
        <time>2018-01-11T11:45:32.900000Z</time>
      </trkpt>
      <trkpt lat="35.96022054036458" lon="120.21361219618055">
        <ele>3</ele>
        <time>2018-01-11T11:45:35.900000Z</time>
      </trkpt>
      <trkpt lat="35.96024468315972" lon="120.21371283637153">
        <ele>3</ele>
        <time>2018-01-11T11:45:38.900000Z</time>
      </trkpt>
      <trkpt lat="35.96034288194444" lon="120.2140771484375">
        <ele>3</ele>
        <time>2018-01-11T11:45:50.800000Z</time>
      </trkpt>
      <trkpt lat="35.96035698784722" lon="120.21417371961806">
        <ele>3</ele>
        <time>2018-01-11T11:45:53.900000Z</time>
      </trkpt>
      <trkpt lat="35.96043212890625" lon="120.21455946180555">
        <ele>3</ele>
        <time>2018-01-11T11:46:05.800000Z</time>
      </trkpt>
      <trkpt lat="35.96045789930555" lon="120.21464789496528">
        <ele>3</ele>
        <time>2018-01-11T11:46:08.800000Z</time>
      </trkpt>
      <trkpt lat="35.96047905815972" lon="120.21473171657986">
        <ele>3</ele>
        <time>2018-01-11T11:46:11.800000Z</time>
      </trkpt>
      <trkpt lat="35.9605189344618" lon="120.21502522786459">
        <ele>3</ele>
        <time>2018-01-11T11:46:21.900000Z</time>
      </trkpt>
      <trkpt lat="35.96051730685764" lon="120.21529730902778">
        <ele>3</ele>
        <time>2018-01-11T11:46:32.900000Z</time>
      </trkpt>
      <trkpt lat="35.96030029296875" lon="120.2152964952257">
        <ele>3</ele>
        <time>2018-01-11T11:46:39.900000Z</time>
      </trkpt>
      <trkpt lat="35.96004448784722" lon="120.21530951605902">
        <ele>3</ele>
        <time>2018-01-11T11:46:47.900000Z</time>
      </trkpt>
      <trkpt lat="35.95992485894097" lon="120.21533040364584">
        <ele>3</ele>
        <time>2018-01-11T11:46:51.900000Z</time>
      </trkpt>
      <trkpt lat="35.959735514322915" lon="120.2153870985243">
        <ele>3</ele>
        <time>2018-01-11T11:46:58.900000Z</time>
      </trkpt>
      <trkpt lat="35.95955810546875" lon="120.21540907118056">
        <ele>3</ele>
        <time>2018-01-11T11:47:05.900000Z</time>
      </trkpt>
      <trkpt lat="35.95945122612847" lon="120.21542426215278">
        <ele>3</ele>
        <time>2018-01-11T11:47:09.900000Z</time>
      </trkpt>
      <trkpt lat="35.95919650607639" lon="120.21552517361111">
        <ele>3</ele>
        <time>2018-01-11T11:47:19.900000Z</time>
      </trkpt>
      <trkpt lat="35.95901719835069" lon="120.21562527126736">
        <ele>3</ele>
        <time>2018-01-11T11:47:27.800000Z</time>
      </trkpt>
      <trkpt lat="35.95883002387153" lon="120.21568793402778">
        <ele>3</ele>
        <time>2018-01-11T11:47:35.800000Z</time>
      </trkpt>
      <trkpt lat="35.95875406901042" lon="120.21569580078125">
        <ele>3</ele>
        <time>2018-01-11T11:47:38.900000Z</time>
      </trkpt>
      <trkpt lat="35.95868028428819" lon="120.21570855034722">
        <ele>3</ele>
        <time>2018-01-11T11:47:41.900000Z</time>
      </trkpt>
      <trkpt lat="35.958470594618056" lon="120.21574137369792">
        <ele>3</ele>
        <time>2018-01-11T11:47:49.800000Z</time>
      </trkpt>
      <trkpt lat="35.9583984375" lon="120.21576253255208">
        <ele>3</ele>
        <time>2018-01-11T11:47:52.900000Z</time>
      </trkpt>
      <trkpt lat="35.95832058376736" lon="120.21577772352431">
        <ele>3</ele>
        <time>2018-01-11T11:47:55.900000Z</time>
      </trkpt>
      <trkpt lat="35.958125813802084" lon="120.21581325954861">
        <ele>3</ele>
        <time>2018-01-11T11:48:02.900000Z</time>
      </trkpt>
      <trkpt lat="35.95794976128472" lon="120.21585476345486">
        <ele>3</ele>
        <time>2018-01-11T11:48:09.900000Z</time>
      </trkpt>
      <trkpt lat="35.957737630208335" lon="120.21581163194445">
        <ele>3</ele>
        <time>2018-01-11T11:48:23.900000Z</time>
      </trkpt>
      <trkpt lat="35.95774007161458" lon="120.21580485026041">
        <ele>3</ele>
        <time>2018-01-11T11:48:27Z</time>
      </trkpt>
      <trkpt lat="35.95773193359375" lon="120.21579671223958">
        <ele>3</ele>
        <time>2018-01-11T11:48:30.800000Z</time>
      </trkpt>
      <trkpt lat="35.957721082899305" lon="120.21579915364583">
        <ele>3</ele>
        <time>2018-01-11T11:48:33.800000Z</time>
      </trkpt>
    </trkseg>
  </trk>
</gpx>