<?xml version="1.0" encoding="UTF-8"?>
<gpx xmlns="http://www.topografix.com/GPX/1/1" xmlns:gpxtpx="http://www.garmin.com/xmlschemas/TrackPointExtension/v1" xmlns:xsi="http://www.w3.org/2001/XMLSchema-instance" xsi:schemaLocation="http://www.topografix.com/GPX/1/1 http://www.topografix.com/GPX/1/1/gpx.xsd" version="1.1" creator="gpx.py -- https://github.com/tkrajina/gpxpy">
  <trk>
    <name>gpx from keep</name>
    <trkseg>
      <trkpt lat="35.95714301215278" lon="120.21490966796875">
        <ele>4</ele>
        <time>2018-01-25T11:14:23.700000Z</time>
      </trkpt>
      <trkpt lat="35.957173665364586" lon="120.2149156358507">
        <ele>4</ele>
        <time>2018-01-25T11:14:27.600000Z</time>
      </trkpt>
      <trkpt lat="35.95720540364584" lon="120.21491482204861">
        <ele>4</ele>
        <time>2018-01-25T11:14:30.700000Z</time>
      </trkpt>
      <trkpt lat="35.95735026041667" lon="120.21492241753472">
        <ele>3</ele>
        <time>2018-01-25T11:14:37.700000Z</time>
      </trkpt>
      <trkpt lat="35.95752143012153" lon="120.21492241753472">
        <ele>3</ele>
        <time>2018-01-25T11:14:44.700000Z</time>
      </trkpt>
      <trkpt lat="35.95763292100695" lon="120.21490152994792">
        <ele>3</ele>
        <time>2018-01-25T11:14:48.700000Z</time>
      </trkpt>
      <trkpt lat="35.95798556857639" lon="120.21507215711806">
        <ele>3</ele>
        <time>2018-01-25T11:15:06.700000Z</time>
      </trkpt>
      <trkpt lat="35.95798421223958" lon="120.2152183702257">
        <ele>3</ele>
        <time>2018-01-25T11:15:10.700000Z</time>
      </trkpt>
      <trkpt lat="35.95800509982639" lon="120.21547471788195">
        <ele>3</ele>
        <time>2018-01-25T11:15:18.600000Z</time>
      </trkpt>
      <trkpt lat="35.95802463107639" lon="120.21560356987847">
        <ele>3</ele>
        <time>2018-01-25T11:15:22.600000Z</time>
      </trkpt>
      <trkpt lat="35.95764458550347" lon="120.2158935546875">
        <ele>3</ele>
        <time>2018-01-25T11:15:42.600000Z</time>
      </trkpt>
      <trkpt lat="35.957560763888885" lon="120.21589870876736">
        <ele>3</ele>
        <time>2018-01-25T11:15:45.700000Z</time>
      </trkpt>
      <trkpt lat="35.957400716145834" lon="120.21590521918402">
        <ele>3</ele>
        <time>2018-01-25T11:15:51.700000Z</time>
      </trkpt>
      <trkpt lat="35.95720187717014" lon="120.21592339409722">
        <ele>3</ele>
        <time>2018-01-25T11:15:58.600000Z</time>
      </trkpt>
      <trkpt lat="35.95704616970486" lon="120.21599690755208">
        <ele>3</ele>
        <time>2018-01-25T11:16:04.600000Z</time>
      </trkpt>
      <trkpt lat="35.95697699652778" lon="120.21603678385416">
        <ele>3</ele>
        <time>2018-01-25T11:16:07.700000Z</time>
      </trkpt>
      <trkpt lat="35.956685384114586" lon="120.21609537760416">
        <ele>3</ele>
        <time>2018-01-25T11:16:18.700000Z</time>
      </trkpt>
      <trkpt lat="35.956494954427086" lon="120.21611870659723">
        <ele>3</ele>
        <time>2018-01-25T11:16:25.700000Z</time>
      </trkpt>
      <trkpt lat="35.95635145399306" lon="120.21613905164931">
        <ele>3</ele>
        <time>2018-01-25T11:16:32.700000Z</time>
      </trkpt>
      <trkpt lat="35.95628689236111" lon="120.21613796657986">
        <ele>3</ele>
        <time>2018-01-25T11:16:35.700000Z</time>
      </trkpt>
      <trkpt lat="35.956211208767364" lon="120.21614556206598">
        <ele>3</ele>
        <time>2018-01-25T11:16:38.700000Z</time>
      </trkpt>
      <trkpt lat="35.95604248046875" lon="120.216171875">
        <ele>3</ele>
        <time>2018-01-25T11:16:46.600000Z</time>
      </trkpt>
      <trkpt lat="35.955777180989585" lon="120.21637749565973">
        <ele>3</ele>
        <time>2018-01-25T11:16:58.600000Z</time>
      </trkpt>
      <trkpt lat="35.955743815104164" lon="120.21650580512153">
        <ele>3</ele>
        <time>2018-01-25T11:17:04.700000Z</time>
      </trkpt>
      <trkpt lat="35.95561360677083" lon="120.21670708550347">
        <ele>3</ele>
        <time>2018-01-25T11:17:15.700000Z</time>
      </trkpt>
      <trkpt lat="35.955631239149305" lon="120.21680745442708">
        <ele>3</ele>
        <time>2018-01-25T11:17:18.700000Z</time>
      </trkpt>
      <trkpt lat="35.955646430121526" lon="120.21692925347222">
        <ele>3</ele>
        <time>2018-01-25T11:17:22.700000Z</time>
      </trkpt>
      <trkpt lat="35.95568793402778" lon="120.21715087890625">
        <ele>3</ele>
        <time>2018-01-25T11:17:29.700000Z</time>
      </trkpt>
      <trkpt lat="35.95572129991319" lon="120.2172789171007">
        <ele>3</ele>
        <time>2018-01-25T11:17:33.700000Z</time>
      </trkpt>
      <trkpt lat="35.955745171440974" lon="120.2173752170139">
        <ele>3</ele>
        <time>2018-01-25T11:17:36.700000Z</time>
      </trkpt>
      <trkpt lat="35.955791286892364" lon="120.21758110894098">
        <ele>3</ele>
        <time>2018-01-25T11:17:43.600000Z</time>
      </trkpt>
      <trkpt lat="35.95581678602431" lon="120.2176708984375">
        <ele>3</ele>
        <time>2018-01-25T11:17:46.700000Z</time>
      </trkpt>
      <trkpt lat="35.95587158203125" lon="120.21787434895833">
        <ele>3</ele>
        <time>2018-01-25T11:17:53.700000Z</time>
      </trkpt>
      <trkpt lat="35.95591498480903" lon="120.2179994032118">
        <ele>3</ele>
        <time>2018-01-25T11:17:57.700000Z</time>
      </trkpt>
      <trkpt lat="35.95594807942708" lon="120.21808539496527">
        <ele>3</ele>
        <time>2018-01-25T11:18:00.700000Z</time>
      </trkpt>
      <trkpt lat="35.95580973307292" lon="120.2185582139757">
        <ele>3</ele>
        <time>2018-01-25T11:18:22.700000Z</time>
      </trkpt>
      <trkpt lat="35.95573160807292" lon="120.21856662326388">
        <ele>3</ele>
        <time>2018-01-25T11:18:25.700000Z</time>
      </trkpt>
      <trkpt lat="35.95540608723958" lon="120.21866807725695">
        <ele>3</ele>
        <time>2018-01-25T11:18:37.700000Z</time>
      </trkpt>
      <trkpt lat="35.955294867621525" lon="120.2187033420139">
        <ele>3</ele>
        <time>2018-01-25T11:18:41.600000Z</time>
      </trkpt>
      <trkpt lat="35.955143500434026" lon="120.21877115885417">
        <ele>3</ele>
        <time>2018-01-25T11:18:48.600000Z</time>
      </trkpt>
      <trkpt lat="35.95506374782986" lon="120.21879123263889">
        <ele>3</ele>
        <time>2018-01-25T11:18:51.600000Z</time>
      </trkpt>
      <trkpt lat="35.95496826171875" lon="120.21882297092014">
        <ele>3</ele>
        <time>2018-01-25T11:18:55.600000Z</time>
      </trkpt>
      <trkpt lat="35.954822862413195" lon="120.21885498046875">
        <ele>3</ele>
        <time>2018-01-25T11:19:02.600000Z</time>
      </trkpt>
      <trkpt lat="35.954715983072916" lon="120.21885172526042">
        <ele>3</ele>
        <time>2018-01-25T11:19:06.600000Z</time>
      </trkpt>
      <trkpt lat="35.95464138454861" lon="120.2188400607639">
        <ele>3</ele>
        <time>2018-01-25T11:19:09.600000Z</time>
      </trkpt>
      <trkpt lat="35.95449245876736" lon="120.2188538953993">
        <ele>3</ele>
        <time>2018-01-25T11:19:15.700000Z</time>
      </trkpt>
      <trkpt lat="35.95432047526042" lon="120.21892469618055">
        <ele>3</ele>
        <time>2018-01-25T11:19:22.700000Z</time>
      </trkpt>
      <trkpt lat="35.954136555989585" lon="120.2189675564236">
        <ele>3</ele>
        <time>2018-01-25T11:19:29.600000Z</time>
      </trkpt>
      <trkpt lat="35.954027777777775" lon="120.21899034288194">
        <ele>3</ele>
        <time>2018-01-25T11:19:33.600000Z</time>
      </trkpt>
      <trkpt lat="35.953830837673614" lon="120.21900770399306">
        <ele>3</ele>
        <time>2018-01-25T11:19:40.700000Z</time>
      </trkpt>
      <trkpt lat="35.95355224609375" lon="120.21908257378472">
        <ele>3</ele>
        <time>2018-01-25T11:19:50.700000Z</time>
      </trkpt>
      <trkpt lat="35.953479546440974" lon="120.21908827039931">
        <ele>3</ele>
        <time>2018-01-25T11:19:53.700000Z</time>
      </trkpt>
      <trkpt lat="35.95320746527778" lon="120.21903727213542">
        <ele>3</ele>
        <time>2018-01-25T11:20:04.600000Z</time>
      </trkpt>
      <trkpt lat="35.95313720703125" lon="120.21900146484376">
        <ele>3</ele>
        <time>2018-01-25T11:20:07.600000Z</time>
      </trkpt>
      <trkpt lat="35.95306206597222" lon="120.21895806206597">
        <ele>3</ele>
        <time>2018-01-25T11:20:10.600000Z</time>
      </trkpt>
      <trkpt lat="35.952870279947916" lon="120.21870171440972">
        <ele>3</ele>
        <time>2018-01-25T11:20:21.600000Z</time>
      </trkpt>
      <trkpt lat="35.95285264756944" lon="120.21859564887153">
        <ele>3</ele>
        <time>2018-01-25T11:20:24.600000Z</time>
      </trkpt>
      <trkpt lat="35.952808430989585" lon="120.21838189019097">
        <ele>3</ele>
        <time>2018-01-25T11:20:31.600000Z</time>
      </trkpt>
      <trkpt lat="35.952791883680554" lon="120.21829427083334">
        <ele>3</ele>
        <time>2018-01-25T11:20:34.600000Z</time>
      </trkpt>
      <trkpt lat="35.95277072482639" lon="120.21817301432291">
        <ele>3</ele>
        <time>2018-01-25T11:20:38.600000Z</time>
      </trkpt>
      <trkpt lat="35.952724880642364" lon="120.21796278211805">
        <ele>3</ele>
        <time>2018-01-25T11:20:45.600000Z</time>
      </trkpt>
      <trkpt lat="35.95269558376736" lon="120.21783582899306">
        <ele>3</ele>
        <time>2018-01-25T11:20:49.600000Z</time>
      </trkpt>
      <trkpt lat="35.95265625" lon="120.21764350043402">
        <ele>3</ele>
        <time>2018-01-25T11:20:55.600000Z</time>
      </trkpt>
      <trkpt lat="35.952633192274305" lon="120.21754448784722">
        <ele>3</ele>
        <time>2018-01-25T11:20:58.600000Z</time>
      </trkpt>
      <trkpt lat="35.95261257595486" lon="120.21745035807292">
        <ele>3</ele>
        <time>2018-01-25T11:21:01.600000Z</time>
      </trkpt>
      <trkpt lat="35.95256863064236" lon="120.21724039713541">
        <ele>3</ele>
        <time>2018-01-25T11:21:08.600000Z</time>
      </trkpt>
      <trkpt lat="35.95254421657986" lon="120.21714898003472">
        <ele>3</ele>
        <time>2018-01-25T11:21:11.600000Z</time>
      </trkpt>
      <trkpt lat="35.9525132921007" lon="120.2170374891493">
        <ele>3</ele>
        <time>2018-01-25T11:21:15.600000Z</time>
      </trkpt>
      <trkpt lat="35.95246907552083" lon="120.21685791015625">
        <ele>3</ele>
        <time>2018-01-25T11:21:21.700000Z</time>
      </trkpt>
      <trkpt lat="35.95244547526042" lon="120.21673475477431">
        <ele>3</ele>
        <time>2018-01-25T11:21:25.600000Z</time>
      </trkpt>
      <trkpt lat="35.95241021050347" lon="120.21650417751736">
        <ele>3</ele>
        <time>2018-01-25T11:21:32.700000Z</time>
      </trkpt>
      <trkpt lat="35.95239935980903" lon="120.21640543619792">
        <ele>3</ele>
        <time>2018-01-25T11:21:35.700000Z</time>
      </trkpt>
      <trkpt lat="35.95237467447917" lon="120.21627766927084">
        <ele>3</ele>
        <time>2018-01-25T11:21:39.700000Z</time>
      </trkpt>
      <trkpt lat="35.95232367621528" lon="120.21600694444444">
        <ele>3</ele>
        <time>2018-01-25T11:21:47.600000Z</time>
      </trkpt>
      <trkpt lat="35.952060004340275" lon="120.21586615668403">
        <ele>3</ele>
        <time>2018-01-25T11:22:01.600000Z</time>
      </trkpt>
      <trkpt lat="35.95190890842014" lon="120.2159166124132">
        <ele>3</ele>
        <time>2018-01-25T11:22:08.600000Z</time>
      </trkpt>
      <trkpt lat="35.95193305121528" lon="120.21590793185764">
        <ele>3</ele>
        <time>2018-01-25T11:22:16.600000Z</time>
      </trkpt>
      <trkpt lat="35.951937662760415" lon="120.21590413411458">
        <ele>3</ele>
        <time>2018-01-25T11:22:20.600000Z</time>
      </trkpt>
      <trkpt lat="35.951656629774305" lon="120.21563069661458">
        <ele>3</ele>
        <time>2018-01-25T11:22:38.600000Z</time>
      </trkpt>
      <trkpt lat="35.95149929470486" lon="120.21567762586805">
        <ele>3</ele>
        <time>2018-01-25T11:22:45.700000Z</time>
      </trkpt>
      <trkpt lat="35.951403266059025" lon="120.21571940104167">
        <ele>3</ele>
        <time>2018-01-25T11:22:48.700000Z</time>
      </trkpt>
      <trkpt lat="35.95122043185764" lon="120.2157679578993">
        <ele>4</ele>
        <time>2018-01-25T11:22:56.600000Z</time>
      </trkpt>
      <trkpt lat="35.95114040798611" lon="120.21577338324653">
        <ele>4</ele>
        <time>2018-01-25T11:22:59.700000Z</time>
      </trkpt>
      <trkpt lat="35.95091878255209" lon="120.21583577473959">
        <ele>4</ele>
        <time>2018-01-25T11:23:07.600000Z</time>
      </trkpt>
      <trkpt lat="35.950810546875" lon="120.21586452907987">
        <ele>3</ele>
        <time>2018-01-25T11:23:11.600000Z</time>
      </trkpt>
      <trkpt lat="35.95062065972222" lon="120.2159046766493">
        <ele>3</ele>
        <time>2018-01-25T11:23:18.600000Z</time>
      </trkpt>
      <trkpt lat="35.950526258680554" lon="120.21594563802083">
        <ele>3</ele>
        <time>2018-01-25T11:23:22.600000Z</time>
      </trkpt>
      <trkpt lat="35.95046468098958" lon="120.21596950954861">
        <ele>3</ele>
        <time>2018-01-25T11:23:25.600000Z</time>
      </trkpt>
      <trkpt lat="35.9503173828125" lon="120.2160240342882">
        <ele>3</ele>
        <time>2018-01-25T11:23:31.700000Z</time>
      </trkpt>
      <trkpt lat="35.95018880208333" lon="120.21604600694444">
        <ele>3</ele>
        <time>2018-01-25T11:23:35.600000Z</time>
      </trkpt>
      <trkpt lat="35.949971788194446" lon="120.21610080295139">
        <ele>4</ele>
        <time>2018-01-25T11:23:43.700000Z</time>
      </trkpt>
      <trkpt lat="35.94984375" lon="120.2161474609375">
        <ele>4</ele>
        <time>2018-01-25T11:23:47.700000Z</time>
      </trkpt>
      <trkpt lat="35.94964382595486" lon="120.21619520399305">
        <ele>4</ele>
        <time>2018-01-25T11:23:54.700000Z</time>
      </trkpt>
      <trkpt lat="35.94955240885417" lon="120.21622802734375">
        <ele>4</ele>
        <time>2018-01-25T11:23:58.700000Z</time>
      </trkpt>
      <trkpt lat="35.949374728732636" lon="120.2162765842014">
        <ele>4</ele>
        <time>2018-01-25T11:24:05.600000Z</time>
      </trkpt>
      <trkpt lat="35.94931694878472" lon="120.21629638671875">
        <ele>4</ele>
        <time>2018-01-25T11:24:09.600000Z</time>
      </trkpt>
      <trkpt lat="35.94924913194444" lon="120.21632459852431">
        <ele>4</ele>
        <time>2018-01-25T11:24:12.700000Z</time>
      </trkpt>
      <trkpt lat="35.94888102213542" lon="120.21636501736111">
        <ele>3</ele>
        <time>2018-01-25T11:24:24.700000Z</time>
      </trkpt>
      <trkpt lat="35.948802354600694" lon="120.21636854383681">
        <ele>3</ele>
        <time>2018-01-25T11:24:27.700000Z</time>
      </trkpt>
      <trkpt lat="35.94865614149305" lon="120.21640028211806">
        <ele>3</ele>
        <time>2018-01-25T11:24:34.600000Z</time>
      </trkpt>
      <trkpt lat="35.94850911458333" lon="120.21642957899306">
        <ele>3</ele>
        <time>2018-01-25T11:24:40.700000Z</time>
      </trkpt>
      <trkpt lat="35.94832763671875" lon="120.21647243923611">
        <ele>3</ele>
        <time>2018-01-25T11:24:47.600000Z</time>
      </trkpt>
      <trkpt lat="35.94822455512153" lon="120.21648491753473">
        <ele>3</ele>
        <time>2018-01-25T11:24:51.600000Z</time>
      </trkpt>
      <trkpt lat="35.94801432291667" lon="120.2165269639757">
        <ele>3</ele>
        <time>2018-01-25T11:24:59.600000Z</time>
      </trkpt>
      <trkpt lat="35.94793674045139" lon="120.21654568142361">
        <ele>3</ele>
        <time>2018-01-25T11:25:02.700000Z</time>
      </trkpt>
      <trkpt lat="35.94774603949653" lon="120.21658257378472">
        <ele>3</ele>
        <time>2018-01-25T11:25:09.700000Z</time>
      </trkpt>
      <trkpt lat="35.947666829427085" lon="120.21660346137153">
        <ele>3</ele>
        <time>2018-01-25T11:25:12.700000Z</time>
      </trkpt>
      <trkpt lat="35.94757378472222" lon="120.21663628472223">
        <ele>3</ele>
        <time>2018-01-25T11:25:16.600000Z</time>
      </trkpt>
      <trkpt lat="35.947412109375" lon="120.21667507595487">
        <ele>3</ele>
        <time>2018-01-25T11:25:23.600000Z</time>
      </trkpt>
      <trkpt lat="35.94733317057292" lon="120.21669270833333">
        <ele>3</ele>
        <time>2018-01-25T11:25:26.700000Z</time>
      </trkpt>
      <trkpt lat="35.947246365017364" lon="120.21672227647569">
        <ele>3</ele>
        <time>2018-01-25T11:25:30.700000Z</time>
      </trkpt>
      <trkpt lat="35.94707248263889" lon="120.21676567925347">
        <ele>3</ele>
        <time>2018-01-25T11:25:37.700000Z</time>
      </trkpt>
      <trkpt lat="35.946971571180555" lon="120.21678385416666">
        <ele>3</ele>
        <time>2018-01-25T11:25:41.600000Z</time>
      </trkpt>
      <trkpt lat="35.94678195529514" lon="120.21685248480902">
        <ele>3</ele>
        <time>2018-01-25T11:25:49.600000Z</time>
      </trkpt>
      <trkpt lat="35.94670925564236" lon="120.21687635633681">
        <ele>3</ele>
        <time>2018-01-25T11:25:52.600000Z</time>
      </trkpt>
      <trkpt lat="35.946635470920135" lon="120.21689263237847">
        <ele>3</ele>
        <time>2018-01-25T11:25:55.700000Z</time>
      </trkpt>
      <trkpt lat="35.946475965711805" lon="120.21693440755209">
        <ele>3</ele>
        <time>2018-01-25T11:26:02.600000Z</time>
      </trkpt>
      <trkpt lat="35.94638129340278" lon="120.21696397569444">
        <ele>3</ele>
        <time>2018-01-25T11:26:06.600000Z</time>
      </trkpt>
      <trkpt lat="35.94621310763889" lon="120.21703314887152">
        <ele>3</ele>
        <time>2018-01-25T11:26:14.600000Z</time>
      </trkpt>
      <trkpt lat="35.946140950520835" lon="120.21705620659722">
        <ele>3</ele>
        <time>2018-01-25T11:26:17.700000Z</time>
      </trkpt>
      <trkpt lat="35.9460609266493" lon="120.21708034939236">
        <ele>3</ele>
        <time>2018-01-25T11:26:20.700000Z</time>
      </trkpt>
      <trkpt lat="35.945857747395834" lon="120.21716471354166">
        <ele>3</ele>
        <time>2018-01-25T11:26:28.700000Z</time>
      </trkpt>
      <trkpt lat="35.94578450520833" lon="120.21719021267361">
        <ele>3</ele>
        <time>2018-01-25T11:26:31.700000Z</time>
      </trkpt>
      <trkpt lat="35.945583224826386" lon="120.21727349175347">
        <ele>3</ele>
        <time>2018-01-25T11:26:39.700000Z</time>
      </trkpt>
      <trkpt lat="35.94549370659722" lon="120.21731743706597">
        <ele>3</ele>
        <time>2018-01-25T11:26:43.600000Z</time>
      </trkpt>
      <trkpt lat="35.945322265625" lon="120.21741048177083">
        <ele>3</ele>
        <time>2018-01-25T11:26:50.600000Z</time>
      </trkpt>
      <trkpt lat="35.94522840711806" lon="120.21744737413195">
        <ele>3</ele>
        <time>2018-01-25T11:26:54.700000Z</time>
      </trkpt>
      <trkpt lat="35.94503716362847" lon="120.21752251519098">
        <ele>3</ele>
        <time>2018-01-25T11:27:01.700000Z</time>
      </trkpt>
      <trkpt lat="35.944951985677086" lon="120.21755886501737">
        <ele>3</ele>
        <time>2018-01-25T11:27:04.700000Z</time>
      </trkpt>
      <trkpt lat="35.94474365234375" lon="120.21765570746528">
        <ele>3</ele>
        <time>2018-01-25T11:27:12.700000Z</time>
      </trkpt>
      <trkpt lat="35.944644639756945" lon="120.21770236545139">
        <ele>3</ele>
        <time>2018-01-25T11:27:16.700000Z</time>
      </trkpt>
      <trkpt lat="35.9444580078125" lon="120.21780164930556">
        <ele>3</ele>
        <time>2018-01-25T11:27:24.700000Z</time>
      </trkpt>
      <trkpt lat="35.94436686197917" lon="120.21785101996528">
        <ele>3</ele>
        <time>2018-01-25T11:27:28.700000Z</time>
      </trkpt>
      <trkpt lat="35.94421223958334" lon="120.21796332465277">
        <ele>3</ele>
        <time>2018-01-25T11:27:36.700000Z</time>
      </trkpt>
      <trkpt lat="35.9441455078125" lon="120.217998046875">
        <ele>3</ele>
        <time>2018-01-25T11:27:39.700000Z</time>
      </trkpt>
      <trkpt lat="35.9440540907118" lon="120.21804443359375">
        <ele>3</ele>
        <time>2018-01-25T11:27:43.600000Z</time>
      </trkpt>
      <trkpt lat="35.9438134765625" lon="120.21802517361111">
        <ele>3</ele>
        <time>2018-01-25T11:27:56.700000Z</time>
      </trkpt>
      <trkpt lat="35.943729654947916" lon="120.2178550889757">
        <ele>3</ele>
        <time>2018-01-25T11:28:02.700000Z</time>
      </trkpt>
      <trkpt lat="35.943631456163196" lon="120.2176806640625">
        <ele>3</ele>
        <time>2018-01-25T11:28:09.700000Z</time>
      </trkpt>
      <trkpt lat="35.943592664930556" lon="120.2175670030382">
        <ele>3</ele>
        <time>2018-01-25T11:28:13.700000Z</time>
      </trkpt>
      <trkpt lat="35.943499620225694" lon="120.21738959418403">
        <ele>3</ele>
        <time>2018-01-25T11:28:20.700000Z</time>
      </trkpt>
      <trkpt lat="35.94342854817708" lon="120.21729871961806">
        <ele>3</ele>
        <time>2018-01-25T11:28:24.600000Z</time>
      </trkpt>
      <trkpt lat="35.94332763671875" lon="120.21714029947917">
        <ele>3</ele>
        <time>2018-01-25T11:28:31.700000Z</time>
      </trkpt>
      <trkpt lat="35.94328938802084" lon="120.21705973307292">
        <ele>3</ele>
        <time>2018-01-25T11:28:34.700000Z</time>
      </trkpt>
      <trkpt lat="35.94323486328125" lon="120.21695746527777">
        <ele>3</ele>
        <time>2018-01-25T11:28:38.700000Z</time>
      </trkpt>
      <trkpt lat="35.94312147352431" lon="120.21676215277778">
        <ele>3</ele>
        <time>2018-01-25T11:28:46.700000Z</time>
      </trkpt>
      <trkpt lat="35.943079969618054" lon="120.21669759114583">
        <ele>3</ele>
        <time>2018-01-25T11:28:49.700000Z</time>
      </trkpt>
      <trkpt lat="35.94304443359375" lon="120.21662543402778">
        <ele>3</ele>
        <time>2018-01-25T11:28:52.700000Z</time>
      </trkpt>
      <trkpt lat="35.94294949001736" lon="120.21644585503472">
        <ele>3</ele>
        <time>2018-01-25T11:28:59.700000Z</time>
      </trkpt>
      <trkpt lat="35.942898220486114" lon="120.21634440104167">
        <ele>3</ele>
        <time>2018-01-25T11:29:03.600000Z</time>
      </trkpt>
      <trkpt lat="35.942860514322916" lon="120.21627115885417">
        <ele>3</ele>
        <time>2018-01-25T11:29:06.600000Z</time>
      </trkpt>
      <trkpt lat="35.94276285807292" lon="120.21610541449652">
        <ele>3</ele>
        <time>2018-01-25T11:29:13.600000Z</time>
      </trkpt>
      <trkpt lat="35.942722710503475" lon="120.21603407118056">
        <ele>3</ele>
        <time>2018-01-25T11:29:16.600000Z</time>
      </trkpt>
      <trkpt lat="35.94266411675347" lon="120.2159375">
        <ele>3</ele>
        <time>2018-01-25T11:29:20.600000Z</time>
      </trkpt>
      <trkpt lat="35.9425599500868" lon="120.21576280381944">
        <ele>3</ele>
        <time>2018-01-25T11:29:27.700000Z</time>
      </trkpt>
      <trkpt lat="35.94252007378472" lon="120.21568223741319">
        <ele>3</ele>
        <time>2018-01-25T11:29:30.700000Z</time>
      </trkpt>
      <trkpt lat="35.94246554904514" lon="120.2155859375">
        <ele>3</ele>
        <time>2018-01-25T11:29:34.600000Z</time>
      </trkpt>
      <trkpt lat="35.942362738715275" lon="120.21543158637152">
        <ele>3</ele>
        <time>2018-01-25T11:29:41.600000Z</time>
      </trkpt>
      <trkpt lat="35.94231553819444" lon="120.21535725911458">
        <ele>3</ele>
        <time>2018-01-25T11:29:44.600000Z</time>
      </trkpt>
      <trkpt lat="35.942218153211805" lon="120.21518608940973">
        <ele>3</ele>
        <time>2018-01-25T11:29:51.700000Z</time>
      </trkpt>
      <trkpt lat="35.942157389322915" lon="120.21508327907986">
        <ele>3</ele>
        <time>2018-01-25T11:29:55.600000Z</time>
      </trkpt>
      <trkpt lat="35.942111545138886" lon="120.21501546223958">
        <ele>3</ele>
        <time>2018-01-25T11:29:58.700000Z</time>
      </trkpt>
      <trkpt lat="35.94202121310764" lon="120.21485378689236">
        <ele>3</ele>
        <time>2018-01-25T11:30:05.600000Z</time>
      </trkpt>
      <trkpt lat="35.94197998046875" lon="120.21478108723959">
        <ele>3</ele>
        <time>2018-01-25T11:30:08.700000Z</time>
      </trkpt>
      <trkpt lat="35.94186469184028" lon="120.21463785807292">
        <ele>3</ele>
        <time>2018-01-25T11:30:15.600000Z</time>
      </trkpt>
      <trkpt lat="35.941988932291665" lon="120.21433512369792">
        <ele>3</ele>
        <time>2018-01-25T11:30:29.700000Z</time>
      </trkpt>
      <trkpt lat="35.94209391276042" lon="120.21432047526042">
        <ele>3</ele>
        <time>2018-01-25T11:30:33.700000Z</time>
      </trkpt>
      <trkpt lat="35.942273491753475" lon="120.21427571614583">
        <ele>3</ele>
        <time>2018-01-25T11:30:40.700000Z</time>
      </trkpt>
      <trkpt lat="35.9423486328125" lon="120.21425021701388">
        <ele>3</ele>
        <time>2018-01-25T11:30:43.700000Z</time>
      </trkpt>
      <trkpt lat="35.942440592447916" lon="120.21421495225694">
        <ele>3</ele>
        <time>2018-01-25T11:30:47.700000Z</time>
      </trkpt>
      <trkpt lat="35.94260416666667" lon="120.21412679036459">
        <ele>3</ele>
        <time>2018-01-25T11:30:54.600000Z</time>
      </trkpt>
      <trkpt lat="35.94267442491319" lon="120.21408582899305">
        <ele>3</ele>
        <time>2018-01-25T11:30:57.700000Z</time>
      </trkpt>
      <trkpt lat="35.94286241319445" lon="120.21400065104167">
        <ele>3</ele>
        <time>2018-01-25T11:31:05.600000Z</time>
      </trkpt>
      <trkpt lat="35.94305419921875" lon="120.21397515190972">
        <ele>3</ele>
        <time>2018-01-25T11:31:13.600000Z</time>
      </trkpt>
      <trkpt lat="35.94312310112847" lon="120.21397379557291">
        <ele>3</ele>
        <time>2018-01-25T11:31:16.600000Z</time>
      </trkpt>
      <trkpt lat="35.94319742838542" lon="120.21397135416667">
        <ele>3</ele>
        <time>2018-01-25T11:31:19.600000Z</time>
      </trkpt>
      <trkpt lat="35.94338785807292" lon="120.2139564344618">
        <ele>3</ele>
        <time>2018-01-25T11:31:27.600000Z</time>
      </trkpt>
      <trkpt lat="35.94345703125" lon="120.21393473307292">
        <ele>3</ele>
        <time>2018-01-25T11:31:30.700000Z</time>
      </trkpt>
      <trkpt lat="35.943637424045136" lon="120.21385579427083">
        <ele>3</ele>
        <time>2018-01-25T11:31:38.700000Z</time>
      </trkpt>
      <trkpt lat="35.943728841145834" lon="120.21381917317709">
        <ele>3</ele>
        <time>2018-01-25T11:31:42.700000Z</time>
      </trkpt>
      <trkpt lat="35.943874782986114" lon="120.2137828233507">
        <ele>3</ele>
        <time>2018-01-25T11:31:48.700000Z</time>
      </trkpt>
      <trkpt lat="35.944042154947915" lon="120.21380398220487">
        <ele>3</ele>
        <time>2018-01-25T11:31:55.700000Z</time>
      </trkpt>
      <trkpt lat="35.94413031684028" lon="120.21384440104167">
        <ele>3</ele>
        <time>2018-01-25T11:31:59.600000Z</time>
      </trkpt>
      <trkpt lat="35.94419704861111" lon="120.21388400607638">
        <ele>3</ele>
        <time>2018-01-25T11:32:02.700000Z</time>
      </trkpt>
      <trkpt lat="35.94432996961805" lon="120.2139634874132">
        <ele>3</ele>
        <time>2018-01-25T11:32:09.700000Z</time>
      </trkpt>
      <trkpt lat="35.94453125" lon="120.21398790147569">
        <ele>3</ele>
        <time>2018-01-25T11:32:17.700000Z</time>
      </trkpt>
      <trkpt lat="35.94462646484375" lon="120.21396918402777">
        <ele>3</ele>
        <time>2018-01-25T11:32:21.700000Z</time>
      </trkpt>
      <trkpt lat="35.94479139539931" lon="120.21392822265625">
        <ele>3</ele>
        <time>2018-01-25T11:32:28.700000Z</time>
      </trkpt>
      <trkpt lat="35.94486002604167" lon="120.21391682942708">
        <ele>3</ele>
        <time>2018-01-25T11:32:31.800000Z</time>
      </trkpt>
      <trkpt lat="35.94494927300347" lon="120.21391276041666">
        <ele>3</ele>
        <time>2018-01-25T11:32:35.600000Z</time>
      </trkpt>
      <trkpt lat="35.94509738498264" lon="120.21388943142361">
        <ele>3</ele>
        <time>2018-01-25T11:32:41.700000Z</time>
      </trkpt>
      <trkpt lat="35.94518771701389" lon="120.21387451171876">
        <ele>3</ele>
        <time>2018-01-25T11:32:45.600000Z</time>
      </trkpt>
      <trkpt lat="35.94525933159722" lon="120.21386637369791">
        <ele>3</ele>
        <time>2018-01-25T11:32:48.700000Z</time>
      </trkpt>
      <trkpt lat="35.94544894748264" lon="120.21383544921875">
        <ele>3</ele>
        <time>2018-01-25T11:32:56.600000Z</time>
      </trkpt>
      <trkpt lat="35.945545518663195" lon="120.21382351345486">
        <ele>3</ele>
        <time>2018-01-25T11:33:00.600000Z</time>
      </trkpt>
      <trkpt lat="35.945613335503474" lon="120.21381537543402">
        <ele>3</ele>
        <time>2018-01-25T11:33:03.600000Z</time>
      </trkpt>
      <trkpt lat="35.94575412326389" lon="120.21379991319445">
        <ele>3</ele>
        <time>2018-01-25T11:33:09.700000Z</time>
      </trkpt>
      <trkpt lat="35.94581705729167" lon="120.21378987630209">
        <ele>3</ele>
        <time>2018-01-25T11:33:12.800000Z</time>
      </trkpt>
      <trkpt lat="35.94590657552083" lon="120.21377821180556">
        <ele>3</ele>
        <time>2018-01-25T11:33:16.700000Z</time>
      </trkpt>
      <trkpt lat="35.946103515625" lon="120.21375840928819">
        <ele>3</ele>
        <time>2018-01-25T11:33:24.700000Z</time>
      </trkpt>
      <trkpt lat="35.94617431640625" lon="120.2137486436632">
        <ele>3</ele>
        <time>2018-01-25T11:33:27.700000Z</time>
      </trkpt>
      <trkpt lat="35.946246744791665" lon="120.21373969184027">
        <ele>3</ele>
        <time>2018-01-25T11:33:30.700000Z</time>
      </trkpt>
      <trkpt lat="35.946407335069445" lon="120.21371907552083">
        <ele>3</ele>
        <time>2018-01-25T11:33:37.700000Z</time>
      </trkpt>
      <trkpt lat="35.94649169921875" lon="120.21370524088542">
        <ele>3</ele>
        <time>2018-01-25T11:33:41.700000Z</time>
      </trkpt>
      <trkpt lat="35.946589898003474" lon="120.21369194878473">
        <ele>3</ele>
        <time>2018-01-25T11:33:45.700000Z</time>
      </trkpt>
      <trkpt lat="35.946757269965275" lon="120.21367160373264">
        <ele>3</ele>
        <time>2018-01-25T11:33:52.700000Z</time>
      </trkpt>
      <trkpt lat="35.94684733072916" lon="120.21366048177083">
        <ele>3</ele>
        <time>2018-01-25T11:33:56.600000Z</time>
      </trkpt>
      <trkpt lat="35.94691379123264" lon="120.21365152994791">
        <ele>3</ele>
        <time>2018-01-25T11:33:59.600000Z</time>
      </trkpt>
      <trkpt lat="35.947183973524304" lon="120.21346001519098">
        <ele>3</ele>
        <time>2018-01-25T11:34:15.600000Z</time>
      </trkpt>
      <trkpt lat="35.94716471354167" lon="120.21332465277777">
        <ele>3</ele>
        <time>2018-01-25T11:34:19.600000Z</time>
      </trkpt>
      <trkpt lat="35.94713460286459" lon="120.21311903211806">
        <ele>3</ele>
        <time>2018-01-25T11:34:26.700000Z</time>
      </trkpt>
      <trkpt lat="35.947117241753475" lon="120.21299696180556">
        <ele>3</ele>
        <time>2018-01-25T11:34:30.700000Z</time>
      </trkpt>
      <trkpt lat="35.94710205078125" lon="120.21288113064236">
        <ele>3</ele>
        <time>2018-01-25T11:34:34.600000Z</time>
      </trkpt>
      <trkpt lat="35.947086588541666" lon="120.2127218967014">
        <ele>3</ele>
        <time>2018-01-25T11:34:40.600000Z</time>
      </trkpt>
      <trkpt lat="35.94707628038194" lon="120.21260281032986">
        <ele>3</ele>
        <time>2018-01-25T11:34:44.600000Z</time>
      </trkpt>
      <trkpt lat="35.94706895616319" lon="120.21251736111111">
        <ele>3</ele>
        <time>2018-01-25T11:34:47.600000Z</time>
      </trkpt>
      <trkpt lat="35.94712103949653" lon="120.2121058485243">
        <ele>3</ele>
        <time>2018-01-25T11:35:02.700000Z</time>
      </trkpt>
      <trkpt lat="35.94715603298611" lon="120.21203233506944">
        <ele>3</ele>
        <time>2018-01-25T11:35:05.900000Z</time>
      </trkpt>
      <trkpt lat="35.947201063368055" lon="120.21193413628473">
        <ele>3</ele>
        <time>2018-01-25T11:35:09.700000Z</time>
      </trkpt>
      <trkpt lat="35.94727213541667" lon="120.21176242404513">
        <ele>3</ele>
        <time>2018-01-25T11:35:16.700000Z</time>
      </trkpt>
      <trkpt lat="35.947314453125" lon="120.21166314019098">
        <ele>3</ele>
        <time>2018-01-25T11:35:20.700000Z</time>
      </trkpt>
      <trkpt lat="35.94734754774306" lon="120.21159098307292">
        <ele>3</ele>
        <time>2018-01-25T11:35:23.700000Z</time>
      </trkpt>
      <trkpt lat="35.947422146267364" lon="120.21140055338542">
        <ele>3</ele>
        <time>2018-01-25T11:35:30.700000Z</time>
      </trkpt>
      <trkpt lat="35.94746826171875" lon="120.21129286024305">
        <ele>3</ele>
        <time>2018-01-25T11:35:34.600000Z</time>
      </trkpt>
      <trkpt lat="35.94750108506945" lon="120.21121229383681">
        <ele>3</ele>
        <time>2018-01-25T11:35:37.600000Z</time>
      </trkpt>
      <trkpt lat="35.94756591796875" lon="120.21104193793403">
        <ele>3</ele>
        <time>2018-01-25T11:35:43.700000Z</time>
      </trkpt>
      <trkpt lat="35.94761094835069" lon="120.21093939887153">
        <ele>3</ele>
        <time>2018-01-25T11:35:47.700000Z</time>
      </trkpt>
      <trkpt lat="35.947657606336804" lon="120.21082899305556">
        <ele>3</ele>
        <time>2018-01-25T11:35:51.700000Z</time>
      </trkpt>
      <trkpt lat="35.947727864583335" lon="120.21066514756944">
        <ele>3</ele>
        <time>2018-01-25T11:35:57.700000Z</time>
      </trkpt>
      <trkpt lat="35.94780246310764" lon="120.21046006944445">
        <ele>3</ele>
        <time>2018-01-25T11:36:05.600000Z</time>
      </trkpt>
      <trkpt lat="35.94783257378472" lon="120.210380859375">
        <ele>3</ele>
        <time>2018-01-25T11:36:08.600000Z</time>
      </trkpt>
      <trkpt lat="35.94786892361111" lon="120.21030029296875">
        <ele>3</ele>
        <time>2018-01-25T11:36:11.700000Z</time>
      </trkpt>
      <trkpt lat="35.94793782552083" lon="120.21012668185764">
        <ele>3</ele>
        <time>2018-01-25T11:36:17.700000Z</time>
      </trkpt>
      <trkpt lat="35.94799967447916" lon="120.20990125868056">
        <ele>3</ele>
        <time>2018-01-25T11:36:25.600000Z</time>
      </trkpt>
      <trkpt lat="35.948011067708336" lon="120.20981743706598">
        <ele>3</ele>
        <time>2018-01-25T11:36:28.600000Z</time>
      </trkpt>
      <trkpt lat="35.9480113389757" lon="120.20960422092014">
        <ele>3</ele>
        <time>2018-01-25T11:36:35.700000Z</time>
      </trkpt>
      <trkpt lat="35.94800509982639" lon="120.20950846354167">
        <ele>3</ele>
        <time>2018-01-25T11:36:38.700000Z</time>
      </trkpt>
      <trkpt lat="35.947987467447916" lon="120.20938639322917">
        <ele>3</ele>
        <time>2018-01-25T11:36:42.700000Z</time>
      </trkpt>
      <trkpt lat="35.94811143663195" lon="120.20930202907986">
        <ele>3</ele>
        <time>2018-01-25T11:36:52.700000Z</time>
      </trkpt>
      <trkpt lat="35.94821099175347" lon="120.2093589952257">
        <ele>3</ele>
        <time>2018-01-25T11:36:56.600000Z</time>
      </trkpt>
      <trkpt lat="35.9482554796007" lon="120.20938802083333">
        <ele>3</ele>
        <time>2018-01-25T11:37:00.200000Z</time>
      </trkpt>
      <trkpt lat="35.94859402126736" lon="120.20953043619792">
        <ele>3</ele>
        <time>2018-01-25T11:37:13.800000Z</time>
      </trkpt>
      <trkpt lat="35.94872422960069" lon="120.20947998046876">
        <ele>3</ele>
        <time>2018-01-25T11:37:22Z</time>
      </trkpt>
      <trkpt lat="35.94895046657986" lon="120.20952094184028">
        <ele>3</ele>
        <time>2018-01-25T11:37:29.600000Z</time>
      </trkpt>
      <trkpt lat="35.94905083550347" lon="120.20953016493056">
        <ele>3</ele>
        <time>2018-01-25T11:37:33.600000Z</time>
      </trkpt>
      <trkpt lat="35.94912489149306" lon="120.2095361328125">
        <ele>3</ele>
        <time>2018-01-25T11:37:36.700000Z</time>
      </trkpt>
      <trkpt lat="35.94929470486111" lon="120.20954888237847">
        <ele>3</ele>
        <time>2018-01-25T11:37:43.700000Z</time>
      </trkpt>
      <trkpt lat="35.94934868706597" lon="120.20956136067709">
        <ele>3</ele>
        <time>2018-01-25T11:37:46.700000Z</time>
      </trkpt>
      <trkpt lat="35.94941379123264" lon="120.20958170572916">
        <ele>3</ele>
        <time>2018-01-25T11:37:49.700000Z</time>
      </trkpt>
      <trkpt lat="35.94960286458333" lon="120.20961751302083">
        <ele>3</ele>
        <time>2018-01-25T11:37:57.600000Z</time>
      </trkpt>
      <trkpt lat="35.94969129774306" lon="120.20963216145833">
        <ele>3</ele>
        <time>2018-01-25T11:38:01.600000Z</time>
      </trkpt>
      <trkpt lat="35.94986002604167" lon="120.20965169270833">
        <ele>3</ele>
        <time>2018-01-25T11:38:08.600000Z</time>
      </trkpt>
      <trkpt lat="35.949938422309025" lon="120.2096630859375">
        <ele>3</ele>
        <time>2018-01-25T11:38:11.600000Z</time>
      </trkpt>
      <trkpt lat="35.95003743489583" lon="120.20967068142362">
        <ele>3</ele>
        <time>2018-01-25T11:38:15.600000Z</time>
      </trkpt>
      <trkpt lat="35.95019232855903" lon="120.20967610677083">
        <ele>3</ele>
        <time>2018-01-25T11:38:22.700000Z</time>
      </trkpt>
      <trkpt lat="35.95026095920139" lon="120.20965955946181">
        <ele>3</ele>
        <time>2018-01-25T11:38:25.700000Z</time>
      </trkpt>
      <trkpt lat="35.95035400390625" lon="120.20964165581597">
        <ele>3</ele>
        <time>2018-01-25T11:38:29.700000Z</time>
      </trkpt>
      <trkpt lat="35.950955674913196" lon="120.2096728515625">
        <ele>3</ele>
        <time>2018-01-25T11:38:54.600000Z</time>
      </trkpt>
      <trkpt lat="35.951030815972224" lon="120.20967854817708">
        <ele>3</ele>
        <time>2018-01-25T11:38:57.600000Z</time>
      </trkpt>
      <trkpt lat="35.951106770833334" lon="120.20966715494792">
        <ele>3</ele>
        <time>2018-01-25T11:39:00.700000Z</time>
      </trkpt>
      <trkpt lat="35.95128716362847" lon="120.20963731553819">
        <ele>3</ele>
        <time>2018-01-25T11:39:07.700000Z</time>
      </trkpt>
      <trkpt lat="35.95133734809028" lon="120.20962782118056">
        <ele>3</ele>
        <time>2018-01-25T11:39:14.400000Z</time>
      </trkpt>
      <trkpt lat="35.95165011935764" lon="120.2095689561632">
        <ele>3</ele>
        <time>2018-01-25T11:39:22.700000Z</time>
      </trkpt>
      <trkpt lat="35.95174343532986" lon="120.20955485026042">
        <ele>3</ele>
        <time>2018-01-25T11:39:26.600000Z</time>
      </trkpt>
      <trkpt lat="35.951823187934025" lon="120.20954291449652">
        <ele>3</ele>
        <time>2018-01-25T11:39:29.600000Z</time>
      </trkpt>
      <trkpt lat="35.95197319878472" lon="120.20952039930556">
        <ele>3</ele>
        <time>2018-01-25T11:39:35.600000Z</time>
      </trkpt>
      <trkpt lat="35.952067328559025" lon="120.20950439453125">
        <ele>3</ele>
        <time>2018-01-25T11:39:39.700000Z</time>
      </trkpt>
      <trkpt lat="35.9521337890625" lon="120.20949978298611">
        <ele>3</ele>
        <time>2018-01-25T11:39:42.700000Z</time>
      </trkpt>
      <trkpt lat="35.95231662326389" lon="120.20946533203124">
        <ele>3</ele>
        <time>2018-01-25T11:39:50.600000Z</time>
      </trkpt>
      <trkpt lat="35.95240695529514" lon="120.20944742838542">
        <ele>3</ele>
        <time>2018-01-25T11:39:54.600000Z</time>
      </trkpt>
      <trkpt lat="35.95259223090278" lon="120.20941596137153">
        <ele>3</ele>
        <time>2018-01-25T11:40:02.600000Z</time>
      </trkpt>
      <trkpt lat="35.952656792534725" lon="120.20940185546876">
        <ele>3</ele>
        <time>2018-01-25T11:40:05.600000Z</time>
      </trkpt>
      <trkpt lat="35.952725423177085" lon="120.2093896484375">
        <ele>3</ele>
        <time>2018-01-25T11:40:08.700000Z</time>
      </trkpt>
      <trkpt lat="35.95290201822917" lon="120.20936225043403">
        <ele>3</ele>
        <time>2018-01-25T11:40:16.600000Z</time>
      </trkpt>
      <trkpt lat="35.952997504340274" lon="120.20934814453125">
        <ele>3</ele>
        <time>2018-01-25T11:40:20.600000Z</time>
      </trkpt>
      <trkpt lat="35.95314643012153" lon="120.20932345920139">
        <ele>3</ele>
        <time>2018-01-25T11:40:27.600000Z</time>
      </trkpt>
      <trkpt lat="35.95321614583333" lon="120.20931125217014">
        <ele>3</ele>
        <time>2018-01-25T11:40:30.700000Z</time>
      </trkpt>
      <trkpt lat="35.95330729166667" lon="120.20929389105903">
        <ele>3</ele>
        <time>2018-01-25T11:40:34.600000Z</time>
      </trkpt>
      <trkpt lat="35.953464626736114" lon="120.20928059895833">
        <ele>3</ele>
        <time>2018-01-25T11:40:41.700000Z</time>
      </trkpt>
      <trkpt lat="35.95355116102431" lon="120.20926215277778">
        <ele>3</ele>
        <time>2018-01-25T11:40:45.600000Z</time>
      </trkpt>
      <trkpt lat="35.95361924913195" lon="120.20924723307292">
        <ele>3</ele>
        <time>2018-01-25T11:40:48.700000Z</time>
      </trkpt>
      <trkpt lat="35.9537646484375" lon="120.20921956380208">
        <ele>3</ele>
        <time>2018-01-25T11:40:55.800000Z</time>
      </trkpt>
      <trkpt lat="35.95386338975695" lon="120.20921061197917">
        <ele>3</ele>
        <time>2018-01-25T11:40:59.700000Z</time>
      </trkpt>
      <trkpt lat="35.95393527560764" lon="120.20920220269097">
        <ele>3</ele>
        <time>2018-01-25T11:41:02.700000Z</time>
      </trkpt>
      <trkpt lat="35.954091796875" lon="120.20918321397569">
        <ele>3</ele>
        <time>2018-01-25T11:41:09.600000Z</time>
      </trkpt>
      <trkpt lat="35.95412624782986" lon="120.20917941623264">
        <ele>3</ele>
        <time>2018-01-25T11:41:12.700000Z</time>
      </trkpt>
      <trkpt lat="35.95416178385417" lon="120.20918484157986">
        <ele>3</ele>
        <time>2018-01-25T11:41:16.700000Z</time>
      </trkpt>
      <trkpt lat="35.95422064887153" lon="120.20916720920138">
        <ele>3</ele>
        <time>2018-01-25T11:41:20.600000Z</time>
      </trkpt>
      <trkpt lat="35.95428927951389" lon="120.20915364583334">
        <ele>3</ele>
        <time>2018-01-25T11:41:23.700000Z</time>
      </trkpt>
      <trkpt lat="35.95446668836806" lon="120.20913031684027">
        <ele>3</ele>
        <time>2018-01-25T11:41:30.700000Z</time>
      </trkpt>
      <trkpt lat="35.95456732855903" lon="120.209111328125">
        <ele>3</ele>
        <time>2018-01-25T11:41:34.700000Z</time>
      </trkpt>
      <trkpt lat="35.9547509765625" lon="120.20907497829862">
        <ele>3</ele>
        <time>2018-01-25T11:41:41.700000Z</time>
      </trkpt>
      <trkpt lat="35.95484646267361" lon="120.209072265625">
        <ele>3</ele>
        <time>2018-01-25T11:41:45.700000Z</time>
      </trkpt>
      <trkpt lat="35.95491156684028" lon="120.20907335069444">
        <ele>3</ele>
        <time>2018-01-25T11:41:48.700000Z</time>
      </trkpt>
      <trkpt lat="35.955097927517365" lon="120.20908610026042">
        <ele>3</ele>
        <time>2018-01-25T11:41:56.700000Z</time>
      </trkpt>
      <trkpt lat="35.95545274522569" lon="120.20928927951388">
        <ele>3</ele>
        <time>2018-01-25T11:42:14.700000Z</time>
      </trkpt>
      <trkpt lat="35.955454915364584" lon="120.20938096788194">
        <ele>3</ele>
        <time>2018-01-25T11:42:17.700000Z</time>
      </trkpt>
      <trkpt lat="35.95548394097222" lon="120.20957763671875">
        <ele>3</ele>
        <time>2018-01-25T11:42:24.700000Z</time>
      </trkpt>
      <trkpt lat="35.95550238715278" lon="120.20968939887153">
        <ele>3</ele>
        <time>2018-01-25T11:42:28.700000Z</time>
      </trkpt>
      <trkpt lat="35.95551188151042" lon="120.20977159288195">
        <ele>3</ele>
        <time>2018-01-25T11:42:31.700000Z</time>
      </trkpt>
      <trkpt lat="35.95555230034722" lon="120.21000081380208">
        <ele>3</ele>
        <time>2018-01-25T11:42:39.700000Z</time>
      </trkpt>
      <trkpt lat="35.95557590060764" lon="120.2101150173611">
        <ele>3</ele>
        <time>2018-01-25T11:42:43.700000Z</time>
      </trkpt>
      <trkpt lat="35.95559109157986" lon="120.21020643446181">
        <ele>3</ele>
        <time>2018-01-25T11:42:46.700000Z</time>
      </trkpt>
      <trkpt lat="35.95562879774305" lon="120.21044487847222">
        <ele>3</ele>
        <time>2018-01-25T11:42:54.700000Z</time>
      </trkpt>
      <trkpt lat="35.955646701388886" lon="120.21069986979167">
        <ele>3</ele>
        <time>2018-01-25T11:43:02.700000Z</time>
      </trkpt>
      <trkpt lat="35.955661349826386" lon="120.21082085503473">
        <ele>3</ele>
        <time>2018-01-25T11:43:06.700000Z</time>
      </trkpt>
      <trkpt lat="35.95568956163194" lon="120.21100233289931">
        <ele>3</ele>
        <time>2018-01-25T11:43:13.700000Z</time>
      </trkpt>
      <trkpt lat="35.95572862413194" lon="120.21123616536458">
        <ele>3</ele>
        <time>2018-01-25T11:43:21.700000Z</time>
      </trkpt>
      <trkpt lat="35.9557728407118" lon="120.2115882703993">
        <ele>3</ele>
        <time>2018-01-25T11:43:32.700000Z</time>
      </trkpt>
      <trkpt lat="35.955783962673614" lon="120.21171522352431">
        <ele>3</ele>
        <time>2018-01-25T11:43:36.700000Z</time>
      </trkpt>
      <trkpt lat="35.95578965928819" lon="120.21193277994792">
        <ele>3</ele>
        <time>2018-01-25T11:43:43.700000Z</time>
      </trkpt>
      <trkpt lat="35.95578531901042" lon="120.2120480685764">
        <ele>3</ele>
        <time>2018-01-25T11:43:47.600000Z</time>
      </trkpt>
      <trkpt lat="35.9557972547743" lon="120.2122398546007">
        <ele>3</ele>
        <time>2018-01-25T11:43:54.700000Z</time>
      </trkpt>
      <trkpt lat="35.95580783420139" lon="120.21232801649306">
        <ele>3</ele>
        <time>2018-01-25T11:43:57.700000Z</time>
      </trkpt>
      <trkpt lat="35.9558203125" lon="120.2124490017361">
        <ele>3</ele>
        <time>2018-01-25T11:44:01.700000Z</time>
      </trkpt>
      <trkpt lat="35.955989312065974" lon="120.21270724826388">
        <ele>3</ele>
        <time>2018-01-25T11:44:17.700000Z</time>
      </trkpt>
      <trkpt lat="35.95609456380208" lon="120.21266899956598">
        <ele>3</ele>
        <time>2018-01-25T11:44:21.700000Z</time>
      </trkpt>
      <trkpt lat="35.95628363715278" lon="120.21261284722222">
        <ele>3</ele>
        <time>2018-01-25T11:44:29.700000Z</time>
      </trkpt>
      <trkpt lat="35.95638916015625" lon="120.21258680555556">
        <ele>3</ele>
        <time>2018-01-25T11:44:33.600000Z</time>
      </trkpt>
      <trkpt lat="35.95665907118055" lon="120.21278455946181">
        <ele>3</ele>
        <time>2018-01-25T11:44:50.700000Z</time>
      </trkpt>
      <trkpt lat="35.956653917100695" lon="120.21281846788195">
        <ele>3</ele>
        <time>2018-01-25T11:44:53.800000Z</time>
      </trkpt>
      <trkpt lat="35.95666341145834" lon="120.21287055121527">
        <ele>3</ele>
        <time>2018-01-25T11:44:57.700000Z</time>
      </trkpt>
      <trkpt lat="35.95666612413194" lon="120.21292561848958">
        <ele>3</ele>
        <time>2018-01-25T11:45:01.700000Z</time>
      </trkpt>
      <trkpt lat="35.956670735677086" lon="120.21295084635416">
        <ele>3</ele>
        <time>2018-01-25T11:45:07.700000Z</time>
      </trkpt>
      <trkpt lat="35.95668646918403" lon="120.21291856553819">
        <ele>3</ele>
        <time>2018-01-25T11:45:11.700000Z</time>
      </trkpt>
      <trkpt lat="35.95660888671875" lon="120.21287163628472">
        <ele>3</ele>
        <time>2018-01-25T11:45:19.600000Z</time>
      </trkpt>
      <trkpt lat="35.95661892361111" lon="120.2129541015625">
        <ele>3</ele>
        <time>2018-01-25T11:45:25.700000Z</time>
      </trkpt>
      <trkpt lat="35.95662651909722" lon="120.21302897135416">
        <ele>3</ele>
        <time>2018-01-25T11:45:29.700000Z</time>
      </trkpt>
      <trkpt lat="35.956644422743054" lon="120.21309190538194">
        <ele>3</ele>
        <time>2018-01-25T11:45:33.700000Z</time>
      </trkpt>
      <trkpt lat="35.95664740668403" lon="120.2131467013889">
        <ele>3</ele>
        <time>2018-01-25T11:45:36.700000Z</time>
      </trkpt>
      <trkpt lat="35.95666042751736" lon="120.21334011501736">
        <ele>3</ele>
        <time>2018-01-25T11:45:44.700000Z</time>
      </trkpt>
      <trkpt lat="35.95666693793403" lon="120.21343153211805">
        <ele>3</ele>
        <time>2018-01-25T11:45:47.700000Z</time>
      </trkpt>
      <trkpt lat="35.956668565538195" lon="120.21352457682292">
        <ele>3</ele>
        <time>2018-01-25T11:45:50.700000Z</time>
      </trkpt>
      <trkpt lat="35.95677273220486" lon="120.2142152235243">
        <ele>3</ele>
        <time>2018-01-25T11:46:13.600000Z</time>
      </trkpt>
      <trkpt lat="35.95677083333333" lon="120.21440483940972">
        <ele>3</ele>
        <time>2018-01-25T11:46:19.700000Z</time>
      </trkpt>
      <trkpt lat="35.956813693576386" lon="120.21457980685764">
        <ele>3</ele>
        <time>2018-01-25T11:46:25.700000Z</time>
      </trkpt>
      <trkpt lat="35.956858723958334" lon="120.21481662326389">
        <ele>3</ele>
        <time>2018-01-25T11:46:33.700000Z</time>
      </trkpt>
      <trkpt lat="35.95687282986111" lon="120.2149329969618">
        <ele>3</ele>
        <time>2018-01-25T11:46:37.700000Z</time>
      </trkpt>
      <trkpt lat="35.95710747612847" lon="120.21508870442709">
        <ele>3</ele>
        <time>2018-01-25T11:46:51.700000Z</time>
      </trkpt>
      <trkpt lat="35.95717502170139" lon="120.21510009765625">
        <ele>3</ele>
        <time>2018-01-25T11:46:57.700000Z</time>
      </trkpt>
      <trkpt lat="35.95721950954861" lon="120.2151869032118">
        <ele>3</ele>
        <time>2018-01-25T11:47:05.900000Z</time>
      </trkpt>
    </trkseg>
  </trk>
</gpx>