<?xml version="1.0" encoding="UTF-8"?>
<gpx xmlns="http://www.topografix.com/GPX/1/1" xmlns:gpxtpx="http://www.garmin.com/xmlschemas/TrackPointExtension/v1" xmlns:xsi="http://www.w3.org/2001/XMLSchema-instance" xsi:schemaLocation="http://www.topografix.com/GPX/1/1 http://www.topografix.com/GPX/1/1/gpx.xsd" version="1.1" creator="gpx.py -- https://github.com/tkrajina/gpxpy">
  <trk>
    <name>gpx from keep</name>
    <trkseg>
      <trkpt lat="35.95719835069445" lon="120.2150523546007">
        <ele>4</ele>
        <time>2018-01-04T11:31:08.900000Z</time>
      </trkpt>
      <trkpt lat="35.95725965711806" lon="120.21502143012152">
        <ele>4</ele>
        <time>2018-01-04T11:31:12.900000Z</time>
      </trkpt>
      <trkpt lat="35.95747097439236" lon="120.21496799045138">
        <ele>4</ele>
        <time>2018-01-04T11:31:20.900000Z</time>
      </trkpt>
      <trkpt lat="35.95756510416667" lon="120.21495632595486">
        <ele>4</ele>
        <time>2018-01-04T11:31:23.900000Z</time>
      </trkpt>
      <trkpt lat="35.957819281684024" lon="120.214853515625">
        <ele>4</ele>
        <time>2018-01-04T11:31:34.800000Z</time>
      </trkpt>
      <trkpt lat="35.957939453125" lon="120.21513834635417">
        <ele>4</ele>
        <time>2018-01-04T11:31:48.900000Z</time>
      </trkpt>
      <trkpt lat="35.957926703559025" lon="120.21537787543403">
        <ele>4</ele>
        <time>2018-01-04T11:31:55.900000Z</time>
      </trkpt>
      <trkpt lat="35.95794596354167" lon="120.21557535807291">
        <ele>4</ele>
        <time>2018-01-04T11:32:02.800000Z</time>
      </trkpt>
      <trkpt lat="35.95794514973959" lon="120.21571804470486">
        <ele>3</ele>
        <time>2018-01-04T11:32:06.800000Z</time>
      </trkpt>
      <trkpt lat="35.95780029296875" lon="120.21586018880208">
        <ele>3</ele>
        <time>2018-01-04T11:32:17.900000Z</time>
      </trkpt>
      <trkpt lat="35.957724609375" lon="120.2158558485243">
        <ele>4</ele>
        <time>2018-01-04T11:32:20.900000Z</time>
      </trkpt>
      <trkpt lat="35.95754177517361" lon="120.21582600911458">
        <ele>4</ele>
        <time>2018-01-04T11:32:28.900000Z</time>
      </trkpt>
      <trkpt lat="35.95744493272569" lon="120.21582492404514">
        <ele>4</ele>
        <time>2018-01-04T11:32:32.900000Z</time>
      </trkpt>
      <trkpt lat="35.95725260416667" lon="120.21585883246527">
        <ele>4</ele>
        <time>2018-01-04T11:32:40.900000Z</time>
      </trkpt>
      <trkpt lat="35.95709364149305" lon="120.21591010199653">
        <ele>3</ele>
        <time>2018-01-04T11:32:47.900000Z</time>
      </trkpt>
      <trkpt lat="35.957012261284724" lon="120.21595947265625">
        <ele>3</ele>
        <time>2018-01-04T11:32:51.900000Z</time>
      </trkpt>
      <trkpt lat="35.956861165364586" lon="120.21602701822917">
        <ele>3</ele>
        <time>2018-01-04T11:32:58.900000Z</time>
      </trkpt>
      <trkpt lat="35.95669352213542" lon="120.21606553819444">
        <ele>3</ele>
        <time>2018-01-04T11:33:05.900000Z</time>
      </trkpt>
      <trkpt lat="35.95662624782986" lon="120.21607693142361">
        <ele>3</ele>
        <time>2018-01-04T11:33:08.900000Z</time>
      </trkpt>
      <trkpt lat="35.956433648003475" lon="120.21609429253472">
        <ele>3</ele>
        <time>2018-01-04T11:33:15.900000Z</time>
      </trkpt>
      <trkpt lat="35.95617051866319" lon="120.21608154296875">
        <ele>3</ele>
        <time>2018-01-04T11:33:25.900000Z</time>
      </trkpt>
      <trkpt lat="35.95607177734375" lon="120.21609781901041">
        <ele>3</ele>
        <time>2018-01-04T11:33:29.900000Z</time>
      </trkpt>
      <trkpt lat="35.955775824652775" lon="120.21629638671875">
        <ele>3</ele>
        <time>2018-01-04T11:33:42.900000Z</time>
      </trkpt>
      <trkpt lat="35.95571017795139" lon="120.2163978407118">
        <ele>3</ele>
        <time>2018-01-04T11:33:46.900000Z</time>
      </trkpt>
      <trkpt lat="35.95565945095486" lon="120.21647162543402">
        <ele>3</ele>
        <time>2018-01-04T11:33:49.900000Z</time>
      </trkpt>
      <trkpt lat="35.955615234375" lon="120.21672417534722">
        <ele>3</ele>
        <time>2018-01-04T11:33:57.800000Z</time>
      </trkpt>
      <trkpt lat="35.95563395182292" lon="120.21682915581597">
        <ele>3</ele>
        <time>2018-01-04T11:34:00.900000Z</time>
      </trkpt>
      <trkpt lat="35.95567654079861" lon="120.21703450520833">
        <ele>3</ele>
        <time>2018-01-04T11:34:07.900000Z</time>
      </trkpt>
      <trkpt lat="35.95570421006944" lon="120.2171568467882">
        <ele>3</ele>
        <time>2018-01-04T11:34:11.900000Z</time>
      </trkpt>
      <trkpt lat="35.95572781032986" lon="120.21724256727431">
        <ele>3</ele>
        <time>2018-01-04T11:34:14.900000Z</time>
      </trkpt>
      <trkpt lat="35.95577772352431" lon="120.2174449327257">
        <ele>3</ele>
        <time>2018-01-04T11:34:21.900000Z</time>
      </trkpt>
      <trkpt lat="35.955799424913195" lon="120.21753092447916">
        <ele>3</ele>
        <time>2018-01-04T11:34:24.900000Z</time>
      </trkpt>
      <trkpt lat="35.95582411024306" lon="120.21764241536458">
        <ele>3</ele>
        <time>2018-01-04T11:34:28.900000Z</time>
      </trkpt>
      <trkpt lat="35.95588595920139" lon="120.21783501519097">
        <ele>3</ele>
        <time>2018-01-04T11:34:35.900000Z</time>
      </trkpt>
      <trkpt lat="35.95592502170139" lon="120.21794840494792">
        <ele>3</ele>
        <time>2018-01-04T11:34:39.900000Z</time>
      </trkpt>
      <trkpt lat="35.955952962239586" lon="120.21802815755208">
        <ele>3</ele>
        <time>2018-01-04T11:34:42.900000Z</time>
      </trkpt>
      <trkpt lat="35.95576144748264" lon="120.21850802951388">
        <ele>3</ele>
        <time>2018-01-04T11:35:08.900000Z</time>
      </trkpt>
      <trkpt lat="35.955409342447915" lon="120.21856580946181">
        <ele>3</ele>
        <time>2018-01-04T11:35:20.800000Z</time>
      </trkpt>
      <trkpt lat="35.95524034288194" lon="120.2185755750868">
        <ele>3</ele>
        <time>2018-01-04T11:35:28.800000Z</time>
      </trkpt>
      <trkpt lat="35.954976399739586" lon="120.21864447699653">
        <ele>3</ele>
        <time>2018-01-04T11:35:39Z</time>
      </trkpt>
      <trkpt lat="35.95485894097222" lon="120.2186683485243">
        <ele>3</ele>
        <time>2018-01-04T11:35:42.800000Z</time>
      </trkpt>
      <trkpt lat="35.95471245659722" lon="120.21870632595486">
        <ele>3</ele>
        <time>2018-01-04T11:35:48.900000Z</time>
      </trkpt>
      <trkpt lat="35.954632703993056" lon="120.21872178819444">
        <ele>3</ele>
        <time>2018-01-04T11:35:51.900000Z</time>
      </trkpt>
      <trkpt lat="35.95453396267361" lon="120.21873779296875">
        <ele>3</ele>
        <time>2018-01-04T11:35:55.900000Z</time>
      </trkpt>
      <trkpt lat="35.95438991970486" lon="120.21875678168402">
        <ele>3</ele>
        <time>2018-01-04T11:36:01.900000Z</time>
      </trkpt>
      <trkpt lat="35.95428249782986" lon="120.2187966579861">
        <ele>3</ele>
        <time>2018-01-04T11:36:05.800000Z</time>
      </trkpt>
      <trkpt lat="35.95420979817708" lon="120.21881944444445">
        <ele>3</ele>
        <time>2018-01-04T11:36:08.800000Z</time>
      </trkpt>
      <trkpt lat="35.954058973524305" lon="120.21886393229167">
        <ele>3</ele>
        <time>2018-01-04T11:36:14.900000Z</time>
      </trkpt>
      <trkpt lat="35.95399631076389" lon="120.21886610243055">
        <ele>3</ele>
        <time>2018-01-04T11:36:17.900000Z</time>
      </trkpt>
      <trkpt lat="35.95392333984375" lon="120.21888671875">
        <ele>3</ele>
        <time>2018-01-04T11:36:20.900000Z</time>
      </trkpt>
      <trkpt lat="35.95376953125" lon="120.21895779079861">
        <ele>3</ele>
        <time>2018-01-04T11:36:27.900000Z</time>
      </trkpt>
      <trkpt lat="35.953618706597226" lon="120.21898980034722">
        <ele>3</ele>
        <time>2018-01-04T11:36:34.900000Z</time>
      </trkpt>
      <trkpt lat="35.95344780815972" lon="120.21896891276042">
        <ele>3</ele>
        <time>2018-01-04T11:36:41.900000Z</time>
      </trkpt>
      <trkpt lat="35.9532847764757" lon="120.21897081163195">
        <ele>3</ele>
        <time>2018-01-04T11:36:48.900000Z</time>
      </trkpt>
      <trkpt lat="35.953045789930556" lon="120.21884195963541">
        <ele>3</ele>
        <time>2018-01-04T11:36:59.900000Z</time>
      </trkpt>
      <trkpt lat="35.95292697482639" lon="120.2186461046007">
        <ele>3</ele>
        <time>2018-01-04T11:37:07.800000Z</time>
      </trkpt>
      <trkpt lat="35.95290771484375" lon="120.21855740017361">
        <ele>3</ele>
        <time>2018-01-04T11:37:10.900000Z</time>
      </trkpt>
      <trkpt lat="35.95287814670139" lon="120.21844482421875">
        <ele>3</ele>
        <time>2018-01-04T11:37:14.800000Z</time>
      </trkpt>
      <trkpt lat="35.952746039496525" lon="120.21817572699653">
        <ele>3</ele>
        <time>2018-01-04T11:37:25.800000Z</time>
      </trkpt>
      <trkpt lat="35.95270589192708" lon="120.21798394097222">
        <ele>3</ele>
        <time>2018-01-04T11:37:32.800000Z</time>
      </trkpt>
      <trkpt lat="35.952685004340275" lon="120.21768988715277">
        <ele>3</ele>
        <time>2018-01-04T11:37:42.900000Z</time>
      </trkpt>
      <trkpt lat="35.95264512803819" lon="120.21757839626736">
        <ele>3</ele>
        <time>2018-01-04T11:37:46.800000Z</time>
      </trkpt>
      <trkpt lat="35.95259358723958" lon="120.21736490885417">
        <ele>3</ele>
        <time>2018-01-04T11:37:53.800000Z</time>
      </trkpt>
      <trkpt lat="35.95258599175347" lon="120.21726996527778">
        <ele>3</ele>
        <time>2018-01-04T11:37:56.800000Z</time>
      </trkpt>
      <trkpt lat="35.952418077256944" lon="120.21695014105903">
        <ele>4</ele>
        <time>2018-01-04T11:38:10.800000Z</time>
      </trkpt>
      <trkpt lat="35.95240288628472" lon="120.21690836588542">
        <ele>4</ele>
        <time>2018-01-04T11:38:13.900000Z</time>
      </trkpt>
      <trkpt lat="35.952359483506946" lon="120.21681233723959">
        <ele>3</ele>
        <time>2018-01-04T11:38:16.900000Z</time>
      </trkpt>
      <trkpt lat="35.952288682725694" lon="120.21643527560764">
        <ele>3</ele>
        <time>2018-01-04T11:38:27.900000Z</time>
      </trkpt>
      <trkpt lat="35.952264811197914" lon="120.21606418185763">
        <ele>3</ele>
        <time>2018-01-04T11:38:39.800000Z</time>
      </trkpt>
      <trkpt lat="35.952265625" lon="120.21598578559028">
        <ele>3</ele>
        <time>2018-01-04T11:38:42.900000Z</time>
      </trkpt>
      <trkpt lat="35.95212673611111" lon="120.21580756293403">
        <ele>3</ele>
        <time>2018-01-04T11:38:53.900000Z</time>
      </trkpt>
      <trkpt lat="35.95205674913194" lon="120.2158322482639">
        <ele>3</ele>
        <time>2018-01-04T11:38:56.900000Z</time>
      </trkpt>
      <trkpt lat="35.951960991753474" lon="120.21586317274306">
        <ele>3</ele>
        <time>2018-01-04T11:39:00.800000Z</time>
      </trkpt>
      <trkpt lat="35.95188774956597" lon="120.21585774739583">
        <ele>3</ele>
        <time>2018-01-04T11:39:07.900000Z</time>
      </trkpt>
      <trkpt lat="35.95189724392361" lon="120.21586181640625">
        <ele>3</ele>
        <time>2018-01-04T11:39:10.900000Z</time>
      </trkpt>
      <trkpt lat="35.951915418836805" lon="120.21586181640625">
        <ele>3</ele>
        <time>2018-01-04T11:39:14.900000Z</time>
      </trkpt>
      <trkpt lat="35.951908365885416" lon="120.21586778428819">
        <ele>3</ele>
        <time>2018-01-04T11:39:17.900000Z</time>
      </trkpt>
      <trkpt lat="35.9519189453125" lon="120.21589029947917">
        <ele>3</ele>
        <time>2018-01-04T11:39:21.900000Z</time>
      </trkpt>
      <trkpt lat="35.951923285590276" lon="120.2159228515625">
        <ele>3</ele>
        <time>2018-01-04T11:39:25.800000Z</time>
      </trkpt>
      <trkpt lat="35.951923828125" lon="120.21592637803819">
        <ele>3</ele>
        <time>2018-01-04T11:39:28.900000Z</time>
      </trkpt>
      <trkpt lat="35.951503634982636" lon="120.21564453125">
        <ele>3</ele>
        <time>2018-01-04T11:39:57.900000Z</time>
      </trkpt>
      <trkpt lat="35.951360405815976" lon="120.21568196614584">
        <ele>3</ele>
        <time>2018-01-04T11:40:03.900000Z</time>
      </trkpt>
      <trkpt lat="35.95106526692708" lon="120.21574869791667">
        <ele>3</ele>
        <time>2018-01-04T11:40:14.800000Z</time>
      </trkpt>
      <trkpt lat="35.950984700520834" lon="120.21576877170139">
        <ele>3</ele>
        <time>2018-01-04T11:40:17.900000Z</time>
      </trkpt>
      <trkpt lat="35.95075303819444" lon="120.215810546875">
        <ele>4</ele>
        <time>2018-01-04T11:40:26.900000Z</time>
      </trkpt>
      <trkpt lat="35.95019558376736" lon="120.21592203776042">
        <ele>3</ele>
        <time>2018-01-04T11:40:46.900000Z</time>
      </trkpt>
      <trkpt lat="35.9500035264757" lon="120.2158957248264">
        <ele>4</ele>
        <time>2018-01-04T11:40:53.900000Z</time>
      </trkpt>
      <trkpt lat="35.94981906467014" lon="120.21592529296875">
        <ele>4</ele>
        <time>2018-01-04T11:41:00.900000Z</time>
      </trkpt>
      <trkpt lat="35.94929226345486" lon="120.21606662326388">
        <ele>4</ele>
        <time>2018-01-04T11:41:21.900000Z</time>
      </trkpt>
      <trkpt lat="35.948619791666665" lon="120.21613064236111">
        <ele>4</ele>
        <time>2018-01-04T11:41:44.900000Z</time>
      </trkpt>
      <trkpt lat="35.94846435546875" lon="120.21625569661458">
        <ele>3</ele>
        <time>2018-01-04T11:41:51.800000Z</time>
      </trkpt>
      <trkpt lat="35.94801513671875" lon="120.21638319227431">
        <ele>3</ele>
        <time>2018-01-04T11:42:08.900000Z</time>
      </trkpt>
      <trkpt lat="35.947933756510416" lon="120.21642415364583">
        <ele>3</ele>
        <time>2018-01-04T11:42:11.900000Z</time>
      </trkpt>
      <trkpt lat="35.947864312065974" lon="120.21646701388889">
        <ele>3</ele>
        <time>2018-01-04T11:42:14.900000Z</time>
      </trkpt>
      <trkpt lat="35.947704264322915" lon="120.2165296766493">
        <ele>3</ele>
        <time>2018-01-04T11:42:21.900000Z</time>
      </trkpt>
      <trkpt lat="35.94763237847222" lon="120.21656032986111">
        <ele>3</ele>
        <time>2018-01-04T11:42:24.900000Z</time>
      </trkpt>
      <trkpt lat="35.947537163628475" lon="120.21659532335069">
        <ele>3</ele>
        <time>2018-01-04T11:42:28.900000Z</time>
      </trkpt>
      <trkpt lat="35.94734212239583" lon="120.21664686414931">
        <ele>3</ele>
        <time>2018-01-04T11:42:35.900000Z</time>
      </trkpt>
      <trkpt lat="35.94724093967014" lon="120.21666558159723">
        <ele>3</ele>
        <time>2018-01-04T11:42:39.800000Z</time>
      </trkpt>
      <trkpt lat="35.94704996744792" lon="120.21674370659723">
        <ele>3</ele>
        <time>2018-01-04T11:42:46.900000Z</time>
      </trkpt>
      <trkpt lat="35.9469691297743" lon="120.21677680121527">
        <ele>3</ele>
        <time>2018-01-04T11:42:49.900000Z</time>
      </trkpt>
      <trkpt lat="35.94677625868056" lon="120.21683675130208">
        <ele>3</ele>
        <time>2018-01-04T11:42:56.900000Z</time>
      </trkpt>
      <trkpt lat="35.946666937934026" lon="120.21684678819445">
        <ele>3</ele>
        <time>2018-01-04T11:43:00.900000Z</time>
      </trkpt>
      <trkpt lat="35.946430121527776" lon="120.21689398871528">
        <ele>3</ele>
        <time>2018-01-04T11:43:08.900000Z</time>
      </trkpt>
      <trkpt lat="35.946361490885415" lon="120.21692192925347">
        <ele>3</ele>
        <time>2018-01-04T11:43:11.900000Z</time>
      </trkpt>
      <trkpt lat="35.9458251953125" lon="120.21711181640624">
        <ele>3</ele>
        <time>2018-01-04T11:43:33.800000Z</time>
      </trkpt>
      <trkpt lat="35.945736219618055" lon="120.21714653862847">
        <ele>3</ele>
        <time>2018-01-04T11:43:37.900000Z</time>
      </trkpt>
      <trkpt lat="35.94566650390625" lon="120.21717746310765">
        <ele>3</ele>
        <time>2018-01-04T11:43:40.900000Z</time>
      </trkpt>
      <trkpt lat="35.94545220269097" lon="120.21724826388889">
        <ele>3</ele>
        <time>2018-01-04T11:43:48.900000Z</time>
      </trkpt>
      <trkpt lat="35.94533745659722" lon="120.21726453993055">
        <ele>3</ele>
        <time>2018-01-04T11:43:52.900000Z</time>
      </trkpt>
      <trkpt lat="35.94516927083333" lon="120.2173255750868">
        <ele>3</ele>
        <time>2018-01-04T11:43:59.900000Z</time>
      </trkpt>
      <trkpt lat="35.945088704427086" lon="120.2173779296875">
        <ele>3</ele>
        <time>2018-01-04T11:44:03.900000Z</time>
      </trkpt>
      <trkpt lat="35.945001627604164" lon="120.21744032118056">
        <ele>3</ele>
        <time>2018-01-04T11:44:07.900000Z</time>
      </trkpt>
      <trkpt lat="35.94480902777778" lon="120.2175466579861">
        <ele>3</ele>
        <time>2018-01-04T11:44:15.900000Z</time>
      </trkpt>
      <trkpt lat="35.944713541666665" lon="120.21759738498264">
        <ele>3</ele>
        <time>2018-01-04T11:44:19.800000Z</time>
      </trkpt>
      <trkpt lat="35.94456271701389" lon="120.21771728515625">
        <ele>3</ele>
        <time>2018-01-04T11:44:26.900000Z</time>
      </trkpt>
      <trkpt lat="35.94448025173611" lon="120.217763671875">
        <ele>3</ele>
        <time>2018-01-04T11:44:30.900000Z</time>
      </trkpt>
      <trkpt lat="35.94432698567709" lon="120.21785047743056">
        <ele>3</ele>
        <time>2018-01-04T11:44:36.900000Z</time>
      </trkpt>
      <trkpt lat="35.94422960069444" lon="120.21788519965278">
        <ele>3</ele>
        <time>2018-01-04T11:44:40.900000Z</time>
      </trkpt>
      <trkpt lat="35.94408989800347" lon="120.21798529730903">
        <ele>3</ele>
        <time>2018-01-04T11:44:47.900000Z</time>
      </trkpt>
      <trkpt lat="35.943837076822916" lon="120.2180642361111">
        <ele>3</ele>
        <time>2018-01-04T11:44:58.900000Z</time>
      </trkpt>
      <trkpt lat="35.943669976128476" lon="120.21784966362847">
        <ele>3</ele>
        <time>2018-01-04T11:45:08.900000Z</time>
      </trkpt>
      <trkpt lat="35.94357476128472" lon="120.21756863064236">
        <ele>4</ele>
        <time>2018-01-04T11:45:18.900000Z</time>
      </trkpt>
      <trkpt lat="35.94344129774306" lon="120.21738444010417">
        <ele>4</ele>
        <time>2018-01-04T11:45:26.900000Z</time>
      </trkpt>
      <trkpt lat="35.94333631727431" lon="120.21710557725694">
        <ele>4</ele>
        <time>2018-01-04T11:45:36.900000Z</time>
      </trkpt>
      <trkpt lat="35.943310004340276" lon="120.21704182942709">
        <ele>4</ele>
        <time>2018-01-04T11:45:39.900000Z</time>
      </trkpt>
      <trkpt lat="35.94327880859375" lon="120.21694634331597">
        <ele>4</ele>
        <time>2018-01-04T11:45:43.900000Z</time>
      </trkpt>
      <trkpt lat="35.94316786024306" lon="120.21679144965277">
        <ele>3</ele>
        <time>2018-01-04T11:45:50.800000Z</time>
      </trkpt>
      <trkpt lat="35.943110894097224" lon="120.21674099392361">
        <ele>3</ele>
        <time>2018-01-04T11:45:53.900000Z</time>
      </trkpt>
      <trkpt lat="35.942998860677086" lon="120.21655327690972">
        <ele>3</ele>
        <time>2018-01-04T11:46:01.900000Z</time>
      </trkpt>
      <trkpt lat="35.94289632161458" lon="120.21638020833333">
        <ele>3</ele>
        <time>2018-01-04T11:46:08.900000Z</time>
      </trkpt>
      <trkpt lat="35.942844780815975" lon="120.21628336588542">
        <ele>3</ele>
        <time>2018-01-04T11:46:12.900000Z</time>
      </trkpt>
      <trkpt lat="35.942715386284725" lon="120.21610595703125">
        <ele>3</ele>
        <time>2018-01-04T11:46:19.900000Z</time>
      </trkpt>
      <trkpt lat="35.94267252604167" lon="120.21603461371528">
        <ele>3</ele>
        <time>2018-01-04T11:46:22.900000Z</time>
      </trkpt>
      <trkpt lat="35.942561848958334" lon="120.215869140625">
        <ele>3</ele>
        <time>2018-01-04T11:46:29.900000Z</time>
      </trkpt>
      <trkpt lat="35.94250461154514" lon="120.21578857421875">
        <ele>3</ele>
        <time>2018-01-04T11:46:32.900000Z</time>
      </trkpt>
      <trkpt lat="35.94237982855903" lon="120.21559516059028">
        <ele>3</ele>
        <time>2018-01-04T11:46:40.900000Z</time>
      </trkpt>
      <trkpt lat="35.94232014973959" lon="120.21548041449653">
        <ele>3</ele>
        <time>2018-01-04T11:46:44.900000Z</time>
      </trkpt>
      <trkpt lat="35.94221001519097" lon="120.21531412760417">
        <ele>3</ele>
        <time>2018-01-04T11:46:52.400000Z</time>
      </trkpt>
      <trkpt lat="35.94214870876736" lon="120.21521185980903">
        <ele>3</ele>
        <time>2018-01-04T11:46:55.800000Z</time>
      </trkpt>
      <trkpt lat="35.94206163194445" lon="120.21505560980903">
        <ele>3</ele>
        <time>2018-01-04T11:47:01.800000Z</time>
      </trkpt>
      <trkpt lat="35.942011176215274" lon="120.21497097439236">
        <ele>3</ele>
        <time>2018-01-04T11:47:04.900000Z</time>
      </trkpt>
      <trkpt lat="35.94195692274305" lon="120.2148792860243">
        <ele>3</ele>
        <time>2018-01-04T11:47:08.900000Z</time>
      </trkpt>
      <trkpt lat="35.9418785264757" lon="120.21466254340278">
        <ele>3</ele>
        <time>2018-01-04T11:47:16.900000Z</time>
      </trkpt>
      <trkpt lat="35.94199381510417" lon="120.21433783637153">
        <ele>3</ele>
        <time>2018-01-04T11:47:31.900000Z</time>
      </trkpt>
      <trkpt lat="35.94207817925347" lon="120.21433349609374">
        <ele>3</ele>
        <time>2018-01-04T11:47:34.900000Z</time>
      </trkpt>
      <trkpt lat="35.94227701822917" lon="120.21430691189236">
        <ele>3</ele>
        <time>2018-01-04T11:47:42.900000Z</time>
      </trkpt>
      <trkpt lat="35.9423681640625" lon="120.21426920572917">
        <ele>3</ele>
        <time>2018-01-04T11:47:46.900000Z</time>
      </trkpt>
      <trkpt lat="35.942524685329865" lon="120.21417507595486">
        <ele>3</ele>
        <time>2018-01-04T11:47:53.800000Z</time>
      </trkpt>
      <trkpt lat="35.942677408854166" lon="120.21408501519097">
        <ele>3</ele>
        <time>2018-01-04T11:48:00.900000Z</time>
      </trkpt>
      <trkpt lat="35.94274712456597" lon="120.21405219184028">
        <ele>3</ele>
        <time>2018-01-04T11:48:03.900000Z</time>
      </trkpt>
      <trkpt lat="35.942943793402776" lon="120.21401638454861">
        <ele>3</ele>
        <time>2018-01-04T11:48:11.900000Z</time>
      </trkpt>
      <trkpt lat="35.94302218967014" lon="120.2140212673611">
        <ele>3</ele>
        <time>2018-01-04T11:48:14.900000Z</time>
      </trkpt>
      <trkpt lat="35.94320610894097" lon="120.21401285807292">
        <ele>3</ele>
        <time>2018-01-04T11:48:22.900000Z</time>
      </trkpt>
      <trkpt lat="35.94350667317708" lon="120.21392198350695">
        <ele>3</ele>
        <time>2018-01-04T11:48:34.900000Z</time>
      </trkpt>
      <trkpt lat="35.943607584635416" lon="120.21388292100694">
        <ele>3</ele>
        <time>2018-01-04T11:48:38.900000Z</time>
      </trkpt>
      <trkpt lat="35.94386284722222" lon="120.2138316514757">
        <ele>3</ele>
        <time>2018-01-04T11:48:48.900000Z</time>
      </trkpt>
      <trkpt lat="35.94404649522569" lon="120.2138671875">
        <ele>3</ele>
        <time>2018-01-04T11:48:56.800000Z</time>
      </trkpt>
      <trkpt lat="35.944104546440975" lon="120.21388563368056">
        <ele>3</ele>
        <time>2018-01-04T11:48:59.900000Z</time>
      </trkpt>
      <trkpt lat="35.94418484157986" lon="120.21392605251737">
        <ele>3</ele>
        <time>2018-01-04T11:49:03.900000Z</time>
      </trkpt>
      <trkpt lat="35.944332411024305" lon="120.21397216796875">
        <ele>3</ele>
        <time>2018-01-04T11:49:10.900000Z</time>
      </trkpt>
      <trkpt lat="35.94440483940972" lon="120.21398681640625">
        <ele>3</ele>
        <time>2018-01-04T11:49:13.900000Z</time>
      </trkpt>
      <trkpt lat="35.94457709418403" lon="120.21398328993055">
        <ele>3</ele>
        <time>2018-01-04T11:49:20.900000Z</time>
      </trkpt>
      <trkpt lat="35.94467719184028" lon="120.21395968967013">
        <ele>3</ele>
        <time>2018-01-04T11:49:24.900000Z</time>
      </trkpt>
      <trkpt lat="35.945118001302085" lon="120.21390055338541">
        <ele>3</ele>
        <time>2018-01-04T11:49:40.900000Z</time>
      </trkpt>
      <trkpt lat="35.94519829644097" lon="120.21390245225695">
        <ele>3</ele>
        <time>2018-01-04T11:49:43.900000Z</time>
      </trkpt>
      <trkpt lat="35.94527425130208" lon="120.21390028211806">
        <ele>3</ele>
        <time>2018-01-04T11:49:46.900000Z</time>
      </trkpt>
      <trkpt lat="35.94544216579861" lon="120.21389051649305">
        <ele>3</ele>
        <time>2018-01-04T11:49:54Z</time>
      </trkpt>
      <trkpt lat="35.94553331163195" lon="120.2138783094618">
        <ele>3</ele>
        <time>2018-01-04T11:49:57.800000Z</time>
      </trkpt>
      <trkpt lat="35.94560194227431" lon="120.21387613932292">
        <ele>3</ele>
        <time>2018-01-04T11:50:00.900000Z</time>
      </trkpt>
      <trkpt lat="35.94577718098958" lon="120.2138707139757">
        <ele>3</ele>
        <time>2018-01-04T11:50:08.900000Z</time>
      </trkpt>
      <trkpt lat="35.94603000217014" lon="120.21383761935763">
        <ele>3</ele>
        <time>2018-01-04T11:50:19.900000Z</time>
      </trkpt>
      <trkpt lat="35.94624050564236" lon="120.21382921006945">
        <ele>3</ele>
        <time>2018-01-04T11:50:28Z</time>
      </trkpt>
      <trkpt lat="35.94633599175347" lon="120.2138037109375">
        <ele>3</ele>
        <time>2018-01-04T11:50:31.900000Z</time>
      </trkpt>
      <trkpt lat="35.946552191840276" lon="120.21376437717014">
        <ele>3</ele>
        <time>2018-01-04T11:50:39.800000Z</time>
      </trkpt>
      <trkpt lat="35.94662380642361" lon="120.21374104817708">
        <ele>3</ele>
        <time>2018-01-04T11:50:42.800000Z</time>
      </trkpt>
      <trkpt lat="35.94682183159722" lon="120.21371636284722">
        <ele>3</ele>
        <time>2018-01-04T11:50:50.800000Z</time>
      </trkpt>
      <trkpt lat="35.9468896484375" lon="120.21370415581598">
        <ele>3</ele>
        <time>2018-01-04T11:50:53.800000Z</time>
      </trkpt>
      <trkpt lat="35.94698513454861" lon="120.21368760850694">
        <ele>3</ele>
        <time>2018-01-04T11:50:57.800000Z</time>
      </trkpt>
      <trkpt lat="35.94713595920139" lon="120.21343451605902">
        <ele>3</ele>
        <time>2018-01-04T11:51:11.900000Z</time>
      </trkpt>
      <trkpt lat="35.94712944878472" lon="120.2132080078125">
        <ele>3</ele>
        <time>2018-01-04T11:51:18.900000Z</time>
      </trkpt>
      <trkpt lat="35.94712646484375" lon="120.2131081814236">
        <ele>3</ele>
        <time>2018-01-04T11:51:21.900000Z</time>
      </trkpt>
      <trkpt lat="35.94712809244792" lon="120.21301215277778">
        <ele>3</ele>
        <time>2018-01-04T11:51:24.900000Z</time>
      </trkpt>
      <trkpt lat="35.947116427951386" lon="120.21275363498263">
        <ele>3</ele>
        <time>2018-01-04T11:51:32.800000Z</time>
      </trkpt>
      <trkpt lat="35.947109103732636" lon="120.21254096137153">
        <ele>3</ele>
        <time>2018-01-04T11:51:41Z</time>
      </trkpt>
      <trkpt lat="35.94712673611111" lon="120.21220458984375">
        <ele>3</ele>
        <time>2018-01-04T11:51:52.900000Z</time>
      </trkpt>
      <trkpt lat="35.94720621744791" lon="120.21202663845486">
        <ele>3</ele>
        <time>2018-01-04T11:51:59.900000Z</time>
      </trkpt>
      <trkpt lat="35.947277289496526" lon="120.21178439670139">
        <ele>3</ele>
        <time>2018-01-04T11:52:07.900000Z</time>
      </trkpt>
      <trkpt lat="35.9473033311632" lon="120.21169704861111">
        <ele>3</ele>
        <time>2018-01-04T11:52:10.900000Z</time>
      </trkpt>
      <trkpt lat="35.94743245442708" lon="120.2113853624132">
        <ele>3</ele>
        <time>2018-01-04T11:52:22.900000Z</time>
      </trkpt>
      <trkpt lat="35.947469346788196" lon="120.21130588107638">
        <ele>3</ele>
        <time>2018-01-04T11:52:25.900000Z</time>
      </trkpt>
      <trkpt lat="35.94752170138889" lon="120.21120307074652">
        <ele>3</ele>
        <time>2018-01-04T11:52:29.900000Z</time>
      </trkpt>
      <trkpt lat="35.94760904947917" lon="120.21101969401042">
        <ele>3</ele>
        <time>2018-01-04T11:52:36.900000Z</time>
      </trkpt>
      <trkpt lat="35.947643500434026" lon="120.2109437391493">
        <ele>3</ele>
        <time>2018-01-04T11:52:39.900000Z</time>
      </trkpt>
      <trkpt lat="35.94769015842014" lon="120.21084065755208">
        <ele>3</ele>
        <time>2018-01-04T11:52:43.900000Z</time>
      </trkpt>
      <trkpt lat="35.94776394314236" lon="120.2106871202257">
        <ele>3</ele>
        <time>2018-01-04T11:52:49.900000Z</time>
      </trkpt>
      <trkpt lat="35.9478089735243" lon="120.21058485243056">
        <ele>3</ele>
        <time>2018-01-04T11:52:53.900000Z</time>
      </trkpt>
      <trkpt lat="35.947840983072915" lon="120.21050320095486">
        <ele>3</ele>
        <time>2018-01-04T11:52:56.900000Z</time>
      </trkpt>
      <trkpt lat="35.947903917100696" lon="120.21032307942708">
        <ele>3</ele>
        <time>2018-01-04T11:53:03.900000Z</time>
      </trkpt>
      <trkpt lat="35.94792697482639" lon="120.21024034288195">
        <ele>3</ele>
        <time>2018-01-04T11:53:06.900000Z</time>
      </trkpt>
      <trkpt lat="35.948046875" lon="120.20989935980903">
        <ele>3</ele>
        <time>2018-01-04T11:53:18.900000Z</time>
      </trkpt>
      <trkpt lat="35.94806830512153" lon="120.20965711805556">
        <ele>3</ele>
        <time>2018-01-04T11:53:26.900000Z</time>
      </trkpt>
      <trkpt lat="35.94805935329861" lon="120.20953884548611">
        <ele>3</ele>
        <time>2018-01-04T11:53:30.900000Z</time>
      </trkpt>
      <trkpt lat="35.94818277994791" lon="120.20936821831597">
        <ele>3</ele>
        <time>2018-01-04T11:53:46.900000Z</time>
      </trkpt>
      <trkpt lat="35.948262261284725" lon="120.2094287109375">
        <ele>3</ele>
        <time>2018-01-04T11:53:50.900000Z</time>
      </trkpt>
      <trkpt lat="35.94840006510417" lon="120.20952555338542">
        <ele>3</ele>
        <time>2018-01-04T11:53:57.900000Z</time>
      </trkpt>
      <trkpt lat="35.94872124565972" lon="120.209501953125">
        <ele>3</ele>
        <time>2018-01-04T11:54:12.900000Z</time>
      </trkpt>
      <trkpt lat="35.94886908637153" lon="120.20952528211805">
        <ele>3</ele>
        <time>2018-01-04T11:54:19.900000Z</time>
      </trkpt>
      <trkpt lat="35.94894259982639" lon="120.20953152126737">
        <ele>3</ele>
        <time>2018-01-04T11:54:22.900000Z</time>
      </trkpt>
      <trkpt lat="35.94912489149306" lon="120.20954074435764">
        <ele>3</ele>
        <time>2018-01-04T11:54:29.900000Z</time>
      </trkpt>
      <trkpt lat="35.949298502604165" lon="120.20957628038194">
        <ele>3</ele>
        <time>2018-01-04T11:54:36.900000Z</time>
      </trkpt>
      <trkpt lat="35.94940104166667" lon="120.20961534288195">
        <ele>3</ele>
        <time>2018-01-04T11:54:40.900000Z</time>
      </trkpt>
      <trkpt lat="35.949581163194445" lon="120.20965738932291">
        <ele>3</ele>
        <time>2018-01-04T11:54:47.900000Z</time>
      </trkpt>
      <trkpt lat="35.94966172960069" lon="120.20966688368055">
        <ele>3</ele>
        <time>2018-01-04T11:54:50.900000Z</time>
      </trkpt>
      <trkpt lat="35.94988091362847" lon="120.20970893012152">
        <ele>3</ele>
        <time>2018-01-04T11:54:58.900000Z</time>
      </trkpt>
      <trkpt lat="35.94995985243055" lon="120.20971869574653">
        <ele>3</ele>
        <time>2018-01-04T11:55:01.900000Z</time>
      </trkpt>
      <trkpt lat="35.950032552083336" lon="120.2097203233507">
        <ele>3</ele>
        <time>2018-01-04T11:55:04.900000Z</time>
      </trkpt>
      <trkpt lat="35.95022569444444" lon="120.2097195095486">
        <ele>3</ele>
        <time>2018-01-04T11:55:11.900000Z</time>
      </trkpt>
      <trkpt lat="35.95037977430555" lon="120.20964870876736">
        <ele>3</ele>
        <time>2018-01-04T11:55:18.900000Z</time>
      </trkpt>
      <trkpt lat="35.95043728298611" lon="120.20960259331598">
        <ele>3</ele>
        <time>2018-01-04T11:55:21.900000Z</time>
      </trkpt>
      <trkpt lat="35.95092664930556" lon="120.20968858506944">
        <ele>3</ele>
        <time>2018-01-04T11:55:37.900000Z</time>
      </trkpt>
      <trkpt lat="35.95121202256944" lon="120.20968044704861">
        <ele>3</ele>
        <time>2018-01-04T11:55:48.900000Z</time>
      </trkpt>
      <trkpt lat="35.95131781684028" lon="120.20965793185763">
        <ele>3</ele>
        <time>2018-01-04T11:55:52.900000Z</time>
      </trkpt>
      <trkpt lat="35.951503634982636" lon="120.20962510850694">
        <ele>3</ele>
        <time>2018-01-04T11:55:59.900000Z</time>
      </trkpt>
      <trkpt lat="35.95159722222222" lon="120.20959065755208">
        <ele>3</ele>
        <time>2018-01-04T11:56:03.900000Z</time>
      </trkpt>
      <trkpt lat="35.95187337239583" lon="120.20955512152777">
        <ele>3</ele>
        <time>2018-01-04T11:56:14.900000Z</time>
      </trkpt>
      <trkpt lat="35.95194227430556" lon="120.2095396592882">
        <ele>3</ele>
        <time>2018-01-04T11:56:17.900000Z</time>
      </trkpt>
      <trkpt lat="35.95214002821181" lon="120.20952067057291">
        <ele>3</ele>
        <time>2018-01-04T11:56:25.800000Z</time>
      </trkpt>
      <trkpt lat="35.9522119140625" lon="120.20950412326388">
        <ele>3</ele>
        <time>2018-01-04T11:56:28.900000Z</time>
      </trkpt>
      <trkpt lat="35.95228000217014" lon="120.20948404947917">
        <ele>3</ele>
        <time>2018-01-04T11:56:31.900000Z</time>
      </trkpt>
      <trkpt lat="35.95246934678819" lon="120.20946533203124">
        <ele>3</ele>
        <time>2018-01-04T11:56:39.900000Z</time>
      </trkpt>
      <trkpt lat="35.95256537543403" lon="120.20944471571181">
        <ele>3</ele>
        <time>2018-01-04T11:56:43.900000Z</time>
      </trkpt>
      <trkpt lat="35.95275227864583" lon="120.20940945095487">
        <ele>3</ele>
        <time>2018-01-04T11:56:51.900000Z</time>
      </trkpt>
      <trkpt lat="35.95284396701389" lon="120.20937961154515">
        <ele>3</ele>
        <time>2018-01-04T11:56:55.900000Z</time>
      </trkpt>
      <trkpt lat="35.95291042751736" lon="120.20936496310765">
        <ele>3</ele>
        <time>2018-01-04T11:56:58.900000Z</time>
      </trkpt>
      <trkpt lat="35.95307644314236" lon="120.20934353298611">
        <ele>3</ele>
        <time>2018-01-04T11:57:05.900000Z</time>
      </trkpt>
      <trkpt lat="35.953257921006944" lon="120.20935763888889">
        <ele>3</ele>
        <time>2018-01-04T11:57:12.900000Z</time>
      </trkpt>
      <trkpt lat="35.953443196614586" lon="120.20934488932292">
        <ele>3</ele>
        <time>2018-01-04T11:57:20.900000Z</time>
      </trkpt>
      <trkpt lat="35.95351399739583" lon="120.2093248155382">
        <ele>3</ele>
        <time>2018-01-04T11:57:23.900000Z</time>
      </trkpt>
      <trkpt lat="35.95371175130208" lon="120.20930148654514">
        <ele>3</ele>
        <time>2018-01-04T11:57:31.900000Z</time>
      </trkpt>
      <trkpt lat="35.95378011067708" lon="120.20928819444444">
        <ele>3</ele>
        <time>2018-01-04T11:57:34.900000Z</time>
      </trkpt>
      <trkpt lat="35.95384819878472" lon="120.2092724609375">
        <ele>3</ele>
        <time>2018-01-04T11:57:37.900000Z</time>
      </trkpt>
      <trkpt lat="35.954015028211806" lon="120.20924153645834">
        <ele>3</ele>
        <time>2018-01-04T11:57:44.900000Z</time>
      </trkpt>
      <trkpt lat="35.9541175672743" lon="120.20923448350695">
        <ele>3</ele>
        <time>2018-01-04T11:57:48.900000Z</time>
      </trkpt>
      <trkpt lat="35.95418511284722" lon="120.20922173394098">
        <ele>3</ele>
        <time>2018-01-04T11:57:51.900000Z</time>
      </trkpt>
      <trkpt lat="35.95435953776042" lon="120.20919460720486">
        <ele>3</ele>
        <time>2018-01-04T11:57:58.900000Z</time>
      </trkpt>
      <trkpt lat="35.95446072048611" lon="120.20918348524306">
        <ele>3</ele>
        <time>2018-01-04T11:58:02.800000Z</time>
      </trkpt>
      <trkpt lat="35.95460394965278" lon="120.20915011935764">
        <ele>3</ele>
        <time>2018-01-04T11:58:08.900000Z</time>
      </trkpt>
      <trkpt lat="35.954945475260416" lon="120.20912055121528">
        <ele>3</ele>
        <time>2018-01-04T11:58:22.900000Z</time>
      </trkpt>
      <trkpt lat="35.95520290798611" lon="120.20942192925347">
        <ele>3</ele>
        <time>2018-01-04T11:58:40.900000Z</time>
      </trkpt>
      <trkpt lat="35.955227322048614" lon="120.20963324652777">
        <ele>3</ele>
        <time>2018-01-04T11:58:47.900000Z</time>
      </trkpt>
      <trkpt lat="35.955257161458334" lon="120.20974609375">
        <ele>3</ele>
        <time>2018-01-04T11:58:51.800000Z</time>
      </trkpt>
      <trkpt lat="35.95529215494792" lon="120.20991482204862">
        <ele>3</ele>
        <time>2018-01-04T11:58:57.900000Z</time>
      </trkpt>
      <trkpt lat="35.95529920789931" lon="120.21002387152778">
        <ele>3</ele>
        <time>2018-01-04T11:59:01.900000Z</time>
      </trkpt>
      <trkpt lat="35.955302463107635" lon="120.21011827256945">
        <ele>3</ele>
        <time>2018-01-04T11:59:04.900000Z</time>
      </trkpt>
      <trkpt lat="35.955348307291665" lon="120.2103537326389">
        <ele>3</ele>
        <time>2018-01-04T11:59:12.800000Z</time>
      </trkpt>
      <trkpt lat="35.95537868923611" lon="120.21043972439236">
        <ele>3</ele>
        <time>2018-01-04T11:59:15.800000Z</time>
      </trkpt>
      <trkpt lat="35.955418836805556" lon="120.21064805772569">
        <ele>3</ele>
        <time>2018-01-04T11:59:22.800000Z</time>
      </trkpt>
      <trkpt lat="35.95543728298611" lon="120.21083333333333">
        <ele>3</ele>
        <time>2018-01-04T11:59:29.900000Z</time>
      </trkpt>
      <trkpt lat="35.95543185763889" lon="120.21095431857638">
        <ele>3</ele>
        <time>2018-01-04T11:59:33.900000Z</time>
      </trkpt>
      <trkpt lat="35.955425618489585" lon="120.21099419487847">
        <ele>3</ele>
        <time>2018-01-04T11:59:36.900000Z</time>
      </trkpt>
      <trkpt lat="35.95553493923611" lon="120.21107937282986">
        <ele>3</ele>
        <time>2018-01-04T11:59:47.900000Z</time>
      </trkpt>
      <trkpt lat="35.955745713975695" lon="120.2110804578993">
        <ele>3</ele>
        <time>2018-01-04T11:59:58.900000Z</time>
      </trkpt>
      <trkpt lat="35.955761176215276" lon="120.21119032118055">
        <ele>3</ele>
        <time>2018-01-04T12:00:06.900000Z</time>
      </trkpt>
      <trkpt lat="35.95577039930556" lon="120.21122965494791">
        <ele>3</ele>
        <time>2018-01-04T12:00:09.900000Z</time>
      </trkpt>
      <trkpt lat="35.95578016493056" lon="120.211298828125">
        <ele>3</ele>
        <time>2018-01-04T12:00:12.900000Z</time>
      </trkpt>
      <trkpt lat="35.955790201822914" lon="120.21143256293402">
        <ele>3</ele>
        <time>2018-01-04T12:00:16.900000Z</time>
      </trkpt>
      <trkpt lat="35.955806749131945" lon="120.21162136501736">
        <ele>3</ele>
        <time>2018-01-04T12:00:22.900000Z</time>
      </trkpt>
      <trkpt lat="35.95581570095486" lon="120.21200005425347">
        <ele>3</ele>
        <time>2018-01-04T12:00:34.900000Z</time>
      </trkpt>
      <trkpt lat="35.9558251953125" lon="120.21208902994792">
        <ele>3</ele>
        <time>2018-01-04T12:00:37.900000Z</time>
      </trkpt>
      <trkpt lat="35.955813802083334" lon="120.21230740017361">
        <ele>3</ele>
        <time>2018-01-04T12:00:44.900000Z</time>
      </trkpt>
      <trkpt lat="35.95581163194444" lon="120.21251844618055">
        <ele>3</ele>
        <time>2018-01-04T12:00:51.900000Z</time>
      </trkpt>
      <trkpt lat="35.956165635850695" lon="120.21267035590277">
        <ele>3</ele>
        <time>2018-01-04T12:01:09.900000Z</time>
      </trkpt>
      <trkpt lat="35.95646837022569" lon="120.21254584418402">
        <ele>3</ele>
        <time>2018-01-04T12:01:22Z</time>
      </trkpt>
      <trkpt lat="35.95666286892361" lon="120.2126784939236">
        <ele>3</ele>
        <time>2018-01-04T12:01:32.800000Z</time>
      </trkpt>
      <trkpt lat="35.956669921875" lon="120.21272732204861">
        <ele>3</ele>
        <time>2018-01-04T12:01:35.900000Z</time>
      </trkpt>
      <trkpt lat="35.95668891059028" lon="120.21280110677084">
        <ele>3</ele>
        <time>2018-01-04T12:01:38.900000Z</time>
      </trkpt>
      <trkpt lat="35.95670166015625" lon="120.21306911892361">
        <ele>3</ele>
        <time>2018-01-04T12:01:46.900000Z</time>
      </trkpt>
      <trkpt lat="35.95671820746528" lon="120.21331217447917">
        <ele>3</ele>
        <time>2018-01-04T12:01:53.900000Z</time>
      </trkpt>
      <trkpt lat="35.956744791666665" lon="120.21357584635416">
        <ele>3</ele>
        <time>2018-01-04T12:02:01.900000Z</time>
      </trkpt>
      <trkpt lat="35.95676378038195" lon="120.21376057942709">
        <ele>3</ele>
        <time>2018-01-04T12:02:08.900000Z</time>
      </trkpt>
      <trkpt lat="35.95677951388889" lon="120.21381998697916">
        <ele>3</ele>
        <time>2018-01-04T12:02:13.200000Z</time>
      </trkpt>
    </trkseg>
  </trk>
</gpx>