<?xml version="1.0" encoding="UTF-8"?>
<gpx xmlns="http://www.topografix.com/GPX/1/1" xmlns:gpxtpx="http://www.garmin.com/xmlschemas/TrackPointExtension/v1" xmlns:xsi="http://www.w3.org/2001/XMLSchema-instance" xsi:schemaLocation="http://www.topografix.com/GPX/1/1 http://www.topografix.com/GPX/1/1/gpx.xsd" version="1.1" creator="gpx.py -- https://github.com/tkrajina/gpxpy">
  <trk>
    <name>gpx from keep</name>
    <trkseg>
      <trkpt lat="35.95697393022838" lon="120.21522388284099">
        <time>2021-02-21T09:23:52.358000Z</time>
      </trkpt>
      <trkpt lat="35.95708639415922" lon="120.21519658124197">
        <time>2021-02-21T09:23:55.358000Z</time>
      </trkpt>
      <trkpt lat="35.95702620115291" lon="120.21503163937012">
        <time>2021-02-21T09:24:04.358000Z</time>
      </trkpt>
      <trkpt lat="35.95698934078022" lon="120.21503269343198">
        <time>2021-02-21T09:24:07.358000Z</time>
      </trkpt>
      <trkpt lat="35.95696027002994" lon="120.21503543395723">
        <time>2021-02-21T09:24:10.358000Z</time>
      </trkpt>
      <trkpt lat="35.95692381416194" lon="120.21501835357118">
        <time>2021-02-21T09:24:16.358000Z</time>
      </trkpt>
      <trkpt lat="35.95694879426779" lon="120.21500050062284">
        <time>2021-02-21T09:24:19.358000Z</time>
      </trkpt>
      <trkpt lat="35.956971447787765" lon="120.2150094003023">
        <time>2021-02-21T09:24:22.358000Z</time>
      </trkpt>
      <trkpt lat="35.957038560220504" lon="120.21495288822645">
        <time>2021-02-21T09:24:31.358000Z</time>
      </trkpt>
      <trkpt lat="35.95706477072226" lon="120.21493498555266">
        <time>2021-02-21T09:24:34.358000Z</time>
      </trkpt>
      <trkpt lat="35.95709138954196" lon="120.21491840959135">
        <time>2021-02-21T09:24:37.358000Z</time>
      </trkpt>
      <trkpt lat="35.957159854383136" lon="120.21491232101246">
        <time>2021-02-21T09:24:43.358000Z</time>
      </trkpt>
      <trkpt lat="35.957277214141016" lon="120.2148743370058">
        <time>2021-02-21T09:24:49.358000Z</time>
      </trkpt>
      <trkpt lat="35.95734206412187" lon="120.2148563879483">
        <time>2021-02-21T09:24:52.358000Z</time>
      </trkpt>
      <trkpt lat="35.95764991815656" lon="120.2147533348821">
        <time>2021-02-21T09:25:07.358000Z</time>
      </trkpt>
      <trkpt lat="35.95778056299253" lon="120.21483236756023">
        <time>2021-02-21T09:25:13.358000Z</time>
      </trkpt>
      <trkpt lat="35.9578763904207" lon="120.21516341488207">
        <time>2021-02-21T09:25:22.358000Z</time>
      </trkpt>
      <trkpt lat="35.95781592052944" lon="120.21566148587759">
        <time>2021-02-21T09:25:40.358000Z</time>
      </trkpt>
      <trkpt lat="35.9577758187311" lon="120.21569315351397">
        <time>2021-02-21T09:25:43.358000Z</time>
      </trkpt>
      <trkpt lat="35.957731428576835" lon="120.21571528451294">
        <time>2021-02-21T09:25:46.358000Z</time>
      </trkpt>
      <trkpt lat="35.9576928841015" lon="120.21573421400905">
        <time>2021-02-21T09:25:49.358000Z</time>
      </trkpt>
      <trkpt lat="35.95748052693079" lon="120.21578370206772">
        <time>2021-02-21T09:26:01.458000Z</time>
      </trkpt>
      <trkpt lat="35.95722500220325" lon="120.21586878800966">
        <time>2021-02-21T09:26:13.358000Z</time>
      </trkpt>
      <trkpt lat="35.95708441040107" lon="120.21588969359146">
        <time>2021-02-21T09:26:19.358000Z</time>
      </trkpt>
      <trkpt lat="35.957020802846905" lon="120.21589884521242">
        <time>2021-02-21T09:26:22.358000Z</time>
      </trkpt>
      <trkpt lat="35.95695516100099" lon="120.21591086953102">
        <time>2021-02-21T09:26:25.358000Z</time>
      </trkpt>
      <trkpt lat="35.956806653598015" lon="120.21595727124304">
        <time>2021-02-21T09:26:31.358000Z</time>
      </trkpt>
      <trkpt lat="35.956730573969494" lon="120.21598842725768">
        <time>2021-02-21T09:26:34.358000Z</time>
      </trkpt>
      <trkpt lat="35.956588845099205" lon="120.21602209123415">
        <time>2021-02-21T09:26:40.358000Z</time>
      </trkpt>
      <trkpt lat="35.95651611788853" lon="120.21602931685096">
        <time>2021-02-21T09:26:43.358000Z</time>
      </trkpt>
      <trkpt lat="35.95639418238737" lon="120.21609445477915">
        <time>2021-02-21T09:26:49.358000Z</time>
      </trkpt>
      <trkpt lat="35.95634363662251" lon="120.21613506983834">
        <time>2021-02-21T09:26:52.358000Z</time>
      </trkpt>
      <trkpt lat="35.95609632591215" lon="120.21621153882863">
        <time>2021-02-21T09:27:01.358000Z</time>
      </trkpt>
      <trkpt lat="35.95591990920225" lon="120.2163210927631">
        <time>2021-02-21T09:27:10.358000Z</time>
      </trkpt>
      <trkpt lat="35.955892945822136" lon="120.21636445348265">
        <time>2021-02-21T09:27:13.358000Z</time>
      </trkpt>
      <trkpt lat="35.955806750396114" lon="120.21643661806468">
        <time>2021-02-21T09:27:19.358000Z</time>
      </trkpt>
      <trkpt lat="35.955763250791826" lon="120.21655836476283">
        <time>2021-02-21T09:27:25.358000Z</time>
      </trkpt>
      <trkpt lat="35.955792610823586" lon="120.21698739637417">
        <time>2021-02-21T09:27:40.358000Z</time>
      </trkpt>
      <trkpt lat="35.95579662445714" lon="120.21707826495835">
        <time>2021-02-21T09:27:43.358000Z</time>
      </trkpt>
      <trkpt lat="35.95580043283665" lon="120.21717335353635">
        <time>2021-02-21T09:27:46.358000Z</time>
      </trkpt>
      <trkpt lat="35.9558321585583" lon="120.21735390717845">
        <time>2021-02-21T09:27:52.358000Z</time>
      </trkpt>
      <trkpt lat="35.95583735939693" lon="120.21744790944241">
        <time>2021-02-21T09:27:55.358000Z</time>
      </trkpt>
      <trkpt lat="35.95584885434486" lon="120.21754008700212">
        <time>2021-02-21T09:27:58.358000Z</time>
      </trkpt>
      <trkpt lat="35.9558849831626" lon="120.21772836472283">
        <time>2021-02-21T09:28:04.358000Z</time>
      </trkpt>
      <trkpt lat="35.95591738805695" lon="120.21779365993967">
        <time>2021-02-21T09:28:07.358000Z</time>
      </trkpt>
      <trkpt lat="35.95594717706226" lon="120.21795001564844">
        <time>2021-02-21T09:28:13.358000Z</time>
      </trkpt>
      <trkpt lat="35.95593985513597" lon="120.21821956720332">
        <time>2021-02-21T09:28:22.358000Z</time>
      </trkpt>
      <trkpt lat="35.95587494618931" lon="120.2183494402303">
        <time>2021-02-21T09:28:28.358000Z</time>
      </trkpt>
      <trkpt lat="35.95582303008281" lon="120.21837613171947">
        <time>2021-02-21T09:28:31.358000Z</time>
      </trkpt>
      <trkpt lat="35.955402035229376" lon="120.21857789213398">
        <time>2021-02-21T09:28:49.358000Z</time>
      </trkpt>
      <trkpt lat="35.955334675051496" lon="120.21861298244085">
        <time>2021-02-21T09:28:52.358000Z</time>
      </trkpt>
      <trkpt lat="35.95525944335303" lon="120.2186317310356">
        <time>2021-02-21T09:28:55.358000Z</time>
      </trkpt>
      <trkpt lat="35.95510168611078" lon="120.21869500621857">
        <time>2021-02-21T09:29:01.358000Z</time>
      </trkpt>
      <trkpt lat="35.95502208490864" lon="120.21872860912279">
        <time>2021-02-21T09:29:04.358000Z</time>
      </trkpt>
      <trkpt lat="35.95494472611726" lon="120.21876073577987">
        <time>2021-02-21T09:29:07.358000Z</time>
      </trkpt>
      <trkpt lat="35.954779446551825" lon="120.21880040669473">
        <time>2021-02-21T09:29:13.358000Z</time>
      </trkpt>
      <trkpt lat="35.954698572742295" lon="120.21882787419382">
        <time>2021-02-21T09:29:16.358000Z</time>
      </trkpt>
      <trkpt lat="35.95452461950721" lon="120.21886078049852">
        <time>2021-02-21T09:29:22.358000Z</time>
      </trkpt>
      <trkpt lat="35.95437435598823" lon="120.21887438478504">
        <time>2021-02-21T09:29:28.358000Z</time>
      </trkpt>
      <trkpt lat="35.95430078977545" lon="120.21888912322771">
        <time>2021-02-21T09:29:31.358000Z</time>
      </trkpt>
      <trkpt lat="35.95421741935892" lon="120.21890532732496">
        <time>2021-02-21T09:29:34.358000Z</time>
      </trkpt>
      <trkpt lat="35.9540682744876" lon="120.21893640028568">
        <time>2021-02-21T09:29:40.358000Z</time>
      </trkpt>
      <trkpt lat="35.953992328402336" lon="120.21895057987514">
        <time>2021-02-21T09:29:43.358000Z</time>
      </trkpt>
      <trkpt lat="35.95391284201404" lon="120.21898048187737">
        <time>2021-02-21T09:29:46.358000Z</time>
      </trkpt>
      <trkpt lat="35.953743695517666" lon="120.21901705011834">
        <time>2021-02-21T09:29:52.358000Z</time>
      </trkpt>
      <trkpt lat="35.95364976094583" lon="120.2190183686151">
        <time>2021-02-21T09:29:55.358000Z</time>
      </trkpt>
      <trkpt lat="35.95347386624739" lon="120.21898739632758">
        <time>2021-02-21T09:30:01.358000Z</time>
      </trkpt>
      <trkpt lat="35.95338553474331" lon="120.2189549852979">
        <time>2021-02-21T09:30:04.358000Z</time>
      </trkpt>
      <trkpt lat="35.95319908888119" lon="120.21885832807652">
        <time>2021-02-21T09:30:10.358000Z</time>
      </trkpt>
      <trkpt lat="35.953107934203935" lon="120.21881189028304">
        <time>2021-02-21T09:30:13.358000Z</time>
      </trkpt>
      <trkpt lat="35.952910165159864" lon="120.21859544794762">
        <time>2021-02-21T09:30:22.358000Z</time>
      </trkpt>
      <trkpt lat="35.95283192314358" lon="120.21838980214042">
        <time>2021-02-21T09:30:28.358000Z</time>
      </trkpt>
      <trkpt lat="35.952805266904555" lon="120.21828596834288">
        <time>2021-02-21T09:30:31.358000Z</time>
      </trkpt>
      <trkpt lat="35.95270020254677" lon="120.21795971255463">
        <time>2021-02-21T09:30:40.358000Z</time>
      </trkpt>
      <trkpt lat="35.95268517832109" lon="120.2178496464262">
        <time>2021-02-21T09:30:43.358000Z</time>
      </trkpt>
      <trkpt lat="35.95263484020886" lon="120.21764969483817">
        <time>2021-02-21T09:30:49.358000Z</time>
      </trkpt>
      <trkpt lat="35.952600083860574" lon="120.21756175457216">
        <time>2021-02-21T09:30:52.358000Z</time>
      </trkpt>
      <trkpt lat="35.95257182699064" lon="120.21738190817533">
        <time>2021-02-21T09:30:58.358000Z</time>
      </trkpt>
      <trkpt lat="35.95257486791671" lon="120.21728044499933">
        <time>2021-02-21T09:31:01.358000Z</time>
      </trkpt>
      <trkpt lat="35.95251968291504" lon="120.21699443702148">
        <time>2021-02-21T09:31:10.358000Z</time>
      </trkpt>
      <trkpt lat="35.95248513645304" lon="120.21691558658796">
        <time>2021-02-21T09:31:13.358000Z</time>
      </trkpt>
      <trkpt lat="35.95244252361617" lon="120.21674011229221">
        <time>2021-02-21T09:31:19.358000Z</time>
      </trkpt>
      <trkpt lat="35.952422954233406" lon="120.21662834468074">
        <time>2021-02-21T09:31:22.358000Z</time>
      </trkpt>
      <trkpt lat="35.952404216150825" lon="120.21652366016629">
        <time>2021-02-21T09:31:25.458000Z</time>
      </trkpt>
      <trkpt lat="35.9523543758291" lon="120.21632346855213">
        <time>2021-02-21T09:31:31.358000Z</time>
      </trkpt>
      <trkpt lat="35.95233755864377" lon="120.21621151327146">
        <time>2021-02-21T09:31:34.358000Z</time>
      </trkpt>
      <trkpt lat="35.95229361413628" lon="120.21599414688292">
        <time>2021-02-21T09:31:40.358000Z</time>
      </trkpt>
      <trkpt lat="35.95226036555292" lon="120.2158885256985">
        <time>2021-02-21T09:31:43.358000Z</time>
      </trkpt>
      <trkpt lat="35.95222048521787" lon="120.21568525702388">
        <time>2021-02-21T09:31:49.358000Z</time>
      </trkpt>
      <trkpt lat="35.95219877058329" lon="120.21560951358198">
        <time>2021-02-21T09:31:52.358000Z</time>
      </trkpt>
      <trkpt lat="35.95218073247115" lon="120.21558222991811">
        <time>2021-02-21T09:31:55.358000Z</time>
      </trkpt>
      <trkpt lat="35.95216994070063" lon="120.21554402414459">
        <time>2021-02-21T09:31:58.358000Z</time>
      </trkpt>
      <trkpt lat="35.95216784136561" lon="120.21549061710525">
        <time>2021-02-21T09:32:01.358000Z</time>
      </trkpt>
      <trkpt lat="35.95211056992453" lon="120.21542123511075">
        <time>2021-02-21T09:32:07.358000Z</time>
      </trkpt>
      <trkpt lat="35.95209370139053" lon="120.21537961752634">
        <time>2021-02-21T09:32:13.358000Z</time>
      </trkpt>
      <trkpt lat="35.95210479764143" lon="120.21538445643125">
        <time>2021-02-21T09:32:16.358000Z</time>
      </trkpt>
      <trkpt lat="35.95211245547482" lon="120.2153799982504">
        <time>2021-02-21T09:32:19.358000Z</time>
      </trkpt>
      <trkpt lat="35.95212091942644" lon="120.21537859251757">
        <time>2021-02-21T09:32:22.358000Z</time>
      </trkpt>
      <trkpt lat="35.952140996620564" lon="120.21536940725535">
        <time>2021-02-21T09:32:28.358000Z</time>
      </trkpt>
      <trkpt lat="35.952138589218215" lon="120.21536702299662">
        <time>2021-02-21T09:32:31.358000Z</time>
      </trkpt>
      <trkpt lat="35.95213460033541" lon="120.2153654565537">
        <time>2021-02-21T09:32:34.358000Z</time>
      </trkpt>
      <trkpt lat="35.95212518841757" lon="120.21537264774842">
        <time>2021-02-21T09:32:37.358000Z</time>
      </trkpt>
      <trkpt lat="35.95211717945713" lon="120.21537040264153">
        <time>2021-02-21T09:32:40.358000Z</time>
      </trkpt>
      <trkpt lat="35.952115551073405" lon="120.2153614149496">
        <time>2021-02-21T09:32:43.358000Z</time>
      </trkpt>
      <trkpt lat="35.952078653812926" lon="120.21537504759742">
        <time>2021-02-21T09:32:46.358000Z</time>
      </trkpt>
      <trkpt lat="35.95201901061899" lon="120.2153964388442">
        <time>2021-02-21T09:32:49.358000Z</time>
      </trkpt>
      <trkpt lat="35.95195312893908" lon="120.21544552043434">
        <time>2021-02-21T09:32:52.358000Z</time>
      </trkpt>
      <trkpt lat="35.9518862905176" lon="120.21549952973298">
        <time>2021-02-21T09:32:55.358000Z</time>
      </trkpt>
      <trkpt lat="35.951746066421784" lon="120.21559693447576">
        <time>2021-02-21T09:33:01.358000Z</time>
      </trkpt>
      <trkpt lat="35.9516591843036" lon="120.21561258773875">
        <time>2021-02-21T09:33:04.358000Z</time>
      </trkpt>
      <trkpt lat="35.951581441549365" lon="120.21563792771525">
        <time>2021-02-21T09:33:07.358000Z</time>
      </trkpt>
      <trkpt lat="35.951429965239576" lon="120.21568998466789">
        <time>2021-02-21T09:33:13.358000Z</time>
      </trkpt>
      <trkpt lat="35.951352671621336" lon="120.21571609284221">
        <time>2021-02-21T09:33:16.358000Z</time>
      </trkpt>
      <trkpt lat="35.95127544845231" lon="120.21573435055853">
        <time>2021-02-21T09:33:19.358000Z</time>
      </trkpt>
      <trkpt lat="35.9510986543633" lon="120.21579522352754">
        <time>2021-02-21T09:33:25.358000Z</time>
      </trkpt>
      <trkpt lat="35.951035717028034" lon="120.21581174687587">
        <time>2021-02-21T09:33:28.358000Z</time>
      </trkpt>
      <trkpt lat="35.95094330889011" lon="120.21583097089798">
        <time>2021-02-21T09:33:31.358000Z</time>
      </trkpt>
      <trkpt lat="35.95067936342407" lon="120.21591461980867">
        <time>2021-02-21T09:33:40.358000Z</time>
      </trkpt>
      <trkpt lat="35.95060067030134" lon="120.21591749565142">
        <time>2021-02-21T09:33:43.358000Z</time>
      </trkpt>
      <trkpt lat="35.9505240355322" lon="120.21592199764682">
        <time>2021-02-21T09:33:46.358000Z</time>
      </trkpt>
      <trkpt lat="35.95039294354941" lon="120.21592183634068">
        <time>2021-02-21T09:33:52.358000Z</time>
      </trkpt>
      <trkpt lat="35.95024108886038" lon="120.21593499017354">
        <time>2021-02-21T09:33:58.358000Z</time>
      </trkpt>
      <trkpt lat="35.95016853473714" lon="120.21597003684661">
        <time>2021-02-21T09:34:01.358000Z</time>
      </trkpt>
      <trkpt lat="35.95008666370636" lon="120.21599345153638">
        <time>2021-02-21T09:34:04.358000Z</time>
      </trkpt>
      <trkpt lat="35.94991592081221" lon="120.21605480440547">
        <time>2021-02-21T09:34:10.358000Z</time>
      </trkpt>
      <trkpt lat="35.9498255413353" lon="120.21608307638931">
        <time>2021-02-21T09:34:13.358000Z</time>
      </trkpt>
      <trkpt lat="35.94965764819815" lon="120.21613764646791">
        <time>2021-02-21T09:34:19.358000Z</time>
      </trkpt>
      <trkpt lat="35.94954473861499" lon="120.21616182663145">
        <time>2021-02-21T09:34:25.358000Z</time>
      </trkpt>
      <trkpt lat="35.949372977322774" lon="120.21624479641173">
        <time>2021-02-21T09:34:31.358000Z</time>
      </trkpt>
      <trkpt lat="35.949216194929406" lon="120.21630104365391">
        <time>2021-02-21T09:34:37.358000Z</time>
      </trkpt>
      <trkpt lat="35.94896040180557" lon="120.21631641291978">
        <time>2021-02-21T09:34:46.358000Z</time>
      </trkpt>
      <trkpt lat="35.94886784897909" lon="120.21633169697863">
        <time>2021-02-21T09:34:49.358000Z</time>
      </trkpt>
      <trkpt lat="35.94868698727499" lon="120.21634478856447">
        <time>2021-02-21T09:34:55.358000Z</time>
      </trkpt>
      <trkpt lat="35.948593616569724" lon="120.2163430345509">
        <time>2021-02-21T09:34:58.358000Z</time>
      </trkpt>
      <trkpt lat="35.94845011922937" lon="120.21637508277433">
        <time>2021-02-21T09:35:04.358000Z</time>
      </trkpt>
      <trkpt lat="35.948073426065264" lon="120.21648234511622">
        <time>2021-02-21T09:35:22.358000Z</time>
      </trkpt>
      <trkpt lat="35.94758711942497" lon="120.21654105735054">
        <time>2021-02-21T09:35:40.358000Z</time>
      </trkpt>
      <trkpt lat="35.947339087099" lon="120.21663394707528">
        <time>2021-02-21T09:35:49.358000Z</time>
      </trkpt>
      <trkpt lat="35.94726855787181" lon="120.21663533736685">
        <time>2021-02-21T09:35:52.358000Z</time>
      </trkpt>
      <trkpt lat="35.947195455863415" lon="120.21666141684666">
        <time>2021-02-21T09:35:55.358000Z</time>
      </trkpt>
      <trkpt lat="35.94704385595905" lon="120.21670942557105">
        <time>2021-02-21T09:36:01.358000Z</time>
      </trkpt>
      <trkpt lat="35.946977482970574" lon="120.21672987950691">
        <time>2021-02-21T09:36:04.358000Z</time>
      </trkpt>
      <trkpt lat="35.94692848926906" lon="120.2167541955461">
        <time>2021-02-21T09:36:07.358000Z</time>
      </trkpt>
      <trkpt lat="35.94688516979515" lon="120.21676864627692">
        <time>2021-02-21T09:36:10.358000Z</time>
      </trkpt>
      <trkpt lat="35.9467750469119" lon="120.21679611916235">
        <time>2021-02-21T09:36:16.358000Z</time>
      </trkpt>
      <trkpt lat="35.94670459595604" lon="120.21682196958704">
        <time>2021-02-21T09:36:19.358000Z</time>
      </trkpt>
      <trkpt lat="35.94663473943906" lon="120.21685995041005">
        <time>2021-02-21T09:36:22.358000Z</time>
      </trkpt>
      <trkpt lat="35.946493981694786" lon="120.21693171237835">
        <time>2021-02-21T09:36:28.358000Z</time>
      </trkpt>
      <trkpt lat="35.94636461525569" lon="120.21695833577944">
        <time>2021-02-21T09:36:34.358000Z</time>
      </trkpt>
      <trkpt lat="35.94619117537916" lon="120.21697145824399">
        <time>2021-02-21T09:36:40.358000Z</time>
      </trkpt>
      <trkpt lat="35.94603572904677" lon="120.21703171725275">
        <time>2021-02-21T09:36:46.358000Z</time>
      </trkpt>
      <trkpt lat="35.94595226748444" lon="120.21707890468926">
        <time>2021-02-21T09:36:49.358000Z</time>
      </trkpt>
      <trkpt lat="35.94587598193068" lon="120.21710733855375">
        <time>2021-02-21T09:36:52.358000Z</time>
      </trkpt>
      <trkpt lat="35.94572420598682" lon="120.21716039572105">
        <time>2021-02-21T09:36:58.358000Z</time>
      </trkpt>
      <trkpt lat="35.94553273250491" lon="120.21726617118244">
        <time>2021-02-21T09:37:07.358000Z</time>
      </trkpt>
      <trkpt lat="35.945455899447374" lon="120.2172926599156">
        <time>2021-02-21T09:37:10.358000Z</time>
      </trkpt>
      <trkpt lat="35.94538560968067" lon="120.21732565345066">
        <time>2021-02-21T09:37:13.358000Z</time>
      </trkpt>
      <trkpt lat="35.945084535629725" lon="120.21740320823389">
        <time>2021-02-21T09:37:25.358000Z</time>
      </trkpt>
      <trkpt lat="35.945011789384196" lon="120.21744867143067">
        <time>2021-02-21T09:37:28.358000Z</time>
      </trkpt>
      <trkpt lat="35.94492809272676" lon="120.21747673590286">
        <time>2021-02-21T09:37:31.358000Z</time>
      </trkpt>
      <trkpt lat="35.94476616964987" lon="120.21754944525729">
        <time>2021-02-21T09:37:37.358000Z</time>
      </trkpt>
      <trkpt lat="35.944615147145754" lon="120.21761609044533">
        <time>2021-02-21T09:37:43.358000Z</time>
      </trkpt>
      <trkpt lat="35.94454132987763" lon="120.2176466499325">
        <time>2021-02-21T09:37:46.358000Z</time>
      </trkpt>
      <trkpt lat="35.944395621351205" lon="120.21774278459081">
        <time>2021-02-21T09:37:52.358000Z</time>
      </trkpt>
      <trkpt lat="35.94420723600395" lon="120.21786767643364">
        <time>2021-02-21T09:38:01.358000Z</time>
      </trkpt>
      <trkpt lat="35.943989894116626" lon="120.21792126790254">
        <time>2021-02-21T09:38:10.358000Z</time>
      </trkpt>
      <trkpt lat="35.94391816451316" lon="120.21789110417404">
        <time>2021-02-21T09:38:13.358000Z</time>
      </trkpt>
      <trkpt lat="35.943787715705625" lon="120.21780942947153">
        <time>2021-02-21T09:38:19.358000Z</time>
      </trkpt>
      <trkpt lat="35.943481189206175" lon="120.2174957107786">
        <time>2021-02-21T09:38:34.358000Z</time>
      </trkpt>
      <trkpt lat="35.94343580245443" lon="120.21742182591125">
        <time>2021-02-21T09:38:37.358000Z</time>
      </trkpt>
      <trkpt lat="35.94341104963223" lon="120.21736459263535">
        <time>2021-02-21T09:38:40.358000Z</time>
      </trkpt>
      <trkpt lat="35.94322568581773" lon="120.21704413613463">
        <time>2021-02-21T09:38:52.358000Z</time>
      </trkpt>
      <trkpt lat="35.94317196977186" lon="120.21695335297876">
        <time>2021-02-21T09:38:55.358000Z</time>
      </trkpt>
      <trkpt lat="35.943074535273794" lon="120.21681460358464">
        <time>2021-02-21T09:39:01.358000Z</time>
      </trkpt>
      <trkpt lat="35.94301938778673" lon="120.2167481813322">
        <time>2021-02-21T09:39:04.358000Z</time>
      </trkpt>
      <trkpt lat="35.94296177870413" lon="120.21660580539283">
        <time>2021-02-21T09:39:10.358000Z</time>
      </trkpt>
      <trkpt lat="35.94289191941105" lon="120.21646168336281">
        <time>2021-02-21T09:39:16.358000Z</time>
      </trkpt>
      <trkpt lat="35.94283760636059" lon="120.21640780112533">
        <time>2021-02-21T09:39:19.358000Z</time>
      </trkpt>
      <trkpt lat="35.94277035279341" lon="120.21634428158073">
        <time>2021-02-21T09:39:22.358000Z</time>
      </trkpt>
      <trkpt lat="35.942565175640325" lon="120.21599908598337">
        <time>2021-02-21T09:39:34.358000Z</time>
      </trkpt>
      <trkpt lat="35.942437595170745" lon="120.21580148456954">
        <time>2021-02-21T09:39:40.358000Z</time>
      </trkpt>
      <trkpt lat="35.9423874830874" lon="120.21571070564286">
        <time>2021-02-21T09:39:43.358000Z</time>
      </trkpt>
      <trkpt lat="35.94229948305939" lon="120.21553633182414">
        <time>2021-02-21T09:39:49.358000Z</time>
      </trkpt>
      <trkpt lat="35.94224963772047" lon="120.21544852632617">
        <time>2021-02-21T09:39:52.358000Z</time>
      </trkpt>
      <trkpt lat="35.9422089960831" lon="120.21535234284352">
        <time>2021-02-21T09:39:55.358000Z</time>
      </trkpt>
      <trkpt lat="35.94211225943049" lon="120.21516762627996">
        <time>2021-02-21T09:40:01.358000Z</time>
      </trkpt>
      <trkpt lat="35.94206423409827" lon="120.21507335825257">
        <time>2021-02-21T09:40:04.358000Z</time>
      </trkpt>
      <trkpt lat="35.94203131203962" lon="120.21502418866429">
        <time>2021-02-21T09:40:07.358000Z</time>
      </trkpt>
      <trkpt lat="35.94194470246712" lon="120.21487431741629">
        <time>2021-02-21T09:40:13.358000Z</time>
      </trkpt>
      <trkpt lat="35.94186655993792" lon="120.21470647297399">
        <time>2021-02-21T09:40:19.358000Z</time>
      </trkpt>
      <trkpt lat="35.9418175941168" lon="120.21452487682394">
        <time>2021-02-21T09:40:25.358000Z</time>
      </trkpt>
      <trkpt lat="35.941772282814384" lon="120.21436327148672">
        <time>2021-02-21T09:40:31.358000Z</time>
      </trkpt>
      <trkpt lat="35.94172953499406" lon="120.21425861282201">
        <time>2021-02-21T09:40:37.358000Z</time>
      </trkpt>
      <trkpt lat="35.94171460841415" lon="120.21425338474342">
        <time>2021-02-21T09:40:40.458000Z</time>
      </trkpt>
      <trkpt lat="35.94170000460991" lon="120.2142535031385">
        <time>2021-02-21T09:40:46.358000Z</time>
      </trkpt>
      <trkpt lat="35.941680444388396" lon="120.21427205436132">
        <time>2021-02-21T09:40:49.358000Z</time>
      </trkpt>
      <trkpt lat="35.94163728909232" lon="120.2142753720961">
        <time>2021-02-21T09:40:52.358000Z</time>
      </trkpt>
      <trkpt lat="35.94157116849345" lon="120.21428570001235">
        <time>2021-02-21T09:40:55.358000Z</time>
      </trkpt>
      <trkpt lat="35.94139471858089" lon="120.21420219599248">
        <time>2021-02-21T09:41:04.358000Z</time>
      </trkpt>
      <trkpt lat="35.94136239152677" lon="120.21412839044918">
        <time>2021-02-21T09:41:07.358000Z</time>
      </trkpt>
      <trkpt lat="35.94132116671795" lon="120.21405143230606">
        <time>2021-02-21T09:41:10.358000Z</time>
      </trkpt>
      <trkpt lat="35.94121247885806" lon="120.21390635175892">
        <time>2021-02-21T09:41:16.358000Z</time>
      </trkpt>
      <trkpt lat="35.94107655628346" lon="120.21383270727188">
        <time>2021-02-21T09:41:22.458000Z</time>
      </trkpt>
      <trkpt lat="35.94093500130641" lon="120.2138324353164">
        <time>2021-02-21T09:41:28.358000Z</time>
      </trkpt>
      <trkpt lat="35.94086237145854" lon="120.21385546013617">
        <time>2021-02-21T09:41:31.358000Z</time>
      </trkpt>
      <trkpt lat="35.940789371598306" lon="120.21387843506764">
        <time>2021-02-21T09:41:34.358000Z</time>
      </trkpt>
      <trkpt lat="35.94064042303856" lon="120.21394485260922">
        <time>2021-02-21T09:41:40.358000Z</time>
      </trkpt>
      <trkpt lat="35.94051050718746" lon="120.2140857426731">
        <time>2021-02-21T09:41:46.358000Z</time>
      </trkpt>
      <trkpt lat="35.94044373740958" lon="120.21426338584553">
        <time>2021-02-21T09:41:52.358000Z</time>
      </trkpt>
      <trkpt lat="35.94042013725498" lon="120.2143544230904">
        <time>2021-02-21T09:41:55.358000Z</time>
      </trkpt>
      <trkpt lat="35.940409032768784" lon="120.21445109747299">
        <time>2021-02-21T09:41:58.358000Z</time>
      </trkpt>
      <trkpt lat="35.9402224458437" lon="120.21460580997103">
        <time>2021-02-21T09:42:07.358000Z</time>
      </trkpt>
      <trkpt lat="35.94014631208778" lon="120.21463877001052">
        <time>2021-02-21T09:42:10.358000Z</time>
      </trkpt>
      <trkpt lat="35.94006951939635" lon="120.21467084226627">
        <time>2021-02-21T09:42:13.358000Z</time>
      </trkpt>
      <trkpt lat="35.93976940563866" lon="120.21478804018658">
        <time>2021-02-21T09:42:25.358000Z</time>
      </trkpt>
      <trkpt lat="35.93968633612736" lon="120.21481668067938">
        <time>2021-02-21T09:42:28.358000Z</time>
      </trkpt>
      <trkpt lat="35.93954181745512" lon="120.21487775414353">
        <time>2021-02-21T09:42:34.358000Z</time>
      </trkpt>
      <trkpt lat="35.93947158299785" lon="120.2149199019232">
        <time>2021-02-21T09:42:37.358000Z</time>
      </trkpt>
      <trkpt lat="35.939397453094934" lon="120.21495797963765">
        <time>2021-02-21T09:42:40.358000Z</time>
      </trkpt>
      <trkpt lat="35.93916678612879" lon="120.21503162415426">
        <time>2021-02-21T09:42:49.358000Z</time>
      </trkpt>
      <trkpt lat="35.93908595148182" lon="120.21504975145504">
        <time>2021-02-21T09:42:52.358000Z</time>
      </trkpt>
      <trkpt lat="35.93901003300883" lon="120.21506420841148">
        <time>2021-02-21T09:42:55.358000Z</time>
      </trkpt>
      <trkpt lat="35.93885791641635" lon="120.21507049904842">
        <time>2021-02-21T09:43:01.358000Z</time>
      </trkpt>
      <trkpt lat="35.938780682654034" lon="120.21506633259953">
        <time>2021-02-21T09:43:04.358000Z</time>
      </trkpt>
      <trkpt lat="35.938698875462386" lon="120.21506386149062">
        <time>2021-02-21T09:43:07.358000Z</time>
      </trkpt>
      <trkpt lat="35.938546875014154" lon="120.21507302493346">
        <time>2021-02-21T09:43:13.358000Z</time>
      </trkpt>
      <trkpt lat="35.938381051183725" lon="120.2150226465036">
        <time>2021-02-21T09:43:19.358000Z</time>
      </trkpt>
      <trkpt lat="35.938369891852474" lon="120.21501264061814">
        <time>2021-02-21T09:43:22.358000Z</time>
      </trkpt>
      <trkpt lat="35.93835729278055" lon="120.21500217575957">
        <time>2021-02-21T09:43:25.358000Z</time>
      </trkpt>
      <trkpt lat="35.93835940791827" lon="120.21499875453654">
        <time>2021-02-21T09:43:28.358000Z</time>
      </trkpt>
      <trkpt lat="35.93834553129446" lon="120.21500108744097">
        <time>2021-02-21T09:43:31.358000Z</time>
      </trkpt>
      <trkpt lat="35.93830589339678" lon="120.21498471500337">
        <time>2021-02-21T09:43:34.358000Z</time>
      </trkpt>
      <trkpt lat="35.93827280054848" lon="120.21497324085865">
        <time>2021-02-21T09:43:37.358000Z</time>
      </trkpt>
      <trkpt lat="35.93813906667987" lon="120.21490670606711">
        <time>2021-02-21T09:43:43.358000Z</time>
      </trkpt>
      <trkpt lat="35.93807822932312" lon="120.21485638714698">
        <time>2021-02-21T09:43:46.358000Z</time>
      </trkpt>
      <trkpt lat="35.93801459526255" lon="120.21481055676598">
        <time>2021-02-21T09:43:49.358000Z</time>
      </trkpt>
      <trkpt lat="35.937874278342164" lon="120.21473786725414">
        <time>2021-02-21T09:43:55.358000Z</time>
      </trkpt>
      <trkpt lat="35.93780654585014" lon="120.21469760266083">
        <time>2021-02-21T09:43:58.358000Z</time>
      </trkpt>
      <trkpt lat="35.93773745768332" lon="120.21465392660397">
        <time>2021-02-21T09:44:01.358000Z</time>
      </trkpt>
      <trkpt lat="35.93759965775262" lon="120.21456203617443">
        <time>2021-02-21T09:44:07.358000Z</time>
      </trkpt>
      <trkpt lat="35.93752538586401" lon="120.21451289366392">
        <time>2021-02-21T09:44:10.358000Z</time>
      </trkpt>
      <trkpt lat="35.93740091254465" lon="120.21440416745249">
        <time>2021-02-21T09:44:16.358000Z</time>
      </trkpt>
      <trkpt lat="35.93734474967411" lon="120.21434456330852">
        <time>2021-02-21T09:44:19.358000Z</time>
      </trkpt>
      <trkpt lat="35.93727408290955" lon="120.21428520735827">
        <time>2021-02-21T09:44:22.358000Z</time>
      </trkpt>
      <trkpt lat="35.937127194740235" lon="120.21417637025084">
        <time>2021-02-21T09:44:28.358000Z</time>
      </trkpt>
      <trkpt lat="35.93706794559405" lon="120.21412103543987">
        <time>2021-02-21T09:44:31.358000Z</time>
      </trkpt>
      <trkpt lat="35.937006017411775" lon="120.21406456338153">
        <time>2021-02-21T09:44:34.358000Z</time>
      </trkpt>
      <trkpt lat="35.93689303175004" lon="120.21395327633536">
        <time>2021-02-21T09:44:40.358000Z</time>
      </trkpt>
      <trkpt lat="35.93683583720939" lon="120.21389519910221">
        <time>2021-02-21T09:44:43.358000Z</time>
      </trkpt>
      <trkpt lat="35.93676674470756" lon="120.21384805305469">
        <time>2021-02-21T09:44:46.358000Z</time>
      </trkpt>
      <trkpt lat="35.93663218719795" lon="120.21370563435337">
        <time>2021-02-21T09:44:52.358000Z</time>
      </trkpt>
      <trkpt lat="35.936572849357624" lon="120.21362811708495">
        <time>2021-02-21T09:44:55.358000Z</time>
      </trkpt>
      <trkpt lat="35.93651219806923" lon="120.21356018537321">
        <time>2021-02-21T09:44:58.358000Z</time>
      </trkpt>
      <trkpt lat="35.93638423219304" lon="120.21341133509195">
        <time>2021-02-21T09:45:04.458000Z</time>
      </trkpt>
      <trkpt lat="35.93632092256417" lon="120.21334199723222">
        <time>2021-02-21T09:45:07.358000Z</time>
      </trkpt>
      <trkpt lat="35.93625263114994" lon="120.2132731278813">
        <time>2021-02-21T09:45:10.358000Z</time>
      </trkpt>
      <trkpt lat="35.93613209703008" lon="120.21312513744758">
        <time>2021-02-21T09:45:16.358000Z</time>
      </trkpt>
      <trkpt lat="35.935978446630486" lon="120.21290465168879">
        <time>2021-02-21T09:45:25.458000Z</time>
      </trkpt>
      <trkpt lat="35.93592721958026" lon="120.21282915196045">
        <time>2021-02-21T09:45:28.358000Z</time>
      </trkpt>
      <trkpt lat="35.935874424142206" lon="120.21275232570444">
        <time>2021-02-21T09:45:31.358000Z</time>
      </trkpt>
      <trkpt lat="35.93576288510084" lon="120.21260372016297">
        <time>2021-02-21T09:45:37.358000Z</time>
      </trkpt>
      <trkpt lat="35.93571484122015" lon="120.21253403637854">
        <time>2021-02-21T09:45:40.358000Z</time>
      </trkpt>
      <trkpt lat="35.93567752743503" lon="120.21245920705601">
        <time>2021-02-21T09:45:43.358000Z</time>
      </trkpt>
      <trkpt lat="35.93556968161846" lon="120.21229563214715">
        <time>2021-02-21T09:45:49.358000Z</time>
      </trkpt>
      <trkpt lat="35.93552387240195" lon="120.21222343578614">
        <time>2021-02-21T09:45:52.358000Z</time>
      </trkpt>
      <trkpt lat="35.93548018154032" lon="120.21215990721282">
        <time>2021-02-21T09:45:55.358000Z</time>
      </trkpt>
      <trkpt lat="35.93538393896435" lon="120.21201803828511">
        <time>2021-02-21T09:46:01.358000Z</time>
      </trkpt>
      <trkpt lat="35.93534177726373" lon="120.21194156405451">
        <time>2021-02-21T09:46:04.358000Z</time>
      </trkpt>
      <trkpt lat="35.93530624290358" lon="120.2118612207115">
        <time>2021-02-21T09:46:07.358000Z</time>
      </trkpt>
      <trkpt lat="35.93522796948933" lon="120.21170287785723">
        <time>2021-02-21T09:46:13.358000Z</time>
      </trkpt>
      <trkpt lat="35.93518871341982" lon="120.21162340251233">
        <time>2021-02-21T09:46:16.358000Z</time>
      </trkpt>
      <trkpt lat="35.93514569307703" lon="120.21154635067273">
        <time>2021-02-21T09:46:19.358000Z</time>
      </trkpt>
      <trkpt lat="35.93505687442804" lon="120.21138369976516">
        <time>2021-02-21T09:46:25.358000Z</time>
      </trkpt>
      <trkpt lat="35.93502638003231" lon="120.21129809213124">
        <time>2021-02-21T09:46:28.358000Z</time>
      </trkpt>
      <trkpt lat="35.93499962215793" lon="120.2112087449083">
        <time>2021-02-21T09:46:31.358000Z</time>
      </trkpt>
      <trkpt lat="35.934929041739785" lon="120.21103760973372">
        <time>2021-02-21T09:46:37.358000Z</time>
      </trkpt>
      <trkpt lat="35.93490401839162" lon="120.21095273158477">
        <time>2021-02-21T09:46:40.358000Z</time>
      </trkpt>
      <trkpt lat="35.93481506780607" lon="120.21079988771841">
        <time>2021-02-21T09:46:46.358000Z</time>
      </trkpt>
      <trkpt lat="35.93477273311268" lon="120.21074075047278">
        <time>2021-02-21T09:46:49.358000Z</time>
      </trkpt>
      <trkpt lat="35.93470193151166" lon="120.21058542580984">
        <time>2021-02-21T09:46:55.358000Z</time>
      </trkpt>
      <trkpt lat="35.93467045748943" lon="120.21050052831893">
        <time>2021-02-21T09:46:58.358000Z</time>
      </trkpt>
      <trkpt lat="35.934635021691015" lon="120.21041627897176">
        <time>2021-02-21T09:47:01.358000Z</time>
      </trkpt>
      <trkpt lat="35.93455963029495" lon="120.21024721203709">
        <time>2021-02-21T09:47:07.358000Z</time>
      </trkpt>
      <trkpt lat="35.934512575619934" lon="120.21017416244852">
        <time>2021-02-21T09:47:10.358000Z</time>
      </trkpt>
      <trkpt lat="35.93441397537639" lon="120.2099263450781">
        <time>2021-02-21T09:47:19.358000Z</time>
      </trkpt>
      <trkpt lat="35.93436113602427" lon="120.20976108248674">
        <time>2021-02-21T09:47:25.358000Z</time>
      </trkpt>
      <trkpt lat="35.93427288643593" lon="120.20960386596356">
        <time>2021-02-21T09:47:31.358000Z</time>
      </trkpt>
      <trkpt lat="35.93422745381442" lon="120.20952371699961">
        <time>2021-02-21T09:47:34.358000Z</time>
      </trkpt>
      <trkpt lat="35.934155854243805" lon="120.20933630431531">
        <time>2021-02-21T09:47:40.358000Z</time>
      </trkpt>
      <trkpt lat="35.93413030377145" lon="120.2092382958705">
        <time>2021-02-21T09:47:43.358000Z</time>
      </trkpt>
      <trkpt lat="35.934103879857" lon="120.20914929335059">
        <time>2021-02-21T09:47:46.458000Z</time>
      </trkpt>
      <trkpt lat="35.934068517071246" lon="120.20895120483941">
        <time>2021-02-21T09:47:52.358000Z</time>
      </trkpt>
      <trkpt lat="35.934048952373416" lon="120.20884427218812">
        <time>2021-02-21T09:47:55.358000Z</time>
      </trkpt>
      <trkpt lat="35.93403932379207" lon="120.20874843072646">
        <time>2021-02-21T09:47:58.358000Z</time>
      </trkpt>
      <trkpt lat="35.93404791428769" lon="120.20854348709112">
        <time>2021-02-21T09:48:04.358000Z</time>
      </trkpt>
      <trkpt lat="35.93405000491372" lon="120.20844394756983">
        <time>2021-02-21T09:48:07.358000Z</time>
      </trkpt>
      <trkpt lat="35.934022400723535" lon="120.20825681402518">
        <time>2021-02-21T09:48:13.358000Z</time>
      </trkpt>
      <trkpt lat="35.93399593629063" lon="120.20817607155594">
        <time>2021-02-21T09:48:16.358000Z</time>
      </trkpt>
      <trkpt lat="35.933934891276735" lon="120.20804391641806">
        <time>2021-02-21T09:48:22.358000Z</time>
      </trkpt>
      <trkpt lat="35.93387937041835" lon="120.2079825589122">
        <time>2021-02-21T09:48:25.358000Z</time>
      </trkpt>
      <trkpt lat="35.93375905557349" lon="120.20768338623108">
        <time>2021-02-21T09:48:37.358000Z</time>
      </trkpt>
      <trkpt lat="35.933726164815" lon="120.20758676803638">
        <time>2021-02-21T09:48:40.358000Z</time>
      </trkpt>
      <trkpt lat="35.93370309393687" lon="120.20747892180168">
        <time>2021-02-21T09:48:43.358000Z</time>
      </trkpt>
      <trkpt lat="35.933661279561896" lon="120.20726615266804">
        <time>2021-02-21T09:48:49.358000Z</time>
      </trkpt>
      <trkpt lat="35.93365938144861" lon="120.20716699538282">
        <time>2021-02-21T09:48:52.358000Z</time>
      </trkpt>
      <trkpt lat="35.93364799245316" lon="120.20706049775664">
        <time>2021-02-21T09:48:55.358000Z</time>
      </trkpt>
      <trkpt lat="35.933626359678094" lon="120.20685774526774">
        <time>2021-02-21T09:49:01.358000Z</time>
      </trkpt>
      <trkpt lat="35.93361504164701" lon="120.20676403321879">
        <time>2021-02-21T09:49:04.358000Z</time>
      </trkpt>
      <trkpt lat="35.933599027529475" lon="120.20666714976998">
        <time>2021-02-21T09:49:07.358000Z</time>
      </trkpt>
      <trkpt lat="35.93355675359041" lon="120.20651442894695">
        <time>2021-02-21T09:49:13.358000Z</time>
      </trkpt>
      <trkpt lat="35.93354269520276" lon="120.20648532835544">
        <time>2021-02-21T09:49:16.358000Z</time>
      </trkpt>
      <trkpt lat="35.933550723575046" lon="120.20653278752796">
        <time>2021-02-21T09:49:25.358000Z</time>
      </trkpt>
      <trkpt lat="35.933553078802184" lon="120.20653624814932">
        <time>2021-02-21T09:49:28.358000Z</time>
      </trkpt>
      <trkpt lat="35.93355682760039" lon="120.20653763464318">
        <time>2021-02-21T09:49:31.358000Z</time>
      </trkpt>
      <trkpt lat="35.933555610386726" lon="120.20653564006118">
        <time>2021-02-21T09:49:34.358000Z</time>
      </trkpt>
      <trkpt lat="35.93355552065799" lon="120.20653545057819">
        <time>2021-02-21T09:49:37.358000Z</time>
      </trkpt>
      <trkpt lat="35.93355589072071" lon="120.20653547055599">
        <time>2021-02-21T09:49:43.358000Z</time>
      </trkpt>
      <trkpt lat="35.933552605010554" lon="120.20653216940943">
        <time>2021-02-21T09:49:46.358000Z</time>
      </trkpt>
      <trkpt lat="35.93354048084924" lon="120.20651353995297">
        <time>2021-02-21T09:49:49.358000Z</time>
      </trkpt>
      <trkpt lat="35.93352769272206" lon="120.206458720789">
        <time>2021-02-21T09:49:52.358000Z</time>
      </trkpt>
      <trkpt lat="35.933431632641565" lon="120.20632733677104">
        <time>2021-02-21T09:49:58.358000Z</time>
      </trkpt>
      <trkpt lat="35.93338332176922" lon="120.2062558011522">
        <time>2021-02-21T09:50:01.358000Z</time>
      </trkpt>
      <trkpt lat="35.93333392463588" lon="120.2061881747061">
        <time>2021-02-21T09:50:04.358000Z</time>
      </trkpt>
      <trkpt lat="35.93323072390422" lon="120.20605012956848">
        <time>2021-02-21T09:50:10.358000Z</time>
      </trkpt>
      <trkpt lat="35.93317157965332" lon="120.20599845817756">
        <time>2021-02-21T09:50:13.358000Z</time>
      </trkpt>
      <trkpt lat="35.93310921259782" lon="120.20594809292992">
        <time>2021-02-21T09:50:16.358000Z</time>
      </trkpt>
      <trkpt lat="35.93295191295396" lon="120.20573726704015">
        <time>2021-02-21T09:50:25.358000Z</time>
      </trkpt>
      <trkpt lat="35.93292173054912" lon="120.20563836069935">
        <time>2021-02-21T09:50:28.358000Z</time>
      </trkpt>
      <trkpt lat="35.93279413238983" lon="120.20534974721078">
        <time>2021-02-21T09:50:37.358000Z</time>
      </trkpt>
      <trkpt lat="35.932779346465075" lon="120.20524338420142">
        <time>2021-02-21T09:50:40.358000Z</time>
      </trkpt>
      <trkpt lat="35.93276857466974" lon="120.20503408114654">
        <time>2021-02-21T09:50:46.358000Z</time>
      </trkpt>
      <trkpt lat="35.93278782556237" lon="120.20493560986965">
        <time>2021-02-21T09:50:49.358000Z</time>
      </trkpt>
      <trkpt lat="35.93279174282533" lon="120.20475524823695">
        <time>2021-02-21T09:50:55.358000Z</time>
      </trkpt>
      <trkpt lat="35.93295260577963" lon="120.20433339420421">
        <time>2021-02-21T09:51:10.458000Z</time>
      </trkpt>
      <trkpt lat="35.93298884086686" lon="120.20426088273139">
        <time>2021-02-21T09:51:13.358000Z</time>
      </trkpt>
      <trkpt lat="35.93303598492956" lon="120.20409714100705">
        <time>2021-02-21T09:51:19.358000Z</time>
      </trkpt>
      <trkpt lat="35.93305443688523" lon="120.20400528329107">
        <time>2021-02-21T09:51:22.358000Z</time>
      </trkpt>
      <trkpt lat="35.93306906636961" lon="120.20381490545326">
        <time>2021-02-21T09:51:28.358000Z</time>
      </trkpt>
      <trkpt lat="35.932949507508376" lon="120.2036152529206">
        <time>2021-02-21T09:51:37.358000Z</time>
      </trkpt>
      <trkpt lat="35.93289258081634" lon="120.20358564216968">
        <time>2021-02-21T09:51:40.458000Z</time>
      </trkpt>
      <trkpt lat="35.932857204052056" lon="120.20355947356414">
        <time>2021-02-21T09:51:43.358000Z</time>
      </trkpt>
      <trkpt lat="35.93277257567871" lon="120.20352656975726">
        <time>2021-02-21T09:51:49.358000Z</time>
      </trkpt>
      <trkpt lat="35.93273570468924" lon="120.20350899654922">
        <time>2021-02-21T09:51:55.358000Z</time>
      </trkpt>
      <trkpt lat="35.93274621321182" lon="120.20350536783785">
        <time>2021-02-21T09:51:58.358000Z</time>
      </trkpt>
      <trkpt lat="35.932753783869885" lon="120.2035185409599">
        <time>2021-02-21T09:52:01.358000Z</time>
      </trkpt>
      <trkpt lat="35.93276039861759" lon="120.20354142631669">
        <time>2021-02-21T09:52:04.358000Z</time>
      </trkpt>
      <trkpt lat="35.932771526695994" lon="120.2035567636021">
        <time>2021-02-21T09:52:10.358000Z</time>
      </trkpt>
      <trkpt lat="35.93277670366512" lon="120.20355945639236">
        <time>2021-02-21T09:52:13.458000Z</time>
      </trkpt>
      <trkpt lat="35.932778373042716" lon="120.20356010469455">
        <time>2021-02-21T09:52:16.558000Z</time>
      </trkpt>
      <trkpt lat="35.932778603294096" lon="120.20355998505615">
        <time>2021-02-21T09:52:19.358000Z</time>
      </trkpt>
      <trkpt lat="35.932778843789364" lon="120.20355971584493">
        <time>2021-02-21T09:52:22.358000Z</time>
      </trkpt>
      <trkpt lat="35.93273401971687" lon="120.203573791713">
        <time>2021-02-21T09:52:28.358000Z</time>
      </trkpt>
      <trkpt lat="35.93265346992831" lon="120.20367886522392">
        <time>2021-02-21T09:52:37.358000Z</time>
      </trkpt>
      <trkpt lat="35.932966465317385" lon="120.20431084925653">
        <time>2021-02-21T09:53:01.358000Z</time>
      </trkpt>
      <trkpt lat="35.932945040784695" lon="120.20440420319913">
        <time>2021-02-21T09:53:04.358000Z</time>
      </trkpt>
      <trkpt lat="35.932882976972515" lon="120.20455349569579">
        <time>2021-02-21T09:53:10.358000Z</time>
      </trkpt>
      <trkpt lat="35.932836100891166" lon="120.20460007995287">
        <time>2021-02-21T09:53:13.358000Z</time>
      </trkpt>
      <trkpt lat="35.932812085625194" lon="120.20462468833588">
        <time>2021-02-21T09:53:16.358000Z</time>
      </trkpt>
      <trkpt lat="35.932769087570016" lon="120.20467945993013">
        <time>2021-02-21T09:53:22.358000Z</time>
      </trkpt>
      <trkpt lat="35.932787136222714" lon="120.20475866818319">
        <time>2021-02-21T09:53:28.358000Z</time>
      </trkpt>
      <trkpt lat="35.93278801756257" lon="120.20480832830596">
        <time>2021-02-21T09:53:31.358000Z</time>
      </trkpt>
      <trkpt lat="35.932802535305285" lon="120.20485616485192">
        <time>2021-02-21T09:53:34.358000Z</time>
      </trkpt>
      <trkpt lat="35.932822226646124" lon="120.20494042939053">
        <time>2021-02-21T09:53:37.358000Z</time>
      </trkpt>
      <trkpt lat="35.93283491470005" lon="120.20502574054566">
        <time>2021-02-21T09:53:40.358000Z</time>
      </trkpt>
      <trkpt lat="35.93287783097248" lon="120.20538314111555">
        <time>2021-02-21T09:53:52.358000Z</time>
      </trkpt>
      <trkpt lat="35.93297136411231" lon="120.20565047129415">
        <time>2021-02-21T09:54:01.358000Z</time>
      </trkpt>
      <trkpt lat="35.93307398817811" lon="120.20577279876231">
        <time>2021-02-21T09:54:07.358000Z</time>
      </trkpt>
      <trkpt lat="35.933392990207956" lon="120.20614930809244">
        <time>2021-02-21T09:54:25.458000Z</time>
      </trkpt>
      <trkpt lat="35.93343067738833" lon="120.20622138105688">
        <time>2021-02-21T09:54:28.358000Z</time>
      </trkpt>
      <trkpt lat="35.93346275471571" lon="120.20627967194633">
        <time>2021-02-21T09:54:31.358000Z</time>
      </trkpt>
      <trkpt lat="35.93350046029336" lon="120.2063657662476">
        <time>2021-02-21T09:54:37.358000Z</time>
      </trkpt>
      <trkpt lat="35.933585786079206" lon="120.20662718919313">
        <time>2021-02-21T09:54:49.358000Z</time>
      </trkpt>
      <trkpt lat="35.933629165221525" lon="120.20678990297084">
        <time>2021-02-21T09:54:55.358000Z</time>
      </trkpt>
      <trkpt lat="35.9336447743155" lon="120.2069614306775">
        <time>2021-02-21T09:55:01.358000Z</time>
      </trkpt>
      <trkpt lat="35.933634878779706" lon="120.20704774174528">
        <time>2021-02-21T09:55:04.358000Z</time>
      </trkpt>
      <trkpt lat="35.933700255548814" lon="120.20735339629059">
        <time>2021-02-21T09:55:16.458000Z</time>
      </trkpt>
      <trkpt lat="35.93370021293481" lon="120.20742033239793">
        <time>2021-02-21T09:55:19.358000Z</time>
      </trkpt>
      <trkpt lat="35.93375799179495" lon="120.20765948161392">
        <time>2021-02-21T09:55:28.358000Z</time>
      </trkpt>
      <trkpt lat="35.93380410172699" lon="120.20779174366363">
        <time>2021-02-21T09:55:34.358000Z</time>
      </trkpt>
      <trkpt lat="35.93383828784122" lon="120.20787220669489">
        <time>2021-02-21T09:55:37.358000Z</time>
      </trkpt>
      <trkpt lat="35.933869104415265" lon="120.20795190170755">
        <time>2021-02-21T09:55:40.358000Z</time>
      </trkpt>
      <trkpt lat="35.93389747556262" lon="120.2081271261333">
        <time>2021-02-21T09:55:46.358000Z</time>
      </trkpt>
      <trkpt lat="35.933914070639716" lon="120.2083048535809">
        <time>2021-02-21T09:55:52.358000Z</time>
      </trkpt>
      <trkpt lat="35.933974843428324" lon="120.20855169826551">
        <time>2021-02-21T09:56:01.358000Z</time>
      </trkpt>
      <trkpt lat="35.93399827046112" lon="120.20863730814828">
        <time>2021-02-21T09:56:04.358000Z</time>
      </trkpt>
      <trkpt lat="35.93402379273228" lon="120.2087198966174">
        <time>2021-02-21T09:56:07.458000Z</time>
      </trkpt>
      <trkpt lat="35.93405251311578" lon="120.2088843939952">
        <time>2021-02-21T09:56:13.358000Z</time>
      </trkpt>
      <trkpt lat="35.93406460289256" lon="120.20896669264461">
        <time>2021-02-21T09:56:16.358000Z</time>
      </trkpt>
      <trkpt lat="35.93409359391372" lon="120.2090444353042">
        <time>2021-02-21T09:56:19.358000Z</time>
      </trkpt>
      <trkpt lat="35.93415168197015" lon="120.20922300896257">
        <time>2021-02-21T09:56:25.358000Z</time>
      </trkpt>
      <trkpt lat="35.93417488924798" lon="120.20930930866362">
        <time>2021-02-21T09:56:28.358000Z</time>
      </trkpt>
      <trkpt lat="35.93419802755683" lon="120.20939502016181">
        <time>2021-02-21T09:56:31.358000Z</time>
      </trkpt>
      <trkpt lat="35.9342369512778" lon="120.20956749034784">
        <time>2021-02-21T09:56:37.358000Z</time>
      </trkpt>
      <trkpt lat="35.934264349483286" lon="120.20964084601832">
        <time>2021-02-21T09:56:40.358000Z</time>
      </trkpt>
      <trkpt lat="35.934290483564475" lon="120.20973037839948">
        <time>2021-02-21T09:56:43.358000Z</time>
      </trkpt>
      <trkpt lat="35.934391514743304" lon="120.21000435465146">
        <time>2021-02-21T09:56:52.358000Z</time>
      </trkpt>
      <trkpt lat="35.93442914295695" lon="120.2100527887106">
        <time>2021-02-21T09:56:55.358000Z</time>
      </trkpt>
      <trkpt lat="35.934452234986686" lon="120.21010296688767">
        <time>2021-02-21T09:56:58.358000Z</time>
      </trkpt>
      <trkpt lat="35.93447351738849" lon="120.21015942822903">
        <time>2021-02-21T09:57:01.358000Z</time>
      </trkpt>
      <trkpt lat="35.934573195532664" lon="120.21038930514706">
        <time>2021-02-21T09:57:10.358000Z</time>
      </trkpt>
      <trkpt lat="35.93460541202369" lon="120.21046564514666">
        <time>2021-02-21T09:57:13.358000Z</time>
      </trkpt>
      <trkpt lat="35.93468454535837" lon="120.2106003446815">
        <time>2021-02-21T09:57:19.358000Z</time>
      </trkpt>
      <trkpt lat="35.93472645814141" lon="120.21067431232926">
        <time>2021-02-21T09:57:22.358000Z</time>
      </trkpt>
      <trkpt lat="35.934769312384944" lon="120.21075440401512">
        <time>2021-02-21T09:57:25.358000Z</time>
      </trkpt>
      <trkpt lat="35.934835715812206" lon="120.21092192685899">
        <time>2021-02-21T09:57:31.358000Z</time>
      </trkpt>
      <trkpt lat="35.934862342753114" lon="120.21100456099424">
        <time>2021-02-21T09:57:34.358000Z</time>
      </trkpt>
      <trkpt lat="35.934883500094" lon="120.211079166028">
        <time>2021-02-21T09:57:37.358000Z</time>
      </trkpt>
      <trkpt lat="35.934942930525" lon="120.21122767000458">
        <time>2021-02-21T09:57:43.358000Z</time>
      </trkpt>
      <trkpt lat="35.93496346766106" lon="120.21128177942262">
        <time>2021-02-21T09:57:46.358000Z</time>
      </trkpt>
      <trkpt lat="35.93499379200909" lon="120.21133959007514">
        <time>2021-02-21T09:57:49.358000Z</time>
      </trkpt>
      <trkpt lat="35.935008146694784" lon="120.21138052375414">
        <time>2021-02-21T09:57:52.358000Z</time>
      </trkpt>
      <trkpt lat="35.935022025160656" lon="120.21141182275316">
        <time>2021-02-21T09:57:55.358000Z</time>
      </trkpt>
      <trkpt lat="35.93503524832845" lon="120.21145366404029">
        <time>2021-02-21T09:57:58.358000Z</time>
      </trkpt>
      <trkpt lat="35.93505863232699" lon="120.21150370477245">
        <time>2021-02-21T09:58:04.358000Z</time>
      </trkpt>
      <trkpt lat="35.935100375438" lon="120.21155763701897">
        <time>2021-02-21T09:58:07.358000Z</time>
      </trkpt>
      <trkpt lat="35.935158860620255" lon="120.21163405193778">
        <time>2021-02-21T09:58:10.358000Z</time>
      </trkpt>
      <trkpt lat="35.93521180950944" lon="120.2117139873296">
        <time>2021-02-21T09:58:13.458000Z</time>
      </trkpt>
      <trkpt lat="35.9352829759806" lon="120.21186195670792">
        <time>2021-02-21T09:58:19.358000Z</time>
      </trkpt>
      <trkpt lat="35.93532118269009" lon="120.21193411166801">
        <time>2021-02-21T09:58:22.358000Z</time>
      </trkpt>
      <trkpt lat="35.93540959712862" lon="120.21205901374105">
        <time>2021-02-21T09:58:28.358000Z</time>
      </trkpt>
      <trkpt lat="35.93545048201723" lon="120.21213317416857">
        <time>2021-02-21T09:58:31.358000Z</time>
      </trkpt>
      <trkpt lat="35.935487728635934" lon="120.21219851738941">
        <time>2021-02-21T09:58:34.358000Z</time>
      </trkpt>
      <trkpt lat="35.93557455396747" lon="120.21234427618602">
        <time>2021-02-21T09:58:40.358000Z</time>
      </trkpt>
      <trkpt lat="35.93562054607973" lon="120.21242876095233">
        <time>2021-02-21T09:58:43.358000Z</time>
      </trkpt>
      <trkpt lat="35.93567167010356" lon="120.21249876394917">
        <time>2021-02-21T09:58:46.358000Z</time>
      </trkpt>
      <trkpt lat="35.93576735399807" lon="120.21263370294247">
        <time>2021-02-21T09:58:52.358000Z</time>
      </trkpt>
      <trkpt lat="35.93588955026942" lon="120.21276491452312">
        <time>2021-02-21T09:58:58.358000Z</time>
      </trkpt>
      <trkpt lat="35.93600439114886" lon="120.21287755392079">
        <time>2021-02-21T09:59:04.358000Z</time>
      </trkpt>
      <trkpt lat="35.936055199943276" lon="120.21293751379588">
        <time>2021-02-21T09:59:07.358000Z</time>
      </trkpt>
      <trkpt lat="35.93608792477977" lon="120.21298996152757">
        <time>2021-02-21T09:59:10.358000Z</time>
      </trkpt>
      <trkpt lat="35.93617779184724" lon="120.21311560605193">
        <time>2021-02-21T09:59:16.358000Z</time>
      </trkpt>
      <trkpt lat="35.936225950432956" lon="120.2131826678963">
        <time>2021-02-21T09:59:19.458000Z</time>
      </trkpt>
      <trkpt lat="35.93627193425208" lon="120.21325284170015">
        <time>2021-02-21T09:59:22.358000Z</time>
      </trkpt>
      <trkpt lat="35.93636610995588" lon="120.21338805315509">
        <time>2021-02-21T09:59:28.358000Z</time>
      </trkpt>
      <trkpt lat="35.93640483050405" lon="120.21345232190718">
        <time>2021-02-21T09:59:31.358000Z</time>
      </trkpt>
      <trkpt lat="35.93643780521193" lon="120.21351262044368">
        <time>2021-02-21T09:59:34.358000Z</time>
      </trkpt>
      <trkpt lat="35.93653157908722" lon="120.2136424966466">
        <time>2021-02-21T09:59:40.358000Z</time>
      </trkpt>
      <trkpt lat="35.936583030735726" lon="120.21368686788556">
        <time>2021-02-21T09:59:43.358000Z</time>
      </trkpt>
      <trkpt lat="35.9366251217928" lon="120.21373724302794">
        <time>2021-02-21T09:59:46.358000Z</time>
      </trkpt>
      <trkpt lat="35.936652997973404" lon="120.2137813529652">
        <time>2021-02-21T09:59:49.358000Z</time>
      </trkpt>
      <trkpt lat="35.936713555670906" lon="120.21385941933465">
        <time>2021-02-21T09:59:55.358000Z</time>
      </trkpt>
      <trkpt lat="35.93673696310077" lon="120.21388009873473">
        <time>2021-02-21T09:59:58.358000Z</time>
      </trkpt>
      <trkpt lat="35.93676582858303" lon="120.21389593098264">
        <time>2021-02-21T10:00:01.358000Z</time>
      </trkpt>
      <trkpt lat="35.93685593066609" lon="120.2139909471621">
        <time>2021-02-21T10:00:07.358000Z</time>
      </trkpt>
      <trkpt lat="35.93690647912806" lon="120.214037762616">
        <time>2021-02-21T10:00:10.358000Z</time>
      </trkpt>
      <trkpt lat="35.93696029465789" lon="120.21407276844381">
        <time>2021-02-21T10:00:13.458000Z</time>
      </trkpt>
      <trkpt lat="35.93701231496742" lon="120.21411857671413">
        <time>2021-02-21T10:00:16.358000Z</time>
      </trkpt>
      <trkpt lat="35.93711622897744" lon="120.21421512095255">
        <time>2021-02-21T10:00:22.358000Z</time>
      </trkpt>
      <trkpt lat="35.9371703220596" lon="120.21425940349242">
        <time>2021-02-21T10:00:25.458000Z</time>
      </trkpt>
      <trkpt lat="35.93722261647548" lon="120.21430974059753">
        <time>2021-02-21T10:00:28.358000Z</time>
      </trkpt>
      <trkpt lat="35.937334080342154" lon="120.21440813145234">
        <time>2021-02-21T10:00:34.358000Z</time>
      </trkpt>
      <trkpt lat="35.93739559177973" lon="120.21444780659057">
        <time>2021-02-21T10:00:37.358000Z</time>
      </trkpt>
      <trkpt lat="35.937461715881156" lon="120.21448640491505">
        <time>2021-02-21T10:00:40.358000Z</time>
      </trkpt>
      <trkpt lat="35.937571834134125" lon="120.21459637699888">
        <time>2021-02-21T10:00:46.358000Z</time>
      </trkpt>
      <trkpt lat="35.93771050766693" lon="120.21468583374718">
        <time>2021-02-21T10:00:52.358000Z</time>
      </trkpt>
      <trkpt lat="35.93778216859706" lon="120.2147279739501">
        <time>2021-02-21T10:00:55.358000Z</time>
      </trkpt>
      <trkpt lat="35.93785691554153" lon="120.2147662741576">
        <time>2021-02-21T10:00:58.358000Z</time>
      </trkpt>
      <trkpt lat="35.937995029182105" lon="120.21487064386204">
        <time>2021-02-21T10:01:04.358000Z</time>
      </trkpt>
      <trkpt lat="35.93814344099631" lon="120.21493397792551">
        <time>2021-02-21T10:01:10.358000Z</time>
      </trkpt>
      <trkpt lat="35.938213607109994" lon="120.2149573454915">
        <time>2021-02-21T10:01:13.358000Z</time>
      </trkpt>
      <trkpt lat="35.93828310475569" lon="120.2149943088816">
        <time>2021-02-21T10:01:16.358000Z</time>
      </trkpt>
      <trkpt lat="35.93841556025681" lon="120.21505206577343">
        <time>2021-02-21T10:01:22.358000Z</time>
      </trkpt>
      <trkpt lat="35.93848618482859" lon="120.2150544062104">
        <time>2021-02-21T10:01:25.358000Z</time>
      </trkpt>
      <trkpt lat="35.93854075958406" lon="120.21504618171626">
        <time>2021-02-21T10:01:28.358000Z</time>
      </trkpt>
      <trkpt lat="35.9386063683412" lon="120.21503704050996">
        <time>2021-02-21T10:01:31.458000Z</time>
      </trkpt>
      <trkpt lat="35.938730324786434" lon="120.21504792427582">
        <time>2021-02-21T10:01:37.358000Z</time>
      </trkpt>
      <trkpt lat="35.93886173838013" lon="120.21506975126513">
        <time>2021-02-21T10:01:43.358000Z</time>
      </trkpt>
      <trkpt lat="35.93893141816105" lon="120.21506803180084">
        <time>2021-02-21T10:01:46.358000Z</time>
      </trkpt>
      <trkpt lat="35.93906003579864" lon="120.21505658200617">
        <time>2021-02-21T10:01:52.358000Z</time>
      </trkpt>
      <trkpt lat="35.93919573328891" lon="120.21501683385524">
        <time>2021-02-21T10:01:58.358000Z</time>
      </trkpt>
      <trkpt lat="35.93925472120098" lon="120.21499965224956">
        <time>2021-02-21T10:02:01.358000Z</time>
      </trkpt>
      <trkpt lat="35.939297260082924" lon="120.21498612002186">
        <time>2021-02-21T10:02:04.358000Z</time>
      </trkpt>
      <trkpt lat="35.93933140623591" lon="120.21497305587533">
        <time>2021-02-21T10:02:07.358000Z</time>
      </trkpt>
      <trkpt lat="35.93936923403976" lon="120.21496687477661">
        <time>2021-02-21T10:02:10.358000Z</time>
      </trkpt>
      <trkpt lat="35.93951059758969" lon="120.21489409028361">
        <time>2021-02-21T10:02:19.358000Z</time>
      </trkpt>
      <trkpt lat="35.939563861491166" lon="120.21487885334868">
        <time>2021-02-21T10:02:22.358000Z</time>
      </trkpt>
      <trkpt lat="35.93962177864959" lon="120.21486207072458">
        <time>2021-02-21T10:02:25.358000Z</time>
      </trkpt>
      <trkpt lat="35.93967894175469" lon="120.21482594670258">
        <time>2021-02-21T10:02:28.358000Z</time>
      </trkpt>
      <trkpt lat="35.93980951313657" lon="120.2147899190393">
        <time>2021-02-21T10:02:34.358000Z</time>
      </trkpt>
      <trkpt lat="35.93993009453094" lon="120.21477422931146">
        <time>2021-02-21T10:02:40.358000Z</time>
      </trkpt>
      <trkpt lat="35.93998917940377" lon="120.21474459921028">
        <time>2021-02-21T10:02:43.358000Z</time>
      </trkpt>
      <trkpt lat="35.940053480064556" lon="120.214719059298">
        <time>2021-02-21T10:02:46.358000Z</time>
      </trkpt>
      <trkpt lat="35.94011681947338" lon="120.21469427741124">
        <time>2021-02-21T10:02:49.358000Z</time>
      </trkpt>
      <trkpt lat="35.94023835239421" lon="120.21466289738122">
        <time>2021-02-21T10:02:55.358000Z</time>
      </trkpt>
      <trkpt lat="35.940393161570796" lon="120.21447845688152">
        <time>2021-02-21T10:03:04.358000Z</time>
      </trkpt>
      <trkpt lat="35.940428280551984" lon="120.21439751473996">
        <time>2021-02-21T10:03:07.358000Z</time>
      </trkpt>
      <trkpt lat="35.94052710456942" lon="120.21422948924291">
        <time>2021-02-21T10:03:16.358000Z</time>
      </trkpt>
      <trkpt lat="35.94056084465929" lon="120.21417709518461">
        <time>2021-02-21T10:03:19.358000Z</time>
      </trkpt>
      <trkpt lat="35.94058519151761" lon="120.2141253986072">
        <time>2021-02-21T10:03:22.358000Z</time>
      </trkpt>
      <trkpt lat="35.940604939078" lon="120.21407969647424">
        <time>2021-02-21T10:03:25.358000Z</time>
      </trkpt>
      <trkpt lat="35.940666272738504" lon="120.21402258713371">
        <time>2021-02-21T10:03:31.358000Z</time>
      </trkpt>
      <trkpt lat="35.940688972604946" lon="120.21401224546338">
        <time>2021-02-21T10:03:34.358000Z</time>
      </trkpt>
      <trkpt lat="35.9407120136958" lon="120.21400107593304">
        <time>2021-02-21T10:03:37.458000Z</time>
      </trkpt>
      <trkpt lat="35.94074472867123" lon="120.21398883998437">
        <time>2021-02-21T10:03:40.358000Z</time>
      </trkpt>
      <trkpt lat="35.94087404568879" lon="120.21399269173953">
        <time>2021-02-21T10:03:46.358000Z</time>
      </trkpt>
      <trkpt lat="35.94093848801599" lon="120.21402457639728">
        <time>2021-02-21T10:03:49.358000Z</time>
      </trkpt>
      <trkpt lat="35.94100264161104" lon="120.21407008643067">
        <time>2021-02-21T10:03:52.358000Z</time>
      </trkpt>
      <trkpt lat="35.941143203314105" lon="120.21413094437963">
        <time>2021-02-21T10:03:58.358000Z</time>
      </trkpt>
      <trkpt lat="35.9412059070963" lon="120.21416883378586">
        <time>2021-02-21T10:04:01.358000Z</time>
      </trkpt>
      <trkpt lat="35.94126770672544" lon="120.21422424870225">
        <time>2021-02-21T10:04:04.358000Z</time>
      </trkpt>
      <trkpt lat="35.94155332482068" lon="120.21435841422297">
        <time>2021-02-21T10:04:16.358000Z</time>
      </trkpt>
      <trkpt lat="35.94162285858195" lon="120.21436104377736">
        <time>2021-02-21T10:04:19.358000Z</time>
      </trkpt>
      <trkpt lat="35.941693600684076" lon="120.21436510980317">
        <time>2021-02-21T10:04:22.358000Z</time>
      </trkpt>
      <trkpt lat="35.94195715898745" lon="120.2143192295402">
        <time>2021-02-21T10:04:34.358000Z</time>
      </trkpt>
      <trkpt lat="35.9420271232327" lon="120.21430691698417">
        <time>2021-02-21T10:04:37.358000Z</time>
      </trkpt>
      <trkpt lat="35.9420979942426" lon="120.21428981664725">
        <time>2021-02-21T10:04:40.358000Z</time>
      </trkpt>
      <trkpt lat="35.94223237874949" lon="120.2142378304439">
        <time>2021-02-21T10:04:46.358000Z</time>
      </trkpt>
      <trkpt lat="35.942348371158225" lon="120.21414023845657">
        <time>2021-02-21T10:04:52.358000Z</time>
      </trkpt>
      <trkpt lat="35.94246681555974" lon="120.21403452764883">
        <time>2021-02-21T10:04:58.358000Z</time>
      </trkpt>
      <trkpt lat="35.94268065058647" lon="120.21393129941524">
        <time>2021-02-21T10:05:07.358000Z</time>
      </trkpt>
      <trkpt lat="35.94285325741035" lon="120.21394304493451">
        <time>2021-02-21T10:05:13.358000Z</time>
      </trkpt>
      <trkpt lat="35.942942208414514" lon="120.21395842373536">
        <time>2021-02-21T10:05:16.358000Z</time>
      </trkpt>
      <trkpt lat="35.943089793248234" lon="120.2139525219449">
        <time>2021-02-21T10:05:22.358000Z</time>
      </trkpt>
      <trkpt lat="35.94322083781481" lon="120.21391471990243">
        <time>2021-02-21T10:05:28.658000Z</time>
      </trkpt>
      <trkpt lat="35.94326877891972" lon="120.21388623673882">
        <time>2021-02-21T10:05:31.358000Z</time>
      </trkpt>
      <trkpt lat="35.9433036195843" lon="120.21387025058392">
        <time>2021-02-21T10:05:34.358000Z</time>
      </trkpt>
      <trkpt lat="35.94334061494066" lon="120.2138585137998">
        <time>2021-02-21T10:05:37.358000Z</time>
      </trkpt>
      <trkpt lat="35.94338398523576" lon="120.2138370823032">
        <time>2021-02-21T10:05:40.358000Z</time>
      </trkpt>
      <trkpt lat="35.9435036815091" lon="120.21377430310804">
        <time>2021-02-21T10:05:49.358000Z</time>
      </trkpt>
      <trkpt lat="35.94353699521985" lon="120.21377036612996">
        <time>2021-02-21T10:05:52.358000Z</time>
      </trkpt>
      <trkpt lat="35.9435730466121" lon="120.21376860384807">
        <time>2021-02-21T10:05:55.358000Z</time>
      </trkpt>
      <trkpt lat="35.94360448450601" lon="120.21376129530657">
        <time>2021-02-21T10:05:58.358000Z</time>
      </trkpt>
      <trkpt lat="35.943636976581686" lon="120.21375839560973">
        <time>2021-02-21T10:06:01.358000Z</time>
      </trkpt>
      <trkpt lat="35.94371396729215" lon="120.21375000390579">
        <time>2021-02-21T10:06:04.358000Z</time>
      </trkpt>
      <trkpt lat="35.94386817019119" lon="120.21373943466217">
        <time>2021-02-21T10:06:10.358000Z</time>
      </trkpt>
      <trkpt lat="35.943941235366935" lon="120.21376334018069">
        <time>2021-02-21T10:06:13.358000Z</time>
      </trkpt>
      <trkpt lat="35.944082595178436" lon="120.21383974793413">
        <time>2021-02-21T10:06:19.358000Z</time>
      </trkpt>
      <trkpt lat="35.94414389828385" lon="120.21387760692384">
        <time>2021-02-21T10:06:22.358000Z</time>
      </trkpt>
      <trkpt lat="35.94421228016386" lon="120.21391038952204">
        <time>2021-02-21T10:06:25.358000Z</time>
      </trkpt>
      <trkpt lat="35.94434416211311" lon="120.21393278427722">
        <time>2021-02-21T10:06:31.358000Z</time>
      </trkpt>
      <trkpt lat="35.944422518201456" lon="120.21391341061376">
        <time>2021-02-21T10:06:34.458000Z</time>
      </trkpt>
      <trkpt lat="35.94449699091847" lon="120.2138957921446">
        <time>2021-02-21T10:06:37.358000Z</time>
      </trkpt>
      <trkpt lat="35.94463881152418" lon="120.21387732187421">
        <time>2021-02-21T10:06:43.358000Z</time>
      </trkpt>
      <trkpt lat="35.944710315006894" lon="120.21387314889671">
        <time>2021-02-21T10:06:46.358000Z</time>
      </trkpt>
      <trkpt lat="35.944769980701416" lon="120.21386523439676">
        <time>2021-02-21T10:06:49.358000Z</time>
      </trkpt>
      <trkpt lat="35.94481633967798" lon="120.21385980238287">
        <time>2021-02-21T10:06:52.358000Z</time>
      </trkpt>
      <trkpt lat="35.94495314528824" lon="120.21383679325763">
        <time>2021-02-21T10:06:58.358000Z</time>
      </trkpt>
      <trkpt lat="35.94501342694614" lon="120.21383192106576">
        <time>2021-02-21T10:07:01.358000Z</time>
      </trkpt>
      <trkpt lat="35.94506333316046" lon="120.21382913263467">
        <time>2021-02-21T10:07:04.358000Z</time>
      </trkpt>
      <trkpt lat="35.94510572089106" lon="120.21382388979018">
        <time>2021-02-21T10:07:07.358000Z</time>
      </trkpt>
      <trkpt lat="35.945147699729574" lon="120.21381776914843">
        <time>2021-02-21T10:07:10.358000Z</time>
      </trkpt>
      <trkpt lat="35.94518757340702" lon="120.21380775824109">
        <time>2021-02-21T10:07:13.358000Z</time>
      </trkpt>
      <trkpt lat="35.945261102376044" lon="120.21378545170913">
        <time>2021-02-21T10:07:19.358000Z</time>
      </trkpt>
      <trkpt lat="35.94530612033237" lon="120.21377326681903">
        <time>2021-02-21T10:07:22.358000Z</time>
      </trkpt>
      <trkpt lat="35.945362268888616" lon="120.21376264892976">
        <time>2021-02-21T10:07:25.358000Z</time>
      </trkpt>
      <trkpt lat="35.945410568488434" lon="120.21374986586886">
        <time>2021-02-21T10:07:28.358000Z</time>
      </trkpt>
      <trkpt lat="35.94555649812893" lon="120.2137545868606">
        <time>2021-02-21T10:07:34.358000Z</time>
      </trkpt>
      <trkpt lat="35.9456979649418" lon="120.21374605128732">
        <time>2021-02-21T10:07:40.358000Z</time>
      </trkpt>
      <trkpt lat="35.945748745506094" lon="120.21374026060585">
        <time>2021-02-21T10:07:43.358000Z</time>
      </trkpt>
      <trkpt lat="35.94581452759425" lon="120.21373605721413">
        <time>2021-02-21T10:07:46.358000Z</time>
      </trkpt>
      <trkpt lat="35.94586748890591" lon="120.21374461011489">
        <time>2021-02-21T10:07:49.358000Z</time>
      </trkpt>
      <trkpt lat="35.94600577204392" lon="120.2137309074507">
        <time>2021-02-21T10:07:55.358000Z</time>
      </trkpt>
      <trkpt lat="35.946078196821645" lon="120.21373318810062">
        <time>2021-02-21T10:07:58.358000Z</time>
      </trkpt>
      <trkpt lat="35.94614785838776" lon="120.21373005233104">
        <time>2021-02-21T10:08:01.358000Z</time>
      </trkpt>
      <trkpt lat="35.94621029252855" lon="120.21372375399028">
        <time>2021-02-21T10:08:04.358000Z</time>
      </trkpt>
      <trkpt lat="35.94635970800309" lon="120.21369585857657">
        <time>2021-02-21T10:08:10.358000Z</time>
      </trkpt>
      <trkpt lat="35.94644158213138" lon="120.21367857005427">
        <time>2021-02-21T10:08:13.358000Z</time>
      </trkpt>
      <trkpt lat="35.94651151650043" lon="120.2136734493859">
        <time>2021-02-21T10:08:16.358000Z</time>
      </trkpt>
      <trkpt lat="35.94664355169227" lon="120.21365713287535">
        <time>2021-02-21T10:08:22.358000Z</time>
      </trkpt>
      <trkpt lat="35.94670445917556" lon="120.21366261431189">
        <time>2021-02-21T10:08:25.358000Z</time>
      </trkpt>
      <trkpt lat="35.94677550195918" lon="120.21365159880926">
        <time>2021-02-21T10:08:28.358000Z</time>
      </trkpt>
      <trkpt lat="35.94699216269473" lon="120.21351632417323">
        <time>2021-02-21T10:08:40.358000Z</time>
      </trkpt>
      <trkpt lat="35.94699511039422" lon="120.21341755743912">
        <time>2021-02-21T10:08:43.358000Z</time>
      </trkpt>
      <trkpt lat="35.94700167824001" lon="120.21332670104758">
        <time>2021-02-21T10:08:46.358000Z</time>
      </trkpt>
      <trkpt lat="35.94701584769384" lon="120.21303552092688">
        <time>2021-02-21T10:08:55.358000Z</time>
      </trkpt>
      <trkpt lat="35.94700848692716" lon="120.21294899326006">
        <time>2021-02-21T10:08:58.358000Z</time>
      </trkpt>
      <trkpt lat="35.94700065073951" lon="120.2128521224941">
        <time>2021-02-21T10:09:01.358000Z</time>
      </trkpt>
      <trkpt lat="35.94699178831374" lon="120.212653016365">
        <time>2021-02-21T10:09:07.358000Z</time>
      </trkpt>
      <trkpt lat="35.94698506675677" lon="120.2125535732901">
        <time>2021-02-21T10:09:10.358000Z</time>
      </trkpt>
      <trkpt lat="35.94697084621809" lon="120.21245227467695">
        <time>2021-02-21T10:09:13.458000Z</time>
      </trkpt>
      <trkpt lat="35.94702858087849" lon="120.21219774127289">
        <time>2021-02-21T10:09:22.358000Z</time>
      </trkpt>
      <trkpt lat="35.94712450454505" lon="120.21192360453799">
        <time>2021-02-21T10:09:31.358000Z</time>
      </trkpt>
      <trkpt lat="35.94716588843444" lon="120.21183694466184">
        <time>2021-02-21T10:09:34.358000Z</time>
      </trkpt>
      <trkpt lat="35.9472065568124" lon="120.21175414485846">
        <time>2021-02-21T10:09:37.358000Z</time>
      </trkpt>
      <trkpt lat="35.94728282092076" lon="120.21158987196937">
        <time>2021-02-21T10:09:43.358000Z</time>
      </trkpt>
      <trkpt lat="35.947325218727045" lon="120.2115150819452">
        <time>2021-02-21T10:09:46.358000Z</time>
      </trkpt>
      <trkpt lat="35.94735898958695" lon="120.21142982881008">
        <time>2021-02-21T10:09:49.358000Z</time>
      </trkpt>
      <trkpt lat="35.9474208688599" lon="120.21125348807588">
        <time>2021-02-21T10:09:55.358000Z</time>
      </trkpt>
      <trkpt lat="35.947446523220044" lon="120.21117172571459">
        <time>2021-02-21T10:09:58.358000Z</time>
      </trkpt>
      <trkpt lat="35.947481189057974" lon="120.21109059270789">
        <time>2021-02-21T10:10:01.358000Z</time>
      </trkpt>
      <trkpt lat="35.947550537388885" lon="120.2109378621134">
        <time>2021-02-21T10:10:07.358000Z</time>
      </trkpt>
      <trkpt lat="35.94758672243227" lon="120.21086473864939">
        <time>2021-02-21T10:10:10.358000Z</time>
      </trkpt>
      <trkpt lat="35.94762184555941" lon="120.21079284200881">
        <time>2021-02-21T10:10:13.358000Z</time>
      </trkpt>
      <trkpt lat="35.94768931884889" lon="120.21062342689895">
        <time>2021-02-21T10:10:19.358000Z</time>
      </trkpt>
      <trkpt lat="35.94773025614411" lon="120.2105430937078">
        <time>2021-02-21T10:10:22.358000Z</time>
      </trkpt>
      <trkpt lat="35.94776928149091" lon="120.21045703575504">
        <time>2021-02-21T10:10:25.358000Z</time>
      </trkpt>
      <trkpt lat="35.94784067800569" lon="120.21030065803734">
        <time>2021-02-21T10:10:31.358000Z</time>
      </trkpt>
      <trkpt lat="35.94787457138498" lon="120.21021541808457">
        <time>2021-02-21T10:10:34.358000Z</time>
      </trkpt>
      <trkpt lat="35.94793124486519" lon="120.21004565593259">
        <time>2021-02-21T10:10:40.358000Z</time>
      </trkpt>
      <trkpt lat="35.947939030393755" lon="120.20995493894155">
        <time>2021-02-21T10:10:43.358000Z</time>
      </trkpt>
      <trkpt lat="35.94795200315244" lon="120.20986032309436">
        <time>2021-02-21T10:10:46.358000Z</time>
      </trkpt>
      <trkpt lat="35.94796251801838" lon="120.20968289917498">
        <time>2021-02-21T10:10:52.358000Z</time>
      </trkpt>
      <trkpt lat="35.94795838716465" lon="120.20960177636701">
        <time>2021-02-21T10:10:55.358000Z</time>
      </trkpt>
      <trkpt lat="35.94795439648501" lon="120.20954762135707">
        <time>2021-02-21T10:10:58.358000Z</time>
      </trkpt>
      <trkpt lat="35.94796124467379" lon="120.20948260658002">
        <time>2021-02-21T10:11:01.358000Z</time>
      </trkpt>
      <trkpt lat="35.94801420006593" lon="120.20927934802599">
        <time>2021-02-21T10:11:13.358000Z</time>
      </trkpt>
      <trkpt lat="35.948088503178205" lon="120.20932313679376">
        <time>2021-02-21T10:11:19.358000Z</time>
      </trkpt>
      <trkpt lat="35.948120933136536" lon="120.20935541284312">
        <time>2021-02-21T10:11:22.358000Z</time>
      </trkpt>
      <trkpt lat="35.948149826403174" lon="120.20939161803967">
        <time>2021-02-21T10:11:25.358000Z</time>
      </trkpt>
      <trkpt lat="35.94819929492443" lon="120.20944117921448">
        <time>2021-02-21T10:11:28.358000Z</time>
      </trkpt>
      <trkpt lat="35.94832282921399" lon="120.20955984152731">
        <time>2021-02-21T10:11:34.458000Z</time>
      </trkpt>
      <trkpt lat="35.948377823429794" lon="120.2096201047351">
        <time>2021-02-21T10:11:37.358000Z</time>
      </trkpt>
      <trkpt lat="35.948434698621206" lon="120.20968007899465">
        <time>2021-02-21T10:11:40.358000Z</time>
      </trkpt>
      <trkpt lat="35.94854589269171" lon="120.20979727497802">
        <time>2021-02-21T10:11:46.358000Z</time>
      </trkpt>
      <trkpt lat="35.94860154016559" lon="120.20984889180777">
        <time>2021-02-21T10:11:49.358000Z</time>
      </trkpt>
      <trkpt lat="35.94865606198054" lon="120.20990419874941">
        <time>2021-02-21T10:11:52.358000Z</time>
      </trkpt>
      <trkpt lat="35.94877289370306" lon="120.21001755627942">
        <time>2021-02-21T10:11:58.358000Z</time>
      </trkpt>
      <trkpt lat="35.94883431964453" lon="120.21007815998458">
        <time>2021-02-21T10:12:01.358000Z</time>
      </trkpt>
      <trkpt lat="35.94889109812338" lon="120.21014312176287">
        <time>2021-02-21T10:12:04.358000Z</time>
      </trkpt>
      <trkpt lat="35.94897207422344" lon="120.21026154341813">
        <time>2021-02-21T10:12:10.358000Z</time>
      </trkpt>
      <trkpt lat="35.949016714575485" lon="120.21033020462782">
        <time>2021-02-21T10:12:13.358000Z</time>
      </trkpt>
      <trkpt lat="35.94907190807164" lon="120.21039173588477">
        <time>2021-02-21T10:12:16.358000Z</time>
      </trkpt>
      <trkpt lat="35.94918501100457" lon="120.21051821990332">
        <time>2021-02-21T10:12:22.358000Z</time>
      </trkpt>
      <trkpt lat="35.9492473629317" lon="120.21058907740927">
        <time>2021-02-21T10:12:25.358000Z</time>
      </trkpt>
      <trkpt lat="35.94931214811804" lon="120.21065132810453">
        <time>2021-02-21T10:12:28.358000Z</time>
      </trkpt>
      <trkpt lat="35.94944716202195" lon="120.21076076023729">
        <time>2021-02-21T10:12:34.458000Z</time>
      </trkpt>
      <trkpt lat="35.94950821103492" lon="120.21081991910796">
        <time>2021-02-21T10:12:37.358000Z</time>
      </trkpt>
      <trkpt lat="35.949567842388696" lon="120.21087728270689">
        <time>2021-02-21T10:12:40.358000Z</time>
      </trkpt>
      <trkpt lat="35.94964663813192" lon="120.21095561272497">
        <time>2021-02-21T10:12:46.358000Z</time>
      </trkpt>
      <trkpt lat="35.94967321619848" lon="120.21097525322136">
        <time>2021-02-21T10:12:49.358000Z</time>
      </trkpt>
      <trkpt lat="35.94970633099677" lon="120.21099826541122">
        <time>2021-02-21T10:12:52.358000Z</time>
      </trkpt>
      <trkpt lat="35.94977299502616" lon="120.21102751415587">
        <time>2021-02-21T10:12:58.358000Z</time>
      </trkpt>
      <trkpt lat="35.94981228585226" lon="120.21102670979386">
        <time>2021-02-21T10:13:01.358000Z</time>
      </trkpt>
      <trkpt lat="35.94987419102213" lon="120.21099222637412">
        <time>2021-02-21T10:13:04.358000Z</time>
      </trkpt>
      <trkpt lat="35.94993916324851" lon="120.21095341470043">
        <time>2021-02-21T10:13:07.358000Z</time>
      </trkpt>
      <trkpt lat="35.95000190075249" lon="120.21092439698849">
        <time>2021-02-21T10:13:10.358000Z</time>
      </trkpt>
      <trkpt lat="35.95010926393941" lon="120.21087147649625">
        <time>2021-02-21T10:13:16.358000Z</time>
      </trkpt>
      <trkpt lat="35.950174067764266" lon="120.21085226310858">
        <time>2021-02-21T10:13:19.358000Z</time>
      </trkpt>
      <trkpt lat="35.950240891106965" lon="120.21083372811827">
        <time>2021-02-21T10:13:22.358000Z</time>
      </trkpt>
      <trkpt lat="35.950303692269095" lon="120.21080225701319">
        <time>2021-02-21T10:13:25.358000Z</time>
      </trkpt>
      <trkpt lat="35.95042959076215" lon="120.21075579128687">
        <time>2021-02-21T10:13:31.358000Z</time>
      </trkpt>
      <trkpt lat="35.95055924860704" lon="120.21069669941926">
        <time>2021-02-21T10:13:37.458000Z</time>
      </trkpt>
      <trkpt lat="35.950657576704685" lon="120.21039940736486">
        <time>2021-02-21T10:13:49.358000Z</time>
      </trkpt>
      <trkpt lat="35.95064875020383" lon="120.21030676304896">
        <time>2021-02-21T10:13:52.358000Z</time>
      </trkpt>
      <trkpt lat="35.95063306443784" lon="120.2102194242443">
        <time>2021-02-21T10:13:55.358000Z</time>
      </trkpt>
      <trkpt lat="35.95061057750406" lon="120.21002309593715">
        <time>2021-02-21T10:14:04.358000Z</time>
      </trkpt>
      <trkpt lat="35.95059262339264" lon="120.20996857995918">
        <time>2021-02-21T10:14:07.358000Z</time>
      </trkpt>
      <trkpt lat="35.9506493203967" lon="120.20990544380149">
        <time>2021-02-21T10:16:04.358000Z</time>
      </trkpt>
      <trkpt lat="35.95067444573318" lon="120.20989245079643">
        <time>2021-02-21T10:16:07.358000Z</time>
      </trkpt>
      <trkpt lat="35.95071610019643" lon="120.20986247470698">
        <time>2021-02-21T10:16:10.358000Z</time>
      </trkpt>
      <trkpt lat="35.951094125941005" lon="120.20969808873677">
        <time>2021-02-21T10:16:28.358000Z</time>
      </trkpt>
      <trkpt lat="35.95115484988801" lon="120.20968521866989">
        <time>2021-02-21T10:16:31.358000Z</time>
      </trkpt>
      <trkpt lat="35.9512134993367" lon="120.20966153740989">
        <time>2021-02-21T10:16:34.358000Z</time>
      </trkpt>
      <trkpt lat="35.95151680744842" lon="120.20963201373512">
        <time>2021-02-21T10:16:46.358000Z</time>
      </trkpt>
      <trkpt lat="35.95159529036695" lon="120.20961603362707">
        <time>2021-02-21T10:16:49.358000Z</time>
      </trkpt>
      <trkpt lat="35.952020831695904" lon="120.20955731928564">
        <time>2021-02-21T10:17:07.358000Z</time>
      </trkpt>
      <trkpt lat="35.952164044307615" lon="120.20958595524095">
        <time>2021-02-21T10:17:13.358000Z</time>
      </trkpt>
      <trkpt lat="35.95264752572513" lon="120.20948953741399">
        <time>2021-02-21T10:17:34.358000Z</time>
      </trkpt>
      <trkpt lat="35.95274226039668" lon="120.20946833286892">
        <time>2021-02-21T10:17:40.358000Z</time>
      </trkpt>
      <trkpt lat="35.9527814085795" lon="120.20944907812111">
        <time>2021-02-21T10:17:43.358000Z</time>
      </trkpt>
      <trkpt lat="35.95285647079471" lon="120.20938594459221">
        <time>2021-02-21T10:17:49.358000Z</time>
      </trkpt>
      <trkpt lat="35.95314477160313" lon="120.20931854176217">
        <time>2021-02-21T10:18:04.358000Z</time>
      </trkpt>
      <trkpt lat="35.95344011317374" lon="120.20929209938643">
        <time>2021-02-21T10:18:22.358000Z</time>
      </trkpt>
      <trkpt lat="35.953500905285516" lon="120.20928722794523">
        <time>2021-02-21T10:18:25.358000Z</time>
      </trkpt>
      <trkpt lat="35.9535731066464" lon="120.20928473113165">
        <time>2021-02-21T10:18:28.358000Z</time>
      </trkpt>
      <trkpt lat="35.9536299691929" lon="120.20927892186526">
        <time>2021-02-21T10:18:31.358000Z</time>
      </trkpt>
      <trkpt lat="35.95373373220302" lon="120.20924693730166">
        <time>2021-02-21T10:18:37.358000Z</time>
      </trkpt>
      <trkpt lat="35.954002134058896" lon="120.20921587502157">
        <time>2021-02-21T10:18:49.358000Z</time>
      </trkpt>
      <trkpt lat="35.95407663037942" lon="120.20919701252693">
        <time>2021-02-21T10:18:52.358000Z</time>
      </trkpt>
      <trkpt lat="35.95414356722798" lon="120.20917656364311">
        <time>2021-02-21T10:18:55.358000Z</time>
      </trkpt>
      <trkpt lat="35.95426060492227" lon="120.2091235570681">
        <time>2021-02-21T10:19:01.358000Z</time>
      </trkpt>
      <trkpt lat="35.95433386685669" lon="120.20908737126022">
        <time>2021-02-21T10:19:04.358000Z</time>
      </trkpt>
      <trkpt lat="35.95448986484788" lon="120.2090539653933">
        <time>2021-02-21T10:19:10.358000Z</time>
      </trkpt>
      <trkpt lat="35.954564509974915" lon="120.20905602651165">
        <time>2021-02-21T10:19:13.358000Z</time>
      </trkpt>
      <trkpt lat="35.95469440593692" lon="120.2090331000405">
        <time>2021-02-21T10:19:19.358000Z</time>
      </trkpt>
      <trkpt lat="35.95476628579675" lon="120.20901148484946">
        <time>2021-02-21T10:19:22.358000Z</time>
      </trkpt>
      <trkpt lat="35.95484447203928" lon="120.20900000286304">
        <time>2021-02-21T10:19:25.358000Z</time>
      </trkpt>
      <trkpt lat="35.954999903633194" lon="120.20901757930433">
        <time>2021-02-21T10:19:31.358000Z</time>
      </trkpt>
      <trkpt lat="35.955319326081494" lon="120.20920864242748">
        <time>2021-02-21T10:19:46.358000Z</time>
      </trkpt>
      <trkpt lat="35.955350968434225" lon="120.20929946061958">
        <time>2021-02-21T10:19:49.458000Z</time>
      </trkpt>
      <trkpt lat="35.95537744047244" lon="120.2093696042088">
        <time>2021-02-21T10:19:52.358000Z</time>
      </trkpt>
      <trkpt lat="35.95540060402495" lon="120.20953928023336">
        <time>2021-02-21T10:20:01.358000Z</time>
      </trkpt>
      <trkpt lat="35.95541499597696" lon="120.20960101580482">
        <time>2021-02-21T10:20:04.358000Z</time>
      </trkpt>
      <trkpt lat="35.95545554319928" lon="120.2098055312712">
        <time>2021-02-21T10:20:13.358000Z</time>
      </trkpt>
      <trkpt lat="35.955477745319236" lon="120.20989581168064">
        <time>2021-02-21T10:20:16.358000Z</time>
      </trkpt>
      <trkpt lat="35.95555356481393" lon="120.21013280547749">
        <time>2021-02-21T10:20:25.358000Z</time>
      </trkpt>
      <trkpt lat="35.955566990867965" lon="120.21021261390186">
        <time>2021-02-21T10:20:28.358000Z</time>
      </trkpt>
      <trkpt lat="35.95559283666199" lon="120.2102811237155">
        <time>2021-02-21T10:20:31.358000Z</time>
      </trkpt>
      <trkpt lat="35.95562804387754" lon="120.2105417937936">
        <time>2021-02-21T10:20:40.358000Z</time>
      </trkpt>
      <trkpt lat="35.95563144125848" lon="120.21072252479219">
        <time>2021-02-21T10:20:46.358000Z</time>
      </trkpt>
      <trkpt lat="35.95565952528891" lon="120.21087580159816">
        <time>2021-02-21T10:20:52.358000Z</time>
      </trkpt>
      <trkpt lat="35.95566975780533" lon="120.21095160214655">
        <time>2021-02-21T10:20:55.458000Z</time>
      </trkpt>
      <trkpt lat="35.955693562593616" lon="120.211042025489">
        <time>2021-02-21T10:20:58.358000Z</time>
      </trkpt>
      <trkpt lat="35.95574625557075" lon="120.21120793274095">
        <time>2021-02-21T10:21:04.358000Z</time>
      </trkpt>
      <trkpt lat="35.95577013443901" lon="120.21135839887236">
        <time>2021-02-21T10:21:10.358000Z</time>
      </trkpt>
      <trkpt lat="35.95577954422884" lon="120.2114504876993">
        <time>2021-02-21T10:21:13.358000Z</time>
      </trkpt>
      <trkpt lat="35.95578389906277" lon="120.21164991489525">
        <time>2021-02-21T10:21:19.358000Z</time>
      </trkpt>
      <trkpt lat="35.95578396157603" lon="120.21175295506761">
        <time>2021-02-21T10:21:22.358000Z</time>
      </trkpt>
      <trkpt lat="35.95577865609361" lon="120.21185386067478">
        <time>2021-02-21T10:21:25.358000Z</time>
      </trkpt>
      <trkpt lat="35.95577590488892" lon="120.21200853650065">
        <time>2021-02-21T10:21:31.358000Z</time>
      </trkpt>
      <trkpt lat="35.955780250108376" lon="120.2121040179236">
        <time>2021-02-21T10:21:34.358000Z</time>
      </trkpt>
      <trkpt lat="35.95578598413609" lon="120.21237718775764">
        <time>2021-02-21T10:21:43.358000Z</time>
      </trkpt>
      <trkpt lat="35.9557802542941" lon="120.21246806135774">
        <time>2021-02-21T10:21:46.358000Z</time>
      </trkpt>
      <trkpt lat="35.95577320931888" lon="120.21255540425504">
        <time>2021-02-21T10:21:49.358000Z</time>
      </trkpt>
      <trkpt lat="35.95583463913011" lon="120.21270107258745">
        <time>2021-02-21T10:21:58.358000Z</time>
      </trkpt>
      <trkpt lat="35.95591959984182" lon="120.2126939386384">
        <time>2021-02-21T10:22:04.358000Z</time>
      </trkpt>
      <trkpt lat="35.95599461956137" lon="120.21269289803762">
        <time>2021-02-21T10:22:10.358000Z</time>
      </trkpt>
      <trkpt lat="35.95603232549917" lon="120.21268098223825">
        <time>2021-02-21T10:22:13.358000Z</time>
      </trkpt>
      <trkpt lat="35.956094409309515" lon="120.21265347896518">
        <time>2021-02-21T10:22:16.358000Z</time>
      </trkpt>
      <trkpt lat="35.95615138266966" lon="120.21261832507003">
        <time>2021-02-21T10:22:19.458000Z</time>
      </trkpt>
      <trkpt lat="35.956413833086096" lon="120.21255688768838">
        <time>2021-02-21T10:22:31.358000Z</time>
      </trkpt>
      <trkpt lat="35.95644319202217" lon="120.21256270523777">
        <time>2021-02-21T10:22:34.358000Z</time>
      </trkpt>
      <trkpt lat="35.95650642967432" lon="120.21253272858482">
        <time>2021-02-21T10:22:40.358000Z</time>
      </trkpt>
      <trkpt lat="35.95655716342206" lon="120.2125955603078">
        <time>2021-02-21T10:22:46.358000Z</time>
      </trkpt>
      <trkpt lat="35.956566015413806" lon="120.21263116888467">
        <time>2021-02-21T10:22:49.358000Z</time>
      </trkpt>
      <trkpt lat="35.95657615754048" lon="120.21266692723013">
        <time>2021-02-21T10:22:52.358000Z</time>
      </trkpt>
      <trkpt lat="35.95658747772783" lon="120.21274697119597">
        <time>2021-02-21T10:22:55.358000Z</time>
      </trkpt>
      <trkpt lat="35.9565968318756" lon="120.21283109465678">
        <time>2021-02-21T10:22:58.358000Z</time>
      </trkpt>
      <trkpt lat="35.956628531269345" lon="120.21307989592835">
        <time>2021-02-21T10:23:07.358000Z</time>
      </trkpt>
    </trkseg>
  </trk>
</gpx>