<?xml version="1.0" encoding="UTF-8"?>
<gpx xmlns="http://www.topografix.com/GPX/1/1" xmlns:gpxtpx="http://www.garmin.com/xmlschemas/TrackPointExtension/v1" xmlns:xsi="http://www.w3.org/2001/XMLSchema-instance" xsi:schemaLocation="http://www.topografix.com/GPX/1/1 http://www.topografix.com/GPX/1/1/gpx.xsd" version="1.1" creator="gpx.py -- https://github.com/tkrajina/gpxpy">
  <trk>
    <name>gpx from keep</name>
    <trkseg>
      <trkpt lat="35.95739637586806" lon="120.21466010199653">
        <ele>4</ele>
        <time>2018-01-09T11:03:22.300000Z</time>
      </trkpt>
      <trkpt lat="35.957401529947916" lon="120.21470947265625">
        <ele>4</ele>
        <time>2018-01-09T11:03:25.500000Z</time>
      </trkpt>
      <trkpt lat="35.957499728732635" lon="120.21495198567709">
        <ele>4</ele>
        <time>2018-01-09T11:03:39.300000Z</time>
      </trkpt>
      <trkpt lat="35.95754774305556" lon="120.21491943359375">
        <ele>4</ele>
        <time>2018-01-09T11:03:42.300000Z</time>
      </trkpt>
      <trkpt lat="35.95766411675347" lon="120.21487711588541">
        <ele>4</ele>
        <time>2018-01-09T11:03:48.400000Z</time>
      </trkpt>
      <trkpt lat="35.957744683159724" lon="120.21483479817708">
        <ele>4</ele>
        <time>2018-01-09T11:03:52.400000Z</time>
      </trkpt>
      <trkpt lat="35.95781521267361" lon="120.21481635199653">
        <ele>3</ele>
        <time>2018-01-09T11:03:55.400000Z</time>
      </trkpt>
      <trkpt lat="35.95800103081597" lon="120.2150634765625">
        <ele>3</ele>
        <time>2018-01-09T11:04:09.300000Z</time>
      </trkpt>
      <trkpt lat="35.95800808376736" lon="120.21524305555556">
        <ele>3</ele>
        <time>2018-01-09T11:04:15.400000Z</time>
      </trkpt>
      <trkpt lat="35.95803005642361" lon="120.21536946614583">
        <ele>3</ele>
        <time>2018-01-09T11:04:19.400000Z</time>
      </trkpt>
      <trkpt lat="35.958050130208335" lon="120.21563774956597">
        <ele>3</ele>
        <time>2018-01-09T11:04:27.300000Z</time>
      </trkpt>
      <trkpt lat="35.957881673177084" lon="120.21586263020833">
        <ele>3</ele>
        <time>2018-01-09T11:04:37.400000Z</time>
      </trkpt>
      <trkpt lat="35.95779622395833" lon="120.21588216145834">
        <ele>3</ele>
        <time>2018-01-09T11:04:40.400000Z</time>
      </trkpt>
      <trkpt lat="35.95771484375" lon="120.2158900282118">
        <ele>3</ele>
        <time>2018-01-09T11:04:43.400000Z</time>
      </trkpt>
      <trkpt lat="35.95752061631944" lon="120.21591335720485">
        <ele>3</ele>
        <time>2018-01-09T11:04:50.400000Z</time>
      </trkpt>
      <trkpt lat="35.95744330512153" lon="120.21591335720485">
        <ele>3</ele>
        <time>2018-01-09T11:04:53.400000Z</time>
      </trkpt>
      <trkpt lat="35.957364095052085" lon="120.2159130859375">
        <ele>3</ele>
        <time>2018-01-09T11:04:56.500000Z</time>
      </trkpt>
      <trkpt lat="35.95719970703125" lon="120.2159543185764">
        <ele>3</ele>
        <time>2018-01-09T11:05:03.400000Z</time>
      </trkpt>
      <trkpt lat="35.9571044921875" lon="120.21598307291667">
        <ele>3</ele>
        <time>2018-01-09T11:05:07.400000Z</time>
      </trkpt>
      <trkpt lat="35.957011990017364" lon="120.21600748697917">
        <ele>3</ele>
        <time>2018-01-09T11:05:11.400000Z</time>
      </trkpt>
      <trkpt lat="35.95682562934028" lon="120.21606743706597">
        <ele>3</ele>
        <time>2018-01-09T11:05:18.400000Z</time>
      </trkpt>
      <trkpt lat="35.956754014756946" lon="120.21608940972222">
        <ele>3</ele>
        <time>2018-01-09T11:05:21.400000Z</time>
      </trkpt>
      <trkpt lat="35.95665554470486" lon="120.21612603081597">
        <ele>3</ele>
        <time>2018-01-09T11:05:25.400000Z</time>
      </trkpt>
      <trkpt lat="35.9564013671875" lon="120.21616617838542">
        <ele>3</ele>
        <time>2018-01-09T11:05:36.400000Z</time>
      </trkpt>
      <trkpt lat="35.956232096354164" lon="120.21620252821181">
        <ele>3</ele>
        <time>2018-01-09T11:05:43.300000Z</time>
      </trkpt>
      <trkpt lat="35.955990125868055" lon="120.21625813802083">
        <ele>3</ele>
        <time>2018-01-09T11:05:53.400000Z</time>
      </trkpt>
      <trkpt lat="35.95577067057292" lon="120.21658094618056">
        <ele>3</ele>
        <time>2018-01-09T11:06:11.300000Z</time>
      </trkpt>
      <trkpt lat="35.955638020833334" lon="120.2167795138889">
        <ele>3</ele>
        <time>2018-01-09T11:06:25.400000Z</time>
      </trkpt>
      <trkpt lat="35.95566569010417" lon="120.21690538194444">
        <ele>3</ele>
        <time>2018-01-09T11:06:29.300000Z</time>
      </trkpt>
      <trkpt lat="35.955699327256944" lon="120.21713189019097">
        <ele>3</ele>
        <time>2018-01-09T11:06:36.400000Z</time>
      </trkpt>
      <trkpt lat="35.955753309461805" lon="120.21741536458333">
        <ele>3</ele>
        <time>2018-01-09T11:06:46.400000Z</time>
      </trkpt>
      <trkpt lat="35.95577935112847" lon="120.21751030815972">
        <ele>3</ele>
        <time>2018-01-09T11:06:49.400000Z</time>
      </trkpt>
      <trkpt lat="35.955807291666666" lon="120.21760823567708">
        <ele>3</ele>
        <time>2018-01-09T11:06:53.400000Z</time>
      </trkpt>
      <trkpt lat="35.95585069444444" lon="120.21779106987847">
        <ele>3</ele>
        <time>2018-01-09T11:07:00.400000Z</time>
      </trkpt>
      <trkpt lat="35.95587917751736" lon="120.217861328125">
        <ele>3</ele>
        <time>2018-01-09T11:07:03.400000Z</time>
      </trkpt>
      <trkpt lat="35.95592013888889" lon="120.21797281901041">
        <ele>3</ele>
        <time>2018-01-09T11:07:07.400000Z</time>
      </trkpt>
      <trkpt lat="35.9559912109375" lon="120.21815836588542">
        <ele>3</ele>
        <time>2018-01-09T11:07:14.400000Z</time>
      </trkpt>
      <trkpt lat="35.95580322265625" lon="120.21855143229166">
        <ele>3</ele>
        <time>2018-01-09T11:07:32.400000Z</time>
      </trkpt>
      <trkpt lat="35.955601399739585" lon="120.21860649956598">
        <ele>3</ele>
        <time>2018-01-09T11:07:39.400000Z</time>
      </trkpt>
      <trkpt lat="35.95550808376736" lon="120.21863579644098">
        <ele>3</ele>
        <time>2018-01-09T11:07:42.500000Z</time>
      </trkpt>
      <trkpt lat="35.95534559461805" lon="120.21870415581597">
        <ele>3</ele>
        <time>2018-01-09T11:07:49.300000Z</time>
      </trkpt>
      <trkpt lat="35.95515570746528" lon="120.2187353515625">
        <ele>3</ele>
        <time>2018-01-09T11:07:57.300000Z</time>
      </trkpt>
      <trkpt lat="35.95508599175347" lon="120.2187472873264">
        <ele>3</ele>
        <time>2018-01-09T11:08:00.300000Z</time>
      </trkpt>
      <trkpt lat="35.954990776909725" lon="120.21875162760416">
        <ele>3</ele>
        <time>2018-01-09T11:08:04.300000Z</time>
      </trkpt>
      <trkpt lat="35.954853244357636" lon="120.21878011067709">
        <ele>3</ele>
        <time>2018-01-09T11:08:10.300000Z</time>
      </trkpt>
      <trkpt lat="35.95477213541667" lon="120.21879421657987">
        <ele>3</ele>
        <time>2018-01-09T11:08:13.400000Z</time>
      </trkpt>
      <trkpt lat="35.954693739149306" lon="120.218798828125">
        <ele>3</ele>
        <time>2018-01-09T11:08:16.400000Z</time>
      </trkpt>
      <trkpt lat="35.9545068359375" lon="120.21883273654514">
        <ele>3</ele>
        <time>2018-01-09T11:08:23.400000Z</time>
      </trkpt>
      <trkpt lat="35.954402669270834" lon="120.21886501736111">
        <ele>3</ele>
        <time>2018-01-09T11:08:27.400000Z</time>
      </trkpt>
      <trkpt lat="35.954210611979164" lon="120.21893337673612">
        <ele>3</ele>
        <time>2018-01-09T11:08:35.400000Z</time>
      </trkpt>
      <trkpt lat="35.954105088975695" lon="120.21893961588542">
        <ele>3</ele>
        <time>2018-01-09T11:08:39.300000Z</time>
      </trkpt>
      <trkpt lat="35.95391357421875" lon="120.21899549696181">
        <ele>3</ele>
        <time>2018-01-09T11:08:47.400000Z</time>
      </trkpt>
      <trkpt lat="35.953814561631944" lon="120.21902398003472">
        <ele>3</ele>
        <time>2018-01-09T11:08:51.400000Z</time>
      </trkpt>
      <trkpt lat="35.953648546006946" lon="120.21908989800347">
        <ele>3</ele>
        <time>2018-01-09T11:08:58.400000Z</time>
      </trkpt>
      <trkpt lat="35.9535546875" lon="120.21909776475694">
        <ele>3</ele>
        <time>2018-01-09T11:09:02.400000Z</time>
      </trkpt>
      <trkpt lat="35.95340115017361" lon="120.21908745659722">
        <ele>3</ele>
        <time>2018-01-09T11:09:09.400000Z</time>
      </trkpt>
      <trkpt lat="35.95324462890625" lon="120.2190318467882">
        <ele>3</ele>
        <time>2018-01-09T11:09:17.300000Z</time>
      </trkpt>
      <trkpt lat="35.95316975911458" lon="120.21898356119792">
        <ele>3</ele>
        <time>2018-01-09T11:09:21.400000Z</time>
      </trkpt>
      <trkpt lat="35.95308512369792" lon="120.21892062717014">
        <ele>3</ele>
        <time>2018-01-09T11:09:25.300000Z</time>
      </trkpt>
      <trkpt lat="35.95293999565972" lon="120.21872802734374">
        <ele>3</ele>
        <time>2018-01-09T11:09:34.400000Z</time>
      </trkpt>
      <trkpt lat="35.95292670355903" lon="120.21860758463542">
        <ele>3</ele>
        <time>2018-01-09T11:09:38.300000Z</time>
      </trkpt>
      <trkpt lat="35.9529150390625" lon="120.21852511935764">
        <ele>3</ele>
        <time>2018-01-09T11:09:41.400000Z</time>
      </trkpt>
      <trkpt lat="35.95288330078125" lon="120.21836534288194">
        <ele>3</ele>
        <time>2018-01-09T11:09:47.400000Z</time>
      </trkpt>
      <trkpt lat="35.952862684461806" lon="120.21825249565973">
        <ele>3</ele>
        <time>2018-01-09T11:09:51.400000Z</time>
      </trkpt>
      <trkpt lat="35.952847222222225" lon="120.21816704644097">
        <ele>3</ele>
        <time>2018-01-09T11:09:54.400000Z</time>
      </trkpt>
      <trkpt lat="35.95280436197917" lon="120.21792941623264">
        <ele>3</ele>
        <time>2018-01-09T11:10:02.300000Z</time>
      </trkpt>
      <trkpt lat="35.95278130425347" lon="120.21784695095486">
        <ele>3</ele>
        <time>2018-01-09T11:10:05.300000Z</time>
      </trkpt>
      <trkpt lat="35.95275634765625" lon="120.21774983723958">
        <ele>3</ele>
        <time>2018-01-09T11:10:09.300000Z</time>
      </trkpt>
      <trkpt lat="35.95271023220486" lon="120.21757893880208">
        <ele>3</ele>
        <time>2018-01-09T11:10:15.400000Z</time>
      </trkpt>
      <trkpt lat="35.95268527560764" lon="120.21748860677083">
        <ele>3</ele>
        <time>2018-01-09T11:10:18.500000Z</time>
      </trkpt>
      <trkpt lat="35.95265625" lon="120.21737548828125">
        <ele>3</ele>
        <time>2018-01-09T11:10:22.400000Z</time>
      </trkpt>
      <trkpt lat="35.95261583116319" lon="120.21720567491319">
        <ele>3</ele>
        <time>2018-01-09T11:10:28.400000Z</time>
      </trkpt>
      <trkpt lat="35.952593858506944" lon="120.21712049696181">
        <ele>3</ele>
        <time>2018-01-09T11:10:31.400000Z</time>
      </trkpt>
      <trkpt lat="35.95252685546875" lon="120.21691975911459">
        <ele>3</ele>
        <time>2018-01-09T11:10:38.400000Z</time>
      </trkpt>
      <trkpt lat="35.95248562282986" lon="120.21679796006944">
        <ele>3</ele>
        <time>2018-01-09T11:10:42.300000Z</time>
      </trkpt>
      <trkpt lat="35.95246039496528" lon="120.21671468098958">
        <ele>3</ele>
        <time>2018-01-09T11:10:45.300000Z</time>
      </trkpt>
      <trkpt lat="35.95241373697917" lon="120.21650743272569">
        <ele>3</ele>
        <time>2018-01-09T11:10:52.400000Z</time>
      </trkpt>
      <trkpt lat="35.952389051649305" lon="120.21638861762153">
        <ele>3</ele>
        <time>2018-01-09T11:10:56.400000Z</time>
      </trkpt>
      <trkpt lat="35.952350802951386" lon="120.21617106119791">
        <ele>3</ele>
        <time>2018-01-09T11:11:03.300000Z</time>
      </trkpt>
      <trkpt lat="35.95233127170139" lon="120.21607828776041">
        <ele>3</ele>
        <time>2018-01-09T11:11:06.400000Z</time>
      </trkpt>
      <trkpt lat="35.95231391059028" lon="120.21599039713541">
        <ele>3</ele>
        <time>2018-01-09T11:11:09.400000Z</time>
      </trkpt>
      <trkpt lat="35.95227756076389" lon="120.21577175564236">
        <ele>3</ele>
        <time>2018-01-09T11:11:16.400000Z</time>
      </trkpt>
      <trkpt lat="35.95210964626736" lon="120.21585096571181">
        <ele>3</ele>
        <time>2018-01-09T11:11:27.400000Z</time>
      </trkpt>
      <trkpt lat="35.95203125" lon="120.21588161892362">
        <ele>3</ele>
        <time>2018-01-09T11:11:30.400000Z</time>
      </trkpt>
      <trkpt lat="35.951856011284725" lon="120.21576090494791">
        <ele>3</ele>
        <time>2018-01-09T11:11:41.400000Z</time>
      </trkpt>
      <trkpt lat="35.95163872612847" lon="120.21563883463541">
        <ele>3</ele>
        <time>2018-01-09T11:11:52.300000Z</time>
      </trkpt>
      <trkpt lat="35.95156873914931" lon="120.21564995659722">
        <ele>3</ele>
        <time>2018-01-09T11:11:55.400000Z</time>
      </trkpt>
      <trkpt lat="35.95147705078125" lon="120.21565565321181">
        <ele>3</ele>
        <time>2018-01-09T11:11:59.400000Z</time>
      </trkpt>
      <trkpt lat="35.95129909939236" lon="120.21569607204862">
        <ele>3</ele>
        <time>2018-01-09T11:12:06.400000Z</time>
      </trkpt>
      <trkpt lat="35.95106743706597" lon="120.21576171875">
        <ele>3</ele>
        <time>2018-01-09T11:12:14.300000Z</time>
      </trkpt>
      <trkpt lat="35.95099148220486" lon="120.21577256944444">
        <ele>3</ele>
        <time>2018-01-09T11:12:17.300000Z</time>
      </trkpt>
      <trkpt lat="35.95092149522569" lon="120.21578965928819">
        <ele>3</ele>
        <time>2018-01-09T11:12:20.300000Z</time>
      </trkpt>
      <trkpt lat="35.95073757595486" lon="120.2158376736111">
        <ele>3</ele>
        <time>2018-01-09T11:12:28.300000Z</time>
      </trkpt>
      <trkpt lat="35.95056667751736" lon="120.2158900282118">
        <ele>3</ele>
        <time>2018-01-09T11:12:35.300000Z</time>
      </trkpt>
      <trkpt lat="35.95049587673611" lon="120.21589979383681">
        <ele>3</ele>
        <time>2018-01-09T11:12:38.400000Z</time>
      </trkpt>
      <trkpt lat="35.95032660590278" lon="120.21594048394097">
        <ele>3</ele>
        <time>2018-01-09T11:12:45.400000Z</time>
      </trkpt>
      <trkpt lat="35.95023356119792" lon="120.21596164279514">
        <ele>3</ele>
        <time>2018-01-09T11:12:49.300000Z</time>
      </trkpt>
      <trkpt lat="35.950017632378476" lon="120.21603542751735">
        <ele>3</ele>
        <time>2018-01-09T11:12:57.300000Z</time>
      </trkpt>
      <trkpt lat="35.9499498155382" lon="120.21604465060764">
        <ele>3</ele>
        <time>2018-01-09T11:13:00.400000Z</time>
      </trkpt>
      <trkpt lat="35.94989067925347" lon="120.21605767144098">
        <ele>3</ele>
        <time>2018-01-09T11:13:03.400000Z</time>
      </trkpt>
      <trkpt lat="35.94960205078125" lon="120.2162109375">
        <ele>3</ele>
        <time>2018-01-09T11:13:18.400000Z</time>
      </trkpt>
      <trkpt lat="35.94944715711806" lon="120.21623996310764">
        <ele>3</ele>
        <time>2018-01-09T11:13:24.400000Z</time>
      </trkpt>
      <trkpt lat="35.94936442057292" lon="120.21624348958333">
        <ele>3</ele>
        <time>2018-01-09T11:13:27.400000Z</time>
      </trkpt>
      <trkpt lat="35.94927734375" lon="120.21625217013889">
        <ele>3</ele>
        <time>2018-01-09T11:13:30.400000Z</time>
      </trkpt>
      <trkpt lat="35.949078504774306" lon="120.21628390842014">
        <ele>3</ele>
        <time>2018-01-09T11:13:38.300000Z</time>
      </trkpt>
      <trkpt lat="35.949017198350695" lon="120.21630045572917">
        <ele>3</ele>
        <time>2018-01-09T11:13:41.400000Z</time>
      </trkpt>
      <trkpt lat="35.948918999565976" lon="120.21630560980903">
        <ele>3</ele>
        <time>2018-01-09T11:13:45.400000Z</time>
      </trkpt>
      <trkpt lat="35.94873752170139" lon="120.21632568359375">
        <ele>3</ele>
        <time>2018-01-09T11:13:52.400000Z</time>
      </trkpt>
      <trkpt lat="35.94865261501736" lon="120.21635199652778">
        <ele>3</ele>
        <time>2018-01-09T11:13:55.400000Z</time>
      </trkpt>
      <trkpt lat="35.94844319661458" lon="120.21639105902777">
        <ele>3</ele>
        <time>2018-01-09T11:14:03.400000Z</time>
      </trkpt>
      <trkpt lat="35.94834147135417" lon="120.21641384548612">
        <ele>3</ele>
        <time>2018-01-09T11:14:07.300000Z</time>
      </trkpt>
      <trkpt lat="35.948168402777775" lon="120.216435546875">
        <ele>3</ele>
        <time>2018-01-09T11:14:14.300000Z</time>
      </trkpt>
      <trkpt lat="35.94809027777778" lon="120.21646294487847">
        <ele>3</ele>
        <time>2018-01-09T11:14:17.400000Z</time>
      </trkpt>
      <trkpt lat="35.94791341145833" lon="120.21650933159722">
        <ele>3</ele>
        <time>2018-01-09T11:14:24.300000Z</time>
      </trkpt>
      <trkpt lat="35.94781792534722" lon="120.21653998480903">
        <ele>3</ele>
        <time>2018-01-09T11:14:28.400000Z</time>
      </trkpt>
      <trkpt lat="35.94764539930556" lon="120.21658203125">
        <ele>3</ele>
        <time>2018-01-09T11:14:35.400000Z</time>
      </trkpt>
      <trkpt lat="35.947537434895835" lon="120.21660590277777">
        <ele>3</ele>
        <time>2018-01-09T11:14:39.400000Z</time>
      </trkpt>
      <trkpt lat="35.947459852430555" lon="120.21662733289931">
        <ele>3</ele>
        <time>2018-01-09T11:14:42.400000Z</time>
      </trkpt>
      <trkpt lat="35.947255045572916" lon="120.21668077256945">
        <ele>3</ele>
        <time>2018-01-09T11:14:50.300000Z</time>
      </trkpt>
      <trkpt lat="35.94717393663194" lon="120.21670166015625">
        <ele>3</ele>
        <time>2018-01-09T11:14:53.400000Z</time>
      </trkpt>
      <trkpt lat="35.947095540364586" lon="120.2167249891493">
        <ele>3</ele>
        <time>2018-01-09T11:14:56.400000Z</time>
      </trkpt>
      <trkpt lat="35.946917588975694" lon="120.2167738172743">
        <ele>3</ele>
        <time>2018-01-09T11:15:03.400000Z</time>
      </trkpt>
      <trkpt lat="35.94684624565972" lon="120.21679443359375">
        <ele>3</ele>
        <time>2018-01-09T11:15:06.400000Z</time>
      </trkpt>
      <trkpt lat="35.946749403211804" lon="120.21683539496527">
        <ele>3</ele>
        <time>2018-01-09T11:15:10.300000Z</time>
      </trkpt>
      <trkpt lat="35.946513129340275" lon="120.21690755208333">
        <ele>3</ele>
        <time>2018-01-09T11:15:20.300000Z</time>
      </trkpt>
      <trkpt lat="35.94635986328125" lon="120.21696126302083">
        <ele>3</ele>
        <time>2018-01-09T11:15:26.300000Z</time>
      </trkpt>
      <trkpt lat="35.94626220703125" lon="120.21699245876736">
        <ele>3</ele>
        <time>2018-01-09T11:15:30.300000Z</time>
      </trkpt>
      <trkpt lat="35.94609890407986" lon="120.21703070746528">
        <ele>3</ele>
        <time>2018-01-09T11:15:42.300000Z</time>
      </trkpt>
      <trkpt lat="35.94586805555556" lon="120.21710422092013">
        <ele>3</ele>
        <time>2018-01-09T11:15:48.300000Z</time>
      </trkpt>
      <trkpt lat="35.94582411024305" lon="120.21712510850695">
        <ele>3</ele>
        <time>2018-01-09T11:15:51.300000Z</time>
      </trkpt>
      <trkpt lat="35.94572482638889" lon="120.21716986762152">
        <ele>3</ele>
        <time>2018-01-09T11:15:55.300000Z</time>
      </trkpt>
      <trkpt lat="35.94555392795139" lon="120.21723931206597">
        <ele>3</ele>
        <time>2018-01-09T11:16:02.300000Z</time>
      </trkpt>
      <trkpt lat="35.94547064887153" lon="120.21728081597222">
        <ele>3</ele>
        <time>2018-01-09T11:16:05.300000Z</time>
      </trkpt>
      <trkpt lat="35.945384928385415" lon="120.21731608072916">
        <ele>3</ele>
        <time>2018-01-09T11:16:09.400000Z</time>
      </trkpt>
      <trkpt lat="35.94523627387153" lon="120.21738498263889">
        <ele>3</ele>
        <time>2018-01-09T11:16:15.400000Z</time>
      </trkpt>
      <trkpt lat="35.94514295789931" lon="120.2174329969618">
        <ele>3</ele>
        <time>2018-01-09T11:16:19.400000Z</time>
      </trkpt>
      <trkpt lat="35.945071885850695" lon="120.21747178819444">
        <ele>3</ele>
        <time>2018-01-09T11:16:22.400000Z</time>
      </trkpt>
      <trkpt lat="35.944896104600694" lon="120.21755642361111">
        <ele>3</ele>
        <time>2018-01-09T11:16:29.400000Z</time>
      </trkpt>
      <trkpt lat="35.94481635199653" lon="120.21759385850694">
        <ele>3</ele>
        <time>2018-01-09T11:16:32.400000Z</time>
      </trkpt>
      <trkpt lat="35.94465142144097" lon="120.21767659505208">
        <ele>3</ele>
        <time>2018-01-09T11:16:39.400000Z</time>
      </trkpt>
      <trkpt lat="35.94449679904514" lon="120.2177685546875">
        <ele>3</ele>
        <time>2018-01-09T11:16:46.400000Z</time>
      </trkpt>
      <trkpt lat="35.94440483940972" lon="120.21781901041666">
        <ele>3</ele>
        <time>2018-01-09T11:16:50.300000Z</time>
      </trkpt>
      <trkpt lat="35.9443492296007" lon="120.21784830729166">
        <ele>3</ele>
        <time>2018-01-09T11:16:53.300000Z</time>
      </trkpt>
      <trkpt lat="35.944225531684026" lon="120.21789659288194">
        <ele>3</ele>
        <time>2018-01-09T11:16:59.400000Z</time>
      </trkpt>
      <trkpt lat="35.94416476779514" lon="120.21792697482638">
        <ele>3</ele>
        <time>2018-01-09T11:17:02.400000Z</time>
      </trkpt>
      <trkpt lat="35.94382459852431" lon="120.21797119140625">
        <ele>3</ele>
        <time>2018-01-09T11:17:18.400000Z</time>
      </trkpt>
      <trkpt lat="35.943766276041664" lon="120.2178662109375">
        <ele>3</ele>
        <time>2018-01-09T11:17:22.400000Z</time>
      </trkpt>
      <trkpt lat="35.94348415798611" lon="120.2174826388889">
        <ele>4</ele>
        <time>2018-01-09T11:17:39.400000Z</time>
      </trkpt>
      <trkpt lat="35.94333740234375" lon="120.21716471354166">
        <ele>4</ele>
        <time>2018-01-09T11:17:49.300000Z</time>
      </trkpt>
      <trkpt lat="35.943279351128474" lon="120.21703640407986">
        <ele>3</ele>
        <time>2018-01-09T11:17:55.400000Z</time>
      </trkpt>
      <trkpt lat="35.94322781032986" lon="120.21693196614584">
        <ele>3</ele>
        <time>2018-01-09T11:17:59.400000Z</time>
      </trkpt>
      <trkpt lat="35.94317518446181" lon="120.21684733072917">
        <ele>3</ele>
        <time>2018-01-09T11:18:02.400000Z</time>
      </trkpt>
      <trkpt lat="35.943065592447915" lon="120.2166712782118">
        <ele>3</ele>
        <time>2018-01-09T11:18:10.400000Z</time>
      </trkpt>
      <trkpt lat="35.94300672743056" lon="120.21657796223958">
        <ele>3</ele>
        <time>2018-01-09T11:18:14.400000Z</time>
      </trkpt>
      <trkpt lat="35.942860243055556" lon="120.21634765625">
        <ele>3</ele>
        <time>2018-01-09T11:18:24.400000Z</time>
      </trkpt>
      <trkpt lat="35.94281982421875" lon="120.21626247829862">
        <ele>3</ele>
        <time>2018-01-09T11:18:27.400000Z</time>
      </trkpt>
      <trkpt lat="35.94277994791667" lon="120.21617350260416">
        <ele>4</ele>
        <time>2018-01-09T11:18:30.400000Z</time>
      </trkpt>
      <trkpt lat="35.94267361111111" lon="120.21599338107639">
        <ele>3</ele>
        <time>2018-01-09T11:18:37.400000Z</time>
      </trkpt>
      <trkpt lat="35.94248128255208" lon="120.2157164171007">
        <ele>3</ele>
        <time>2018-01-09T11:18:49.300000Z</time>
      </trkpt>
      <trkpt lat="35.94243598090278" lon="120.21560546875">
        <ele>3</ele>
        <time>2018-01-09T11:18:53.400000Z</time>
      </trkpt>
      <trkpt lat="35.94232828776042" lon="120.21540228949652">
        <ele>3</ele>
        <time>2018-01-09T11:19:00.400000Z</time>
      </trkpt>
      <trkpt lat="35.94226888020833" lon="120.21529622395833">
        <ele>3</ele>
        <time>2018-01-09T11:19:04.400000Z</time>
      </trkpt>
      <trkpt lat="35.94215630425347" lon="120.21508056640624">
        <ele>3</ele>
        <time>2018-01-09T11:19:12.400000Z</time>
      </trkpt>
      <trkpt lat="35.942120496961806" lon="120.21499294704861">
        <ele>3</ele>
        <time>2018-01-09T11:19:16.300000Z</time>
      </trkpt>
      <trkpt lat="35.942029622395836" lon="120.21485975477431">
        <ele>3</ele>
        <time>2018-01-09T11:19:22.400000Z</time>
      </trkpt>
      <trkpt lat="35.94197645399306" lon="120.2147886827257">
        <ele>3</ele>
        <time>2018-01-09T11:19:25.400000Z</time>
      </trkpt>
      <trkpt lat="35.941921657986114" lon="120.2147154405382">
        <ele>3</ele>
        <time>2018-01-09T11:19:28.400000Z</time>
      </trkpt>
      <trkpt lat="35.942027994791665" lon="120.21428765190973">
        <ele>3</ele>
        <time>2018-01-09T11:19:49.400000Z</time>
      </trkpt>
      <trkpt lat="35.94214165581597" lon="120.21429117838542">
        <ele>3</ele>
        <time>2018-01-09T11:19:53.400000Z</time>
      </trkpt>
      <trkpt lat="35.942325303819445" lon="120.21426432291666">
        <ele>3</ele>
        <time>2018-01-09T11:20:00.400000Z</time>
      </trkpt>
      <trkpt lat="35.9425062391493" lon="120.21419596354167">
        <ele>3</ele>
        <time>2018-01-09T11:20:07.500000Z</time>
      </trkpt>
      <trkpt lat="35.942599283854165" lon="120.2141343858507">
        <ele>3</ele>
        <time>2018-01-09T11:20:11.400000Z</time>
      </trkpt>
      <trkpt lat="35.942768012152776" lon="120.2140478515625">
        <ele>3</ele>
        <time>2018-01-09T11:20:18.300000Z</time>
      </trkpt>
      <trkpt lat="35.94284261067708" lon="120.2140234375">
        <ele>3</ele>
        <time>2018-01-09T11:20:21.300000Z</time>
      </trkpt>
      <trkpt lat="35.943013237847225" lon="120.21400146484375">
        <ele>3</ele>
        <time>2018-01-09T11:20:28.300000Z</time>
      </trkpt>
      <trkpt lat="35.943111436631945" lon="120.21399224175347">
        <ele>3</ele>
        <time>2018-01-09T11:20:32.400000Z</time>
      </trkpt>
      <trkpt lat="35.94318115234375" lon="120.21398898654513">
        <ele>3</ele>
        <time>2018-01-09T11:20:35.400000Z</time>
      </trkpt>
      <trkpt lat="35.943370225694444" lon="120.21395399305555">
        <ele>3</ele>
        <time>2018-01-09T11:20:43.400000Z</time>
      </trkpt>
      <trkpt lat="35.94343994140625" lon="120.21392496744792">
        <ele>3</ele>
        <time>2018-01-09T11:20:46.400000Z</time>
      </trkpt>
      <trkpt lat="35.94351426866319" lon="120.21389241536458">
        <ele>3</ele>
        <time>2018-01-09T11:20:49.400000Z</time>
      </trkpt>
      <trkpt lat="35.94369384765625" lon="120.21383409288194">
        <ele>3</ele>
        <time>2018-01-09T11:20:56.400000Z</time>
      </trkpt>
      <trkpt lat="35.94378824869791" lon="120.21380615234375">
        <ele>3</ele>
        <time>2018-01-09T11:21:00.400000Z</time>
      </trkpt>
      <trkpt lat="35.94396023220486" lon="120.213798828125">
        <ele>3</ele>
        <time>2018-01-09T11:21:07.400000Z</time>
      </trkpt>
      <trkpt lat="35.94412055121528" lon="120.21385823567708">
        <ele>3</ele>
        <time>2018-01-09T11:21:14.400000Z</time>
      </trkpt>
      <trkpt lat="35.94420491536459" lon="120.21391031901042">
        <ele>3</ele>
        <time>2018-01-09T11:21:18.300000Z</time>
      </trkpt>
      <trkpt lat="35.94429443359375" lon="120.2139537217882">
        <ele>3</ele>
        <time>2018-01-09T11:21:22.300000Z</time>
      </trkpt>
      <trkpt lat="35.94445909288194" lon="120.21399169921875">
        <ele>3</ele>
        <time>2018-01-09T11:21:28.300000Z</time>
      </trkpt>
      <trkpt lat="35.94462700737847" lon="120.21397352430556">
        <ele>3</ele>
        <time>2018-01-09T11:21:35.400000Z</time>
      </trkpt>
      <trkpt lat="35.94469563802083" lon="120.21395589192709">
        <ele>3</ele>
        <time>2018-01-09T11:21:38.400000Z</time>
      </trkpt>
      <trkpt lat="35.944766438802084" lon="120.21393581814236">
        <ele>3</ele>
        <time>2018-01-09T11:21:41.400000Z</time>
      </trkpt>
      <trkpt lat="35.944957139756944" lon="120.2138916015625">
        <ele>3</ele>
        <time>2018-01-09T11:21:49.400000Z</time>
      </trkpt>
      <trkpt lat="35.94502332899305" lon="120.2138755967882">
        <ele>3</ele>
        <time>2018-01-09T11:21:52.400000Z</time>
      </trkpt>
      <trkpt lat="35.94509304470486" lon="120.21385715060764">
        <ele>3</ele>
        <time>2018-01-09T11:21:55.400000Z</time>
      </trkpt>
      <trkpt lat="35.94526123046875" lon="120.21383327907986">
        <ele>3</ele>
        <time>2018-01-09T11:22:02.400000Z</time>
      </trkpt>
      <trkpt lat="35.94536593967014" lon="120.2138330078125">
        <ele>3</ele>
        <time>2018-01-09T11:22:06.300000Z</time>
      </trkpt>
      <trkpt lat="35.94544108072917" lon="120.21382758246527">
        <ele>3</ele>
        <time>2018-01-09T11:22:09.400000Z</time>
      </trkpt>
      <trkpt lat="35.945613606770834" lon="120.21380832248263">
        <ele>3</ele>
        <time>2018-01-09T11:22:16.400000Z</time>
      </trkpt>
      <trkpt lat="35.94570692274306" lon="120.21380045572917">
        <ele>3</ele>
        <time>2018-01-09T11:22:20.300000Z</time>
      </trkpt>
      <trkpt lat="35.945804036458334" lon="120.21378960503472">
        <ele>3</ele>
        <time>2018-01-09T11:22:24.400000Z</time>
      </trkpt>
      <trkpt lat="35.945963812934025" lon="120.21377739800347">
        <ele>3</ele>
        <time>2018-01-09T11:22:31.300000Z</time>
      </trkpt>
      <trkpt lat="35.94605523003472" lon="120.2137624782986">
        <ele>3</ele>
        <time>2018-01-09T11:22:35.300000Z</time>
      </trkpt>
      <trkpt lat="35.94612684461806" lon="120.21375651041667">
        <ele>3</ele>
        <time>2018-01-09T11:22:38.400000Z</time>
      </trkpt>
      <trkpt lat="35.9463134765625" lon="120.21373643663195">
        <ele>3</ele>
        <time>2018-01-09T11:22:45.400000Z</time>
      </trkpt>
      <trkpt lat="35.94641845703125" lon="120.21371988932292">
        <ele>3</ele>
        <time>2018-01-09T11:22:49.300000Z</time>
      </trkpt>
      <trkpt lat="35.946598307291666" lon="120.2136949327257">
        <ele>3</ele>
        <time>2018-01-09T11:22:56.400000Z</time>
      </trkpt>
      <trkpt lat="35.94670274522569" lon="120.21368625217013">
        <ele>3</ele>
        <time>2018-01-09T11:23:00.300000Z</time>
      </trkpt>
      <trkpt lat="35.94678385416667" lon="120.21368462456597">
        <ele>3</ele>
        <time>2018-01-09T11:23:03.300000Z</time>
      </trkpt>
      <trkpt lat="35.94695014105903" lon="120.21365749782986">
        <ele>3</ele>
        <time>2018-01-09T11:23:10.400000Z</time>
      </trkpt>
      <trkpt lat="35.94701470269097" lon="120.213642578125">
        <ele>3</ele>
        <time>2018-01-09T11:23:13.400000Z</time>
      </trkpt>
      <trkpt lat="35.94715223524305" lon="120.21335259331597">
        <ele>3</ele>
        <time>2018-01-09T11:23:27.300000Z</time>
      </trkpt>
      <trkpt lat="35.94713460286459" lon="120.21324978298611">
        <ele>3</ele>
        <time>2018-01-09T11:23:30.400000Z</time>
      </trkpt>
      <trkpt lat="35.947102593315975" lon="120.21300726996527">
        <ele>3</ele>
        <time>2018-01-09T11:23:37.400000Z</time>
      </trkpt>
      <trkpt lat="35.94709011501736" lon="120.21289089626737">
        <ele>3</ele>
        <time>2018-01-09T11:23:41.400000Z</time>
      </trkpt>
      <trkpt lat="35.947079264322916" lon="120.21279920789931">
        <ele>3</ele>
        <time>2018-01-09T11:23:44.400000Z</time>
      </trkpt>
      <trkpt lat="35.94705729166667" lon="120.21259006076389">
        <ele>3</ele>
        <time>2018-01-09T11:23:51.400000Z</time>
      </trkpt>
      <trkpt lat="35.94704969618056" lon="120.2125">
        <ele>3</ele>
        <time>2018-01-09T11:23:54.400000Z</time>
      </trkpt>
      <trkpt lat="35.947041015625" lon="120.2122775607639">
        <ele>3</ele>
        <time>2018-01-09T11:24:01.300000Z</time>
      </trkpt>
      <trkpt lat="35.947078179253474" lon="120.21211452907986">
        <ele>3</ele>
        <time>2018-01-09T11:24:07.400000Z</time>
      </trkpt>
      <trkpt lat="35.947132975260416" lon="120.21201551649305">
        <ele>3</ele>
        <time>2018-01-09T11:24:11.400000Z</time>
      </trkpt>
      <trkpt lat="35.947170681423614" lon="120.2119482421875">
        <ele>3</ele>
        <time>2018-01-09T11:24:14.400000Z</time>
      </trkpt>
      <trkpt lat="35.947265625" lon="120.2117418077257">
        <ele>3</ele>
        <time>2018-01-09T11:24:22.400000Z</time>
      </trkpt>
      <trkpt lat="35.94729844835069" lon="120.21165852864583">
        <ele>3</ele>
        <time>2018-01-09T11:24:25.400000Z</time>
      </trkpt>
      <trkpt lat="35.9473828125" lon="120.2114515516493">
        <ele>3</ele>
        <time>2018-01-09T11:24:33.400000Z</time>
      </trkpt>
      <trkpt lat="35.94741238064236" lon="120.21136962890625">
        <ele>3</ele>
        <time>2018-01-09T11:24:36.400000Z</time>
      </trkpt>
      <trkpt lat="35.94745578342014" lon="120.21126166449653">
        <ele>3</ele>
        <time>2018-01-09T11:24:40.400000Z</time>
      </trkpt>
      <trkpt lat="35.947544759114585" lon="120.21105631510417">
        <ele>3</ele>
        <time>2018-01-09T11:24:48.400000Z</time>
      </trkpt>
      <trkpt lat="35.9475767686632" lon="120.21097330729167">
        <ele>3</ele>
        <time>2018-01-09T11:24:51.400000Z</time>
      </trkpt>
      <trkpt lat="35.94762152777778" lon="120.2108704969618">
        <ele>3</ele>
        <time>2018-01-09T11:24:55.300000Z</time>
      </trkpt>
      <trkpt lat="35.94769802517361" lon="120.21068522135417">
        <ele>3</ele>
        <time>2018-01-09T11:25:02.300000Z</time>
      </trkpt>
      <trkpt lat="35.94773084852431" lon="120.21060302734375">
        <ele>3</ele>
        <time>2018-01-09T11:25:05.300000Z</time>
      </trkpt>
      <trkpt lat="35.947759331597226" lon="120.2105162217882">
        <ele>3</ele>
        <time>2018-01-09T11:25:08.400000Z</time>
      </trkpt>
      <trkpt lat="35.947833387586805" lon="120.21032850477431">
        <ele>3</ele>
        <time>2018-01-09T11:25:15.400000Z</time>
      </trkpt>
      <trkpt lat="35.94788519965278" lon="120.21022705078126">
        <ele>3</ele>
        <time>2018-01-09T11:25:19.400000Z</time>
      </trkpt>
      <trkpt lat="35.947926432291666" lon="120.21015597873264">
        <ele>3</ele>
        <time>2018-01-09T11:25:22.400000Z</time>
      </trkpt>
      <trkpt lat="35.94800103081597" lon="120.20979383680556">
        <ele>3</ele>
        <time>2018-01-09T11:25:34.400000Z</time>
      </trkpt>
      <trkpt lat="35.94800075954861" lon="120.20969292534723">
        <ele>3</ele>
        <time>2018-01-09T11:25:37.400000Z</time>
      </trkpt>
      <trkpt lat="35.94799343532986" lon="120.20945502387153">
        <ele>3</ele>
        <time>2018-01-09T11:25:45.400000Z</time>
      </trkpt>
      <trkpt lat="35.94798611111111" lon="120.2093679470486">
        <ele>3</ele>
        <time>2018-01-09T11:25:48.400000Z</time>
      </trkpt>
      <trkpt lat="35.94814127604167" lon="120.20930148654514">
        <ele>3</ele>
        <time>2018-01-09T11:25:59.300000Z</time>
      </trkpt>
      <trkpt lat="35.948238118489584" lon="120.20936604817709">
        <ele>3</ele>
        <time>2018-01-09T11:26:03.300000Z</time>
      </trkpt>
      <trkpt lat="35.94839626736111" lon="120.2094691297743">
        <ele>3</ele>
        <time>2018-01-09T11:26:10.400000Z</time>
      </trkpt>
      <trkpt lat="35.948458658854165" lon="120.20951904296875">
        <ele>3</ele>
        <time>2018-01-09T11:26:13.400000Z</time>
      </trkpt>
      <trkpt lat="35.94860731336806" lon="120.20952175564236">
        <ele>3</ele>
        <time>2018-01-09T11:26:20.400000Z</time>
      </trkpt>
      <trkpt lat="35.94878445095486" lon="120.20948323567708">
        <ele>3</ele>
        <time>2018-01-09T11:26:28.300000Z</time>
      </trkpt>
      <trkpt lat="35.94895968967014" lon="120.20952609592014">
        <ele>3</ele>
        <time>2018-01-09T11:26:35.300000Z</time>
      </trkpt>
      <trkpt lat="35.94903862847222" lon="120.20953342013888">
        <ele>3</ele>
        <time>2018-01-09T11:26:38.400000Z</time>
      </trkpt>
      <trkpt lat="35.949116753472225" lon="120.20954128689236">
        <ele>3</ele>
        <time>2018-01-09T11:26:41.400000Z</time>
      </trkpt>
      <trkpt lat="35.94931559244792" lon="120.20956787109375">
        <ele>3</ele>
        <time>2018-01-09T11:26:49.400000Z</time>
      </trkpt>
      <trkpt lat="35.949421115451386" lon="120.20960205078126">
        <ele>3</ele>
        <time>2018-01-09T11:26:53.400000Z</time>
      </trkpt>
      <trkpt lat="35.94959337022569" lon="120.20964518229167">
        <ele>3</ele>
        <time>2018-01-09T11:27:00.400000Z</time>
      </trkpt>
      <trkpt lat="35.94966200086805" lon="120.20965277777778">
        <ele>3</ele>
        <time>2018-01-09T11:27:03.400000Z</time>
      </trkpt>
      <trkpt lat="35.94973388671875" lon="120.20966417100695">
        <ele>3</ele>
        <time>2018-01-09T11:27:06.400000Z</time>
      </trkpt>
      <trkpt lat="35.949910210503475" lon="120.20967827690973">
        <ele>3</ele>
        <time>2018-01-09T11:27:13.400000Z</time>
      </trkpt>
      <trkpt lat="35.95001166449653" lon="120.20968722873263">
        <ele>3</ele>
        <time>2018-01-09T11:27:17.400000Z</time>
      </trkpt>
      <trkpt lat="35.950077039930555" lon="120.20968668619791">
        <ele>3</ele>
        <time>2018-01-09T11:27:20.400000Z</time>
      </trkpt>
      <trkpt lat="35.950243326822914" lon="120.20966986762153">
        <ele>3</ele>
        <time>2018-01-09T11:27:27.500000Z</time>
      </trkpt>
      <trkpt lat="35.95034695095486" lon="120.20965603298612">
        <ele>3</ele>
        <time>2018-01-09T11:27:31.300000Z</time>
      </trkpt>
      <trkpt lat="35.95043674045139" lon="120.20962863498264">
        <ele>3</ele>
        <time>2018-01-09T11:27:35.300000Z</time>
      </trkpt>
      <trkpt lat="35.950633951822915" lon="120.20966796875">
        <ele>3</ele>
        <time>2018-01-09T11:27:45.400000Z</time>
      </trkpt>
      <trkpt lat="35.950764973958336" lon="120.20971435546875">
        <ele>3</ele>
        <time>2018-01-09T11:27:52.400000Z</time>
      </trkpt>
      <trkpt lat="35.950932074652776" lon="120.209697265625">
        <ele>3</ele>
        <time>2018-01-09T11:27:59.300000Z</time>
      </trkpt>
      <trkpt lat="35.95103217230903" lon="120.20968885633681">
        <ele>3</ele>
        <time>2018-01-09T11:28:03.400000Z</time>
      </trkpt>
      <trkpt lat="35.951192220052086" lon="120.20965304904514">
        <ele>3</ele>
        <time>2018-01-09T11:28:10.400000Z</time>
      </trkpt>
      <trkpt lat="35.95129150390625" lon="120.20963758680556">
        <ele>3</ele>
        <time>2018-01-09T11:28:14.300000Z</time>
      </trkpt>
      <trkpt lat="35.951358778211805" lon="120.2096267361111">
        <ele>3</ele>
        <time>2018-01-09T11:28:17.300000Z</time>
      </trkpt>
      <trkpt lat="35.951532660590274" lon="120.20959635416666">
        <ele>3</ele>
        <time>2018-01-09T11:28:24.300000Z</time>
      </trkpt>
      <trkpt lat="35.95160915798611" lon="120.20958387586805">
        <ele>3</ele>
        <time>2018-01-09T11:28:27.400000Z</time>
      </trkpt>
      <trkpt lat="35.951700846354164" lon="120.20956787109375">
        <ele>3</ele>
        <time>2018-01-09T11:28:31.300000Z</time>
      </trkpt>
      <trkpt lat="35.95184217664931" lon="120.20954616970486">
        <ele>3</ele>
        <time>2018-01-09T11:28:37.400000Z</time>
      </trkpt>
      <trkpt lat="35.95191840277778" lon="120.20953721788194">
        <ele>3</ele>
        <time>2018-01-09T11:28:40.400000Z</time>
      </trkpt>
      <trkpt lat="35.95201253255208" lon="120.20952446831598">
        <ele>3</ele>
        <time>2018-01-09T11:28:44.300000Z</time>
      </trkpt>
      <trkpt lat="35.952152235243055" lon="120.2094984266493">
        <ele>3</ele>
        <time>2018-01-09T11:28:50.300000Z</time>
      </trkpt>
      <trkpt lat="35.952229275173615" lon="120.20948187934027">
        <ele>3</ele>
        <time>2018-01-09T11:28:53.400000Z</time>
      </trkpt>
      <trkpt lat="35.95232394748264" lon="120.20945990668403">
        <ele>3</ele>
        <time>2018-01-09T11:28:57.300000Z</time>
      </trkpt>
      <trkpt lat="35.952502983940974" lon="120.20942735460069">
        <ele>3</ele>
        <time>2018-01-09T11:29:04.400000Z</time>
      </trkpt>
      <trkpt lat="35.952581380208336" lon="120.20941541883681">
        <ele>3</ele>
        <time>2018-01-09T11:29:07.400000Z</time>
      </trkpt>
      <trkpt lat="35.95268039279514" lon="120.20940158420139">
        <ele>3</ele>
        <time>2018-01-09T11:29:11.400000Z</time>
      </trkpt>
      <trkpt lat="35.952853190104165" lon="120.20937744140625">
        <ele>3</ele>
        <time>2018-01-09T11:29:18.400000Z</time>
      </trkpt>
      <trkpt lat="35.95295383029514" lon="120.20935872395833">
        <ele>3</ele>
        <time>2018-01-09T11:29:22.400000Z</time>
      </trkpt>
      <trkpt lat="35.95308837890625" lon="120.20932996961805">
        <ele>3</ele>
        <time>2018-01-09T11:29:28.400000Z</time>
      </trkpt>
      <trkpt lat="35.95319227430556" lon="120.20931803385416">
        <ele>3</ele>
        <time>2018-01-09T11:29:32.300000Z</time>
      </trkpt>
      <trkpt lat="35.95329237196181" lon="120.20930311414931">
        <ele>3</ele>
        <time>2018-01-09T11:29:36.300000Z</time>
      </trkpt>
      <trkpt lat="35.9534388563368" lon="120.20927842881945">
        <ele>3</ele>
        <time>2018-01-09T11:29:42.400000Z</time>
      </trkpt>
      <trkpt lat="35.95351426866319" lon="120.20925944010416">
        <ele>3</ele>
        <time>2018-01-09T11:29:45.400000Z</time>
      </trkpt>
      <trkpt lat="35.95359103732639" lon="120.20924641927083">
        <ele>3</ele>
        <time>2018-01-09T11:29:48.400000Z</time>
      </trkpt>
      <trkpt lat="35.95374131944445" lon="120.20922987196181">
        <ele>3</ele>
        <time>2018-01-09T11:29:54.400000Z</time>
      </trkpt>
      <trkpt lat="35.95384711371528" lon="120.20921630859375">
        <ele>3</ele>
        <time>2018-01-09T11:29:58.400000Z</time>
      </trkpt>
      <trkpt lat="35.95402316623264" lon="120.20919135199652">
        <ele>3</ele>
        <time>2018-01-09T11:30:05.400000Z</time>
      </trkpt>
      <trkpt lat="35.95412109375" lon="120.20917371961805">
        <ele>3</ele>
        <time>2018-01-09T11:30:09.400000Z</time>
      </trkpt>
      <trkpt lat="35.954196506076386" lon="120.2091587999132">
        <ele>3</ele>
        <time>2018-01-09T11:30:12.400000Z</time>
      </trkpt>
      <trkpt lat="35.95436794704861" lon="120.20913275824653">
        <ele>3</ele>
        <time>2018-01-09T11:30:19.400000Z</time>
      </trkpt>
      <trkpt lat="35.95443766276042" lon="120.20911810980903">
        <ele>3</ele>
        <time>2018-01-09T11:30:22.400000Z</time>
      </trkpt>
      <trkpt lat="35.95453125" lon="120.20910129123264">
        <ele>3</ele>
        <time>2018-01-09T11:30:26.400000Z</time>
      </trkpt>
      <trkpt lat="35.954671223958336" lon="120.20908175998264">
        <ele>3</ele>
        <time>2018-01-09T11:30:32.400000Z</time>
      </trkpt>
      <trkpt lat="35.95477267795139" lon="120.20908230251736">
        <ele>3</ele>
        <time>2018-01-09T11:30:36.400000Z</time>
      </trkpt>
      <trkpt lat="35.95486409505208" lon="120.20908175998264">
        <ele>3</ele>
        <time>2018-01-09T11:30:40.400000Z</time>
      </trkpt>
      <trkpt lat="35.955213216145836" lon="120.20932861328124">
        <ele>3</ele>
        <time>2018-01-09T11:30:58.300000Z</time>
      </trkpt>
      <trkpt lat="35.955233289930554" lon="120.20943196614583">
        <ele>3</ele>
        <time>2018-01-09T11:31:01.300000Z</time>
      </trkpt>
      <trkpt lat="35.955256890190974" lon="120.20952446831598">
        <ele>3</ele>
        <time>2018-01-09T11:31:04.400000Z</time>
      </trkpt>
      <trkpt lat="35.9552880859375" lon="120.20971218532986">
        <ele>3</ele>
        <time>2018-01-09T11:31:11.300000Z</time>
      </trkpt>
      <trkpt lat="35.95530843098958" lon="120.20979682074653">
        <ele>3</ele>
        <time>2018-01-09T11:31:14.300000Z</time>
      </trkpt>
      <trkpt lat="35.9553209092882" lon="120.20991509331597">
        <ele>3</ele>
        <time>2018-01-09T11:31:18.400000Z</time>
      </trkpt>
      <trkpt lat="35.95533582899306" lon="120.21009250217014">
        <ele>3</ele>
        <time>2018-01-09T11:31:24.400000Z</time>
      </trkpt>
      <trkpt lat="35.95536756727431" lon="120.21020616319444">
        <ele>3</ele>
        <time>2018-01-09T11:31:28.400000Z</time>
      </trkpt>
      <trkpt lat="35.95538248697917" lon="120.21028889973958">
        <ele>3</ele>
        <time>2018-01-09T11:31:31.400000Z</time>
      </trkpt>
      <trkpt lat="35.95542724609375" lon="120.21054416232639">
        <ele>3</ele>
        <time>2018-01-09T11:31:39.400000Z</time>
      </trkpt>
      <trkpt lat="35.9554443359375" lon="120.21063910590277">
        <ele>3</ele>
        <time>2018-01-09T11:31:42.400000Z</time>
      </trkpt>
      <trkpt lat="35.95546088324653" lon="120.21088677300347">
        <ele>3</ele>
        <time>2018-01-09T11:31:50.400000Z</time>
      </trkpt>
      <trkpt lat="35.955485297309025" lon="120.21104953342014">
        <ele>3</ele>
        <time>2018-01-09T11:31:58.300000Z</time>
      </trkpt>
      <trkpt lat="35.95548394097222" lon="120.21107530381944">
        <ele>3</ele>
        <time>2018-01-09T11:32:01.300000Z</time>
      </trkpt>
      <trkpt lat="35.95556043836805" lon="120.21110215928819">
        <ele>3</ele>
        <time>2018-01-09T11:32:07.400000Z</time>
      </trkpt>
      <trkpt lat="35.95565836588542" lon="120.21106635199652">
        <ele>3</ele>
        <time>2018-01-09T11:32:11.400000Z</time>
      </trkpt>
      <trkpt lat="35.9557581922743" lon="120.21108181423611">
        <ele>3</ele>
        <time>2018-01-09T11:32:19.400000Z</time>
      </trkpt>
      <trkpt lat="35.95576605902778" lon="120.21113091362847">
        <ele>3</ele>
        <time>2018-01-09T11:32:22.400000Z</time>
      </trkpt>
      <trkpt lat="35.955783420138886" lon="120.21118842230902">
        <ele>3</ele>
        <time>2018-01-09T11:32:26.400000Z</time>
      </trkpt>
      <trkpt lat="35.95581325954861" lon="120.21136013454861">
        <ele>3</ele>
        <time>2018-01-09T11:32:33.400000Z</time>
      </trkpt>
      <trkpt lat="35.955828993055555" lon="120.21145345052084">
        <ele>3</ele>
        <time>2018-01-09T11:32:36.400000Z</time>
      </trkpt>
      <trkpt lat="35.955836859809025" lon="120.21154378255208">
        <ele>3</ele>
        <time>2018-01-09T11:32:39.500000Z</time>
      </trkpt>
      <trkpt lat="35.955844184027775" lon="120.21177300347222">
        <ele>3</ele>
        <time>2018-01-09T11:32:46.400000Z</time>
      </trkpt>
      <trkpt lat="35.955837673611114" lon="120.21190049913194">
        <ele>3</ele>
        <time>2018-01-09T11:32:50.300000Z</time>
      </trkpt>
      <trkpt lat="35.955830891927086" lon="120.21198784722222">
        <ele>3</ele>
        <time>2018-01-09T11:32:53.400000Z</time>
      </trkpt>
      <trkpt lat="35.95583333333333" lon="120.21219645182292">
        <ele>3</ele>
        <time>2018-01-09T11:33:00.500000Z</time>
      </trkpt>
      <trkpt lat="35.955831163194446" lon="120.21233317057292">
        <ele>3</ele>
        <time>2018-01-09T11:33:04.400000Z</time>
      </trkpt>
      <trkpt lat="35.95583414713542" lon="120.21243136935765">
        <ele>3</ele>
        <time>2018-01-09T11:33:07.400000Z</time>
      </trkpt>
      <trkpt lat="35.95584038628472" lon="120.21262396918402">
        <ele>3</ele>
        <time>2018-01-09T11:33:14.300000Z</time>
      </trkpt>
      <trkpt lat="35.95586669921875" lon="120.21270914713541">
        <ele>3</ele>
        <time>2018-01-09T11:33:21.400000Z</time>
      </trkpt>
      <trkpt lat="35.9560023328993" lon="120.21267198350695">
        <ele>3</ele>
        <time>2018-01-09T11:33:27.400000Z</time>
      </trkpt>
      <trkpt lat="35.956103515625" lon="120.21266655815973">
        <ele>3</ele>
        <time>2018-01-09T11:33:31.400000Z</time>
      </trkpt>
      <trkpt lat="35.956195203993055" lon="120.2126548936632">
        <ele>3</ele>
        <time>2018-01-09T11:33:35.400000Z</time>
      </trkpt>
      <trkpt lat="35.95639919704861" lon="120.21261338975694">
        <ele>3</ele>
        <time>2018-01-09T11:33:43.300000Z</time>
      </trkpt>
      <trkpt lat="35.95651014539931" lon="120.21257269965278">
        <ele>3</ele>
        <time>2018-01-09T11:33:47.300000Z</time>
      </trkpt>
      <trkpt lat="35.95667453342014" lon="120.21269395616319">
        <ele>3</ele>
        <time>2018-01-09T11:33:57.500000Z</time>
      </trkpt>
      <trkpt lat="35.95668158637153" lon="120.2128236219618">
        <ele>3</ele>
        <time>2018-01-09T11:34:01.400000Z</time>
      </trkpt>
      <trkpt lat="35.956700575086806" lon="120.21292154947916">
        <ele>3</ele>
        <time>2018-01-09T11:34:05.300000Z</time>
      </trkpt>
      <trkpt lat="35.956722276475695" lon="120.21311767578125">
        <ele>3</ele>
        <time>2018-01-09T11:34:12.400000Z</time>
      </trkpt>
      <trkpt lat="35.95677029079861" lon="120.2133251953125">
        <ele>3</ele>
        <time>2018-01-09T11:34:19.400000Z</time>
      </trkpt>
      <trkpt lat="35.95679361979167" lon="120.2134144422743">
        <ele>3</ele>
        <time>2018-01-09T11:34:22.400000Z</time>
      </trkpt>
      <trkpt lat="35.95681586371528" lon="120.21363471137153">
        <ele>3</ele>
        <time>2018-01-09T11:34:29.400000Z</time>
      </trkpt>
      <trkpt lat="35.956812608506944" lon="120.2137331814236">
        <ele>3</ele>
        <time>2018-01-09T11:34:32.400000Z</time>
      </trkpt>
      <trkpt lat="35.95674397786458" lon="120.21392686631944">
        <ele>3</ele>
        <time>2018-01-09T11:34:43.400000Z</time>
      </trkpt>
      <trkpt lat="35.956700032552085" lon="120.21393364800348">
        <ele>3</ele>
        <time>2018-01-09T11:34:46.400000Z</time>
      </trkpt>
      <trkpt lat="35.95663302951389" lon="120.21396945529514">
        <ele>3</ele>
        <time>2018-01-09T11:34:52.400000Z</time>
      </trkpt>
      <trkpt lat="35.956623806423615" lon="120.21400390625">
        <ele>3</ele>
        <time>2018-01-09T11:35:00.300000Z</time>
      </trkpt>
      <trkpt lat="35.956623806423615" lon="120.21400390625">
        <ele>3</ele>
        <time>2018-01-09T11:35:03.300000Z</time>
      </trkpt>
      <trkpt lat="35.956623806423615" lon="120.21400390625">
        <ele>3</ele>
        <time>2018-01-09T11:35:06.300000Z</time>
      </trkpt>
    </trkseg>
  </trk>
</gpx>