<?xml version="1.0" encoding="UTF-8"?>
<gpx xmlns="http://www.topografix.com/GPX/1/1" xmlns:gpxtpx="http://www.garmin.com/xmlschemas/TrackPointExtension/v1" xmlns:xsi="http://www.w3.org/2001/XMLSchema-instance" xsi:schemaLocation="http://www.topografix.com/GPX/1/1 http://www.topografix.com/GPX/1/1/gpx.xsd" version="1.1" creator="gpx.py -- https://github.com/tkrajina/gpxpy">
  <trk>
    <name>gpx from keep</name>
    <trkseg>
      <trkpt lat="35.97465631728508" lon="120.13547201609904">
        <time>2021-01-22T07:00:40.056000Z</time>
      </trkpt>
      <trkpt lat="35.97462496376212" lon="120.13549346130472">
        <time>2021-01-22T07:00:43.056000Z</time>
      </trkpt>
      <trkpt lat="35.97457290809806" lon="120.13554545060187">
        <time>2021-01-22T07:00:46.056000Z</time>
      </trkpt>
      <trkpt lat="35.97447750424568" lon="120.1356775015601">
        <time>2021-01-22T07:00:52.056000Z</time>
      </trkpt>
      <trkpt lat="35.974414755454845" lon="120.13581943084769">
        <time>2021-01-22T07:00:58.056000Z</time>
      </trkpt>
      <trkpt lat="35.97438278951028" lon="120.1358994830235">
        <time>2021-01-22T07:01:01.056000Z</time>
      </trkpt>
      <trkpt lat="35.974348279127895" lon="120.13602302862023">
        <time>2021-01-22T07:01:07.056000Z</time>
      </trkpt>
      <trkpt lat="35.97433904681358" lon="120.13607172887615">
        <time>2021-01-22T07:01:10.056000Z</time>
      </trkpt>
      <trkpt lat="35.97432348257902" lon="120.13613687825521">
        <time>2021-01-22T07:01:13.056000Z</time>
      </trkpt>
      <trkpt lat="35.974319679675666" lon="120.13619502569416">
        <time>2021-01-22T07:01:16.056000Z</time>
      </trkpt>
      <trkpt lat="35.974310845851846" lon="120.13625287328067">
        <time>2021-01-22T07:01:19.056000Z</time>
      </trkpt>
      <trkpt lat="35.97429526070259" lon="120.13636671283042">
        <time>2021-01-22T07:01:25.056000Z</time>
      </trkpt>
      <trkpt lat="35.97430016873967" lon="120.13643345946902">
        <time>2021-01-22T07:01:28.056000Z</time>
      </trkpt>
      <trkpt lat="35.974269124238056" lon="120.13656735750354">
        <time>2021-01-22T07:01:34.056000Z</time>
      </trkpt>
      <trkpt lat="35.974250520003174" lon="120.13663913909102">
        <time>2021-01-22T07:01:37.056000Z</time>
      </trkpt>
      <trkpt lat="35.97424397569985" lon="120.13670515581437">
        <time>2021-01-22T07:01:40.056000Z</time>
      </trkpt>
      <trkpt lat="35.97423317929689" lon="120.13681966228673">
        <time>2021-01-22T07:01:46.056000Z</time>
      </trkpt>
      <trkpt lat="35.974233026387886" lon="120.1368854896352">
        <time>2021-01-22T07:01:49.056000Z</time>
      </trkpt>
      <trkpt lat="35.974234533772005" lon="120.13695921743148">
        <time>2021-01-22T07:01:52.056000Z</time>
      </trkpt>
      <trkpt lat="35.97422806766848" lon="120.1370419918867">
        <time>2021-01-22T07:01:55.056000Z</time>
      </trkpt>
      <trkpt lat="35.974221236626725" lon="120.13719940083374">
        <time>2021-01-22T07:02:01.056000Z</time>
      </trkpt>
      <trkpt lat="35.974185985118616" lon="120.13735131994041">
        <time>2021-01-22T07:02:07.056000Z</time>
      </trkpt>
      <trkpt lat="35.97416785293265" lon="120.13742810707615">
        <time>2021-01-22T07:02:10.056000Z</time>
      </trkpt>
      <trkpt lat="35.97414442719135" lon="120.13750655936163">
        <time>2021-01-22T07:02:13.056000Z</time>
      </trkpt>
      <trkpt lat="35.97412884954986" lon="120.1376580197611">
        <time>2021-01-22T07:02:19.056000Z</time>
      </trkpt>
      <trkpt lat="35.97413310495346" lon="120.13773248393125">
        <time>2021-01-22T07:02:22.056000Z</time>
      </trkpt>
      <trkpt lat="35.97413189923688" lon="120.13780668805389">
        <time>2021-01-22T07:02:25.056000Z</time>
      </trkpt>
      <trkpt lat="35.97412126466583" lon="120.13787814799501">
        <time>2021-01-22T07:02:28.056000Z</time>
      </trkpt>
      <trkpt lat="35.97410899923211" lon="120.13801950209853">
        <time>2021-01-22T07:02:34.056000Z</time>
      </trkpt>
      <trkpt lat="35.97408022292623" lon="120.13814264980405">
        <time>2021-01-22T07:02:40.056000Z</time>
      </trkpt>
      <trkpt lat="35.97404967164553" lon="120.13829202069542">
        <time>2021-01-22T07:02:46.056000Z</time>
      </trkpt>
      <trkpt lat="35.974042299537345" lon="120.13844573196943">
        <time>2021-01-22T07:02:52.056000Z</time>
      </trkpt>
      <trkpt lat="35.97403889365844" lon="120.13859488432965">
        <time>2021-01-22T07:02:58.056000Z</time>
      </trkpt>
      <trkpt lat="35.97404556890721" lon="120.13867597946397">
        <time>2021-01-22T07:03:01.056000Z</time>
      </trkpt>
      <trkpt lat="35.97403197842515" lon="120.13882604736916">
        <time>2021-01-22T07:03:07.056000Z</time>
      </trkpt>
      <trkpt lat="35.9739777404889" lon="120.13896641544801">
        <time>2021-01-22T07:03:13.056000Z</time>
      </trkpt>
      <trkpt lat="35.97387645097866" lon="120.13905381355121">
        <time>2021-01-22T07:03:19.056000Z</time>
      </trkpt>
      <trkpt lat="35.973818792367425" lon="120.13909533241834">
        <time>2021-01-22T07:03:22.056000Z</time>
      </trkpt>
      <trkpt lat="35.97376335378988" lon="120.13912963982685">
        <time>2021-01-22T07:03:25.056000Z</time>
      </trkpt>
      <trkpt lat="35.97363953171282" lon="120.13917696767517">
        <time>2021-01-22T07:03:31.056000Z</time>
      </trkpt>
      <trkpt lat="35.97357143877909" lon="120.13919716984087">
        <time>2021-01-22T07:03:34.056000Z</time>
      </trkpt>
      <trkpt lat="35.97350649028528" lon="120.13922211018073">
        <time>2021-01-22T07:03:37.056000Z</time>
      </trkpt>
      <trkpt lat="35.97337386348249" lon="120.13927132225456">
        <time>2021-01-22T07:03:43.056000Z</time>
      </trkpt>
      <trkpt lat="35.97330501274751" lon="120.13929720975106">
        <time>2021-01-22T07:03:46.056000Z</time>
      </trkpt>
      <trkpt lat="35.97323971961723" lon="120.13931800058603">
        <time>2021-01-22T07:03:49.056000Z</time>
      </trkpt>
      <trkpt lat="35.9731106016347" lon="120.13934608687477">
        <time>2021-01-22T07:03:55.056000Z</time>
      </trkpt>
      <trkpt lat="35.97298973970473" lon="120.13940859578061">
        <time>2021-01-22T07:04:01.056000Z</time>
      </trkpt>
      <trkpt lat="35.97288728072721" lon="120.13952447942317">
        <time>2021-01-22T07:04:07.056000Z</time>
      </trkpt>
      <trkpt lat="35.97277566749592" lon="120.1396192360203">
        <time>2021-01-22T07:04:13.056000Z</time>
      </trkpt>
      <trkpt lat="35.972719811487714" lon="120.13966608057146">
        <time>2021-01-22T07:04:16.056000Z</time>
      </trkpt>
      <trkpt lat="35.97266128254533" lon="120.13970713967488">
        <time>2021-01-22T07:04:19.056000Z</time>
      </trkpt>
      <trkpt lat="35.97260090662924" lon="120.13973813443452">
        <time>2021-01-22T07:04:22.056000Z</time>
      </trkpt>
      <trkpt lat="35.97248392619674" lon="120.13979968533216">
        <time>2021-01-22T07:04:28.056000Z</time>
      </trkpt>
      <trkpt lat="35.9724335858766" lon="120.13982822723301">
        <time>2021-01-22T07:04:31.056000Z</time>
      </trkpt>
      <trkpt lat="35.97238139228589" lon="120.13986628442703">
        <time>2021-01-22T07:04:34.056000Z</time>
      </trkpt>
      <trkpt lat="35.97215284722618" lon="120.14004486287725">
        <time>2021-01-22T07:04:46.056000Z</time>
      </trkpt>
      <trkpt lat="35.972093977133916" lon="120.14010856292892">
        <time>2021-01-22T07:04:49.056000Z</time>
      </trkpt>
      <trkpt lat="35.972031370343565" lon="120.14015431890252">
        <time>2021-01-22T07:04:52.056000Z</time>
      </trkpt>
      <trkpt lat="35.971914198435414" lon="120.14023112943212">
        <time>2021-01-22T07:04:58.056000Z</time>
      </trkpt>
      <trkpt lat="35.971854353161866" lon="120.14026876649653">
        <time>2021-01-22T07:05:01.056000Z</time>
      </trkpt>
      <trkpt lat="35.97173778726534" lon="120.1403631412574">
        <time>2021-01-22T07:05:07.056000Z</time>
      </trkpt>
      <trkpt lat="35.97169835892295" lon="120.14042852804256">
        <time>2021-01-22T07:05:10.056000Z</time>
      </trkpt>
      <trkpt lat="35.971628890857346" lon="120.14056168585252">
        <time>2021-01-22T07:05:16.056000Z</time>
      </trkpt>
      <trkpt lat="35.97155526825305" lon="120.14068977588649">
        <time>2021-01-22T07:05:22.056000Z</time>
      </trkpt>
      <trkpt lat="35.97151441847125" lon="120.14074823986981">
        <time>2021-01-22T07:05:25.056000Z</time>
      </trkpt>
      <trkpt lat="35.97148574717603" lon="120.14080984666533">
        <time>2021-01-22T07:05:28.056000Z</time>
      </trkpt>
      <trkpt lat="35.97145537256329" lon="120.1408734978445">
        <time>2021-01-22T07:05:31.056000Z</time>
      </trkpt>
      <trkpt lat="35.97134655515422" lon="120.14096915807043">
        <time>2021-01-22T07:05:37.056000Z</time>
      </trkpt>
      <trkpt lat="35.97121919364466" lon="120.14108616045874">
        <time>2021-01-22T07:05:46.056000Z</time>
      </trkpt>
      <trkpt lat="35.971217655866134" lon="120.14131569888005">
        <time>2021-01-22T07:05:52.056000Z</time>
      </trkpt>
      <trkpt lat="35.97116843187208" lon="120.14160515348108">
        <time>2021-01-22T07:06:01.056000Z</time>
      </trkpt>
      <trkpt lat="35.97113799053834" lon="120.1417728486308">
        <time>2021-01-22T07:06:07.056000Z</time>
      </trkpt>
      <trkpt lat="35.97111188214331" lon="120.14185302456374">
        <time>2021-01-22T07:06:10.056000Z</time>
      </trkpt>
      <trkpt lat="35.97109719136552" lon="120.14193671205484">
        <time>2021-01-22T07:06:13.056000Z</time>
      </trkpt>
      <trkpt lat="35.97102675461978" lon="120.14210044224812">
        <time>2021-01-22T07:06:19.056000Z</time>
      </trkpt>
      <trkpt lat="35.97091421995518" lon="120.14232592374056">
        <time>2021-01-22T07:06:28.056000Z</time>
      </trkpt>
      <trkpt lat="35.97088522084591" lon="120.142398218946">
        <time>2021-01-22T07:06:31.056000Z</time>
      </trkpt>
      <trkpt lat="35.97075257744462" lon="120.14257594373947">
        <time>2021-01-22T07:06:40.056000Z</time>
      </trkpt>
      <trkpt lat="35.970701987276335" lon="120.14263096245577">
        <time>2021-01-22T07:06:43.056000Z</time>
      </trkpt>
      <trkpt lat="35.970572619824125" lon="120.14270599045338">
        <time>2021-01-22T07:06:49.056000Z</time>
      </trkpt>
      <trkpt lat="35.9704416878206" lon="120.14279086183976">
        <time>2021-01-22T07:06:55.056000Z</time>
      </trkpt>
      <trkpt lat="35.97030591866862" lon="120.14285877788639">
        <time>2021-01-22T07:07:01.056000Z</time>
      </trkpt>
      <trkpt lat="35.9702475623223" lon="120.1429095367962">
        <time>2021-01-22T07:07:04.056000Z</time>
      </trkpt>
      <trkpt lat="35.970190307786794" lon="120.14296616003108">
        <time>2021-01-22T07:07:07.056000Z</time>
      </trkpt>
      <trkpt lat="35.9700873434677" lon="120.14307783148277">
        <time>2021-01-22T07:07:13.056000Z</time>
      </trkpt>
      <trkpt lat="35.97004287484575" lon="120.14313925272772">
        <time>2021-01-22T07:07:16.056000Z</time>
      </trkpt>
      <trkpt lat="35.96999180499899" lon="120.14320036408103">
        <time>2021-01-22T07:07:19.056000Z</time>
      </trkpt>
      <trkpt lat="35.96990491926204" lon="120.14332215899144">
        <time>2021-01-22T07:07:25.056000Z</time>
      </trkpt>
      <trkpt lat="35.96981222167352" lon="120.14343014008539">
        <time>2021-01-22T07:07:31.056000Z</time>
      </trkpt>
      <trkpt lat="35.969762624554605" lon="120.14348235498049">
        <time>2021-01-22T07:07:34.056000Z</time>
      </trkpt>
      <trkpt lat="35.9696436665327" lon="120.14357216212055">
        <time>2021-01-22T07:07:40.056000Z</time>
      </trkpt>
      <trkpt lat="35.969560805946735" lon="120.14360041833939">
        <time>2021-01-22T07:07:43.056000Z</time>
      </trkpt>
      <trkpt lat="35.96941356741586" lon="120.14369263605181">
        <time>2021-01-22T07:07:49.056000Z</time>
      </trkpt>
      <trkpt lat="35.96933704415636" lon="120.14372371512727">
        <time>2021-01-22T07:07:52.056000Z</time>
      </trkpt>
      <trkpt lat="35.96918176719244" lon="120.14375817780262">
        <time>2021-01-22T07:07:58.056000Z</time>
      </trkpt>
      <trkpt lat="35.96910507985398" lon="120.14376442388934">
        <time>2021-01-22T07:08:01.056000Z</time>
      </trkpt>
      <trkpt lat="35.969035587486694" lon="120.14377531807892">
        <time>2021-01-22T07:08:04.056000Z</time>
      </trkpt>
      <trkpt lat="35.96885033166497" lon="120.1438384703992">
        <time>2021-01-22T07:08:13.056000Z</time>
      </trkpt>
      <trkpt lat="35.96879881471696" lon="120.14389674806621">
        <time>2021-01-22T07:08:16.056000Z</time>
      </trkpt>
      <trkpt lat="35.96851265446026" lon="120.14422741560377">
        <time>2021-01-22T07:08:31.056000Z</time>
      </trkpt>
      <trkpt lat="35.96845676648749" lon="120.14427845185786">
        <time>2021-01-22T07:08:34.056000Z</time>
      </trkpt>
      <trkpt lat="35.96833857239998" lon="120.14436442731954">
        <time>2021-01-22T07:08:40.056000Z</time>
      </trkpt>
      <trkpt lat="35.96827335091676" lon="120.14439575612279">
        <time>2021-01-22T07:08:43.056000Z</time>
      </trkpt>
      <trkpt lat="35.9681434404215" lon="120.14448401399206">
        <time>2021-01-22T07:08:49.056000Z</time>
      </trkpt>
      <trkpt lat="35.968084265653665" lon="120.14453210756919">
        <time>2021-01-22T07:08:52.056000Z</time>
      </trkpt>
      <trkpt lat="35.96795114204573" lon="120.14458776367377">
        <time>2021-01-22T07:08:58.056000Z</time>
      </trkpt>
      <trkpt lat="35.967813369146164" lon="120.14455375372079">
        <time>2021-01-22T07:09:04.056000Z</time>
      </trkpt>
      <trkpt lat="35.96775172741472" lon="120.1445244977719">
        <time>2021-01-22T07:09:07.056000Z</time>
      </trkpt>
      <trkpt lat="35.96734087224582" lon="120.1443793351794">
        <time>2021-01-22T07:09:25.056000Z</time>
      </trkpt>
      <trkpt lat="35.967256428526795" lon="120.14436809798752">
        <time>2021-01-22T07:09:28.056000Z</time>
      </trkpt>
      <trkpt lat="35.96716899900393" lon="120.14436033108146">
        <time>2021-01-22T07:09:31.056000Z</time>
      </trkpt>
      <trkpt lat="35.96700727017383" lon="120.14438091026827">
        <time>2021-01-22T07:09:37.056000Z</time>
      </trkpt>
      <trkpt lat="35.966778899304295" lon="120.14448060799454">
        <time>2021-01-22T07:09:46.056000Z</time>
      </trkpt>
      <trkpt lat="35.96673416751037" lon="120.1445494264386">
        <time>2021-01-22T07:09:49.056000Z</time>
      </trkpt>
      <trkpt lat="35.966404558958686" lon="120.14500330636254">
        <time>2021-01-22T07:10:10.056000Z</time>
      </trkpt>
      <trkpt lat="35.966282655699644" lon="120.14510050886253">
        <time>2021-01-22T07:10:16.056000Z</time>
      </trkpt>
      <trkpt lat="35.96622714370322" lon="120.14514680682474">
        <time>2021-01-22T07:10:19.056000Z</time>
      </trkpt>
      <trkpt lat="35.966014669534104" lon="120.14539773821203">
        <time>2021-01-22T07:10:31.056000Z</time>
      </trkpt>
      <trkpt lat="35.965952751262456" lon="120.14546709174543">
        <time>2021-01-22T07:10:34.056000Z</time>
      </trkpt>
      <trkpt lat="35.96588749081825" lon="120.1455305909542">
        <time>2021-01-22T07:10:37.056000Z</time>
      </trkpt>
      <trkpt lat="35.96575337426323" lon="120.14560713777082">
        <time>2021-01-22T07:10:43.056000Z</time>
      </trkpt>
      <trkpt lat="35.96547424483135" lon="120.14568900643164">
        <time>2021-01-22T07:10:55.056000Z</time>
      </trkpt>
      <trkpt lat="35.96540231467681" lon="120.14569762605396">
        <time>2021-01-22T07:10:58.056000Z</time>
      </trkpt>
      <trkpt lat="35.965336809708646" lon="120.14571048456922">
        <time>2021-01-22T07:11:01.056000Z</time>
      </trkpt>
      <trkpt lat="35.96520938403708" lon="120.14574726139122">
        <time>2021-01-22T07:11:07.056000Z</time>
      </trkpt>
      <trkpt lat="35.96507335855086" lon="120.14570913411869">
        <time>2021-01-22T07:11:13.056000Z</time>
      </trkpt>
      <trkpt lat="35.964999456781285" lon="120.14569180514133">
        <time>2021-01-22T07:11:16.056000Z</time>
      </trkpt>
      <trkpt lat="35.964802248930845" lon="120.14575889192781">
        <time>2021-01-22T07:11:25.056000Z</time>
      </trkpt>
      <trkpt lat="35.964730069374504" lon="120.1458137139346">
        <time>2021-01-22T07:11:28.056000Z</time>
      </trkpt>
      <trkpt lat="35.96446061763389" lon="120.14597148310916">
        <time>2021-01-22T07:11:40.056000Z</time>
      </trkpt>
      <trkpt lat="35.964356748652875" lon="120.14601403583343">
        <time>2021-01-22T07:11:46.056000Z</time>
      </trkpt>
      <trkpt lat="35.964328339316026" lon="120.14596254569491">
        <time>2021-01-22T07:11:49.056000Z</time>
      </trkpt>
      <trkpt lat="35.963935317638125" lon="120.14614660002387">
        <time>2021-01-22T07:12:04.056000Z</time>
      </trkpt>
      <trkpt lat="35.96385365872535" lon="120.1462190018012">
        <time>2021-01-22T07:12:07.056000Z</time>
      </trkpt>
      <trkpt lat="35.96368968650555" lon="120.14632009622846">
        <time>2021-01-22T07:12:13.056000Z</time>
      </trkpt>
      <trkpt lat="35.96360841012628" lon="120.14636426611303">
        <time>2021-01-22T07:12:16.056000Z</time>
      </trkpt>
      <trkpt lat="35.96340628791722" lon="120.1464788491185">
        <time>2021-01-22T07:12:25.056000Z</time>
      </trkpt>
      <trkpt lat="35.963288055115314" lon="120.14656739193853">
        <time>2021-01-22T07:12:31.056000Z</time>
      </trkpt>
      <trkpt lat="35.96323575498029" lon="120.14663818004388">
        <time>2021-01-22T07:12:34.056000Z</time>
      </trkpt>
      <trkpt lat="35.963177714741676" lon="120.14671462172345">
        <time>2021-01-22T07:12:37.056000Z</time>
      </trkpt>
      <trkpt lat="35.96306624829491" lon="120.14683909431957">
        <time>2021-01-22T07:12:43.056000Z</time>
      </trkpt>
      <trkpt lat="35.963014866574774" lon="120.14690421779174">
        <time>2021-01-22T07:12:46.056000Z</time>
      </trkpt>
      <trkpt lat="35.96296347941067" lon="120.14695974795328">
        <time>2021-01-22T07:12:49.056000Z</time>
      </trkpt>
      <trkpt lat="35.96286969888334" lon="120.14708266567311">
        <time>2021-01-22T07:12:55.056000Z</time>
      </trkpt>
      <trkpt lat="35.96265066858632" lon="120.14733540760456">
        <time>2021-01-22T07:13:10.056000Z</time>
      </trkpt>
      <trkpt lat="35.962622095545406" lon="120.14740447121768">
        <time>2021-01-22T07:13:13.056000Z</time>
      </trkpt>
      <trkpt lat="35.96247992546729" lon="120.14764193096147">
        <time>2021-01-22T07:13:25.056000Z</time>
      </trkpt>
      <trkpt lat="35.96242280925665" lon="120.14769533545518">
        <time>2021-01-22T07:13:28.056000Z</time>
      </trkpt>
      <trkpt lat="35.96230733465363" lon="120.14779676924057">
        <time>2021-01-22T07:13:34.056000Z</time>
      </trkpt>
      <trkpt lat="35.96225549035946" lon="120.14781732656546">
        <time>2021-01-22T07:13:37.056000Z</time>
      </trkpt>
      <trkpt lat="35.96226013438828" lon="120.147802518714">
        <time>2021-01-22T07:13:40.056000Z</time>
      </trkpt>
      <trkpt lat="35.96225640877345" lon="120.14781203156957">
        <time>2021-01-22T07:13:43.056000Z</time>
      </trkpt>
      <trkpt lat="35.96225038193937" lon="120.14782843479452">
        <time>2021-01-22T07:13:46.256000Z</time>
      </trkpt>
      <trkpt lat="35.962163504854374" lon="120.14789699355852">
        <time>2021-01-22T07:14:34.056000Z</time>
      </trkpt>
      <trkpt lat="35.96210153988033" lon="120.14795509399026">
        <time>2021-01-22T07:14:40.056000Z</time>
      </trkpt>
      <trkpt lat="35.96206363395862" lon="120.14808190250538">
        <time>2021-01-22T07:14:46.056000Z</time>
      </trkpt>
      <trkpt lat="35.96206436505366" lon="120.1481520942198">
        <time>2021-01-22T07:14:49.056000Z</time>
      </trkpt>
      <trkpt lat="35.96206043810345" lon="120.14822666299364">
        <time>2021-01-22T07:14:52.056000Z</time>
      </trkpt>
      <trkpt lat="35.96207272356729" lon="120.14840472000927">
        <time>2021-01-22T07:14:58.056000Z</time>
      </trkpt>
      <trkpt lat="35.962078467861055" lon="120.14857567573806">
        <time>2021-01-22T07:15:04.056000Z</time>
      </trkpt>
      <trkpt lat="35.96208109597792" lon="120.14866672745853">
        <time>2021-01-22T07:15:07.056000Z</time>
      </trkpt>
      <trkpt lat="35.96208756680048" lon="120.14876290474147">
        <time>2021-01-22T07:15:10.056000Z</time>
      </trkpt>
      <trkpt lat="35.96210108722653" lon="120.14895573727199">
        <time>2021-01-22T07:15:16.056000Z</time>
      </trkpt>
      <trkpt lat="35.962104915079856" lon="120.14905301046191">
        <time>2021-01-22T07:15:19.056000Z</time>
      </trkpt>
      <trkpt lat="35.96212127650166" lon="120.14914980591793">
        <time>2021-01-22T07:15:22.056000Z</time>
      </trkpt>
      <trkpt lat="35.96214266006975" lon="120.1493534762545">
        <time>2021-01-22T07:15:28.056000Z</time>
      </trkpt>
      <trkpt lat="35.962153469134186" lon="120.14945051974156">
        <time>2021-01-22T07:15:31.056000Z</time>
      </trkpt>
      <trkpt lat="35.96216185493204" lon="120.14954912828394">
        <time>2021-01-22T07:15:34.056000Z</time>
      </trkpt>
      <trkpt lat="35.96219007576448" lon="120.14972929457814">
        <time>2021-01-22T07:15:40.056000Z</time>
      </trkpt>
      <trkpt lat="35.96221131553406" lon="120.14980813035011">
        <time>2021-01-22T07:15:43.056000Z</time>
      </trkpt>
      <trkpt lat="35.96221545708543" lon="120.14998985876477">
        <time>2021-01-22T07:15:49.056000Z</time>
      </trkpt>
      <trkpt lat="35.9622417981351" lon="120.1501685571071">
        <time>2021-01-22T07:15:55.056000Z</time>
      </trkpt>
      <trkpt lat="35.96224395152363" lon="120.15036670634515">
        <time>2021-01-22T07:16:01.056000Z</time>
      </trkpt>
      <trkpt lat="35.96224595500791" lon="120.15046461405169">
        <time>2021-01-22T07:16:04.056000Z</time>
      </trkpt>
      <trkpt lat="35.96225479234287" lon="120.15056102646693">
        <time>2021-01-22T07:16:07.056000Z</time>
      </trkpt>
      <trkpt lat="35.96228738156394" lon="120.15085218732864">
        <time>2021-01-22T07:16:16.056000Z</time>
      </trkpt>
      <trkpt lat="35.9625421168537" lon="120.1510108309484">
        <time>2021-01-22T07:16:28.056000Z</time>
      </trkpt>
      <trkpt lat="35.962629761812465" lon="120.15102701205326">
        <time>2021-01-22T07:16:31.056000Z</time>
      </trkpt>
      <trkpt lat="35.96271647177493" lon="120.15102757835395">
        <time>2021-01-22T07:16:34.056000Z</time>
      </trkpt>
      <trkpt lat="35.96287991383677" lon="120.15103827231071">
        <time>2021-01-22T07:16:40.056000Z</time>
      </trkpt>
      <trkpt lat="35.962958771084374" lon="120.15105790259415">
        <time>2021-01-22T07:16:43.056000Z</time>
      </trkpt>
      <trkpt lat="35.96304394453282" lon="120.1510746318635">
        <time>2021-01-22T07:16:46.056000Z</time>
      </trkpt>
      <trkpt lat="35.963199285343684" lon="120.15111578667108">
        <time>2021-01-22T07:16:52.056000Z</time>
      </trkpt>
      <trkpt lat="35.963276426345715" lon="120.15113899636987">
        <time>2021-01-22T07:16:55.056000Z</time>
      </trkpt>
      <trkpt lat="35.96335762954475" lon="120.15115526657522">
        <time>2021-01-22T07:16:58.056000Z</time>
      </trkpt>
      <trkpt lat="35.96350393202738" lon="120.15118164339017">
        <time>2021-01-22T07:17:04.056000Z</time>
      </trkpt>
      <trkpt lat="35.963573455838635" lon="120.15119578868006">
        <time>2021-01-22T07:17:07.056000Z</time>
      </trkpt>
      <trkpt lat="35.96364591138208" lon="120.15120929608635">
        <time>2021-01-22T07:17:10.056000Z</time>
      </trkpt>
      <trkpt lat="35.9637956685916" lon="120.15123941231917">
        <time>2021-01-22T07:17:16.056000Z</time>
      </trkpt>
      <trkpt lat="35.963862015620634" lon="120.15125725655032">
        <time>2021-01-22T07:17:19.056000Z</time>
      </trkpt>
      <trkpt lat="35.963936697391055" lon="120.15127340646109">
        <time>2021-01-22T07:17:22.056000Z</time>
      </trkpt>
      <trkpt lat="35.96408376144981" lon="120.15129886593644">
        <time>2021-01-22T07:17:28.056000Z</time>
      </trkpt>
      <trkpt lat="35.96415754363406" lon="120.15130228276283">
        <time>2021-01-22T07:17:31.056000Z</time>
      </trkpt>
      <trkpt lat="35.964228045335815" lon="120.15130550984003">
        <time>2021-01-22T07:17:34.056000Z</time>
      </trkpt>
      <trkpt lat="35.96436033750892" lon="120.15130526267609">
        <time>2021-01-22T07:17:40.056000Z</time>
      </trkpt>
      <trkpt lat="35.964428237891966" lon="120.1513150803557">
        <time>2021-01-22T07:17:43.056000Z</time>
      </trkpt>
      <trkpt lat="35.96456433756211" lon="120.15136624405231">
        <time>2021-01-22T07:17:49.056000Z</time>
      </trkpt>
      <trkpt lat="35.96463031621262" lon="120.15139531553596">
        <time>2021-01-22T07:17:52.056000Z</time>
      </trkpt>
      <trkpt lat="35.9647309501105" lon="120.15141395053955">
        <time>2021-01-22T07:17:58.056000Z</time>
      </trkpt>
      <trkpt lat="35.96475472255974" lon="120.15142827104931">
        <time>2021-01-22T07:18:01.056000Z</time>
      </trkpt>
      <trkpt lat="35.96481231144669" lon="120.15144362165378">
        <time>2021-01-22T07:18:04.056000Z</time>
      </trkpt>
      <trkpt lat="35.96488589708412" lon="120.15146333103111">
        <time>2021-01-22T07:18:07.056000Z</time>
      </trkpt>
      <trkpt lat="35.96504049005969" lon="120.15148432408175">
        <time>2021-01-22T07:18:13.056000Z</time>
      </trkpt>
      <trkpt lat="35.96511173911878" lon="120.15149541830903">
        <time>2021-01-22T07:18:16.056000Z</time>
      </trkpt>
      <trkpt lat="35.96516709384509" lon="120.15150683015273">
        <time>2021-01-22T07:18:19.056000Z</time>
      </trkpt>
      <trkpt lat="35.96530491908306" lon="120.15153623714158">
        <time>2021-01-22T07:18:25.056000Z</time>
      </trkpt>
      <trkpt lat="35.965369877079965" lon="120.15155319370332">
        <time>2021-01-22T07:18:28.056000Z</time>
      </trkpt>
      <trkpt lat="35.96543315475684" lon="120.15156394817184">
        <time>2021-01-22T07:18:31.056000Z</time>
      </trkpt>
      <trkpt lat="35.96549741168427" lon="120.15156915887765">
        <time>2021-01-22T07:18:34.056000Z</time>
      </trkpt>
      <trkpt lat="35.965629364229166" lon="120.15159932307816">
        <time>2021-01-22T07:18:40.056000Z</time>
      </trkpt>
      <trkpt lat="35.96569227896561" lon="120.15162410661613">
        <time>2021-01-22T07:18:43.056000Z</time>
      </trkpt>
      <trkpt lat="35.96582599884512" lon="120.15163771918722">
        <time>2021-01-22T07:18:49.056000Z</time>
      </trkpt>
      <trkpt lat="35.96589482954713" lon="120.1516351330294">
        <time>2021-01-22T07:18:52.056000Z</time>
      </trkpt>
      <trkpt lat="35.966032543013846" lon="120.15165326279433">
        <time>2021-01-22T07:18:58.056000Z</time>
      </trkpt>
      <trkpt lat="35.966103358015786" lon="120.15165446577315">
        <time>2021-01-22T07:19:01.056000Z</time>
      </trkpt>
      <trkpt lat="35.96617984112453" lon="120.15165766345594">
        <time>2021-01-22T07:19:04.056000Z</time>
      </trkpt>
      <trkpt lat="35.96633059110181" lon="120.15171052312728">
        <time>2021-01-22T07:19:10.056000Z</time>
      </trkpt>
      <trkpt lat="35.9663993014366" lon="120.15172041058166">
        <time>2021-01-22T07:19:13.056000Z</time>
      </trkpt>
      <trkpt lat="35.966466380841226" lon="120.15173062692492">
        <time>2021-01-22T07:19:16.056000Z</time>
      </trkpt>
      <trkpt lat="35.96660330579375" lon="120.15174155757866">
        <time>2021-01-22T07:19:22.056000Z</time>
      </trkpt>
      <trkpt lat="35.96672250178062" lon="120.15177990660216">
        <time>2021-01-22T07:19:28.056000Z</time>
      </trkpt>
      <trkpt lat="35.96678952971799" lon="120.15179713246869">
        <time>2021-01-22T07:19:31.056000Z</time>
      </trkpt>
      <trkpt lat="35.966854013596404" lon="120.15181033982509">
        <time>2021-01-22T07:19:34.056000Z</time>
      </trkpt>
      <trkpt lat="35.96692301096381" lon="120.1518159397978">
        <time>2021-01-22T07:19:37.056000Z</time>
      </trkpt>
      <trkpt lat="35.967065796429765" lon="120.15182738945072">
        <time>2021-01-22T07:19:43.056000Z</time>
      </trkpt>
      <trkpt lat="35.967141782244155" lon="120.15181657797069">
        <time>2021-01-22T07:19:46.056000Z</time>
      </trkpt>
      <trkpt lat="35.967211320878675" lon="120.15181534792984">
        <time>2021-01-22T07:19:49.056000Z</time>
      </trkpt>
      <trkpt lat="35.967345457029865" lon="120.15182510174141">
        <time>2021-01-22T07:19:55.056000Z</time>
      </trkpt>
      <trkpt lat="35.967394827535855" lon="120.15181363972233">
        <time>2021-01-22T07:19:58.056000Z</time>
      </trkpt>
      <trkpt lat="35.967467734609365" lon="120.15181385576878">
        <time>2021-01-22T07:20:01.056000Z</time>
      </trkpt>
      <trkpt lat="35.96754364165873" lon="120.1518206528791">
        <time>2021-01-22T07:20:04.056000Z</time>
      </trkpt>
      <trkpt lat="35.96770936956708" lon="120.15182781714255">
        <time>2021-01-22T07:20:10.056000Z</time>
      </trkpt>
      <trkpt lat="35.96776440683174" lon="120.15181916743383">
        <time>2021-01-22T07:20:13.056000Z</time>
      </trkpt>
      <trkpt lat="35.96780710224988" lon="120.15182822490281">
        <time>2021-01-22T07:20:16.056000Z</time>
      </trkpt>
      <trkpt lat="35.96784035551792" lon="120.15183108958509">
        <time>2021-01-22T07:20:19.056000Z</time>
      </trkpt>
      <trkpt lat="35.96788957926144" lon="120.15183599975788">
        <time>2021-01-22T07:20:22.056000Z</time>
      </trkpt>
      <trkpt lat="35.96803658264596" lon="120.15181867380169">
        <time>2021-01-22T07:20:28.056000Z</time>
      </trkpt>
      <trkpt lat="35.96810509791253" lon="120.15181321600842">
        <time>2021-01-22T07:20:31.056000Z</time>
      </trkpt>
      <trkpt lat="35.96817443780337" lon="120.15181730043606">
        <time>2021-01-22T07:20:34.056000Z</time>
      </trkpt>
      <trkpt lat="35.96835396406842" lon="120.15173550556963">
        <time>2021-01-22T07:20:43.056000Z</time>
      </trkpt>
      <trkpt lat="35.96845823242476" lon="120.15167201030117">
        <time>2021-01-22T07:20:49.056000Z</time>
      </trkpt>
      <trkpt lat="35.96851830569206" lon="120.1516542475906">
        <time>2021-01-22T07:20:52.056000Z</time>
      </trkpt>
      <trkpt lat="35.96858070059007" lon="120.15164810122339">
        <time>2021-01-22T07:20:55.056000Z</time>
      </trkpt>
      <trkpt lat="35.96864583058707" lon="120.15162079677663">
        <time>2021-01-22T07:20:58.056000Z</time>
      </trkpt>
      <trkpt lat="35.968789011600684" lon="120.15155513122308">
        <time>2021-01-22T07:21:04.056000Z</time>
      </trkpt>
      <trkpt lat="35.96885499308217" lon="120.1515393033695">
        <time>2021-01-22T07:21:07.056000Z</time>
      </trkpt>
      <trkpt lat="35.968913598794586" lon="120.15152593766412">
        <time>2021-01-22T07:21:10.056000Z</time>
      </trkpt>
      <trkpt lat="35.96902475763738" lon="120.15146913323744">
        <time>2021-01-22T07:21:16.056000Z</time>
      </trkpt>
      <trkpt lat="35.96913431983932" lon="120.15142229957624">
        <time>2021-01-22T07:21:22.056000Z</time>
      </trkpt>
      <trkpt lat="35.969193937400334" lon="120.1513956027115">
        <time>2021-01-22T07:21:25.056000Z</time>
      </trkpt>
      <trkpt lat="35.96925369492967" lon="120.15137509783256">
        <time>2021-01-22T07:21:28.056000Z</time>
      </trkpt>
      <trkpt lat="35.969305961037854" lon="120.1513605250054">
        <time>2021-01-22T07:21:31.056000Z</time>
      </trkpt>
      <trkpt lat="35.969441718259645" lon="120.1513082095595">
        <time>2021-01-22T07:21:37.056000Z</time>
      </trkpt>
      <trkpt lat="35.96950833573899" lon="120.151282550248">
        <time>2021-01-22T07:21:40.056000Z</time>
      </trkpt>
      <trkpt lat="35.96957033458933" lon="120.15126152702561">
        <time>2021-01-22T07:21:43.056000Z</time>
      </trkpt>
      <trkpt lat="35.96968296524915" lon="120.15120361559241">
        <time>2021-01-22T07:21:49.056000Z</time>
      </trkpt>
      <trkpt lat="35.96973930162687" lon="120.15116473367117">
        <time>2021-01-22T07:21:52.056000Z</time>
      </trkpt>
      <trkpt lat="35.96985618759951" lon="120.15110409042192">
        <time>2021-01-22T07:21:58.056000Z</time>
      </trkpt>
      <trkpt lat="35.9699147186237" lon="120.15108734438085">
        <time>2021-01-22T07:22:01.056000Z</time>
      </trkpt>
      <trkpt lat="35.969968395628" lon="120.1510661807055">
        <time>2021-01-22T07:22:04.056000Z</time>
      </trkpt>
      <trkpt lat="35.970011661474935" lon="120.15103800640132">
        <time>2021-01-22T07:22:07.056000Z</time>
      </trkpt>
      <trkpt lat="35.97011584413012" lon="120.15097744157623">
        <time>2021-01-22T07:22:13.056000Z</time>
      </trkpt>
      <trkpt lat="35.970171472358345" lon="120.15093719333841">
        <time>2021-01-22T07:22:16.056000Z</time>
      </trkpt>
      <trkpt lat="35.970306326817905" lon="120.15085515337726">
        <time>2021-01-22T07:22:22.056000Z</time>
      </trkpt>
      <trkpt lat="35.970367164735016" lon="120.15081580289826">
        <time>2021-01-22T07:22:25.056000Z</time>
      </trkpt>
      <trkpt lat="35.970411818590854" lon="120.15080138871907">
        <time>2021-01-22T07:22:28.056000Z</time>
      </trkpt>
      <trkpt lat="35.97045656168203" lon="120.1507688370384">
        <time>2021-01-22T07:22:31.056000Z</time>
      </trkpt>
      <trkpt lat="35.97057935522937" lon="120.15069161171213">
        <time>2021-01-22T07:22:37.056000Z</time>
      </trkpt>
      <trkpt lat="35.970641259806" lon="120.15064819293633">
        <time>2021-01-22T07:22:40.056000Z</time>
      </trkpt>
      <trkpt lat="35.970703425092054" lon="120.15061056739509">
        <time>2021-01-22T07:22:43.056000Z</time>
      </trkpt>
      <trkpt lat="35.97082836780197" lon="120.15057759412916">
        <time>2021-01-22T07:22:49.056000Z</time>
      </trkpt>
      <trkpt lat="35.97089566982539" lon="120.15055517506721">
        <time>2021-01-22T07:22:52.056000Z</time>
      </trkpt>
      <trkpt lat="35.971011746453975" lon="120.15049350381517">
        <time>2021-01-22T07:22:58.056000Z</time>
      </trkpt>
      <trkpt lat="35.97104697087658" lon="120.15047727390065">
        <time>2021-01-22T07:23:01.056000Z</time>
      </trkpt>
      <trkpt lat="35.97106839604741" lon="120.15046476198295">
        <time>2021-01-22T07:23:04.056000Z</time>
      </trkpt>
      <trkpt lat="35.97109060042416" lon="120.15045285837701">
        <time>2021-01-22T07:23:07.056000Z</time>
      </trkpt>
      <trkpt lat="35.97111058668599" lon="120.15043944891028">
        <time>2021-01-22T07:23:10.056000Z</time>
      </trkpt>
      <trkpt lat="35.97113781793256" lon="120.15043023798715">
        <time>2021-01-22T07:23:13.056000Z</time>
      </trkpt>
      <trkpt lat="35.97119289266765" lon="120.15040426796892">
        <time>2021-01-22T07:23:16.056000Z</time>
      </trkpt>
      <trkpt lat="35.97134706079" lon="120.15034094474194">
        <time>2021-01-22T07:23:22.056000Z</time>
      </trkpt>
      <trkpt lat="35.97145816271988" lon="120.15026879291273">
        <time>2021-01-22T07:23:28.056000Z</time>
      </trkpt>
      <trkpt lat="35.971590674930525" lon="120.1501745565135">
        <time>2021-01-22T07:23:34.056000Z</time>
      </trkpt>
      <trkpt lat="35.971648470861304" lon="120.15013563386606">
        <time>2021-01-22T07:23:37.056000Z</time>
      </trkpt>
      <trkpt lat="35.97170562875651" lon="120.15008910301418">
        <time>2021-01-22T07:23:40.056000Z</time>
      </trkpt>
      <trkpt lat="35.97183007603484" lon="120.14999025870102">
        <time>2021-01-22T07:23:46.056000Z</time>
      </trkpt>
      <trkpt lat="35.971933904971124" lon="120.14989344641667">
        <time>2021-01-22T07:23:52.056000Z</time>
      </trkpt>
      <trkpt lat="35.97199053178416" lon="120.1498473639463">
        <time>2021-01-22T07:23:55.056000Z</time>
      </trkpt>
      <trkpt lat="35.97211613008802" lon="120.14977917119535">
        <time>2021-01-22T07:24:01.056000Z</time>
      </trkpt>
      <trkpt lat="35.9721878643129" lon="120.14975577489872">
        <time>2021-01-22T07:24:04.056000Z</time>
      </trkpt>
      <trkpt lat="35.97225729113127" lon="120.14973668602153">
        <time>2021-01-22T07:24:07.056000Z</time>
      </trkpt>
      <trkpt lat="35.9723790201687" lon="120.14967993990989">
        <time>2021-01-22T07:24:13.056000Z</time>
      </trkpt>
      <trkpt lat="35.97243402147356" lon="120.14963694818455">
        <time>2021-01-22T07:24:16.056000Z</time>
      </trkpt>
      <trkpt lat="35.97248860843241" lon="120.14959660877587">
        <time>2021-01-22T07:24:19.056000Z</time>
      </trkpt>
      <trkpt lat="35.97254776782179" lon="120.14954909030402">
        <time>2021-01-22T07:24:22.056000Z</time>
      </trkpt>
      <trkpt lat="35.97266207243322" lon="120.14946862113528">
        <time>2021-01-22T07:24:28.056000Z</time>
      </trkpt>
      <trkpt lat="35.972794937599566" lon="120.14941577450473">
        <time>2021-01-22T07:24:34.056000Z</time>
      </trkpt>
      <trkpt lat="35.97286529068058" lon="120.14940541059558">
        <time>2021-01-22T07:24:37.056000Z</time>
      </trkpt>
      <trkpt lat="35.97299032573809" lon="120.14931977687498">
        <time>2021-01-22T07:24:43.056000Z</time>
      </trkpt>
      <trkpt lat="35.97305767217684" lon="120.1492751704989">
        <time>2021-01-22T07:24:46.056000Z</time>
      </trkpt>
      <trkpt lat="35.9731854583504" lon="120.14920176184648">
        <time>2021-01-22T07:24:52.056000Z</time>
      </trkpt>
      <trkpt lat="35.97329633433872" lon="120.14911950674195">
        <time>2021-01-22T07:24:58.056000Z</time>
      </trkpt>
      <trkpt lat="35.97341298425706" lon="120.14905458258606">
        <time>2021-01-22T07:25:04.056000Z</time>
      </trkpt>
      <trkpt lat="35.97346245838463" lon="120.14901494012011">
        <time>2021-01-22T07:25:07.056000Z</time>
      </trkpt>
      <trkpt lat="35.9735209816161" lon="120.1489835648896">
        <time>2021-01-22T07:25:10.056000Z</time>
      </trkpt>
      <trkpt lat="35.973589694132315" lon="120.14895416494144">
        <time>2021-01-22T07:25:13.056000Z</time>
      </trkpt>
      <trkpt lat="35.97372469552797" lon="120.14888454555533">
        <time>2021-01-22T07:25:19.056000Z</time>
      </trkpt>
      <trkpt lat="35.97378890030731" lon="120.14885298127747">
        <time>2021-01-22T07:25:22.056000Z</time>
      </trkpt>
      <trkpt lat="35.973850400089475" lon="120.14881143512171">
        <time>2021-01-22T07:25:25.056000Z</time>
      </trkpt>
      <trkpt lat="35.97397692688938" lon="120.14872418481703">
        <time>2021-01-22T07:25:31.056000Z</time>
      </trkpt>
      <trkpt lat="35.97405131752247" lon="120.14868396593216">
        <time>2021-01-22T07:25:34.056000Z</time>
      </trkpt>
      <trkpt lat="35.97413242590473" lon="120.14865256258169">
        <time>2021-01-22T07:25:37.056000Z</time>
      </trkpt>
      <trkpt lat="35.97428503314896" lon="120.14858795004858">
        <time>2021-01-22T07:25:43.056000Z</time>
      </trkpt>
      <trkpt lat="35.97435246152198" lon="120.14856722505876">
        <time>2021-01-22T07:25:46.056000Z</time>
      </trkpt>
      <trkpt lat="35.97441529480094" lon="120.14852986683239">
        <time>2021-01-22T07:25:49.056000Z</time>
      </trkpt>
      <trkpt lat="35.97452935594647" lon="120.1484503926942">
        <time>2021-01-22T07:25:55.056000Z</time>
      </trkpt>
      <trkpt lat="35.974595193852316" lon="120.14842327560197">
        <time>2021-01-22T07:25:58.056000Z</time>
      </trkpt>
      <trkpt lat="35.974725605859526" lon="120.14837125497239">
        <time>2021-01-22T07:26:04.056000Z</time>
      </trkpt>
      <trkpt lat="35.9747905488146" lon="120.1483343155601">
        <time>2021-01-22T07:26:07.056000Z</time>
      </trkpt>
      <trkpt lat="35.974977833953844" lon="120.14822462322898">
        <time>2021-01-22T07:26:16.056000Z</time>
      </trkpt>
      <trkpt lat="35.97504735717202" lon="120.14818170101269">
        <time>2021-01-22T07:26:19.056000Z</time>
      </trkpt>
      <trkpt lat="35.97517412581376" lon="120.14807961120783">
        <time>2021-01-22T07:26:25.056000Z</time>
      </trkpt>
      <trkpt lat="35.97522758915195" lon="120.1480405165429">
        <time>2021-01-22T07:26:28.056000Z</time>
      </trkpt>
      <trkpt lat="35.97534473511952" lon="120.14798361793645">
        <time>2021-01-22T07:26:34.056000Z</time>
      </trkpt>
      <trkpt lat="35.97541463979459" lon="120.147946110201">
        <time>2021-01-22T07:26:37.056000Z</time>
      </trkpt>
      <trkpt lat="35.97547775680842" lon="120.1479124908373">
        <time>2021-01-22T07:26:40.056000Z</time>
      </trkpt>
      <trkpt lat="35.97552906757211" lon="120.1478875458987">
        <time>2021-01-22T07:26:43.056000Z</time>
      </trkpt>
      <trkpt lat="35.975652080504254" lon="120.14782690813557">
        <time>2021-01-22T07:26:49.056000Z</time>
      </trkpt>
      <trkpt lat="35.97571569452712" lon="120.1477887714372">
        <time>2021-01-22T07:26:52.056000Z</time>
      </trkpt>
      <trkpt lat="35.975780919878225" lon="120.1477564684169">
        <time>2021-01-22T07:26:55.056000Z</time>
      </trkpt>
      <trkpt lat="35.97591231001871" lon="120.14769232108672">
        <time>2021-01-22T07:27:01.056000Z</time>
      </trkpt>
      <trkpt lat="35.97602670263385" lon="120.14757852172792">
        <time>2021-01-22T07:27:07.056000Z</time>
      </trkpt>
      <trkpt lat="35.97616504844803" lon="120.14747911379078">
        <time>2021-01-22T07:27:13.056000Z</time>
      </trkpt>
      <trkpt lat="35.976234327577025" lon="120.1474383246999">
        <time>2021-01-22T07:27:16.056000Z</time>
      </trkpt>
      <trkpt lat="35.976305128942236" lon="120.1473962892016">
        <time>2021-01-22T07:27:19.056000Z</time>
      </trkpt>
      <trkpt lat="35.97643863623654" lon="120.14732094284862">
        <time>2021-01-22T07:27:25.056000Z</time>
      </trkpt>
      <trkpt lat="35.9765007404775" lon="120.14728864910488">
        <time>2021-01-22T07:27:28.056000Z</time>
      </trkpt>
      <trkpt lat="35.97663948162093" lon="120.14722451160384">
        <time>2021-01-22T07:27:34.056000Z</time>
      </trkpt>
      <trkpt lat="35.97678406438443" lon="120.14715362342879">
        <time>2021-01-22T07:27:40.056000Z</time>
      </trkpt>
      <trkpt lat="35.97684812278494" lon="120.14712535843843">
        <time>2021-01-22T07:27:43.056000Z</time>
      </trkpt>
      <trkpt lat="35.97691059043613" lon="120.14708425919478">
        <time>2021-01-22T07:27:46.056000Z</time>
      </trkpt>
      <trkpt lat="35.97703779040099" lon="120.14701890368019">
        <time>2021-01-22T07:27:52.056000Z</time>
      </trkpt>
      <trkpt lat="35.97710411721556" lon="120.14699196508478">
        <time>2021-01-22T07:27:55.056000Z</time>
      </trkpt>
      <trkpt lat="35.97715481774417" lon="120.14695362689426">
        <time>2021-01-22T07:27:58.056000Z</time>
      </trkpt>
      <trkpt lat="35.97729612160333" lon="120.14686809876825">
        <time>2021-01-22T07:28:04.056000Z</time>
      </trkpt>
      <trkpt lat="35.97736027881168" lon="120.14681426492695">
        <time>2021-01-22T07:28:07.056000Z</time>
      </trkpt>
      <trkpt lat="35.97749762278384" lon="120.14673443023061">
        <time>2021-01-22T07:28:13.056000Z</time>
      </trkpt>
      <trkpt lat="35.977573371203434" lon="120.14670777150653">
        <time>2021-01-22T07:28:16.056000Z</time>
      </trkpt>
      <trkpt lat="35.97765069911428" lon="120.14668825300743">
        <time>2021-01-22T07:28:19.056000Z</time>
      </trkpt>
      <trkpt lat="35.97778039567046" lon="120.14662511083758">
        <time>2021-01-22T07:28:25.056000Z</time>
      </trkpt>
      <trkpt lat="35.97785121775009" lon="120.14660181222335">
        <time>2021-01-22T07:28:28.056000Z</time>
      </trkpt>
      <trkpt lat="35.9779156080101" lon="120.14657212080127">
        <time>2021-01-22T07:28:31.056000Z</time>
      </trkpt>
      <trkpt lat="35.9780635463598" lon="120.1465105058509">
        <time>2021-01-22T07:28:37.056000Z</time>
      </trkpt>
      <trkpt lat="35.97817884370886" lon="120.14641142195858">
        <time>2021-01-22T07:28:43.056000Z</time>
      </trkpt>
      <trkpt lat="35.978293276288944" lon="120.14634824798556">
        <time>2021-01-22T07:28:49.056000Z</time>
      </trkpt>
      <trkpt lat="35.97834615252504" lon="120.14631269158015">
        <time>2021-01-22T07:28:52.056000Z</time>
      </trkpt>
      <trkpt lat="35.9784037063478" lon="120.14627943917321">
        <time>2021-01-22T07:28:55.056000Z</time>
      </trkpt>
      <trkpt lat="35.97845844841712" lon="120.1462402728856">
        <time>2021-01-22T07:28:58.056000Z</time>
      </trkpt>
      <trkpt lat="35.978577717994455" lon="120.14617304030368">
        <time>2021-01-22T07:29:04.056000Z</time>
      </trkpt>
      <trkpt lat="35.97864695906017" lon="120.1461499905578">
        <time>2021-01-22T07:29:07.056000Z</time>
      </trkpt>
      <trkpt lat="35.97874396926712" lon="120.14599908743072">
        <time>2021-01-22T07:29:16.056000Z</time>
      </trkpt>
      <trkpt lat="35.97879356925307" lon="120.1458538636069">
        <time>2021-01-22T07:29:22.056000Z</time>
      </trkpt>
      <trkpt lat="35.97884009080914" lon="120.14567338615076">
        <time>2021-01-22T07:29:31.056000Z</time>
      </trkpt>
      <trkpt lat="35.97882167487445" lon="120.14559426261329">
        <time>2021-01-22T07:29:34.056000Z</time>
      </trkpt>
      <trkpt lat="35.9788025278805" lon="120.14550893590801">
        <time>2021-01-22T07:29:37.056000Z</time>
      </trkpt>
      <trkpt lat="35.97876076645541" lon="120.14533565875459">
        <time>2021-01-22T07:29:43.056000Z</time>
      </trkpt>
      <trkpt lat="35.97873925660704" lon="120.14525151793255">
        <time>2021-01-22T07:29:46.056000Z</time>
      </trkpt>
      <trkpt lat="35.978722278747355" lon="120.14516663934307">
        <time>2021-01-22T07:29:49.056000Z</time>
      </trkpt>
      <trkpt lat="35.9786831295237" lon="120.14500481931513">
        <time>2021-01-22T07:29:55.056000Z</time>
      </trkpt>
      <trkpt lat="35.97868011213236" lon="120.1449214971319">
        <time>2021-01-22T07:29:58.056000Z</time>
      </trkpt>
      <trkpt lat="35.97867028618144" lon="120.14482922857462">
        <time>2021-01-22T07:30:01.056000Z</time>
      </trkpt>
      <trkpt lat="35.978629425877" lon="120.14465337506437">
        <time>2021-01-22T07:30:07.056000Z</time>
      </trkpt>
      <trkpt lat="35.978614604388405" lon="120.14457045981855">
        <time>2021-01-22T07:30:10.056000Z</time>
      </trkpt>
      <trkpt lat="35.97859988594561" lon="120.14448537029799">
        <time>2021-01-22T07:30:13.056000Z</time>
      </trkpt>
      <trkpt lat="35.97855892347509" lon="120.1443099537833">
        <time>2021-01-22T07:30:19.056000Z</time>
      </trkpt>
      <trkpt lat="35.978508453168395" lon="120.14413784649194">
        <time>2021-01-22T07:30:25.056000Z</time>
      </trkpt>
      <trkpt lat="35.97847509117669" lon="120.14396915063837">
        <time>2021-01-22T07:30:31.056000Z</time>
      </trkpt>
      <trkpt lat="35.97846909234266" lon="120.14387797683264">
        <time>2021-01-22T07:30:34.056000Z</time>
      </trkpt>
      <trkpt lat="35.97845091728408" lon="120.14379586716163">
        <time>2021-01-22T07:30:37.056000Z</time>
      </trkpt>
      <trkpt lat="35.978389133949534" lon="120.14362938098016">
        <time>2021-01-22T07:30:43.056000Z</time>
      </trkpt>
      <trkpt lat="35.97835284445912" lon="120.14354702967177">
        <time>2021-01-22T07:30:46.056000Z</time>
      </trkpt>
      <trkpt lat="35.97828797654936" lon="120.14336859407189">
        <time>2021-01-22T07:30:52.056000Z</time>
      </trkpt>
      <trkpt lat="35.97828307316096" lon="120.14327284098846">
        <time>2021-01-22T07:30:55.056000Z</time>
      </trkpt>
      <trkpt lat="35.978256843438324" lon="120.14299637008678">
        <time>2021-01-22T07:31:04.056000Z</time>
      </trkpt>
      <trkpt lat="35.978225480440486" lon="120.14282525495072">
        <time>2021-01-22T07:31:10.056000Z</time>
      </trkpt>
      <trkpt lat="35.978221337946195" lon="120.14272805418054">
        <time>2021-01-22T07:31:13.056000Z</time>
      </trkpt>
      <trkpt lat="35.97820556050835" lon="120.14263926960354">
        <time>2021-01-22T07:31:16.056000Z</time>
      </trkpt>
      <trkpt lat="35.97816424175919" lon="120.14245531579549">
        <time>2021-01-22T07:31:22.056000Z</time>
      </trkpt>
      <trkpt lat="35.97812785329604" lon="120.14236337694383">
        <time>2021-01-22T07:31:25.056000Z</time>
      </trkpt>
      <trkpt lat="35.97808388025668" lon="120.14218107689737">
        <time>2021-01-22T07:31:31.056000Z</time>
      </trkpt>
      <trkpt lat="35.9780731021824" lon="120.14209978139955">
        <time>2021-01-22T07:31:34.056000Z</time>
      </trkpt>
      <trkpt lat="35.97806353001699" lon="120.14201435673036">
        <time>2021-01-22T07:31:37.056000Z</time>
      </trkpt>
      <trkpt lat="35.97806604826084" lon="120.14185203615354">
        <time>2021-01-22T07:31:43.056000Z</time>
      </trkpt>
      <trkpt lat="35.97805004513614" lon="120.14168707000218">
        <time>2021-01-22T07:31:49.056000Z</time>
      </trkpt>
      <trkpt lat="35.97798075496035" lon="120.14142411571099">
        <time>2021-01-22T07:31:58.056000Z</time>
      </trkpt>
      <trkpt lat="35.9779238451188" lon="120.14124845156473">
        <time>2021-01-22T07:32:04.056000Z</time>
      </trkpt>
      <trkpt lat="35.97787182476206" lon="120.1411675487991">
        <time>2021-01-22T07:32:07.056000Z</time>
      </trkpt>
      <trkpt lat="35.97782201712765" lon="120.14098334614677">
        <time>2021-01-22T07:32:13.056000Z</time>
      </trkpt>
      <trkpt lat="35.97779540401624" lon="120.14078457249703">
        <time>2021-01-22T07:32:19.056000Z</time>
      </trkpt>
      <trkpt lat="35.97776969621706" lon="120.14069827496357">
        <time>2021-01-22T07:32:22.056000Z</time>
      </trkpt>
      <trkpt lat="35.97775212584579" lon="120.14062974172151">
        <time>2021-01-22T07:32:25.056000Z</time>
      </trkpt>
      <trkpt lat="35.97771382163163" lon="120.14046504622004">
        <time>2021-01-22T07:32:31.056000Z</time>
      </trkpt>
      <trkpt lat="35.97768944610197" lon="120.1403841040057">
        <time>2021-01-22T07:32:34.056000Z</time>
      </trkpt>
      <trkpt lat="35.97764582887756" lon="120.1402272563573">
        <time>2021-01-22T07:32:40.056000Z</time>
      </trkpt>
      <trkpt lat="35.977652355495145" lon="120.14013493575703">
        <time>2021-01-22T07:32:43.056000Z</time>
      </trkpt>
      <trkpt lat="35.97756314323676" lon="120.13971291551753">
        <time>2021-01-22T07:32:58.056000Z</time>
      </trkpt>
      <trkpt lat="35.97752532046188" lon="120.13954408559466">
        <time>2021-01-22T07:33:04.056000Z</time>
      </trkpt>
      <trkpt lat="35.97746252827812" lon="120.13932473167236">
        <time>2021-01-22T07:33:13.056000Z</time>
      </trkpt>
      <trkpt lat="35.977416338017136" lon="120.13917374321016">
        <time>2021-01-22T07:33:19.056000Z</time>
      </trkpt>
      <trkpt lat="35.977408339823725" lon="120.13908796130475">
        <time>2021-01-22T07:33:22.056000Z</time>
      </trkpt>
      <trkpt lat="35.97739347234169" lon="120.13900782413931">
        <time>2021-01-22T07:33:25.056000Z</time>
      </trkpt>
      <trkpt lat="35.97735517157947" lon="120.13885000212467">
        <time>2021-01-22T07:33:31.056000Z</time>
      </trkpt>
      <trkpt lat="35.97732292885875" lon="120.13877032154416">
        <time>2021-01-22T07:33:34.056000Z</time>
      </trkpt>
      <trkpt lat="35.97728714733098" lon="120.1386965753691">
        <time>2021-01-22T07:33:37.056000Z</time>
      </trkpt>
      <trkpt lat="35.97720154666159" lon="120.13855965440438">
        <time>2021-01-22T07:33:43.056000Z</time>
      </trkpt>
      <trkpt lat="35.97711532264558" lon="120.13841710694426">
        <time>2021-01-22T07:33:49.056000Z</time>
      </trkpt>
      <trkpt lat="35.97707785144335" lon="120.13834990319494">
        <time>2021-01-22T07:33:52.056000Z</time>
      </trkpt>
      <trkpt lat="35.97704493955399" lon="120.13827626592895">
        <time>2021-01-22T07:33:55.056000Z</time>
      </trkpt>
      <trkpt lat="35.97694833337493" lon="120.1381171677435">
        <time>2021-01-22T07:34:01.056000Z</time>
      </trkpt>
      <trkpt lat="35.976910650860304" lon="120.13803503079727">
        <time>2021-01-22T07:34:04.056000Z</time>
      </trkpt>
      <trkpt lat="35.97687038501787" lon="120.13796258903922">
        <time>2021-01-22T07:34:07.056000Z</time>
      </trkpt>
      <trkpt lat="35.97677227210908" lon="120.13783061101596">
        <time>2021-01-22T07:34:13.056000Z</time>
      </trkpt>
      <trkpt lat="35.97671827836876" lon="120.13775367871175">
        <time>2021-01-22T07:34:16.056000Z</time>
      </trkpt>
      <trkpt lat="35.97663952622634" lon="120.13759281364588">
        <time>2021-01-22T07:34:22.056000Z</time>
      </trkpt>
      <trkpt lat="35.9765577759931" lon="120.13746063589426">
        <time>2021-01-22T07:34:28.056000Z</time>
      </trkpt>
      <trkpt lat="35.97651471868929" lon="120.13738786322715">
        <time>2021-01-22T07:34:31.056000Z</time>
      </trkpt>
      <trkpt lat="35.97646554566085" lon="120.13731833174602">
        <time>2021-01-22T07:34:34.056000Z</time>
      </trkpt>
      <trkpt lat="35.97636555203933" lon="120.13719246534956">
        <time>2021-01-22T07:34:40.056000Z</time>
      </trkpt>
      <trkpt lat="35.9763173814582" lon="120.13715243029365">
        <time>2021-01-22T07:34:43.056000Z</time>
      </trkpt>
      <trkpt lat="35.976263293893616" lon="120.13710887336998">
        <time>2021-01-22T07:34:46.056000Z</time>
      </trkpt>
      <trkpt lat="35.976208259052235" lon="120.13706294217515">
        <time>2021-01-22T07:34:49.056000Z</time>
      </trkpt>
      <trkpt lat="35.97610721019332" lon="120.13695611741522">
        <time>2021-01-22T07:34:55.056000Z</time>
      </trkpt>
      <trkpt lat="35.976060652461264" lon="120.13689009641814">
        <time>2021-01-22T07:34:58.056000Z</time>
      </trkpt>
      <trkpt lat="35.9760183700054" lon="120.13683647503119">
        <time>2021-01-22T07:35:01.056000Z</time>
      </trkpt>
      <trkpt lat="35.97596876380902" lon="120.13677642872352">
        <time>2021-01-22T07:35:04.056000Z</time>
      </trkpt>
      <trkpt lat="35.97586595190907" lon="120.13667893968955">
        <time>2021-01-22T07:35:10.056000Z</time>
      </trkpt>
      <trkpt lat="35.97581376067109" lon="120.13662220464776">
        <time>2021-01-22T07:35:13.056000Z</time>
      </trkpt>
      <trkpt lat="35.975757843956806" lon="120.13656106997031">
        <time>2021-01-22T07:35:16.056000Z</time>
      </trkpt>
      <trkpt lat="35.97564758552464" lon="120.13645086073367">
        <time>2021-01-22T07:35:22.056000Z</time>
      </trkpt>
      <trkpt lat="35.97558480487293" lon="120.13639133110436">
        <time>2021-01-22T07:35:25.056000Z</time>
      </trkpt>
      <trkpt lat="35.97552752871481" lon="120.13633718864352">
        <time>2021-01-22T07:35:28.056000Z</time>
      </trkpt>
      <trkpt lat="35.97541293219397" lon="120.13622400538699">
        <time>2021-01-22T07:35:34.056000Z</time>
      </trkpt>
      <trkpt lat="35.97530947616462" lon="120.13607987828645">
        <time>2021-01-22T07:35:40.056000Z</time>
      </trkpt>
      <trkpt lat="35.975247016622895" lon="120.13600275081758">
        <time>2021-01-22T07:35:43.056000Z</time>
      </trkpt>
      <trkpt lat="35.97517557239506" lon="120.13592755758928">
        <time>2021-01-22T07:35:46.056000Z</time>
      </trkpt>
      <trkpt lat="35.975045230019866" lon="120.13578235904754">
        <time>2021-01-22T07:35:52.056000Z</time>
      </trkpt>
      <trkpt lat="35.97498502327927" lon="120.13571913716292">
        <time>2021-01-22T07:35:55.056000Z</time>
      </trkpt>
      <trkpt lat="35.97492097314098" lon="120.1356578500809">
        <time>2021-01-22T07:35:58.056000Z</time>
      </trkpt>
      <trkpt lat="35.97451863690982" lon="120.13574860263911">
        <time>2021-01-22T07:36:16.056000Z</time>
      </trkpt>
      <trkpt lat="35.974441911160724" lon="120.1359176342442">
        <time>2021-01-22T07:36:22.056000Z</time>
      </trkpt>
      <trkpt lat="35.97437003459069" lon="120.13608755307698">
        <time>2021-01-22T07:36:28.056000Z</time>
      </trkpt>
      <trkpt lat="35.97434460554446" lon="120.13618697767856">
        <time>2021-01-22T07:36:31.056000Z</time>
      </trkpt>
      <trkpt lat="35.974265945906446" lon="120.13649337912345">
        <time>2021-01-22T07:36:40.056000Z</time>
      </trkpt>
      <trkpt lat="35.974258206294756" lon="120.13659562693198">
        <time>2021-01-22T07:36:43.056000Z</time>
      </trkpt>
      <trkpt lat="35.97425079243978" lon="120.13669309617009">
        <time>2021-01-22T07:36:46.056000Z</time>
      </trkpt>
      <trkpt lat="35.974217534074285" lon="120.13697955553295">
        <time>2021-01-22T07:36:55.056000Z</time>
      </trkpt>
      <trkpt lat="35.97417374973994" lon="120.13729042030195">
        <time>2021-01-22T07:37:04.056000Z</time>
      </trkpt>
      <trkpt lat="35.9741576199547" lon="120.13750683987573">
        <time>2021-01-22T07:37:10.056000Z</time>
      </trkpt>
      <trkpt lat="35.97415320222127" lon="120.13780828601104">
        <time>2021-01-22T07:37:19.056000Z</time>
      </trkpt>
      <trkpt lat="35.97414382725222" lon="120.1379112969371">
        <time>2021-01-22T07:37:22.056000Z</time>
      </trkpt>
      <trkpt lat="35.974133901370315" lon="120.13799920537289">
        <time>2021-01-22T07:37:25.056000Z</time>
      </trkpt>
      <trkpt lat="35.974116932146806" lon="120.13818847781285">
        <time>2021-01-22T07:37:31.056000Z</time>
      </trkpt>
      <trkpt lat="35.9741040623049" lon="120.13829372140925">
        <time>2021-01-22T07:37:34.056000Z</time>
      </trkpt>
      <trkpt lat="35.97409113419757" lon="120.13839737861925">
        <time>2021-01-22T07:37:37.056000Z</time>
      </trkpt>
      <trkpt lat="35.97405834892716" lon="120.13859437740273">
        <time>2021-01-22T07:37:43.056000Z</time>
      </trkpt>
      <trkpt lat="35.97404267177812" lon="120.13868850743367">
        <time>2021-01-22T07:37:46.056000Z</time>
      </trkpt>
      <trkpt lat="35.97399445995424" lon="120.1388940411067">
        <time>2021-01-22T07:37:52.056000Z</time>
      </trkpt>
      <trkpt lat="35.97376341411465" lon="120.13904633221988">
        <time>2021-01-22T07:38:01.056000Z</time>
      </trkpt>
      <trkpt lat="35.973650334642805" lon="120.13905592737112">
        <time>2021-01-22T07:38:04.056000Z</time>
      </trkpt>
      <trkpt lat="35.973447927775915" lon="120.13911553679267">
        <time>2021-01-22T07:38:10.056000Z</time>
      </trkpt>
      <trkpt lat="35.97336146269631" lon="120.1391718052816">
        <time>2021-01-22T07:38:13.056000Z</time>
      </trkpt>
      <trkpt lat="35.97317144052043" lon="120.13925251170939">
        <time>2021-01-22T07:38:19.056000Z</time>
      </trkpt>
      <trkpt lat="35.97308547296558" lon="120.13929552387393">
        <time>2021-01-22T07:38:22.056000Z</time>
      </trkpt>
      <trkpt lat="35.972916254674395" lon="120.13937679044062">
        <time>2021-01-22T07:38:28.056000Z</time>
      </trkpt>
      <trkpt lat="35.972779375078126" lon="120.13947212371272">
        <time>2021-01-22T07:38:34.056000Z</time>
      </trkpt>
      <trkpt lat="35.97262626005" lon="120.13956844265415">
        <time>2021-01-22T07:38:40.056000Z</time>
      </trkpt>
      <trkpt lat="35.97254831695475" lon="120.13962418241638">
        <time>2021-01-22T07:38:43.056000Z</time>
      </trkpt>
      <trkpt lat="35.97238197395468" lon="120.13970142867474">
        <time>2021-01-22T07:38:49.056000Z</time>
      </trkpt>
      <trkpt lat="35.972217770062976" lon="120.13982421771415">
        <time>2021-01-22T07:38:55.056000Z</time>
      </trkpt>
      <trkpt lat="35.972132314949555" lon="120.1398946783741">
        <time>2021-01-22T07:38:58.056000Z</time>
      </trkpt>
      <trkpt lat="35.97195571406421" lon="120.14002736991465">
        <time>2021-01-22T07:39:04.056000Z</time>
      </trkpt>
      <trkpt lat="35.97187555980486" lon="120.14010522148413">
        <time>2021-01-22T07:39:07.056000Z</time>
      </trkpt>
      <trkpt lat="35.97175586868286" lon="120.14026220443445">
        <time>2021-01-22T07:39:13.056000Z</time>
      </trkpt>
      <trkpt lat="35.971711364343996" lon="120.14036067522179">
        <time>2021-01-22T07:39:16.056000Z</time>
      </trkpt>
      <trkpt lat="35.97165371165853" lon="120.14044810313992">
        <time>2021-01-22T07:39:19.056000Z</time>
      </trkpt>
      <trkpt lat="35.97154632040899" lon="120.14062085441608">
        <time>2021-01-22T07:39:25.056000Z</time>
      </trkpt>
      <trkpt lat="35.97143314101069" lon="120.14079794286556">
        <time>2021-01-22T07:39:31.056000Z</time>
      </trkpt>
      <trkpt lat="35.971322396059804" lon="120.14099338255123">
        <time>2021-01-22T07:39:37.056000Z</time>
      </trkpt>
      <trkpt lat="35.971134635424896" lon="120.1414243260268">
        <time>2021-01-22T07:39:49.056000Z</time>
      </trkpt>
      <trkpt lat="35.971111320316446" lon="120.14155345433153">
        <time>2021-01-22T07:39:52.056000Z</time>
      </trkpt>
      <trkpt lat="35.97104059359559" lon="120.14183274158113">
        <time>2021-01-22T07:39:58.056000Z</time>
      </trkpt>
      <trkpt lat="35.970927977267195" lon="120.14227349423642">
        <time>2021-01-22T07:40:07.056000Z</time>
      </trkpt>
      <trkpt lat="35.97062831440271" lon="120.1426980268188">
        <time>2021-01-22T07:40:19.056000Z</time>
      </trkpt>
      <trkpt lat="35.970438412303444" lon="120.1428292589534">
        <time>2021-01-22T07:40:25.056000Z</time>
      </trkpt>
      <trkpt lat="35.970348684656216" lon="120.14286171396564">
        <time>2021-01-22T07:40:28.056000Z</time>
      </trkpt>
      <trkpt lat="35.970181370159786" lon="120.14295601635884">
        <time>2021-01-22T07:40:34.056000Z</time>
      </trkpt>
      <trkpt lat="35.970115136906486" lon="120.14302417778543">
        <time>2021-01-22T07:40:37.056000Z</time>
      </trkpt>
      <trkpt lat="35.97005340364483" lon="120.1430930076889">
        <time>2021-01-22T07:40:40.056000Z</time>
      </trkpt>
      <trkpt lat="35.96992396271649" lon="120.14325336555831">
        <time>2021-01-22T07:40:46.056000Z</time>
      </trkpt>
      <trkpt lat="35.96985460135699" lon="120.14333322462808">
        <time>2021-01-22T07:40:49.056000Z</time>
      </trkpt>
      <trkpt lat="35.969723922544205" lon="120.1434981488963">
        <time>2021-01-22T07:40:55.056000Z</time>
      </trkpt>
      <trkpt lat="35.96959290471178" lon="120.14366185558268">
        <time>2021-01-22T07:41:01.056000Z</time>
      </trkpt>
      <trkpt lat="35.969408153455035" lon="120.14378416837971">
        <time>2021-01-22T07:41:07.056000Z</time>
      </trkpt>
      <trkpt lat="35.96931477216743" lon="120.14382484986605">
        <time>2021-01-22T07:41:10.056000Z</time>
      </trkpt>
      <trkpt lat="35.96913612104707" lon="120.14388580863054">
        <time>2021-01-22T07:41:16.056000Z</time>
      </trkpt>
      <trkpt lat="35.96903769894129" lon="120.14389863489686">
        <time>2021-01-22T07:41:19.056000Z</time>
      </trkpt>
      <trkpt lat="35.96883928079915" lon="120.1439542162672">
        <time>2021-01-22T07:41:25.056000Z</time>
      </trkpt>
      <trkpt lat="35.96857838896065" lon="120.14408438967958">
        <time>2021-01-22T07:41:34.056000Z</time>
      </trkpt>
      <trkpt lat="35.96850326400353" lon="120.14415774384362">
        <time>2021-01-22T07:41:37.056000Z</time>
      </trkpt>
      <trkpt lat="35.96835338693529" lon="120.14430228760163">
        <time>2021-01-22T07:41:43.056000Z</time>
      </trkpt>
      <trkpt lat="35.96828415980993" lon="120.14438462738671">
        <time>2021-01-22T07:41:46.056000Z</time>
      </trkpt>
      <trkpt lat="35.96813030761563" lon="120.14452464213385">
        <time>2021-01-22T07:41:52.056000Z</time>
      </trkpt>
      <trkpt lat="35.96783396138383" lon="120.14465074117858">
        <time>2021-01-22T07:42:01.056000Z</time>
      </trkpt>
      <trkpt lat="35.96774293605196" lon="120.14463959323112">
        <time>2021-01-22T07:42:04.056000Z</time>
      </trkpt>
      <trkpt lat="35.967558736298386" lon="120.14465028715138">
        <time>2021-01-22T07:42:10.056000Z</time>
      </trkpt>
      <trkpt lat="35.967103984862064" lon="120.14455017833995">
        <time>2021-01-22T07:42:25.056000Z</time>
      </trkpt>
      <trkpt lat="35.96700542778504" lon="120.1445457613277">
        <time>2021-01-22T07:42:28.056000Z</time>
      </trkpt>
      <trkpt lat="35.96681575703478" lon="120.14458343125324">
        <time>2021-01-22T07:42:34.056000Z</time>
      </trkpt>
      <trkpt lat="35.96673151605723" lon="120.14461797932843">
        <time>2021-01-22T07:42:37.056000Z</time>
      </trkpt>
      <trkpt lat="35.96655715669947" lon="120.14471143833909">
        <time>2021-01-22T07:42:43.056000Z</time>
      </trkpt>
      <trkpt lat="35.96641812353899" lon="120.14484690552214">
        <time>2021-01-22T07:42:49.056000Z</time>
      </trkpt>
      <trkpt lat="35.9663640759041" lon="120.144938021355">
        <time>2021-01-22T07:42:52.056000Z</time>
      </trkpt>
      <trkpt lat="35.96595814244016" lon="120.14543365424058">
        <time>2021-01-22T07:43:10.056000Z</time>
      </trkpt>
      <trkpt lat="35.96577752975988" lon="120.1456207026008">
        <time>2021-01-22T07:43:16.056000Z</time>
      </trkpt>
      <trkpt lat="35.96566856975221" lon="120.14570346438174">
        <time>2021-01-22T07:43:19.056000Z</time>
      </trkpt>
      <trkpt lat="35.965252510104044" lon="120.14588337939612">
        <time>2021-01-22T07:43:31.056000Z</time>
      </trkpt>
      <trkpt lat="35.96514539924724" lon="120.14587350685284">
        <time>2021-01-22T07:43:34.056000Z</time>
      </trkpt>
      <trkpt lat="35.964888195031556" lon="120.14586186542171">
        <time>2021-01-22T07:43:43.056000Z</time>
      </trkpt>
      <trkpt lat="35.96480450130883" lon="120.14587760424723">
        <time>2021-01-22T07:43:46.056000Z</time>
      </trkpt>
      <trkpt lat="35.964726232534964" lon="120.14589091028814">
        <time>2021-01-22T07:43:49.056000Z</time>
      </trkpt>
      <trkpt lat="35.96456574226552" lon="120.1459186887672">
        <time>2021-01-22T07:43:55.056000Z</time>
      </trkpt>
      <trkpt lat="35.96448339529378" lon="120.14594343278713">
        <time>2021-01-22T07:43:58.056000Z</time>
      </trkpt>
      <trkpt lat="35.964403867113816" lon="120.14597606522541">
        <time>2021-01-22T07:44:01.056000Z</time>
      </trkpt>
      <trkpt lat="35.96428368677296" lon="120.1460434776327">
        <time>2021-01-22T07:44:07.056000Z</time>
      </trkpt>
      <trkpt lat="35.96414287925458" lon="120.14609238926757">
        <time>2021-01-22T07:44:13.056000Z</time>
      </trkpt>
      <trkpt lat="35.96400013977448" lon="120.14614887965367">
        <time>2021-01-22T07:44:19.056000Z</time>
      </trkpt>
      <trkpt lat="35.9639372422537" lon="120.14618360761742">
        <time>2021-01-22T07:44:22.056000Z</time>
      </trkpt>
      <trkpt lat="35.96387664374736" lon="120.14622595462592">
        <time>2021-01-22T07:44:25.056000Z</time>
      </trkpt>
      <trkpt lat="35.963726575770394" lon="120.14628677211657">
        <time>2021-01-22T07:44:31.056000Z</time>
      </trkpt>
      <trkpt lat="35.963656031382875" lon="120.14633796353033">
        <time>2021-01-22T07:44:34.056000Z</time>
      </trkpt>
      <trkpt lat="35.96358712701642" lon="120.14637615114654">
        <time>2021-01-22T07:44:37.056000Z</time>
      </trkpt>
      <trkpt lat="35.963419936086396" lon="120.14646243600892">
        <time>2021-01-22T07:44:43.056000Z</time>
      </trkpt>
      <trkpt lat="35.96333881329453" lon="120.14650416252682">
        <time>2021-01-22T07:44:46.056000Z</time>
      </trkpt>
      <trkpt lat="35.963254971667716" lon="120.14654466216045">
        <time>2021-01-22T07:44:49.056000Z</time>
      </trkpt>
      <trkpt lat="35.9631258106625" lon="120.14665650890146">
        <time>2021-01-22T07:44:55.056000Z</time>
      </trkpt>
      <trkpt lat="35.96306859844029" lon="120.14672122331127">
        <time>2021-01-22T07:44:58.056000Z</time>
      </trkpt>
      <trkpt lat="35.963006415212426" lon="120.14678574767808">
        <time>2021-01-22T07:45:01.056000Z</time>
      </trkpt>
      <trkpt lat="35.962876252386465" lon="120.14693096038135">
        <time>2021-01-22T07:45:07.056000Z</time>
      </trkpt>
      <trkpt lat="35.9627708626361" lon="120.1471103990071">
        <time>2021-01-22T07:45:13.056000Z</time>
      </trkpt>
      <trkpt lat="35.96272953976588" lon="120.14719715233635">
        <time>2021-01-22T07:45:16.056000Z</time>
      </trkpt>
      <trkpt lat="35.962611117816756" lon="120.14734923519259">
        <time>2021-01-22T07:45:22.056000Z</time>
      </trkpt>
      <trkpt lat="35.962563046026524" lon="120.14742091963465">
        <time>2021-01-22T07:45:25.056000Z</time>
      </trkpt>
      <trkpt lat="35.96250801774167" lon="120.14748916296392">
        <time>2021-01-22T07:45:28.056000Z</time>
      </trkpt>
      <trkpt lat="35.96238958941846" lon="120.14763175131134">
        <time>2021-01-22T07:45:34.056000Z</time>
      </trkpt>
      <trkpt lat="35.96233354122291" lon="120.14770603714724">
        <time>2021-01-22T07:45:37.056000Z</time>
      </trkpt>
      <trkpt lat="35.96220724588867" lon="120.14782562874646">
        <time>2021-01-22T07:45:43.056000Z</time>
      </trkpt>
      <trkpt lat="35.962135995915446" lon="120.14788557323895">
        <time>2021-01-22T07:45:46.056000Z</time>
      </trkpt>
      <trkpt lat="35.96199381144095" lon="120.14823989943899">
        <time>2021-01-22T07:45:58.056000Z</time>
      </trkpt>
      <trkpt lat="35.96199859006236" lon="120.14835063642163">
        <time>2021-01-22T07:46:01.056000Z</time>
      </trkpt>
      <trkpt lat="35.96202915642191" lon="120.14854981460402">
        <time>2021-01-22T07:46:07.056000Z</time>
      </trkpt>
      <trkpt lat="35.96206093402962" lon="120.1487605789122">
        <time>2021-01-22T07:46:13.056000Z</time>
      </trkpt>
      <trkpt lat="35.96207605189168" lon="120.14886620985">
        <time>2021-01-22T07:46:16.056000Z</time>
      </trkpt>
      <trkpt lat="35.962076903973006" lon="120.14897317538677">
        <time>2021-01-22T07:46:19.056000Z</time>
      </trkpt>
      <trkpt lat="35.96209169219283" lon="120.14920507547824">
        <time>2021-01-22T07:46:25.056000Z</time>
      </trkpt>
      <trkpt lat="35.96209818176894" lon="120.149320316944">
        <time>2021-01-22T07:46:28.056000Z</time>
      </trkpt>
      <trkpt lat="35.96211348135748" lon="120.14952510263686">
        <time>2021-01-22T07:46:34.056000Z</time>
      </trkpt>
      <trkpt lat="35.96212250327515" lon="120.1496261540503">
        <time>2021-01-22T07:46:37.056000Z</time>
      </trkpt>
      <trkpt lat="35.9621206318137" lon="120.14972754323666">
        <time>2021-01-22T07:46:40.056000Z</time>
      </trkpt>
      <trkpt lat="35.962140879756674" lon="120.14995182125183">
        <time>2021-01-22T07:46:46.056000Z</time>
      </trkpt>
      <trkpt lat="35.96215460070732" lon="120.1501663155704">
        <time>2021-01-22T07:46:52.056000Z</time>
      </trkpt>
      <trkpt lat="35.96220010983468" lon="120.15036116829909">
        <time>2021-01-22T07:46:58.056000Z</time>
      </trkpt>
      <trkpt lat="35.96222866408458" lon="120.1505684725627">
        <time>2021-01-22T07:47:04.056000Z</time>
      </trkpt>
      <trkpt lat="35.96233088819227" lon="120.15086697847852">
        <time>2021-01-22T07:47:13.056000Z</time>
      </trkpt>
      <trkpt lat="35.96256974218564" lon="120.15100545905565">
        <time>2021-01-22T07:47:22.056000Z</time>
      </trkpt>
      <trkpt lat="35.96265411874342" lon="120.15102016414362">
        <time>2021-01-22T07:47:25.056000Z</time>
      </trkpt>
      <trkpt lat="35.96280251312576" lon="120.15108285588663">
        <time>2021-01-22T07:47:31.056000Z</time>
      </trkpt>
      <trkpt lat="35.96296301996373" lon="120.15111487766681">
        <time>2021-01-22T07:47:37.056000Z</time>
      </trkpt>
      <trkpt lat="35.96303722392016" lon="120.15112346952746">
        <time>2021-01-22T07:47:40.056000Z</time>
      </trkpt>
      <trkpt lat="35.9631223642299" lon="120.15112975907086">
        <time>2021-01-22T07:47:43.056000Z</time>
      </trkpt>
      <trkpt lat="35.963303192029464" lon="120.15116417572241">
        <time>2021-01-22T07:47:49.056000Z</time>
      </trkpt>
      <trkpt lat="35.963485645824626" lon="120.15118275847708">
        <time>2021-01-22T07:47:55.056000Z</time>
      </trkpt>
      <trkpt lat="35.963573732380155" lon="120.15119179031728">
        <time>2021-01-22T07:47:58.056000Z</time>
      </trkpt>
      <trkpt lat="35.963653956431976" lon="120.15120737241062">
        <time>2021-01-22T07:48:01.056000Z</time>
      </trkpt>
      <trkpt lat="35.96381574819612" lon="120.15124263479615">
        <time>2021-01-22T07:48:07.056000Z</time>
      </trkpt>
      <trkpt lat="35.96389386265812" lon="120.15125146629182">
        <time>2021-01-22T07:48:10.056000Z</time>
      </trkpt>
      <trkpt lat="35.963976123109035" lon="120.15127572333927">
        <time>2021-01-22T07:48:13.056000Z</time>
      </trkpt>
      <trkpt lat="35.96414829954623" lon="120.15130960064393">
        <time>2021-01-22T07:48:19.056000Z</time>
      </trkpt>
      <trkpt lat="35.96430194629463" lon="120.15132202858801">
        <time>2021-01-22T07:48:25.056000Z</time>
      </trkpt>
      <trkpt lat="35.964449519751376" lon="120.15134790686209">
        <time>2021-01-22T07:48:31.056000Z</time>
      </trkpt>
      <trkpt lat="35.964599240576554" lon="120.15138187179566">
        <time>2021-01-22T07:48:37.056000Z</time>
      </trkpt>
      <trkpt lat="35.96465026348321" lon="120.1513691434901">
        <time>2021-01-22T07:48:43.056000Z</time>
      </trkpt>
      <trkpt lat="35.96462308633141" lon="120.15137569195471">
        <time>2021-01-22T07:48:49.056000Z</time>
      </trkpt>
      <trkpt lat="35.964664947083634" lon="120.15138141913073">
        <time>2021-01-22T07:48:52.056000Z</time>
      </trkpt>
      <trkpt lat="35.96470204083168" lon="120.15139075537097">
        <time>2021-01-22T07:48:55.056000Z</time>
      </trkpt>
      <trkpt lat="35.96474739564744" lon="120.1514068128123">
        <time>2021-01-22T07:48:58.056000Z</time>
      </trkpt>
      <trkpt lat="35.96490211081011" lon="120.15146343222163">
        <time>2021-01-22T07:49:04.056000Z</time>
      </trkpt>
      <trkpt lat="35.9650482310539" lon="120.15151561369">
        <time>2021-01-22T07:49:10.056000Z</time>
      </trkpt>
      <trkpt lat="35.96511471509225" lon="120.15152293844967">
        <time>2021-01-22T07:49:13.056000Z</time>
      </trkpt>
      <trkpt lat="35.96524377270254" lon="120.15152499428338">
        <time>2021-01-22T07:49:19.056000Z</time>
      </trkpt>
      <trkpt lat="35.96531597412036" lon="120.15152862033666">
        <time>2021-01-22T07:49:22.056000Z</time>
      </trkpt>
      <trkpt lat="35.96546725809342" lon="120.15155462844332">
        <time>2021-01-22T07:49:28.056000Z</time>
      </trkpt>
      <trkpt lat="35.965545349907934" lon="120.151571167417">
        <time>2021-01-22T07:49:31.056000Z</time>
      </trkpt>
      <trkpt lat="35.96562493330519" lon="120.15158694872828">
        <time>2021-01-22T07:49:34.056000Z</time>
      </trkpt>
      <trkpt lat="35.96577713241706" lon="120.15164675836307">
        <time>2021-01-22T07:49:40.056000Z</time>
      </trkpt>
      <trkpt lat="35.965853636060174" lon="120.15167419538096">
        <time>2021-01-22T07:49:43.056000Z</time>
      </trkpt>
      <trkpt lat="35.96592985794542" lon="120.15169038515441">
        <time>2021-01-22T07:49:46.056000Z</time>
      </trkpt>
      <trkpt lat="35.96610978422439" lon="120.15170684363576">
        <time>2021-01-22T07:49:52.056000Z</time>
      </trkpt>
      <trkpt lat="35.96620283361796" lon="120.15170861698583">
        <time>2021-01-22T07:49:55.056000Z</time>
      </trkpt>
      <trkpt lat="35.96636910486219" lon="120.15172000898744">
        <time>2021-01-22T07:50:01.056000Z</time>
      </trkpt>
      <trkpt lat="35.966447992138164" lon="120.1517393996495">
        <time>2021-01-22T07:50:04.056000Z</time>
      </trkpt>
      <trkpt lat="35.96653075627916" lon="120.1517428770848">
        <time>2021-01-22T07:50:07.056000Z</time>
      </trkpt>
      <trkpt lat="35.96666745589526" lon="120.15179383092452">
        <time>2021-01-22T07:50:13.056000Z</time>
      </trkpt>
      <trkpt lat="35.96680283993295" lon="120.1518234668197">
        <time>2021-01-22T07:50:19.056000Z</time>
      </trkpt>
      <trkpt lat="35.9668802238688" lon="120.15182014360785">
        <time>2021-01-22T07:50:22.056000Z</time>
      </trkpt>
      <trkpt lat="35.96695573613453" lon="120.1518175680419">
        <time>2021-01-22T07:50:25.056000Z</time>
      </trkpt>
      <trkpt lat="35.96710822923961" lon="120.15182575809926">
        <time>2021-01-22T07:50:31.056000Z</time>
      </trkpt>
      <trkpt lat="35.96719012346414" lon="120.15183516812765">
        <time>2021-01-22T07:50:34.056000Z</time>
      </trkpt>
      <trkpt lat="35.967273987522326" lon="120.15183271297595">
        <time>2021-01-22T07:50:37.056000Z</time>
      </trkpt>
      <trkpt lat="35.96742321053505" lon="120.15183434188664">
        <time>2021-01-22T07:50:43.056000Z</time>
      </trkpt>
      <trkpt lat="35.96749974866133" lon="120.15184057071065">
        <time>2021-01-22T07:50:46.056000Z</time>
      </trkpt>
      <trkpt lat="35.96763685810777" lon="120.15181196677173">
        <time>2021-01-22T07:50:52.056000Z</time>
      </trkpt>
      <trkpt lat="35.967740753231396" lon="120.1517627399511">
        <time>2021-01-22T07:50:58.056000Z</time>
      </trkpt>
      <trkpt lat="35.96779850884088" lon="120.15175549637563">
        <time>2021-01-22T07:51:04.056000Z</time>
      </trkpt>
      <trkpt lat="35.96783890796376" lon="120.15174968702497">
        <time>2021-01-22T07:51:07.056000Z</time>
      </trkpt>
      <trkpt lat="35.96788098346461" lon="120.15173407642008">
        <time>2021-01-22T07:51:10.056000Z</time>
      </trkpt>
      <trkpt lat="35.96792563782948" lon="120.15173180712965">
        <time>2021-01-22T07:51:13.056000Z</time>
      </trkpt>
      <trkpt lat="35.96797361559352" lon="120.15171566859864">
        <time>2021-01-22T07:51:16.056000Z</time>
      </trkpt>
      <trkpt lat="35.968109829858925" lon="120.15170232997727">
        <time>2021-01-22T07:51:22.056000Z</time>
      </trkpt>
      <trkpt lat="35.9681698948868" lon="120.15167735829917">
        <time>2021-01-22T07:51:25.056000Z</time>
      </trkpt>
      <trkpt lat="35.968230471042894" lon="120.15165790057834">
        <time>2021-01-22T07:51:28.056000Z</time>
      </trkpt>
      <trkpt lat="35.96834849643824" lon="120.15165960641498">
        <time>2021-01-22T07:51:34.056000Z</time>
      </trkpt>
      <trkpt lat="35.96837962367158" lon="120.15165358681514">
        <time>2021-01-22T07:51:37.056000Z</time>
      </trkpt>
      <trkpt lat="35.96843655095437" lon="120.15164517654657">
        <time>2021-01-22T07:51:40.056000Z</time>
      </trkpt>
      <trkpt lat="35.96853821286276" lon="120.15161591115877">
        <time>2021-01-22T07:51:46.056000Z</time>
      </trkpt>
      <trkpt lat="35.968606414310514" lon="120.15159430038224">
        <time>2021-01-22T07:51:49.056000Z</time>
      </trkpt>
      <trkpt lat="35.96873983465473" lon="120.1515583373793">
        <time>2021-01-22T07:51:55.056000Z</time>
      </trkpt>
      <trkpt lat="35.96880958950276" lon="120.15154099428587">
        <time>2021-01-22T07:51:58.056000Z</time>
      </trkpt>
      <trkpt lat="35.968872522100924" lon="120.15152402945891">
        <time>2021-01-22T07:52:01.056000Z</time>
      </trkpt>
      <trkpt lat="35.968924152128835" lon="120.15150083173857">
        <time>2021-01-22T07:52:04.056000Z</time>
      </trkpt>
      <trkpt lat="35.96904621001967" lon="120.15145850613575">
        <time>2021-01-22T07:52:10.056000Z</time>
      </trkpt>
      <trkpt lat="35.96910924701499" lon="120.15143882917833">
        <time>2021-01-22T07:52:13.056000Z</time>
      </trkpt>
      <trkpt lat="35.96917711012375" lon="120.15142840572749">
        <time>2021-01-22T07:52:16.056000Z</time>
      </trkpt>
      <trkpt lat="35.96924142472642" lon="120.15140422198533">
        <time>2021-01-22T07:52:19.056000Z</time>
      </trkpt>
      <trkpt lat="35.969370268647396" lon="120.15134062875637">
        <time>2021-01-22T07:52:25.056000Z</time>
      </trkpt>
      <trkpt lat="35.969436362268496" lon="120.15131728269142">
        <time>2021-01-22T07:52:28.056000Z</time>
      </trkpt>
      <trkpt lat="35.969501740355284" lon="120.15129723695458">
        <time>2021-01-22T07:52:31.056000Z</time>
      </trkpt>
      <trkpt lat="35.969621471127994" lon="120.15125883951961">
        <time>2021-01-22T07:52:37.056000Z</time>
      </trkpt>
      <trkpt lat="35.969732113966934" lon="120.15121780886649">
        <time>2021-01-22T07:52:43.056000Z</time>
      </trkpt>
      <trkpt lat="35.96979098586605" lon="120.15117589599262">
        <time>2021-01-22T07:52:46.056000Z</time>
      </trkpt>
      <trkpt lat="35.969847587033705" lon="120.15114643671492">
        <time>2021-01-22T07:52:49.056000Z</time>
      </trkpt>
      <trkpt lat="35.969902605388526" lon="120.15109992675775">
        <time>2021-01-22T07:52:52.056000Z</time>
      </trkpt>
      <trkpt lat="35.9700123831529" lon="120.15103088711709">
        <time>2021-01-22T07:52:58.056000Z</time>
      </trkpt>
      <trkpt lat="35.97007175395771" lon="120.15099581426786">
        <time>2021-01-22T07:53:01.056000Z</time>
      </trkpt>
      <trkpt lat="35.970128062124" lon="120.15096190772753">
        <time>2021-01-22T07:53:04.056000Z</time>
      </trkpt>
      <trkpt lat="35.970189483960745" lon="120.15092646607656">
        <time>2021-01-22T07:53:07.056000Z</time>
      </trkpt>
      <trkpt lat="35.97031733244421" lon="120.15088428999033">
        <time>2021-01-22T07:53:13.056000Z</time>
      </trkpt>
      <trkpt lat="35.97037172095421" lon="120.15086223884698">
        <time>2021-01-22T07:53:16.056000Z</time>
      </trkpt>
      <trkpt lat="35.97042912342972" lon="120.15082575974623">
        <time>2021-01-22T07:53:19.056000Z</time>
      </trkpt>
      <trkpt lat="35.97048248725315" lon="120.15079403647674">
        <time>2021-01-22T07:53:22.056000Z</time>
      </trkpt>
      <trkpt lat="35.97060117813007" lon="120.15072409973699">
        <time>2021-01-22T07:53:28.056000Z</time>
      </trkpt>
      <trkpt lat="35.97066597883924" lon="120.1506897450474">
        <time>2021-01-22T07:53:31.056000Z</time>
      </trkpt>
      <trkpt lat="35.9707295725638" lon="120.15065953822547">
        <time>2021-01-22T07:53:34.056000Z</time>
      </trkpt>
      <trkpt lat="35.970858376346385" lon="120.15058916344863">
        <time>2021-01-22T07:53:40.056000Z</time>
      </trkpt>
      <trkpt lat="35.970926802914775" lon="120.15055786016286">
        <time>2021-01-22T07:53:43.056000Z</time>
      </trkpt>
      <trkpt lat="35.97105619684528" lon="120.15046868952761">
        <time>2021-01-22T07:53:49.056000Z</time>
      </trkpt>
      <trkpt lat="35.97112260475478" lon="120.15041749336923">
        <time>2021-01-22T07:53:52.056000Z</time>
      </trkpt>
      <trkpt lat="35.971342087751395" lon="120.15032337494608">
        <time>2021-01-22T07:54:01.056000Z</time>
      </trkpt>
      <trkpt lat="35.971464797426385" lon="120.15023558919268">
        <time>2021-01-22T07:54:07.056000Z</time>
      </trkpt>
      <trkpt lat="35.97159427814791" lon="120.15012301522013">
        <time>2021-01-22T07:54:13.056000Z</time>
      </trkpt>
      <trkpt lat="35.971671050308316" lon="120.15008298744125">
        <time>2021-01-22T07:54:16.056000Z</time>
      </trkpt>
      <trkpt lat="35.971732041495315" lon="120.15004746521733">
        <time>2021-01-22T07:54:19.056000Z</time>
      </trkpt>
      <trkpt lat="35.97184360188306" lon="120.14996351680975">
        <time>2021-01-22T07:54:25.056000Z</time>
      </trkpt>
      <trkpt lat="35.97189587809879" lon="120.14991720468163">
        <time>2021-01-22T07:54:28.056000Z</time>
      </trkpt>
      <trkpt lat="35.9719473435522" lon="120.14987122148065">
        <time>2021-01-22T07:54:31.056000Z</time>
      </trkpt>
      <trkpt lat="35.97208187861927" lon="120.14980641985669">
        <time>2021-01-22T07:54:37.056000Z</time>
      </trkpt>
      <trkpt lat="35.972148568381165" lon="120.14979766110713">
        <time>2021-01-22T07:54:40.056000Z</time>
      </trkpt>
      <trkpt lat="35.97226622765523" lon="120.14972762283665">
        <time>2021-01-22T07:54:46.056000Z</time>
      </trkpt>
      <trkpt lat="35.972341502204536" lon="120.14969194205932">
        <time>2021-01-22T07:54:49.056000Z</time>
      </trkpt>
      <trkpt lat="35.97247927359101" lon="120.14957304541927">
        <time>2021-01-22T07:54:55.056000Z</time>
      </trkpt>
      <trkpt lat="35.97255357805104" lon="120.14951826908612">
        <time>2021-01-22T07:54:58.056000Z</time>
      </trkpt>
      <trkpt lat="35.972711271788434" lon="120.1494385018231">
        <time>2021-01-22T07:55:04.056000Z</time>
      </trkpt>
      <trkpt lat="35.97278011547917" lon="120.1494085737415">
        <time>2021-01-22T07:55:07.056000Z</time>
      </trkpt>
      <trkpt lat="35.97284978347487" lon="120.14936971125779">
        <time>2021-01-22T07:55:10.056000Z</time>
      </trkpt>
      <trkpt lat="35.97298652082792" lon="120.14929066969778">
        <time>2021-01-22T07:55:16.056000Z</time>
      </trkpt>
      <trkpt lat="35.97304627462416" lon="120.1492529130296">
        <time>2021-01-22T07:55:19.056000Z</time>
      </trkpt>
      <trkpt lat="35.97311008414675" lon="120.1492247891926">
        <time>2021-01-22T07:55:22.056000Z</time>
      </trkpt>
      <trkpt lat="35.97324387507242" lon="120.14915555907193">
        <time>2021-01-22T07:55:28.056000Z</time>
      </trkpt>
      <trkpt lat="35.973290127038" lon="120.14912320562118">
        <time>2021-01-22T07:55:31.056000Z</time>
      </trkpt>
      <trkpt lat="35.97335547500273" lon="120.14909624850381">
        <time>2021-01-22T07:55:34.056000Z</time>
      </trkpt>
      <trkpt lat="35.97350262613297" lon="120.14900970871129">
        <time>2021-01-22T07:55:40.056000Z</time>
      </trkpt>
      <trkpt lat="35.97365164855415" lon="120.1489352445086">
        <time>2021-01-22T07:55:46.056000Z</time>
      </trkpt>
      <trkpt lat="35.97372658851164" lon="120.14890202596628">
        <time>2021-01-22T07:55:49.056000Z</time>
      </trkpt>
      <trkpt lat="35.973807910352356" lon="120.14887492058106">
        <time>2021-01-22T07:55:52.056000Z</time>
      </trkpt>
      <trkpt lat="35.97395750012163" lon="120.14879570967068">
        <time>2021-01-22T07:55:58.056000Z</time>
      </trkpt>
      <trkpt lat="35.974048407985634" lon="120.14875979015144">
        <time>2021-01-22T07:56:01.056000Z</time>
      </trkpt>
      <trkpt lat="35.97422412290766" lon="120.1486555624679">
        <time>2021-01-22T07:56:07.056000Z</time>
      </trkpt>
      <trkpt lat="35.97439316020587" lon="120.14856143522279">
        <time>2021-01-22T07:56:13.056000Z</time>
      </trkpt>
      <trkpt lat="35.974473346528" lon="120.14851835481575">
        <time>2021-01-22T07:56:16.056000Z</time>
      </trkpt>
      <trkpt lat="35.974645816976754" lon="120.14841613049535">
        <time>2021-01-22T07:56:22.056000Z</time>
      </trkpt>
      <trkpt lat="35.97472358796437" lon="120.14836959947742">
        <time>2021-01-22T07:56:25.056000Z</time>
      </trkpt>
      <trkpt lat="35.97488716051991" lon="120.14830296319784">
        <time>2021-01-22T07:56:31.056000Z</time>
      </trkpt>
      <trkpt lat="35.97506476176124" lon="120.14823280804339">
        <time>2021-01-22T07:56:37.056000Z</time>
      </trkpt>
      <trkpt lat="35.975161775298915" lon="120.14818100347765">
        <time>2021-01-22T07:56:40.056000Z</time>
      </trkpt>
      <trkpt lat="35.97532360091122" lon="120.14804111366136">
        <time>2021-01-22T07:56:46.056000Z</time>
      </trkpt>
      <trkpt lat="35.97546589991255" lon="120.1479602948747">
        <time>2021-01-22T07:56:52.056000Z</time>
      </trkpt>
      <trkpt lat="35.975537824439286" lon="120.14792317620355">
        <time>2021-01-22T07:56:55.056000Z</time>
      </trkpt>
      <trkpt lat="35.975670577369684" lon="120.14782529438025">
        <time>2021-01-22T07:57:01.056000Z</time>
      </trkpt>
      <trkpt lat="35.97573713257959" lon="120.14777390528482">
        <time>2021-01-22T07:57:04.056000Z</time>
      </trkpt>
      <trkpt lat="35.97586844981622" lon="120.14770517089181">
        <time>2021-01-22T07:57:10.056000Z</time>
      </trkpt>
      <trkpt lat="35.97600613637315" lon="120.1476507367215">
        <time>2021-01-22T07:57:16.056000Z</time>
      </trkpt>
      <trkpt lat="35.976072090141216" lon="120.14760653710847">
        <time>2021-01-22T07:57:19.056000Z</time>
      </trkpt>
      <trkpt lat="35.97614008095972" lon="120.14755155793212">
        <time>2021-01-22T07:57:22.056000Z</time>
      </trkpt>
      <trkpt lat="35.976272560373395" lon="120.14744886859903">
        <time>2021-01-22T07:57:28.056000Z</time>
      </trkpt>
      <trkpt lat="35.97635520285193" lon="120.14740142936715">
        <time>2021-01-22T07:57:31.056000Z</time>
      </trkpt>
      <trkpt lat="35.9765197749526" lon="120.14731470777825">
        <time>2021-01-22T07:57:37.056000Z</time>
      </trkpt>
      <trkpt lat="35.976604062968114" lon="120.1472703299413">
        <time>2021-01-22T07:57:40.056000Z</time>
      </trkpt>
      <trkpt lat="35.97675211234096" lon="120.14718919088845">
        <time>2021-01-22T07:57:46.056000Z</time>
      </trkpt>
      <trkpt lat="35.976820416272574" lon="120.14714493110169">
        <time>2021-01-22T07:57:49.056000Z</time>
      </trkpt>
      <trkpt lat="35.97698633179049" lon="120.14708197254136">
        <time>2021-01-22T07:57:55.056000Z</time>
      </trkpt>
      <trkpt lat="35.97706334841666" lon="120.14704375651884">
        <time>2021-01-22T07:57:58.056000Z</time>
      </trkpt>
      <trkpt lat="35.9772160736099" lon="120.146946143426">
        <time>2021-01-22T07:58:04.056000Z</time>
      </trkpt>
      <trkpt lat="35.977286688266524" lon="120.14688849095862">
        <time>2021-01-22T07:58:07.056000Z</time>
      </trkpt>
      <trkpt lat="35.97735057007733" lon="120.14682505392611">
        <time>2021-01-22T07:58:10.056000Z</time>
      </trkpt>
      <trkpt lat="35.97749711603902" lon="120.14672564468097">
        <time>2021-01-22T07:58:16.056000Z</time>
      </trkpt>
      <trkpt lat="35.977677793897534" lon="120.14666300585192">
        <time>2021-01-22T07:58:22.056000Z</time>
      </trkpt>
      <trkpt lat="35.97790953755512" lon="120.1465187787027">
        <time>2021-01-22T07:58:31.056000Z</time>
      </trkpt>
      <trkpt lat="35.97805625127444" lon="120.1464269874444">
        <time>2021-01-22T07:58:37.056000Z</time>
      </trkpt>
      <trkpt lat="35.97812594049307" lon="120.14639212074408">
        <time>2021-01-22T07:58:40.056000Z</time>
      </trkpt>
      <trkpt lat="35.978192635588265" lon="120.14635288586854">
        <time>2021-01-22T07:58:43.056000Z</time>
      </trkpt>
      <trkpt lat="35.97833808072137" lon="120.14627956280818">
        <time>2021-01-22T07:58:49.056000Z</time>
      </trkpt>
      <trkpt lat="35.9784047946378" lon="120.14624765747283">
        <time>2021-01-22T07:58:52.056000Z</time>
      </trkpt>
      <trkpt lat="35.97847979320184" lon="120.14622056950604">
        <time>2021-01-22T07:58:55.056000Z</time>
      </trkpt>
      <trkpt lat="35.97863701860035" lon="120.14616862797872">
        <time>2021-01-22T07:59:01.056000Z</time>
      </trkpt>
      <trkpt lat="35.97879878001391" lon="120.14588746122293">
        <time>2021-01-22T07:59:16.056000Z</time>
      </trkpt>
      <trkpt lat="35.978818850095465" lon="120.14571726314925">
        <time>2021-01-22T07:59:22.056000Z</time>
      </trkpt>
      <trkpt lat="35.97879477107313" lon="120.14562600265488">
        <time>2021-01-22T07:59:25.056000Z</time>
      </trkpt>
      <trkpt lat="35.97878880707246" lon="120.14544031353121">
        <time>2021-01-22T07:59:31.056000Z</time>
      </trkpt>
      <trkpt lat="35.97877654776313" lon="120.14534398731159">
        <time>2021-01-22T07:59:34.056000Z</time>
      </trkpt>
      <trkpt lat="35.97876258721521" lon="120.14524134799898">
        <time>2021-01-22T07:59:37.056000Z</time>
      </trkpt>
      <trkpt lat="35.97872250394318" lon="120.14506207607093">
        <time>2021-01-22T07:59:43.056000Z</time>
      </trkpt>
      <trkpt lat="35.978704500504016" lon="120.14498053776867">
        <time>2021-01-22T07:59:46.056000Z</time>
      </trkpt>
      <trkpt lat="35.97869515869756" lon="120.14489239812313">
        <time>2021-01-22T07:59:49.056000Z</time>
      </trkpt>
      <trkpt lat="35.97863490259441" lon="120.14471757036189">
        <time>2021-01-22T07:59:55.056000Z</time>
      </trkpt>
      <trkpt lat="35.978591043688226" lon="120.14453314933638">
        <time>2021-01-22T08:00:01.056000Z</time>
      </trkpt>
      <trkpt lat="35.97852312542253" lon="120.14429603831584">
        <time>2021-01-22T08:00:07.056000Z</time>
      </trkpt>
      <trkpt lat="35.97849416683992" lon="120.14417412673858">
        <time>2021-01-22T08:00:10.056000Z</time>
      </trkpt>
      <trkpt lat="35.978441000317176" lon="120.1437645907581">
        <time>2021-01-22T08:00:19.056000Z</time>
      </trkpt>
      <trkpt lat="35.97839944150091" lon="120.14350126723964">
        <time>2021-01-22T08:00:25.056000Z</time>
      </trkpt>
      <trkpt lat="35.97834765934085" lon="120.14324432351555">
        <time>2021-01-22T08:00:31.056000Z</time>
      </trkpt>
      <trkpt lat="35.97821094714344" lon="120.14261437646738">
        <time>2021-01-22T08:00:46.056000Z</time>
      </trkpt>
      <trkpt lat="35.97806197877178" lon="120.14182241401222">
        <time>2021-01-22T08:01:07.056000Z</time>
      </trkpt>
      <trkpt lat="35.97799485241267" lon="120.14162953654548">
        <time>2021-01-22T08:01:13.056000Z</time>
      </trkpt>
      <trkpt lat="35.977982467212605" lon="120.1415522289636">
        <time>2021-01-22T08:01:16.056000Z</time>
      </trkpt>
      <trkpt lat="35.977971475506834" lon="120.1415084830538">
        <time>2021-01-22T08:01:19.056000Z</time>
      </trkpt>
      <trkpt lat="35.977959190977835" lon="120.14146651229622">
        <time>2021-01-22T08:01:22.056000Z</time>
      </trkpt>
      <trkpt lat="35.97794284098391" lon="120.14140614943081">
        <time>2021-01-22T08:01:25.056000Z</time>
      </trkpt>
      <trkpt lat="35.9778984867081" lon="120.14121407933682">
        <time>2021-01-22T08:01:31.056000Z</time>
      </trkpt>
    </trkseg>
  </trk>
</gpx>