<?xml version="1.0" encoding="UTF-8" standalone="no"?><gpx xmlns="http://www.topografix.com/GPX/1/1" xmlns:gpxtpx="http://www.garmin.com/xmlschemas/TrackPointExtension/v1" xmlns:gpxx="http://www.garmin.com/xmlschemas/GpxExtensions/v3" xmlns:ns1="http://www.cluetrust.com/XML/GPXDATA/1/0" xmlns:xsi="http://www.w3.org/2001/XMLSchema-instance" creator="Amazfit Bip" version="1.3" xsi:schemaLocation="http://www.topografix.com/GPX/1/1 http://www.topografix.com/GPX/1/1/gpx.xsd http://www.garmin.com/xmlschemas/GpxExtensions/v3 http://www.garmin.com/xmlschemas/GpxExtensionsv3.xsd http://www.garmin.com/xmlschemas/TrackPointExtension/v1 http://www.garmin.com/xmlschemas/TrackPointExtensionv1.xsd"><metadata><name>Huami Amazfit Sports Watch</name><time>2022-05-15T11:51:03Z</time></metadata><trk><name>Sport</name><number>676</number><type>run</type><trkseg><trkpt lat="35.94537832" lon="120.212395"><ele>-7.0</ele><time>2022-05-15T12:07:25Z</time><extensions><gpxtpx:TrackPointExtension><gpxtpx:hr>130</gpxtpx:hr></gpxtpx:TrackPointExtension></extensions></trkpt><trkpt lat="35.94540999" lon="120.21241666"><ele>-7.0</ele><time>2022-05-15T12:07:25Z</time></trkpt><trkpt lat="35.94544332" lon="120.21241666"><ele>-7.0</ele><time>2022-05-15T12:07:25Z</time></trkpt><trkpt lat="35.94544665" lon="120.21244999"><ele>-7.0</ele><time>2022-05-15T12:07:25Z</time></trkpt><trkpt lat="35.94546664" lon="120.21245665"><ele>-7.0</ele><time>2022-05-15T12:07:25Z</time></trkpt><trkpt lat="35.94548663" lon="120.21245997"><ele>-7.0</ele><time>2022-05-15T12:07:25Z</time></trkpt><trkpt lat="35.94548995" lon="120.21247164"><ele>-7.0</ele><time>2022-05-15T12:07:25Z</time></trkpt><trkpt lat="35.94550828" lon="120.21246497"><ele>-7.0</ele><time>2022-05-15T12:07:25Z</time></trkpt><trkpt lat="35.94551161" lon="120.21246331"><ele>-7.0</ele><time>2022-05-15T12:07:25Z</time></trkpt><trkpt lat="35.94551994" lon="120.21246497"><ele>-7.0</ele><time>2022-05-15T12:07:25Z</time></trkpt><trkpt lat="35.94552993" lon="120.21245831"><ele>-7.0</ele><time>2022-05-15T12:07:25Z</time></trkpt><trkpt lat="35.94554826" lon="120.21244498"><ele>-7.0</ele><time>2022-05-15T12:07:25Z</time></trkpt><trkpt lat="35.94555992" lon="120.21244166"><ele>-7.0</ele><time>2022-05-15T12:07:25Z</time></trkpt><trkpt lat="35.94557158" lon="120.21243166"><ele>-7.0</ele><time>2022-05-15T12:07:25Z</time></trkpt><trkpt lat="35.94558158" lon="120.21242666"><ele>-7.0</ele><time>2022-05-15T12:07:25Z</time></trkpt><trkpt lat="35.94559323" lon="120.21241666"><ele>-7.0</ele><time>2022-05-15T12:07:25Z</time></trkpt><trkpt lat="35.94560489" lon="120.21241333"><ele>-7.0</ele><time>2022-05-15T12:07:25Z</time></trkpt><trkpt lat="35.94561988" lon="120.212405"><ele>-7.0</ele><time>2022-05-15T12:07:25Z</time></trkpt><trkpt lat="35.94562988" lon="120.21240168"><ele>-7.0</ele><time>2022-05-15T12:07:25Z</time></trkpt><trkpt lat="35.94564487" lon="120.21240001"><ele>-7.0</ele><time>2022-05-15T12:07:25Z</time></trkpt><trkpt lat="35.94565487" lon="120.21239168"><ele>-7.0</ele><time>2022-05-15T12:07:25Z</time></trkpt><trkpt lat="35.94566819" lon="120.21238168"><ele>-7.0</ele><time>2022-05-15T12:07:25Z</time></trkpt><trkpt lat="35.94568319" lon="120.21237335"><ele>-7.0</ele><time>2022-05-15T12:07:25Z</time></trkpt><trkpt lat="35.94570152" lon="120.21235669"><ele>-7.0</ele><time>2022-05-15T12:07:25Z</time></trkpt><trkpt lat="35.94571985" lon="120.21234335"><ele>-7.0</ele><time>2022-05-15T12:07:25Z</time></trkpt><trkpt lat="35.94573151" lon="120.2123367"><ele>-7.0</ele><time>2022-05-15T12:07:25Z</time></trkpt><trkpt lat="35.94574983" lon="120.21232504"><ele>-7.0</ele><time>2022-05-15T12:07:25Z</time></trkpt><trkpt lat="35.94576316" lon="120.21231504"><ele>-7.0</ele><time>2022-05-15T12:07:25Z</time></trkpt><trkpt lat="35.94577316" lon="120.21230171"><ele>-7.0</ele><time>2022-05-15T12:07:25Z</time></trkpt><trkpt lat="35.94578482" lon="120.21229671"><ele>-7.0</ele><time>2022-05-15T12:07:25Z</time></trkpt><trkpt lat="35.94580481" lon="120.21228838"><ele>-7.0</ele><time>2022-05-15T12:07:25Z</time></trkpt><trkpt lat="35.9458198" lon="120.21229171"><ele>-7.0</ele><time>2022-05-15T12:07:26Z</time></trkpt><trkpt lat="35.94583813" lon="120.21229503"><ele>-7.0</ele><time>2022-05-15T12:07:27Z</time></trkpt><trkpt lat="35.94585147" lon="120.2123027"><ele>-7.0</ele><time>2022-05-15T12:07:28Z</time></trkpt><trkpt lat="35.94586979" lon="120.21230435"><ele>-7.0</ele><time>2022-05-15T12:07:29Z</time></trkpt><trkpt lat="35.94589311" lon="120.21229903"><ele>-7.0</ele><time>2022-05-15T12:07:30Z</time></trkpt><trkpt lat="35.94591645" lon="120.21229437"><ele>-7.0</ele><time>2022-05-15T12:07:31Z</time><extensions><gpxtpx:TrackPointExtension><gpxtpx:hr>130</gpxtpx:hr></gpxtpx:TrackPointExtension></extensions></trkpt><trkpt lat="35.94593977" lon="120.21229037"><ele>-7.0</ele><time>2022-05-15T12:07:32Z</time></trkpt><trkpt lat="35.94596309" lon="120.21228237"><ele>-7.0</ele><time>2022-05-15T12:07:33Z</time></trkpt><trkpt lat="35.94598143" lon="120.21227372"><ele>-7.0</ele><time>2022-05-15T12:07:34Z</time></trkpt><trkpt lat="35.94600309" lon="120.21226139"><ele>-7.0</ele><time>2022-05-15T12:07:35Z</time><extensions><gpxtpx:TrackPointExtension><gpxtpx:hr>131</gpxtpx:hr></gpxtpx:TrackPointExtension></extensions></trkpt><trkpt lat="35.94602808" lon="120.21224773"><ele>-7.0</ele><time>2022-05-15T12:07:36Z</time></trkpt><trkpt lat="35.94605808" lon="120.21223574"><ele>-7.0</ele><time>2022-05-15T12:07:37Z</time></trkpt><trkpt lat="35.94608474" lon="120.21222608"><ele>-7.0</ele><time>2022-05-15T12:07:38Z</time></trkpt><trkpt lat="35.94610641" lon="120.21221909"><ele>-7.0</ele><time>2022-05-15T12:07:39Z</time></trkpt><trkpt lat="35.94612973" lon="120.21221376"><ele>-7.0</ele><time>2022-05-15T12:07:40Z</time></trkpt><trkpt lat="35.94614973" lon="120.21220976"><ele>-7.0</ele><time>2022-05-15T12:07:41Z</time><extensions><gpxtpx:TrackPointExtension><gpxtpx:hr>131</gpxtpx:hr></gpxtpx:TrackPointExtension></extensions></trkpt><trkpt lat="35.94616639" lon="120.2122061"><ele>-7.0</ele><time>2022-05-15T12:07:42Z</time></trkpt><trkpt lat="35.94619305" lon="120.21220078"><ele>-7.0</ele><time>2022-05-15T12:07:43Z</time></trkpt><trkpt lat="35.94622139" lon="120.21219678"><ele>-7.0</ele><time>2022-05-15T12:07:44Z</time><extensions><gpxtpx:TrackPointExtension><gpxtpx:hr>130</gpxtpx:hr></gpxtpx:TrackPointExtension></extensions></trkpt><trkpt lat="35.94624639" lon="120.21219379"><ele>-7.0</ele><time>2022-05-15T12:07:45Z</time></trkpt><trkpt lat="35.94626471" lon="120.21219145"><ele>-7.0</ele><time>2022-05-15T12:07:46Z</time></trkpt><trkpt lat="35.94629804" lon="120.21218346"><ele>-7.0</ele><time>2022-05-15T12:07:47Z</time></trkpt><trkpt lat="35.94632304" lon="120.21217846"><ele>-7.0</ele><time>2022-05-15T12:07:48Z</time></trkpt><trkpt lat="35.94634138" lon="120.21217414"><ele>-7.0</ele><time>2022-05-15T12:07:49Z</time><extensions><gpxtpx:TrackPointExtension><gpxtpx:hr>131</gpxtpx:hr></gpxtpx:TrackPointExtension></extensions></trkpt><trkpt lat="35.9463697" lon="120.21216781"><ele>-7.0</ele><time>2022-05-15T12:07:50Z</time></trkpt><trkpt lat="35.94639136" lon="120.21216247"><ele>-7.0</ele><time>2022-05-15T12:07:51Z</time></trkpt><trkpt lat="35.94641302" lon="120.21215548"><ele>-7.0</ele><time>2022-05-15T12:07:52Z</time><extensions><gpxtpx:TrackPointExtension><gpxtpx:hr>132</gpxtpx:hr></gpxtpx:TrackPointExtension></extensions></trkpt><trkpt lat="35.94643136" lon="120.21215082"><ele>-7.0</ele><time>2022-05-15T12:07:53Z</time></trkpt><trkpt lat="35.94645135" lon="120.21214483"><ele>-7.0</ele><time>2022-05-15T12:07:54Z</time></trkpt><trkpt lat="35.94647467" lon="120.2121385"><ele>-7.0</ele><time>2022-05-15T12:07:55Z</time></trkpt><trkpt lat="35.94649634" lon="120.21213185"><ele>-7.0</ele><time>2022-05-15T12:07:56Z</time></trkpt><trkpt lat="35.946513" lon="120.21212918"><ele>-7.0</ele><time>2022-05-15T12:07:57Z</time></trkpt><trkpt lat="35.94653133" lon="120.21212451"><ele>-7.0</ele><time>2022-05-15T12:07:58Z</time><extensions><gpxtpx:TrackPointExtension><gpxtpx:hr>133</gpxtpx:hr></gpxtpx:TrackPointExtension></extensions></trkpt><trkpt lat="35.94655132" lon="120.21211986"><ele>-7.0</ele><time>2022-05-15T12:07:59Z</time></trkpt><trkpt lat="35.94657465" lon="120.21211419"><ele>-7.0</ele><time>2022-05-15T12:08:00Z</time></trkpt><trkpt lat="35.94659797" lon="120.2121082"><ele>-7.0</ele><time>2022-05-15T12:08:01Z</time><extensions><gpxtpx:TrackPointExtension><gpxtpx:hr>134</gpxtpx:hr></gpxtpx:TrackPointExtension></extensions></trkpt><trkpt lat="35.94661964" lon="120.21210253"><ele>-7.0</ele><time>2022-05-15T12:08:02Z</time></trkpt><trkpt lat="35.94663963" lon="120.21208021"><ele>-7.0</ele><time>2022-05-15T12:08:03Z</time></trkpt><trkpt lat="35.94666629" lon="120.21206854"><ele>-7.0</ele><time>2022-05-15T12:08:03Z</time></trkpt><trkpt lat="35.94668628" lon="120.21205989"><ele>-7.0</ele><time>2022-05-15T12:08:04Z</time></trkpt><trkpt lat="35.94670794" lon="120.21205023"><ele>-7.0</ele><time>2022-05-15T12:08:05Z</time><extensions><gpxtpx:TrackPointExtension><gpxtpx:hr>133</gpxtpx:hr></gpxtpx:TrackPointExtension></extensions></trkpt><trkpt lat="35.94672793" lon="120.2120409"><ele>-7.0</ele><time>2022-05-15T12:08:06Z</time></trkpt><trkpt lat="35.94675293" lon="120.21202991"><ele>-7.0</ele><time>2022-05-15T12:08:07Z</time><extensions><gpxtpx:TrackPointExtension><gpxtpx:hr>134</gpxtpx:hr></gpxtpx:TrackPointExtension></extensions></trkpt><trkpt lat="35.94677626" lon="120.21202191"><ele>-7.0</ele><time>2022-05-15T12:08:08Z</time></trkpt><trkpt lat="35.94679959" lon="120.21201657"><ele>-7.0</ele><time>2022-05-15T12:08:09Z</time></trkpt><trkpt lat="35.94682458" lon="120.21201891"><ele>-7.0</ele><time>2022-05-15T12:08:10Z</time><extensions><gpxtpx:TrackPointExtension><gpxtpx:hr>135</gpxtpx:hr></gpxtpx:TrackPointExtension></extensions></trkpt><trkpt lat="35.94684958" lon="120.2120199"><ele>-7.0</ele><time>2022-05-15T12:08:11Z</time><extensions><gpxtpx:TrackPointExtension><gpxtpx:hr>136</gpxtpx:hr></gpxtpx:TrackPointExtension></extensions></trkpt><trkpt lat="35.94687458" lon="120.21201624"><ele>-7.0</ele><time>2022-05-15T12:08:12Z</time></trkpt><trkpt lat="35.94689791" lon="120.21201057"><ele>-7.0</ele><time>2022-05-15T12:08:13Z</time><extensions><gpxtpx:TrackPointExtension><gpxtpx:hr>137</gpxtpx:hr></gpxtpx:TrackPointExtension></extensions></trkpt><trkpt lat="35.94692457" lon="120.21200458"><ele>-7.0</ele><time>2022-05-15T12:08:14Z</time><extensions><gpxtpx:TrackPointExtension><gpxtpx:hr>138</gpxtpx:hr></gpxtpx:TrackPointExtension></extensions></trkpt><trkpt lat="35.94694957" lon="120.21199893"><ele>-7.0</ele><time>2022-05-15T12:08:15Z</time><extensions><gpxtpx:TrackPointExtension><gpxtpx:hr>139</gpxtpx:hr></gpxtpx:TrackPointExtension></extensions></trkpt><trkpt lat="35.94697289" lon="120.21199559"><ele>-7.0</ele><time>2022-05-15T12:08:16Z</time></trkpt><trkpt lat="35.94700289" lon="120.21198994"><ele>-7.0</ele><time>2022-05-15T12:08:17Z</time><extensions><gpxtpx:TrackPointExtension><gpxtpx:hr>140</gpxtpx:hr></gpxtpx:TrackPointExtension></extensions></trkpt><trkpt lat="35.94702789" lon="120.21198695"><ele>-7.0</ele><time>2022-05-15T12:08:18Z</time><extensions><gpxtpx:TrackPointExtension><gpxtpx:hr>139</gpxtpx:hr></gpxtpx:TrackPointExtension></extensions></trkpt><trkpt lat="35.94704456" lon="120.21198562"><ele>-7.0</ele><time>2022-05-15T12:08:19Z</time></trkpt><trkpt lat="35.94706122" lon="120.21198463"><ele>-7.0</ele><time>2022-05-15T12:08:20Z</time><extensions><gpxtpx:TrackPointExtension><gpxtpx:hr>140</gpxtpx:hr></gpxtpx:TrackPointExtension></extensions></trkpt><trkpt lat="35.94707455" lon="120.21198463"><ele>-7.0</ele><time>2022-05-15T12:08:21Z</time><extensions><gpxtpx:TrackPointExtension><gpxtpx:hr>141</gpxtpx:hr></gpxtpx:TrackPointExtension></extensions></trkpt><trkpt lat="35.94708955" lon="120.21198297"><ele>-7.0</ele><time>2022-05-15T12:08:22Z</time></trkpt><trkpt lat="35.94710454" lon="120.21198064"><ele>-7.0</ele><time>2022-05-15T12:08:23Z</time></trkpt><trkpt lat="35.94711787" lon="120.21197831"><ele>-7.0</ele><time>2022-05-15T12:08:24Z</time><extensions><gpxtpx:TrackPointExtension><gpxtpx:hr>140</gpxtpx:hr></gpxtpx:TrackPointExtension></extensions></trkpt><trkpt lat="35.9471312" lon="120.21197698"><ele>-7.0</ele><time>2022-05-15T12:08:25Z</time><extensions><gpxtpx:TrackPointExtension><gpxtpx:hr>139</gpxtpx:hr></gpxtpx:TrackPointExtension></extensions></trkpt><trkpt lat="35.94714453" lon="120.21197599"><ele>-7.0</ele><time>2022-05-15T12:08:26Z</time></trkpt><trkpt lat="35.94715453" lon="120.21197432"><ele>-7.0</ele><time>2022-05-15T12:08:27Z</time><extensions><gpxtpx:TrackPointExtension><gpxtpx:hr>138</gpxtpx:hr></gpxtpx:TrackPointExtension></extensions></trkpt><trkpt lat="35.94716619" lon="120.21197233"><ele>-7.0</ele><time>2022-05-15T12:08:28Z</time><extensions><gpxtpx:TrackPointExtension><gpxtpx:hr>137</gpxtpx:hr></gpxtpx:TrackPointExtension></extensions></trkpt><trkpt lat="35.94717952" lon="120.21197033"><ele>-7.0</ele><time>2022-05-15T12:08:29Z</time></trkpt><trkpt lat="35.94718951" lon="120.21196967"><ele>-6.0</ele><time>2022-05-15T12:08:30Z</time><extensions><gpxtpx:TrackPointExtension><gpxtpx:hr>139</gpxtpx:hr></gpxtpx:TrackPointExtension></extensions></trkpt><trkpt lat="35.94719451" lon="120.21196902"><ele>-6.0</ele><time>2022-05-15T12:08:31Z</time><extensions><gpxtpx:TrackPointExtension><gpxtpx:hr>138</gpxtpx:hr></gpxtpx:TrackPointExtension></extensions></trkpt><trkpt lat="35.9472045" lon="120.21196735"><ele>-6.0</ele><time>2022-05-15T12:08:32Z</time><extensions><gpxtpx:TrackPointExtension><gpxtpx:hr>137</gpxtpx:hr></gpxtpx:TrackPointExtension></extensions></trkpt><trkpt lat="35.9472195" lon="120.21196502"><ele>-6.0</ele><time>2022-05-15T12:08:33Z</time></trkpt><trkpt lat="35.94723116" lon="120.21196303"><ele>-6.0</ele><time>2022-05-15T12:08:34Z</time><extensions><gpxtpx:TrackPointExtension><gpxtpx:hr>136</gpxtpx:hr></gpxtpx:TrackPointExtension></extensions></trkpt><trkpt lat="35.94724782" lon="120.21196036"><ele>-6.0</ele><time>2022-05-15T12:08:35Z</time><extensions><gpxtpx:TrackPointExtension><gpxtpx:hr>135</gpxtpx:hr></gpxtpx:TrackPointExtension></extensions></trkpt><trkpt lat="35.94725948" lon="120.21195836"><ele>-6.0</ele><time>2022-05-15T12:08:36Z</time></trkpt><trkpt lat="35.94727281" lon="120.21195437"><ele>-6.0</ele><time>2022-05-15T12:08:37Z</time><extensions><gpxtpx:TrackPointExtension><gpxtpx:hr>137</gpxtpx:hr></gpxtpx:TrackPointExtension></extensions></trkpt><trkpt lat="35.9472878" lon="120.21195037"><ele>-6.0</ele><time>2022-05-15T12:08:38Z</time><extensions><gpxtpx:TrackPointExtension><gpxtpx:hr>136</gpxtpx:hr></gpxtpx:TrackPointExtension></extensions></trkpt><trkpt lat="35.94730447" lon="120.21194571"><ele>-6.0</ele><time>2022-05-15T12:08:39Z</time></trkpt><trkpt lat="35.94732114" lon="120.21193972"><ele>-6.0</ele><time>2022-05-15T12:08:40Z</time><extensions><gpxtpx:TrackPointExtension><gpxtpx:hr>135</gpxtpx:hr></gpxtpx:TrackPointExtension></extensions></trkpt><trkpt lat="35.94733946" lon="120.21193472"><ele>-6.0</ele><time>2022-05-15T12:08:41Z</time><extensions><gpxtpx:TrackPointExtension><gpxtpx:hr>134</gpxtpx:hr></gpxtpx:TrackPointExtension></extensions></trkpt><trkpt lat="35.94735613" lon="120.21193106"><ele>-6.0</ele><time>2022-05-15T12:08:42Z</time><extensions><gpxtpx:TrackPointExtension><gpxtpx:hr>133</gpxtpx:hr></gpxtpx:TrackPointExtension></extensions></trkpt><trkpt lat="35.94736613" lon="120.2119274"><ele>-6.0</ele><time>2022-05-15T12:08:43Z</time></trkpt><trkpt lat="35.94737113" lon="120.2119234"><ele>-6.0</ele><time>2022-05-15T12:08:44Z</time></trkpt><trkpt lat="35.94738112" lon="120.21192073"><ele>-6.0</ele><time>2022-05-15T12:08:45Z</time><extensions><gpxtpx:TrackPointExtension><gpxtpx:hr>131</gpxtpx:hr></gpxtpx:TrackPointExtension></extensions></trkpt><trkpt lat="35.94739112" lon="120.21191573"><ele>-6.0</ele><time>2022-05-15T12:08:46Z</time></trkpt><trkpt lat="35.94740611" lon="120.21191073"><ele>-6.0</ele><time>2022-05-15T12:08:47Z</time></trkpt><trkpt lat="35.9474211" lon="120.21190573"><ele>-6.0</ele><time>2022-05-15T12:08:48Z</time></trkpt><trkpt lat="35.94743443" lon="120.21190074"><ele>-5.0</ele><time>2022-05-15T12:08:49Z</time></trkpt><trkpt lat="35.94745276" lon="120.21189475"><ele>-5.0</ele><time>2022-05-15T12:08:50Z</time><extensions><gpxtpx:TrackPointExtension><gpxtpx:hr>132</gpxtpx:hr></gpxtpx:TrackPointExtension></extensions></trkpt><trkpt lat="35.94748275" lon="120.21188575"><ele>-5.0</ele><time>2022-05-15T12:08:51Z</time><extensions><gpxtpx:TrackPointExtension><gpxtpx:hr>131</gpxtpx:hr></gpxtpx:TrackPointExtension></extensions></trkpt><trkpt lat="35.94749942" lon="120.2118801"><ele>-5.0</ele><time>2022-05-15T12:08:52Z</time></trkpt><trkpt lat="35.94751941" lon="120.21187343"><ele>-5.0</ele><time>2022-05-15T12:08:53Z</time></trkpt><trkpt lat="35.94754441" lon="120.2118661"><ele>-5.0</ele><time>2022-05-15T12:08:54Z</time></trkpt><trkpt lat="35.94756608" lon="120.21185977"><ele>-4.0</ele><time>2022-05-15T12:08:55Z</time><extensions><gpxtpx:TrackPointExtension><gpxtpx:hr>130</gpxtpx:hr></gpxtpx:TrackPointExtension></extensions></trkpt><trkpt lat="35.94758774" lon="120.21186211"><ele>-4.0</ele><time>2022-05-15T12:08:56Z</time></trkpt><trkpt lat="35.94761274" lon="120.21186011"><ele>-4.0</ele><time>2022-05-15T12:08:57Z</time><extensions><gpxtpx:TrackPointExtension><gpxtpx:hr>129</gpxtpx:hr></gpxtpx:TrackPointExtension></extensions></trkpt><trkpt lat="35.94763773" lon="120.21185477"><ele>-4.0</ele><time>2022-05-15T12:08:58Z</time><extensions><gpxtpx:TrackPointExtension><gpxtpx:hr>128</gpxtpx:hr></gpxtpx:TrackPointExtension></extensions></trkpt><trkpt lat="35.94766107" lon="120.21185045"><ele>-4.0</ele><time>2022-05-15T12:08:59Z</time><extensions><gpxtpx:TrackPointExtension><gpxtpx:hr>129</gpxtpx:hr></gpxtpx:TrackPointExtension></extensions></trkpt><trkpt lat="35.94768106" lon="120.21184545"><ele>-4.0</ele><time>2022-05-15T12:09:00Z</time></trkpt><trkpt lat="35.94770272" lon="120.21184179"><ele>-4.0</ele><time>2022-05-15T12:09:01Z</time><extensions><gpxtpx:TrackPointExtension><gpxtpx:hr>130</gpxtpx:hr></gpxtpx:TrackPointExtension></extensions></trkpt><trkpt lat="35.94772271" lon="120.21183813"><ele>-4.0</ele><time>2022-05-15T12:09:02Z</time><extensions><gpxtpx:TrackPointExtension><gpxtpx:hr>131</gpxtpx:hr></gpxtpx:TrackPointExtension></extensions></trkpt><trkpt lat="35.94774604" lon="120.21183247"><ele>-4.0</ele><time>2022-05-15T12:09:03Z</time></trkpt><trkpt lat="35.94777104" lon="120.21182747"><ele>-4.0</ele><time>2022-05-15T12:09:04Z</time><extensions><gpxtpx:TrackPointExtension><gpxtpx:hr>132</gpxtpx:hr></gpxtpx:TrackPointExtension></extensions></trkpt><trkpt lat="35.9477927" lon="120.21182281"><ele>-4.0</ele><time>2022-05-15T12:09:05Z</time><extensions><gpxtpx:TrackPointExtension><gpxtpx:hr>133</gpxtpx:hr></gpxtpx:TrackPointExtension></extensions></trkpt><trkpt lat="35.94781603" lon="120.21181815"><ele>-4.0</ele><time>2022-05-15T12:09:06Z</time></trkpt><trkpt lat="35.94783769" lon="120.21181481"><ele>-4.0</ele><time>2022-05-15T12:09:07Z</time><extensions><gpxtpx:TrackPointExtension><gpxtpx:hr>134</gpxtpx:hr></gpxtpx:TrackPointExtension></extensions></trkpt><trkpt lat="35.94785768" lon="120.21181049"><ele>-4.0</ele><time>2022-05-15T12:09:08Z</time><extensions><gpxtpx:TrackPointExtension><gpxtpx:hr>133</gpxtpx:hr></gpxtpx:TrackPointExtension></extensions></trkpt><trkpt lat="35.94787267" lon="120.21180782"><ele>-4.0</ele><time>2022-05-15T12:09:09Z</time><extensions><gpxtpx:TrackPointExtension><gpxtpx:hr>134</gpxtpx:hr></gpxtpx:TrackPointExtension></extensions></trkpt><trkpt lat="35.94788766" lon="120.21180382"><ele>-4.0</ele><time>2022-05-15T12:09:10Z</time></trkpt><trkpt lat="35.94789433" lon="120.21180149"><ele>-4.0</ele><time>2022-05-15T12:09:11Z</time></trkpt><trkpt lat="35.94790765" lon="120.2117975"><ele>-4.0</ele><time>2022-05-15T12:09:12Z</time><extensions><gpxtpx:TrackPointExtension><gpxtpx:hr>135</gpxtpx:hr></gpxtpx:TrackPointExtension></extensions></trkpt><trkpt lat="35.94791599" lon="120.2117945"><ele>-3.0</ele><time>2022-05-15T12:09:13Z</time></trkpt><trkpt lat="35.94793598" lon="120.21178918"><ele>-3.0</ele><time>2022-05-15T12:09:14Z</time><extensions><gpxtpx:TrackPointExtension><gpxtpx:hr>136</gpxtpx:hr></gpxtpx:TrackPointExtension></extensions></trkpt><trkpt lat="35.94795431" lon="120.21178451"><ele>-3.0</ele><time>2022-05-15T12:09:15Z</time></trkpt><trkpt lat="35.94797264" lon="120.21177952"><ele>-3.0</ele><time>2022-05-15T12:09:16Z</time></trkpt><trkpt lat="35.9479793" lon="120.21177819"><ele>-3.0</ele><time>2022-05-15T12:09:17Z</time><extensions><gpxtpx:TrackPointExtension><gpxtpx:hr>135</gpxtpx:hr></gpxtpx:TrackPointExtension></extensions></trkpt><trkpt lat="35.94798929" lon="120.21177652"><ele>-3.0</ele><time>2022-05-15T12:09:18Z</time></trkpt><trkpt lat="35.94799929" lon="120.21177553"><ele>-3.0</ele><time>2022-05-15T12:09:19Z</time><extensions><gpxtpx:TrackPointExtension><gpxtpx:hr>137</gpxtpx:hr></gpxtpx:TrackPointExtension></extensions></trkpt><trkpt lat="35.94801262" lon="120.21177253"><ele>-3.0</ele><time>2022-05-15T12:09:20Z</time></trkpt><trkpt lat="35.94801761" lon="120.21177121"><ele>-3.0</ele><time>2022-05-15T12:09:21Z</time><extensions><gpxtpx:TrackPointExtension><gpxtpx:hr>138</gpxtpx:hr></gpxtpx:TrackPointExtension></extensions></trkpt><trkpt lat="35.94801761" lon="120.21176821"><ele>-3.0</ele><time>2022-05-15T12:09:22Z</time><extensions><gpxtpx:TrackPointExtension><gpxtpx:hr>139</gpxtpx:hr></gpxtpx:TrackPointExtension></extensions></trkpt><trkpt lat="35.94801928" lon="120.21176355"><ele>-3.0</ele><time>2022-05-15T12:09:23Z</time></trkpt><trkpt lat="35.94802095" lon="120.21175688"><ele>-3.0</ele><time>2022-05-15T12:09:24Z</time></trkpt><trkpt lat="35.94802095" lon="120.21165889"><ele>-3.0</ele><time>2022-05-15T12:09:25Z</time></trkpt><trkpt lat="35.94801761" lon="120.21161556"><ele>-3.0</ele><time>2022-05-15T12:09:26Z</time></trkpt><trkpt lat="35.94801096" lon="120.21156556"><ele>-3.0</ele><time>2022-05-15T12:09:27Z</time><extensions><gpxtpx:TrackPointExtension><gpxtpx:hr>139</gpxtpx:hr></gpxtpx:TrackPointExtension></extensions></trkpt><trkpt lat="35.94800096" lon="120.2114939"><ele>-3.0</ele><time>2022-05-15T12:09:29Z</time><extensions><gpxtpx:TrackPointExtension><gpxtpx:hr>137</gpxtpx:hr></gpxtpx:TrackPointExtension></extensions></trkpt><trkpt lat="35.94799097" lon="120.21145391"><ele>-3.0</ele><time>2022-05-15T12:09:30Z</time></trkpt><trkpt lat="35.94799429" lon="120.21148225"><ele>-3.0</ele><time>2022-05-15T12:09:31Z</time><extensions><gpxtpx:TrackPointExtension><gpxtpx:hr>136</gpxtpx:hr></gpxtpx:TrackPointExtension></extensions></trkpt><trkpt lat="35.94799962" lon="120.21146226"><ele>-3.0</ele><time>2022-05-15T12:09:32Z</time><extensions><gpxtpx:TrackPointExtension><gpxtpx:hr>135</gpxtpx:hr></gpxtpx:TrackPointExtension></extensions></trkpt><trkpt lat="35.94800796" lon="120.21144892"><ele>-3.0</ele><time>2022-05-15T12:09:33Z</time></trkpt><trkpt lat="35.94803596" lon="120.21141227"><ele>-3.0</ele><time>2022-05-15T12:09:34Z</time><extensions><gpxtpx:TrackPointExtension><gpxtpx:hr>134</gpxtpx:hr></gpxtpx:TrackPointExtension></extensions></trkpt><trkpt lat="35.94804595" lon="120.21138894"><ele>-3.0</ele><time>2022-05-15T12:09:35Z</time></trkpt><trkpt lat="35.94806761" lon="120.21136728"><ele>-3.0</ele><time>2022-05-15T12:09:36Z</time></trkpt><trkpt lat="35.94810595" lon="120.21138727"><ele>-3.0</ele><time>2022-05-15T12:09:37Z</time></trkpt><trkpt lat="35.94813928" lon="120.21142393"><ele>-3.0</ele><time>2022-05-15T12:09:38Z</time><extensions><gpxtpx:TrackPointExtension><gpxtpx:hr>132</gpxtpx:hr></gpxtpx:TrackPointExtension></extensions></trkpt><trkpt lat="35.94818094" lon="120.21145727"><ele>-3.0</ele><time>2022-05-15T12:09:39Z</time><extensions><gpxtpx:TrackPointExtension><gpxtpx:hr>131</gpxtpx:hr></gpxtpx:TrackPointExtension></extensions></trkpt><trkpt lat="35.9482076" lon="120.21149726"><ele>-3.0</ele><time>2022-05-15T12:09:40Z</time></trkpt><trkpt lat="35.94822427" lon="120.21152558"><ele>-3.0</ele><time>2022-05-15T12:09:41Z</time><extensions><gpxtpx:TrackPointExtension><gpxtpx:hr>130</gpxtpx:hr></gpxtpx:TrackPointExtension></extensions></trkpt><trkpt lat="35.9482376" lon="120.21154558"><ele>-3.0</ele><time>2022-05-15T12:09:42Z</time></trkpt><trkpt lat="35.94825427" lon="120.21155391"><ele>-3.0</ele><time>2022-05-15T12:09:43Z</time></trkpt><trkpt lat="35.94826926" lon="120.21155258"><ele>-3.0</ele><time>2022-05-15T12:09:44Z</time></trkpt><trkpt lat="35.94828925" lon="120.21155325"><ele>-3.0</ele><time>2022-05-15T12:09:45Z</time></trkpt><trkpt lat="35.94830592" lon="120.21155724"><ele>-3.0</ele><time>2022-05-15T12:09:46Z</time><extensions><gpxtpx:TrackPointExtension><gpxtpx:hr>129</gpxtpx:hr></gpxtpx:TrackPointExtension></extensions></trkpt><trkpt lat="35.94832758" lon="120.21156024"><ele>-3.0</ele><time>2022-05-15T12:09:47Z</time></trkpt><trkpt lat="35.94835091" lon="120.21155757"><ele>-3.0</ele><time>2022-05-15T12:09:48Z</time></trkpt><trkpt lat="35.94837257" lon="120.21155524"><ele>-3.0</ele><time>2022-05-15T12:09:49Z</time></trkpt><trkpt lat="35.9483909" lon="120.21155589"><ele>-3.0</ele><time>2022-05-15T12:09:50Z</time></trkpt><trkpt lat="35.94840756" lon="120.21155688"><ele>-3.0</ele><time>2022-05-15T12:09:51Z</time><extensions><gpxtpx:TrackPointExtension><gpxtpx:hr>130</gpxtpx:hr></gpxtpx:TrackPointExtension></extensions></trkpt><trkpt lat="35.9484259" lon="120.21155822"><ele>-3.0</ele><time>2022-05-15T12:09:52Z</time><extensions><gpxtpx:TrackPointExtension><gpxtpx:hr>128</gpxtpx:hr></gpxtpx:TrackPointExtension></extensions></trkpt><trkpt lat="35.94844922" lon="120.21155887"><ele>-3.0</ele><time>2022-05-15T12:09:53Z</time></trkpt><trkpt lat="35.94847588" lon="120.21155654"><ele>-3.0</ele><time>2022-05-15T12:09:54Z</time></trkpt><trkpt lat="35.94849754" lon="120.21155322"><ele>-3.0</ele><time>2022-05-15T12:09:55Z</time><extensions><gpxtpx:TrackPointExtension><gpxtpx:hr>127</gpxtpx:hr></gpxtpx:TrackPointExtension></extensions></trkpt><trkpt lat="35.94851921" lon="120.21154788"><ele>-3.0</ele><time>2022-05-15T12:09:56Z</time><extensions><gpxtpx:TrackPointExtension><gpxtpx:hr>128</gpxtpx:hr></gpxtpx:TrackPointExtension></extensions></trkpt><trkpt lat="35.94853253" lon="120.21154255"><ele>-3.0</ele><time>2022-05-15T12:09:57Z</time></trkpt><trkpt lat="35.94856253" lon="120.21153389"><ele>-3.0</ele><time>2022-05-15T12:09:58Z</time></trkpt><trkpt lat="35.94858753" lon="120.2115239"><ele>-3.0</ele><time>2022-05-15T12:09:59Z</time></trkpt><trkpt lat="35.94860252" lon="120.21151624"><ele>-4.0</ele><time>2022-05-15T12:10:00Z</time></trkpt><trkpt lat="35.94862752" lon="120.21150558"><ele>-4.0</ele><time>2022-05-15T12:10:01Z</time><extensions><gpxtpx:TrackPointExtension><gpxtpx:hr>129</gpxtpx:hr></gpxtpx:TrackPointExtension></extensions></trkpt><trkpt lat="35.94864252" lon="120.21145058"><ele>-4.0</ele><time>2022-05-15T12:10:02Z</time><extensions><gpxtpx:TrackPointExtension><gpxtpx:hr>130</gpxtpx:hr></gpxtpx:TrackPointExtension></extensions></trkpt><trkpt lat="35.94865251" lon="120.21141892"><ele>-4.0</ele><time>2022-05-15T12:10:03Z</time><extensions><gpxtpx:TrackPointExtension><gpxtpx:hr>131</gpxtpx:hr></gpxtpx:TrackPointExtension></extensions></trkpt><trkpt lat="35.94866717" lon="120.21140727"><ele>-4.0</ele><time>2022-05-15T12:10:04Z</time></trkpt><trkpt lat="35.94870416" lon="120.21139727"><ele>-4.0</ele><time>2022-05-15T12:10:05Z</time><extensions><gpxtpx:TrackPointExtension><gpxtpx:hr>132</gpxtpx:hr></gpxtpx:TrackPointExtension></extensions></trkpt><trkpt lat="35.94873749" lon="120.21140392"><ele>-4.0</ele><time>2022-05-15T12:10:06Z</time><extensions><gpxtpx:TrackPointExtension><gpxtpx:hr>133</gpxtpx:hr></gpxtpx:TrackPointExtension></extensions></trkpt><trkpt lat="35.94878083" lon="120.21141392"><ele>-4.0</ele><time>2022-05-15T12:10:07Z</time></trkpt><trkpt lat="35.94881082" lon="120.21141726"><ele>-4.0</ele><time>2022-05-15T12:10:08Z</time><extensions><gpxtpx:TrackPointExtension><gpxtpx:hr>134</gpxtpx:hr></gpxtpx:TrackPointExtension></extensions></trkpt><trkpt lat="35.94884082" lon="120.21142559"><ele>-4.0</ele><time>2022-05-15T12:10:09Z</time></trkpt><trkpt lat="35.94886582" lon="120.21143891"><ele>-4.0</ele><time>2022-05-15T12:10:10Z</time></trkpt><trkpt lat="35.94890081" lon="120.21144558"><ele>-4.0</ele><time>2022-05-15T12:10:11Z</time></trkpt><trkpt lat="35.94893914" lon="120.21144092"><ele>-4.0</ele><time>2022-05-15T12:10:12Z</time><extensions><gpxtpx:TrackPointExtension><gpxtpx:hr>135</gpxtpx:hr></gpxtpx:TrackPointExtension></extensions></trkpt><trkpt lat="35.94898081" lon="120.21143459"><ele>-4.0</ele><time>2022-05-15T12:10:13Z</time></trkpt><trkpt lat="35.94901913" lon="120.21143226"><ele>-4.0</ele><time>2022-05-15T12:10:14Z</time><extensions><gpxtpx:TrackPointExtension><gpxtpx:hr>136</gpxtpx:hr></gpxtpx:TrackPointExtension></extensions></trkpt><trkpt lat="35.9490358" lon="120.21143891"><ele>-4.0</ele><time>2022-05-15T12:10:15Z</time><extensions><gpxtpx:TrackPointExtension><gpxtpx:hr>137</gpxtpx:hr></gpxtpx:TrackPointExtension></extensions></trkpt><trkpt lat="35.94905579" lon="120.21144058"><ele>-4.0</ele><time>2022-05-15T12:10:16Z</time><extensions><gpxtpx:TrackPointExtension><gpxtpx:hr>136</gpxtpx:hr></gpxtpx:TrackPointExtension></extensions></trkpt><trkpt lat="35.94908245" lon="120.21142725"><ele>-4.0</ele><time>2022-05-15T12:10:17Z</time></trkpt><trkpt lat="35.94910578" lon="120.21141926"><ele>-4.0</ele><time>2022-05-15T12:10:18Z</time><extensions><gpxtpx:TrackPointExtension><gpxtpx:hr>137</gpxtpx:hr></gpxtpx:TrackPointExtension></extensions></trkpt><trkpt lat="35.94914411" lon="120.21140892"><ele>-4.0</ele><time>2022-05-15T12:10:19Z</time></trkpt><trkpt lat="35.9491741" lon="120.21138459"><ele>-4.0</ele><time>2022-05-15T12:10:20Z</time></trkpt><trkpt lat="35.94920577" lon="120.21136526"><ele>-4.0</ele><time>2022-05-15T12:10:21Z</time></trkpt><trkpt lat="35.94923077" lon="120.2113506"><ele>-4.0</ele><time>2022-05-15T12:10:22Z</time></trkpt><trkpt lat="35.94925242" lon="120.21134028"><ele>-4.0</ele><time>2022-05-15T12:10:23Z</time><extensions><gpxtpx:TrackPointExtension><gpxtpx:hr>137</gpxtpx:hr></gpxtpx:TrackPointExtension></extensions></trkpt><trkpt lat="35.94927409" lon="120.21133361"><ele>-4.0</ele><time>2022-05-15T12:10:24Z</time></trkpt><trkpt lat="35.94929076" lon="120.21133628"><ele>-4.0</ele><time>2022-05-15T12:10:25Z</time><extensions><gpxtpx:TrackPointExtension><gpxtpx:hr>136</gpxtpx:hr></gpxtpx:TrackPointExtension></extensions></trkpt><trkpt lat="35.94930241" lon="120.21138227"><ele>-4.0</ele><time>2022-05-15T12:10:26Z</time></trkpt><trkpt lat="35.94931575" lon="120.2113906"><ele>-4.0</ele><time>2022-05-15T12:10:27Z</time></trkpt><trkpt lat="35.94932574" lon="120.21141727"><ele>-4.0</ele><time>2022-05-15T12:10:28Z</time></trkpt><trkpt lat="35.9493374" lon="120.21145059"><ele>-4.0</ele><time>2022-05-15T12:10:29Z</time></trkpt><trkpt lat="35.94937239" lon="120.21133726"><ele>-4.0</ele><time>2022-05-15T12:10:30Z</time></trkpt><trkpt lat="35.94940073" lon="120.2113086"><ele>-4.0</ele><time>2022-05-15T12:10:31Z</time><extensions><gpxtpx:TrackPointExtension><gpxtpx:hr>136</gpxtpx:hr></gpxtpx:TrackPointExtension></extensions></trkpt><trkpt lat="35.94943406" lon="120.21129394"><ele>-4.0</ele><time>2022-05-15T12:10:32Z</time></trkpt><trkpt lat="35.94946905" lon="120.21128561"><ele>-4.0</ele><time>2022-05-15T12:10:33Z</time></trkpt><trkpt lat="35.94949905" lon="120.21124394"><ele>-4.0</ele><time>2022-05-15T12:10:34Z</time></trkpt><trkpt lat="35.94952905" lon="120.21123894"><ele>-4.0</ele><time>2022-05-15T12:10:35Z</time></trkpt><trkpt lat="35.94956071" lon="120.21123528"><ele>-4.0</ele><time>2022-05-15T12:10:36Z</time><extensions><gpxtpx:TrackPointExtension><gpxtpx:hr>135</gpxtpx:hr></gpxtpx:TrackPointExtension></extensions></trkpt><trkpt lat="35.94958237" lon="120.21123229"><ele>-4.0</ele><time>2022-05-15T12:10:37Z</time></trkpt><trkpt lat="35.94960403" lon="120.21122395"><ele>-4.0</ele><time>2022-05-15T12:10:38Z</time><extensions><gpxtpx:TrackPointExtension><gpxtpx:hr>137</gpxtpx:hr></gpxtpx:TrackPointExtension></extensions></trkpt><trkpt lat="35.94961903" lon="120.21121763"><ele>-4.0</ele><time>2022-05-15T12:10:39Z</time><extensions><gpxtpx:TrackPointExtension><gpxtpx:hr>135</gpxtpx:hr></gpxtpx:TrackPointExtension></extensions></trkpt><trkpt lat="35.94963902" lon="120.21121962"><ele>-4.0</ele><time>2022-05-15T12:10:40Z</time><extensions><gpxtpx:TrackPointExtension><gpxtpx:hr>136</gpxtpx:hr></gpxtpx:TrackPointExtension></extensions></trkpt><trkpt lat="35.94966234" lon="120.21123361"><ele>-4.0</ele><time>2022-05-15T12:10:41Z</time></trkpt><trkpt lat="35.94968067" lon="120.21124828"><ele>-4.0</ele><time>2022-05-15T12:10:42Z</time><extensions><gpxtpx:TrackPointExtension><gpxtpx:hr>135</gpxtpx:hr></gpxtpx:TrackPointExtension></extensions></trkpt><trkpt lat="35.94969733" lon="120.21125928"><ele>-4.0</ele><time>2022-05-15T12:10:43Z</time></trkpt><trkpt lat="35.94971567" lon="120.21126493"><ele>-4.0</ele><time>2022-05-15T12:10:44Z</time></trkpt><trkpt lat="35.94973233" lon="120.21126559"><ele>-4.0</ele><time>2022-05-15T12:10:45Z</time><extensions><gpxtpx:TrackPointExtension><gpxtpx:hr>134</gpxtpx:hr></gpxtpx:TrackPointExtension></extensions></trkpt><trkpt lat="35.949754" lon="120.21126326"><ele>-4.0</ele><time>2022-05-15T12:10:46Z</time><extensions><gpxtpx:TrackPointExtension><gpxtpx:hr>133</gpxtpx:hr></gpxtpx:TrackPointExtension></extensions></trkpt><trkpt lat="35.94976899" lon="120.21125593"><ele>-4.0</ele><time>2022-05-15T12:10:47Z</time></trkpt><trkpt lat="35.94977231" lon="120.21121727"><ele>-4.0</ele><time>2022-05-15T12:10:48Z</time><extensions><gpxtpx:TrackPointExtension><gpxtpx:hr>132</gpxtpx:hr></gpxtpx:TrackPointExtension></extensions></trkpt><trkpt lat="35.94978397" lon="120.21121193"><ele>-4.0</ele><time>2022-05-15T12:10:49Z</time></trkpt><trkpt lat="35.94980396" lon="120.21119928"><ele>-4.0</ele><time>2022-05-15T12:10:50Z</time><extensions><gpxtpx:TrackPointExtension><gpxtpx:hr>130</gpxtpx:hr></gpxtpx:TrackPointExtension></extensions></trkpt><trkpt lat="35.94982563" lon="120.21118962"><ele>-4.0</ele><time>2022-05-15T12:10:51Z</time></trkpt><trkpt lat="35.94984562" lon="120.21118129"><ele>-4.0</ele><time>2022-05-15T12:10:52Z</time><extensions><gpxtpx:TrackPointExtension><gpxtpx:hr>129</gpxtpx:hr></gpxtpx:TrackPointExtension></extensions></trkpt><trkpt lat="35.94986561" lon="120.21116896"><ele>-4.0</ele><time>2022-05-15T12:10:53Z</time><extensions><gpxtpx:TrackPointExtension><gpxtpx:hr>128</gpxtpx:hr></gpxtpx:TrackPointExtension></extensions></trkpt><trkpt lat="35.94987894" lon="120.21115863"><ele>-4.0</ele><time>2022-05-15T12:10:54Z</time></trkpt><trkpt lat="35.94989227" lon="120.21114964"><ele>-4.0</ele><time>2022-05-15T12:10:55Z</time></trkpt><trkpt lat="35.94990393" lon="120.21114397"><ele>-4.0</ele><time>2022-05-15T12:10:56Z</time><extensions><gpxtpx:TrackPointExtension><gpxtpx:hr>129</gpxtpx:hr></gpxtpx:TrackPointExtension></extensions></trkpt><trkpt lat="35.94991559" lon="120.21113931"><ele>-4.0</ele><time>2022-05-15T12:10:57Z</time></trkpt><trkpt lat="35.94992724" lon="120.21113664"><ele>-4.0</ele><time>2022-05-15T12:10:58Z</time><extensions><gpxtpx:TrackPointExtension><gpxtpx:hr>130</gpxtpx:hr></gpxtpx:TrackPointExtension></extensions></trkpt><trkpt lat="35.94994224" lon="120.21113265"><ele>-4.0</ele><time>2022-05-15T12:10:59Z</time></trkpt><trkpt lat="35.94996057" lon="120.21112898"><ele>-4.0</ele><time>2022-05-15T12:11:00Z</time></trkpt><trkpt lat="35.94998223" lon="120.21112699"><ele>-4.0</ele><time>2022-05-15T12:11:01Z</time></trkpt><trkpt lat="35.95000889" lon="120.21112732"><ele>-4.0</ele><time>2022-05-15T12:11:02Z</time></trkpt><trkpt lat="35.95002722" lon="120.21113164"><ele>-4.0</ele><time>2022-05-15T12:11:03Z</time><extensions><gpxtpx:TrackPointExtension><gpxtpx:hr>130</gpxtpx:hr></gpxtpx:TrackPointExtension></extensions></trkpt><trkpt lat="35.95005222" lon="120.21113331"><ele>-4.0</ele><time>2022-05-15T12:11:04Z</time></trkpt><trkpt lat="35.95008056" lon="120.21113331"><ele>-4.0</ele><time>2022-05-15T12:11:05Z</time><extensions><gpxtpx:TrackPointExtension><gpxtpx:hr>129</gpxtpx:hr></gpxtpx:TrackPointExtension></extensions></trkpt><trkpt lat="35.95009888" lon="120.21113298"><ele>-4.0</ele><time>2022-05-15T12:11:06Z</time></trkpt><trkpt lat="35.95012555" lon="120.21113033"><ele>-4.0</ele><time>2022-05-15T12:11:07Z</time></trkpt><trkpt lat="35.95014887" lon="120.21112733"><ele>-4.0</ele><time>2022-05-15T12:11:08Z</time></trkpt><trkpt lat="35.95016554" lon="120.21112566"><ele>-4.0</ele><time>2022-05-15T12:11:09Z</time><extensions><gpxtpx:TrackPointExtension><gpxtpx:hr>128</gpxtpx:hr></gpxtpx:TrackPointExtension></extensions></trkpt><trkpt lat="35.95018553" lon="120.21112267"><ele>-4.0</ele><time>2022-05-15T12:11:10Z</time></trkpt><trkpt lat="35.95020552" lon="120.21111935"><ele>-4.0</ele><time>2022-05-15T12:11:11Z</time></trkpt><trkpt lat="35.95022551" lon="120.21111501"><ele>-4.0</ele><time>2022-05-15T12:11:12Z</time></trkpt><trkpt lat="35.95024717" lon="120.21110868"><ele>-4.0</ele><time>2022-05-15T12:11:13Z</time></trkpt><trkpt lat="35.95026884" lon="120.21110236"><ele>-4.0</ele><time>2022-05-15T12:11:14Z</time></trkpt><trkpt lat="35.95028716" lon="120.21109469"><ele>-4.0</ele><time>2022-05-15T12:11:15Z</time><extensions><gpxtpx:TrackPointExtension><gpxtpx:hr>128</gpxtpx:hr></gpxtpx:TrackPointExtension></extensions></trkpt><trkpt lat="35.95030715" lon="120.21108636"><ele>-4.0</ele><time>2022-05-15T12:11:16Z</time></trkpt><trkpt lat="35.95032882" lon="120.21107736"><ele>-4.0</ele><time>2022-05-15T12:11:17Z</time></trkpt><trkpt lat="35.95035049" lon="120.21106636"><ele>-4.0</ele><time>2022-05-15T12:11:18Z</time></trkpt><trkpt lat="35.95038214" lon="120.2110557"><ele>-4.0</ele><time>2022-05-15T12:11:19Z</time></trkpt><trkpt lat="35.95041214" lon="120.21104503"><ele>-4.0</ele><time>2022-05-15T12:11:20Z</time><extensions><gpxtpx:TrackPointExtension><gpxtpx:hr>127</gpxtpx:hr></gpxtpx:TrackPointExtension></extensions></trkpt><trkpt lat="35.9504388" lon="120.21103838"><ele>-4.0</ele><time>2022-05-15T12:11:21Z</time></trkpt><trkpt lat="35.95047046" lon="120.21103272"><ele>-4.0</ele><time>2022-05-15T12:11:22Z</time><extensions><gpxtpx:TrackPointExtension><gpxtpx:hr>128</gpxtpx:hr></gpxtpx:TrackPointExtension></extensions></trkpt><trkpt lat="35.95050211" lon="120.21102906"><ele>-4.0</ele><time>2022-05-15T12:11:23Z</time><extensions><gpxtpx:TrackPointExtension><gpxtpx:hr>129</gpxtpx:hr></gpxtpx:TrackPointExtension></extensions></trkpt><trkpt lat="35.95053211" lon="120.21102606"><ele>-3.0</ele><time>2022-05-15T12:11:24Z</time></trkpt><trkpt lat="35.95056545" lon="120.21102274"><ele>-3.0</ele><time>2022-05-15T12:11:25Z</time><extensions><gpxtpx:TrackPointExtension><gpxtpx:hr>128</gpxtpx:hr></gpxtpx:TrackPointExtension></extensions></trkpt><trkpt lat="35.95059545" lon="120.21101874"><ele>-3.0</ele><time>2022-05-15T12:11:26Z</time><extensions><gpxtpx:TrackPointExtension><gpxtpx:hr>130</gpxtpx:hr></gpxtpx:TrackPointExtension></extensions></trkpt><trkpt lat="35.95062544" lon="120.21101475"><ele>-3.0</ele><time>2022-05-15T12:11:27Z</time><extensions><gpxtpx:TrackPointExtension><gpxtpx:hr>128</gpxtpx:hr></gpxtpx:TrackPointExtension></extensions></trkpt><trkpt lat="35.95065877" lon="120.21101008"><ele>-3.0</ele><time>2022-05-15T12:11:28Z</time></trkpt><trkpt lat="35.95069544" lon="120.21100476"><ele>-3.0</ele><time>2022-05-15T12:11:29Z</time><extensions><gpxtpx:TrackPointExtension><gpxtpx:hr>129</gpxtpx:hr></gpxtpx:TrackPointExtension></extensions></trkpt><trkpt lat="35.95073377" lon="120.21099709"><ele>-3.0</ele><time>2022-05-15T12:11:30Z</time><extensions><gpxtpx:TrackPointExtension><gpxtpx:hr>130</gpxtpx:hr></gpxtpx:TrackPointExtension></extensions></trkpt><trkpt lat="35.95075709" lon="120.21101909"><ele>-3.0</ele><time>2022-05-15T12:11:31Z</time></trkpt><trkpt lat="35.95078042" lon="120.21102708"><ele>-3.0</ele><time>2022-05-15T12:11:32Z</time></trkpt><trkpt lat="35.95079042" lon="120.21103175"><ele>-3.0</ele><time>2022-05-15T12:11:33Z</time></trkpt><trkpt lat="35.95080041" lon="120.21103008"><ele>-3.0</ele><time>2022-05-15T12:11:34Z</time></trkpt><trkpt lat="35.95081707" lon="120.21101843"><ele>-3.0</ele><time>2022-05-15T12:11:35Z</time><extensions><gpxtpx:TrackPointExtension><gpxtpx:hr>130</gpxtpx:hr></gpxtpx:TrackPointExtension></extensions></trkpt><trkpt lat="35.95084374" lon="120.2109841"><ele>-3.0</ele><time>2022-05-15T12:11:36Z</time></trkpt><trkpt lat="35.9508704" lon="120.21096577"><ele>-3.0</ele><time>2022-05-15T12:11:37Z</time></trkpt><trkpt lat="35.95089706" lon="120.21095577"><ele>-3.0</ele><time>2022-05-15T12:11:38Z</time></trkpt><trkpt lat="35.95091539" lon="120.21095045"><ele>-3.0</ele><time>2022-05-15T12:11:39Z</time></trkpt><trkpt lat="35.95092539" lon="120.21094711"><ele>-3.0</ele><time>2022-05-15T12:11:40Z</time><extensions><gpxtpx:TrackPointExtension><gpxtpx:hr>130</gpxtpx:hr></gpxtpx:TrackPointExtension></extensions></trkpt><trkpt lat="35.95093872" lon="120.21094179"><ele>-3.0</ele><time>2022-05-15T12:11:41Z</time></trkpt><trkpt lat="35.95096204" lon="120.21093446"><ele>-3.0</ele><time>2022-05-15T12:11:42Z</time><extensions><gpxtpx:TrackPointExtension><gpxtpx:hr>131</gpxtpx:hr></gpxtpx:TrackPointExtension></extensions></trkpt><trkpt lat="35.95097871" lon="120.21092979"><ele>-3.0</ele><time>2022-05-15T12:11:43Z</time><extensions><gpxtpx:TrackPointExtension><gpxtpx:hr>132</gpxtpx:hr></gpxtpx:TrackPointExtension></extensions></trkpt><trkpt lat="35.9509987" lon="120.2109238"><ele>-3.0</ele><time>2022-05-15T12:11:44Z</time><extensions><gpxtpx:TrackPointExtension><gpxtpx:hr>133</gpxtpx:hr></gpxtpx:TrackPointExtension></extensions></trkpt><trkpt lat="35.95102702" lon="120.21091314"><ele>-3.0</ele><time>2022-05-15T12:11:45Z</time></trkpt><trkpt lat="35.95105536" lon="120.21090214"><ele>-3.0</ele><time>2022-05-15T12:11:46Z</time><extensions><gpxtpx:TrackPointExtension><gpxtpx:hr>134</gpxtpx:hr></gpxtpx:TrackPointExtension></extensions></trkpt><trkpt lat="35.95107868" lon="120.21089649"><ele>-3.0</ele><time>2022-05-15T12:11:47Z</time><extensions><gpxtpx:TrackPointExtension><gpxtpx:hr>135</gpxtpx:hr></gpxtpx:TrackPointExtension></extensions></trkpt><trkpt lat="35.95109867" lon="120.21089249"><ele>-3.0</ele><time>2022-05-15T12:11:48Z</time></trkpt><trkpt lat="35.95111367" lon="120.2108905"><ele>-3.0</ele><time>2022-05-15T12:11:49Z</time></trkpt><trkpt lat="35.951127" lon="120.21088783"><ele>-3.0</ele><time>2022-05-15T12:11:50Z</time><extensions><gpxtpx:TrackPointExtension><gpxtpx:hr>133</gpxtpx:hr></gpxtpx:TrackPointExtension></extensions></trkpt><trkpt lat="35.95114533" lon="120.21088417"><ele>-4.0</ele><time>2022-05-15T12:11:51Z</time></trkpt><trkpt lat="35.95116032" lon="120.21088085"><ele>-4.0</ele><time>2022-05-15T12:11:52Z</time><extensions><gpxtpx:TrackPointExtension><gpxtpx:hr>132</gpxtpx:hr></gpxtpx:TrackPointExtension></extensions></trkpt><trkpt lat="35.95117532" lon="120.21087719"><ele>-4.0</ele><time>2022-05-15T12:11:53Z</time><extensions><gpxtpx:TrackPointExtension><gpxtpx:hr>131</gpxtpx:hr></gpxtpx:TrackPointExtension></extensions></trkpt><trkpt lat="35.95118697" lon="120.21087319"><ele>-4.0</ele><time>2022-05-15T12:11:54Z</time></trkpt><trkpt lat="35.95119696" lon="120.21087053"><ele>-4.0</ele><time>2022-05-15T12:11:55Z</time></trkpt><trkpt lat="35.9512103" lon="120.21086786"><ele>-4.0</ele><time>2022-05-15T12:11:56Z</time></trkpt><trkpt lat="35.95122696" lon="120.21086587"><ele>-4.0</ele><time>2022-05-15T12:11:57Z</time></trkpt><trkpt lat="35.95123862" lon="120.21086388"><ele>-4.0</ele><time>2022-05-15T12:11:58Z</time></trkpt><trkpt lat="35.95124862" lon="120.21086321"><ele>-4.0</ele><time>2022-05-15T12:11:59Z</time><extensions><gpxtpx:TrackPointExtension><gpxtpx:hr>131</gpxtpx:hr></gpxtpx:TrackPointExtension></extensions></trkpt><trkpt lat="35.95126529" lon="120.21086022"><ele>-4.0</ele><time>2022-05-15T12:12:00Z</time></trkpt><trkpt lat="35.95127528" lon="120.21085856"><ele>-4.0</ele><time>2022-05-15T12:12:01Z</time></trkpt><trkpt lat="35.95129527" lon="120.21085356"><ele>-4.0</ele><time>2022-05-15T12:12:02Z</time></trkpt><trkpt lat="35.95131027" lon="120.21085089"><ele>-4.0</ele><time>2022-05-15T12:12:03Z</time><extensions><gpxtpx:TrackPointExtension><gpxtpx:hr>129</gpxtpx:hr></gpxtpx:TrackPointExtension></extensions></trkpt><trkpt lat="35.95132359" lon="120.21085057"><ele>-4.0</ele><time>2022-05-15T12:12:04Z</time></trkpt><trkpt lat="35.95133692" lon="120.2108909"><ele>-4.0</ele><time>2022-05-15T12:12:05Z</time></trkpt><trkpt lat="35.95134858" lon="120.21090756"><ele>-4.0</ele><time>2022-05-15T12:12:06Z</time><extensions><gpxtpx:TrackPointExtension><gpxtpx:hr>128</gpxtpx:hr></gpxtpx:TrackPointExtension></extensions></trkpt><trkpt lat="35.95135691" lon="120.2108989"><ele>-4.0</ele><time>2022-05-15T12:12:07Z</time></trkpt><trkpt lat="35.95137191" lon="120.2108839"><ele>-4.0</ele><time>2022-05-15T12:12:08Z</time></trkpt><trkpt lat="35.95139357" lon="120.21087758"><ele>-4.0</ele><time>2022-05-15T12:12:09Z</time><extensions><gpxtpx:TrackPointExtension><gpxtpx:hr>127</gpxtpx:hr></gpxtpx:TrackPointExtension></extensions></trkpt><trkpt lat="35.9514119" lon="120.2108839"><ele>-4.0</ele><time>2022-05-15T12:12:10Z</time></trkpt><trkpt lat="35.95142523" lon="120.21088489"><ele>-4.0</ele><time>2022-05-15T12:12:11Z</time></trkpt><trkpt lat="35.95144189" lon="120.21088223"><ele>-4.0</ele><time>2022-05-15T12:12:12Z</time></trkpt><trkpt lat="35.95146356" lon="120.21088589"><ele>-4.0</ele><time>2022-05-15T12:12:13Z</time><extensions><gpxtpx:TrackPointExtension><gpxtpx:hr>128</gpxtpx:hr></gpxtpx:TrackPointExtension></extensions></trkpt><trkpt lat="35.95147855" lon="120.21089455"><ele>-4.0</ele><time>2022-05-15T12:12:14Z</time></trkpt><trkpt lat="35.95149188" lon="120.21089754"><ele>-4.0</ele><time>2022-05-15T12:12:15Z</time></trkpt><trkpt lat="35.95151187" lon="120.21089655"><ele>-4.0</ele><time>2022-05-15T12:12:16Z</time></trkpt><trkpt lat="35.95153354" lon="120.21089356"><ele>-4.0</ele><time>2022-05-15T12:12:17Z</time></trkpt><trkpt lat="35.95155353" lon="120.21089122"><ele>-4.0</ele><time>2022-05-15T12:12:18Z</time><extensions><gpxtpx:TrackPointExtension><gpxtpx:hr>129</gpxtpx:hr></gpxtpx:TrackPointExtension></extensions></trkpt><trkpt lat="35.95158519" lon="120.2108859"><ele>-4.0</ele><time>2022-05-15T12:12:18Z</time></trkpt><trkpt lat="35.95160019" lon="120.21089256"><ele>-4.0</ele><time>2022-05-15T12:12:19Z</time></trkpt><trkpt lat="35.95162684" lon="120.21090589"><ele>-4.0</ele><time>2022-05-15T12:12:20Z</time></trkpt><trkpt lat="35.95164851" lon="120.21092089"><ele>-4.0</ele><time>2022-05-15T12:12:21Z</time></trkpt><trkpt lat="35.95166518" lon="120.21092089"><ele>-4.0</ele><time>2022-05-15T12:12:22Z</time></trkpt><trkpt lat="35.95169851" lon="120.21091922"><ele>-4.0</ele><time>2022-05-15T12:12:23Z</time><extensions><gpxtpx:TrackPointExtension><gpxtpx:hr>129</gpxtpx:hr></gpxtpx:TrackPointExtension></extensions></trkpt><trkpt lat="35.95172517" lon="120.21091289"><ele>-4.0</ele><time>2022-05-15T12:12:24Z</time></trkpt><trkpt lat="35.9517435" lon="120.21090623"><ele>-4.0</ele><time>2022-05-15T12:12:25Z</time></trkpt><trkpt lat="35.95177683" lon="120.21089424"><ele>-4.0</ele><time>2022-05-15T12:12:26Z</time><extensions><gpxtpx:TrackPointExtension><gpxtpx:hr>128</gpxtpx:hr></gpxtpx:TrackPointExtension></extensions></trkpt><trkpt lat="35.95179682" lon="120.21088391"><ele>-4.0</ele><time>2022-05-15T12:12:27Z</time></trkpt><trkpt lat="35.95181181" lon="120.21087558"><ele>-4.0</ele><time>2022-05-15T12:12:28Z</time></trkpt><trkpt lat="35.95182347" lon="120.21086892"><ele>-4.0</ele><time>2022-05-15T12:12:29Z</time><extensions><gpxtpx:TrackPointExtension><gpxtpx:hr>127</gpxtpx:hr></gpxtpx:TrackPointExtension></extensions></trkpt><trkpt lat="35.9518318" lon="120.21086392"><ele>-4.0</ele><time>2022-05-15T12:12:30Z</time></trkpt><trkpt lat="35.9518368" lon="120.21085992"><ele>-4.0</ele><time>2022-05-15T12:12:31Z</time></trkpt><trkpt lat="35.9518418" lon="120.21085626"><ele>-4.0</ele><time>2022-05-15T12:12:32Z</time></trkpt><trkpt lat="35.95185014" lon="120.21085093"><ele>-4.0</ele><time>2022-05-15T12:12:33Z</time></trkpt><trkpt lat="35.95186013" lon="120.21084461"><ele>-4.0</ele><time>2022-05-15T12:12:34Z</time></trkpt><trkpt lat="35.95187346" lon="120.21083728"><ele>-4.0</ele><time>2022-05-15T12:12:35Z</time><extensions><gpxtpx:TrackPointExtension><gpxtpx:hr>127</gpxtpx:hr></gpxtpx:TrackPointExtension></extensions></trkpt><trkpt lat="35.95188345" lon="120.21083128"><ele>-4.0</ele><time>2022-05-15T12:12:36Z</time><extensions><gpxtpx:TrackPointExtension><gpxtpx:hr>126</gpxtpx:hr></gpxtpx:TrackPointExtension></extensions></trkpt><trkpt lat="35.95189178" lon="120.21082729"><ele>-4.0</ele><time>2022-05-15T12:12:37Z</time></trkpt><trkpt lat="35.95190845" lon="120.21082596"><ele>-4.0</ele><time>2022-05-15T12:12:38Z</time><extensions><gpxtpx:TrackPointExtension><gpxtpx:hr>127</gpxtpx:hr></gpxtpx:TrackPointExtension></extensions></trkpt><trkpt lat="35.95192512" lon="120.21081763"><ele>-4.0</ele><time>2022-05-15T12:12:39Z</time><extensions><gpxtpx:TrackPointExtension><gpxtpx:hr>126</gpxtpx:hr></gpxtpx:TrackPointExtension></extensions></trkpt><trkpt lat="35.95194844" lon="120.21080564"><ele>-4.0</ele><time>2022-05-15T12:12:40Z</time></trkpt><trkpt lat="35.95197344" lon="120.2107953"><ele>-4.0</ele><time>2022-05-15T12:12:41Z</time></trkpt><trkpt lat="35.95199677" lon="120.2107843"><ele>-4.0</ele><time>2022-05-15T12:12:42Z</time></trkpt><trkpt lat="35.9520201" lon="120.21077097"><ele>-4.0</ele><time>2022-05-15T12:12:43Z</time><extensions><gpxtpx:TrackPointExtension><gpxtpx:hr>125</gpxtpx:hr></gpxtpx:TrackPointExtension></extensions></trkpt><trkpt lat="35.95204176" lon="120.21076165"><ele>-3.0</ele><time>2022-05-15T12:12:44Z</time></trkpt><trkpt lat="35.95206842" lon="120.21074966"><ele>-3.0</ele><time>2022-05-15T12:12:45Z</time></trkpt><trkpt lat="35.95209509" lon="120.21073799"><ele>-3.0</ele><time>2022-05-15T12:12:46Z</time><extensions><gpxtpx:TrackPointExtension><gpxtpx:hr>126</gpxtpx:hr></gpxtpx:TrackPointExtension></extensions></trkpt><trkpt lat="35.95212341" lon="120.21072733"><ele>-3.0</ele><time>2022-05-15T12:12:47Z</time></trkpt><trkpt lat="35.95214173" lon="120.21072"><ele>-3.0</ele><time>2022-05-15T12:12:48Z</time></trkpt><trkpt lat="35.95216673" lon="120.21071068"><ele>-2.0</ele><time>2022-05-15T12:12:49Z</time></trkpt><trkpt lat="35.9521934" lon="120.21070068"><ele>-2.0</ele><time>2022-05-15T12:12:50Z</time></trkpt><trkpt lat="35.95222506" lon="120.21068801"><ele>-2.0</ele><time>2022-05-15T12:12:51Z</time></trkpt><trkpt lat="35.95225006" lon="120.21067835"><ele>-2.0</ele><time>2022-05-15T12:12:52Z</time><extensions><gpxtpx:TrackPointExtension><gpxtpx:hr>125</gpxtpx:hr></gpxtpx:TrackPointExtension></extensions></trkpt><trkpt lat="35.95227506" lon="120.2106697"><ele>-2.0</ele><time>2022-05-15T12:12:53Z</time><extensions><gpxtpx:TrackPointExtension><gpxtpx:hr>126</gpxtpx:hr></gpxtpx:TrackPointExtension></extensions></trkpt><trkpt lat="35.95229838" lon="120.2106617"><ele>-2.0</ele><time>2022-05-15T12:12:54Z</time></trkpt><trkpt lat="35.95231837" lon="120.21065437"><ele>-2.0</ele><time>2022-05-15T12:12:55Z</time></trkpt><trkpt lat="35.95234503" lon="120.21064337"><ele>-2.0</ele><time>2022-05-15T12:12:56Z</time></trkpt><trkpt lat="35.95237003" lon="120.21063205"><ele>-2.0</ele><time>2022-05-15T12:12:57Z</time></trkpt><trkpt lat="35.95239336" lon="120.21062272"><ele>-2.0</ele><time>2022-05-15T12:12:58Z</time></trkpt><trkpt lat="35.95241335" lon="120.21061306"><ele>-2.0</ele><time>2022-05-15T12:12:59Z</time><extensions><gpxtpx:TrackPointExtension><gpxtpx:hr>126</gpxtpx:hr></gpxtpx:TrackPointExtension></extensions></trkpt><trkpt lat="35.95243501" lon="120.21060274"><ele>-1.0</ele><time>2022-05-15T12:13:00Z</time></trkpt><trkpt lat="35.95246001" lon="120.21059274"><ele>-1.0</ele><time>2022-05-15T12:13:01Z</time></trkpt><trkpt lat="35.95247834" lon="120.21058475"><ele>-1.0</ele><time>2022-05-15T12:13:02Z</time></trkpt><trkpt lat="35.95249833" lon="120.21057808"><ele>-1.0</ele><time>2022-05-15T12:13:03Z</time></trkpt><trkpt lat="35.95251332" lon="120.21057342"><ele>-1.0</ele><time>2022-05-15T12:13:04Z</time></trkpt><trkpt lat="35.95253832" lon="120.21056509"><ele>-1.0</ele><time>2022-05-15T12:13:05Z</time><extensions><gpxtpx:TrackPointExtension><gpxtpx:hr>127</gpxtpx:hr></gpxtpx:TrackPointExtension></extensions></trkpt><trkpt lat="35.95255331" lon="120.21056042"><ele>-1.0</ele><time>2022-05-15T12:13:06Z</time></trkpt><trkpt lat="35.95256498" lon="120.21055643"><ele>-1.0</ele><time>2022-05-15T12:13:07Z</time><extensions><gpxtpx:TrackPointExtension><gpxtpx:hr>128</gpxtpx:hr></gpxtpx:TrackPointExtension></extensions></trkpt><trkpt lat="35.9525783" lon="120.21055243"><ele>-1.0</ele><time>2022-05-15T12:13:08Z</time></trkpt><trkpt lat="35.95259163" lon="120.21054743"><ele>-1.0</ele><time>2022-05-15T12:13:09Z</time></trkpt><trkpt lat="35.95259997" lon="120.21054578"><ele>-1.0</ele><time>2022-05-15T12:13:10Z</time></trkpt><trkpt lat="35.95260329" lon="120.2105461"><ele>-1.0</ele><time>2022-05-15T12:13:11Z</time></trkpt><trkpt lat="35.95260496" lon="120.21054578"><ele>-1.0</ele><time>2022-05-15T12:13:12Z</time><extensions><gpxtpx:TrackPointExtension><gpxtpx:hr>128</gpxtpx:hr></gpxtpx:TrackPointExtension></extensions></trkpt><trkpt lat="35.95261329" lon="120.21054411"><ele>-1.0</ele><time>2022-05-15T12:13:13Z</time></trkpt><trkpt lat="35.95261995" lon="120.21054144"><time>2022-05-15T12:13:14Z</time><extensions><gpxtpx:TrackPointExtension><gpxtpx:hr>129</gpxtpx:hr></gpxtpx:TrackPointExtension></extensions></trkpt><trkpt lat="35.95262661" lon="120.21053778"><time>2022-05-15T12:13:15Z</time></trkpt><trkpt lat="35.95263494" lon="120.21052778"><time>2022-05-15T12:13:16Z</time><extensions><gpxtpx:TrackPointExtension><gpxtpx:hr>128</gpxtpx:hr></gpxtpx:TrackPointExtension></extensions></trkpt><trkpt lat="35.9526516" lon="120.21051445"><time>2022-05-15T12:13:17Z</time></trkpt><trkpt lat="35.95266494" lon="120.21049945"><time>2022-05-15T12:13:18Z</time></trkpt><trkpt lat="35.95267327" lon="120.21048313"><time>2022-05-15T12:13:19Z</time><extensions><gpxtpx:TrackPointExtension><gpxtpx:hr>127</gpxtpx:hr></gpxtpx:TrackPointExtension></extensions></trkpt><trkpt lat="35.95267993" lon="120.21046546"><time>2022-05-15T12:13:20Z</time></trkpt><trkpt lat="35.95268993" lon="120.21044281"><time>2022-05-15T12:13:21Z</time></trkpt><trkpt lat="35.95270326" lon="120.21042615"><time>2022-05-15T12:13:22Z</time></trkpt><trkpt lat="35.95271492" lon="120.21040983"><time>2022-05-15T12:13:23Z</time><extensions><gpxtpx:TrackPointExtension><gpxtpx:hr>126</gpxtpx:hr></gpxtpx:TrackPointExtension></extensions></trkpt><trkpt lat="35.95272491" lon="120.21039516"><time>2022-05-15T12:13:24Z</time></trkpt><trkpt lat="35.95273824" lon="120.2103805"><time>2022-05-15T12:13:25Z</time></trkpt><trkpt lat="35.95274824" lon="120.2103695"><time>2022-05-15T12:13:26Z</time></trkpt><trkpt lat="35.95276157" lon="120.21035485"><time>2022-05-15T12:13:27Z</time></trkpt><trkpt lat="35.95277156" lon="120.21034651"><time>2022-05-15T12:13:28Z</time></trkpt><trkpt lat="35.95278156" lon="120.21033818"><time>2022-05-15T12:13:29Z</time><extensions><gpxtpx:TrackPointExtension><gpxtpx:hr>126</gpxtpx:hr></gpxtpx:TrackPointExtension></extensions></trkpt><trkpt lat="35.95279489" lon="120.21032919"><time>2022-05-15T12:13:30Z</time><extensions><gpxtpx:TrackPointExtension><gpxtpx:hr>125</gpxtpx:hr></gpxtpx:TrackPointExtension></extensions></trkpt><trkpt lat="35.95281488" lon="120.21031919"><time>2022-05-15T12:13:31Z</time></trkpt><trkpt lat="35.95283321" lon="120.21031419"><time>2022-05-15T12:13:32Z</time></trkpt><trkpt lat="35.95285154" lon="120.21033118"><time>2022-05-15T12:13:33Z</time></trkpt><trkpt lat="35.95287653" lon="120.21032451"><time>2022-05-15T12:13:34Z</time><extensions><gpxtpx:TrackPointExtension><gpxtpx:hr>124</gpxtpx:hr></gpxtpx:TrackPointExtension></extensions></trkpt><trkpt lat="35.9528982" lon="120.21031519"><time>2022-05-15T12:13:35Z</time></trkpt><trkpt lat="35.95291653" lon="120.21029953"><time>2022-05-15T12:13:36Z</time></trkpt><trkpt lat="35.95292486" lon="120.21029087"><time>2022-05-15T12:13:37Z</time></trkpt><trkpt lat="35.95294486" lon="120.21025954"><time>2022-05-15T12:13:38Z</time></trkpt><trkpt lat="35.95295319" lon="120.21024621"><time>2022-05-15T12:13:39Z</time><extensions><gpxtpx:TrackPointExtension><gpxtpx:hr>123</gpxtpx:hr></gpxtpx:TrackPointExtension></extensions></trkpt><trkpt lat="35.95297485" lon="120.21022421"><time>2022-05-15T12:13:40Z</time></trkpt><trkpt lat="35.95298985" lon="120.21020289"><time>2022-05-15T12:13:41Z</time><extensions><gpxtpx:TrackPointExtension><gpxtpx:hr>124</gpxtpx:hr></gpxtpx:TrackPointExtension></extensions></trkpt><trkpt lat="35.95300817" lon="120.21017789"><time>2022-05-15T12:13:42Z</time></trkpt><trkpt lat="35.95301983" lon="120.21015123"><time>2022-05-15T12:13:43Z</time><extensions><gpxtpx:TrackPointExtension><gpxtpx:hr>125</gpxtpx:hr></gpxtpx:TrackPointExtension></extensions></trkpt><trkpt lat="35.95303049" lon="120.2101329"><time>2022-05-15T12:13:44Z</time><extensions><gpxtpx:TrackPointExtension><gpxtpx:hr>126</gpxtpx:hr></gpxtpx:TrackPointExtension></extensions></trkpt><trkpt lat="35.95304449" lon="120.21011291"><time>2022-05-15T12:13:45Z</time></trkpt><trkpt lat="35.95306649" lon="120.21008457"><time>2022-05-15T12:13:46Z</time><extensions><gpxtpx:TrackPointExtension><gpxtpx:hr>127</gpxtpx:hr></gpxtpx:TrackPointExtension></extensions></trkpt><trkpt lat="35.95308648" lon="120.21004791"><time>2022-05-15T12:13:47Z</time></trkpt><trkpt lat="35.95310647" lon="120.21001625"><time>2022-05-15T12:13:48Z</time></trkpt><trkpt lat="35.95312646" lon="120.20998293"><time>2022-05-15T12:13:49Z</time></trkpt><trkpt lat="35.9531428" lon="120.20996126"><time>2022-05-15T12:13:50Z</time><extensions><gpxtpx:TrackPointExtension><gpxtpx:hr>128</gpxtpx:hr></gpxtpx:TrackPointExtension></extensions></trkpt><trkpt lat="35.9531568" lon="120.2099446"><time>2022-05-15T12:13:51Z</time></trkpt><trkpt lat="35.95317979" lon="120.2099246"><time>2022-05-15T12:13:52Z</time></trkpt><trkpt lat="35.95319312" lon="120.20990461"><time>2022-05-15T12:13:53Z</time></trkpt><trkpt lat="35.95321144" lon="120.20987929"><time>2022-05-15T12:13:54Z</time><extensions><gpxtpx:TrackPointExtension><gpxtpx:hr>129</gpxtpx:hr></gpxtpx:TrackPointExtension></extensions></trkpt><trkpt lat="35.95322311" lon="120.20984629"><time>2022-05-15T12:13:55Z</time></trkpt><trkpt lat="35.95323643" lon="120.2098163"><time>2022-05-15T12:13:56Z</time></trkpt><trkpt lat="35.9532521" lon="120.20978963"><time>2022-05-15T12:13:57Z</time></trkpt><trkpt lat="35.95326442" lon="120.20976631"><time>2022-05-15T12:13:58Z</time></trkpt><trkpt lat="35.95327908" lon="120.20974131"><time>2022-05-15T12:13:59Z</time></trkpt><trkpt lat="35.95328808" lon="120.20972965"><time>2022-05-15T12:14:00Z</time><extensions><gpxtpx:TrackPointExtension><gpxtpx:hr>127</gpxtpx:hr></gpxtpx:TrackPointExtension></extensions></trkpt><trkpt lat="35.95329874" lon="120.20971465"><time>2022-05-15T12:14:01Z</time></trkpt><trkpt lat="35.95330907" lon="120.20969799"><time>2022-05-15T12:14:02Z</time></trkpt><trkpt lat="35.95331374" lon="120.20969132"><time>2022-05-15T12:14:03Z</time><extensions><gpxtpx:TrackPointExtension><gpxtpx:hr>126</gpxtpx:hr></gpxtpx:TrackPointExtension></extensions></trkpt><trkpt lat="35.95332606" lon="120.20966966"><time>2022-05-15T12:14:04Z</time></trkpt><trkpt lat="35.95333472" lon="120.209653"><time>2022-05-15T12:14:05Z</time></trkpt><trkpt lat="35.95334238" lon="120.209638"><time>2022-05-15T12:14:06Z</time></trkpt><trkpt lat="35.95335104" lon="120.20962134"><time>2022-05-15T12:14:07Z</time></trkpt><trkpt lat="35.95335736" lon="120.20960801"><time>2022-05-15T12:14:08Z</time><extensions><gpxtpx:TrackPointExtension><gpxtpx:hr>126</gpxtpx:hr></gpxtpx:TrackPointExtension></extensions></trkpt><trkpt lat="35.9533657" lon="120.20959135"><time>2022-05-15T12:14:09Z</time></trkpt><trkpt lat="35.9533727" lon="120.20957635"><time>2022-05-15T12:14:10Z</time></trkpt><trkpt lat="35.95337902" lon="120.20956468"><time>2022-05-15T12:14:11Z</time></trkpt><trkpt lat="35.95338234" lon="120.20955968"><time>2022-05-15T12:14:12Z</time></trkpt><trkpt lat="35.95338434" lon="120.20955636"><time>2022-05-15T12:14:13Z</time><extensions><gpxtpx:TrackPointExtension><gpxtpx:hr>127</gpxtpx:hr></gpxtpx:TrackPointExtension></extensions></trkpt><trkpt lat="35.95338634" lon="120.20955136"><time>2022-05-15T12:14:14Z</time></trkpt><trkpt lat="35.95338933" lon="120.20954637"><time>2022-05-15T12:14:15Z</time></trkpt><trkpt lat="35.95339299" lon="120.2095397"><time>2022-05-15T12:14:16Z</time></trkpt><trkpt lat="35.95339965" lon="120.20952637"><time>2022-05-15T12:14:17Z</time></trkpt><trkpt lat="35.95340931" lon="120.20950804"><time>2022-05-15T12:14:18Z</time><extensions><gpxtpx:TrackPointExtension><gpxtpx:hr>127</gpxtpx:hr></gpxtpx:TrackPointExtension></extensions></trkpt><trkpt lat="35.95342065" lon="120.20948638"><time>2022-05-15T12:14:19Z</time></trkpt><trkpt lat="35.95342964" lon="120.20946972"><time>2022-05-15T12:14:20Z</time></trkpt><trkpt lat="35.9534403" lon="120.20944972"><time>2022-05-15T12:14:21Z</time></trkpt><trkpt lat="35.95345229" lon="120.20942806"><time>2022-05-15T12:14:22Z</time></trkpt><trkpt lat="35.95346496" lon="120.20940473"><time>2022-05-15T12:14:23Z</time><extensions><gpxtpx:TrackPointExtension><gpxtpx:hr>126</gpxtpx:hr></gpxtpx:TrackPointExtension></extensions></trkpt><trkpt lat="35.95347595" lon="120.20938473"><time>2022-05-15T12:14:24Z</time><extensions><gpxtpx:TrackPointExtension><gpxtpx:hr>128</gpxtpx:hr></gpxtpx:TrackPointExtension></extensions></trkpt><trkpt lat="35.95348695" lon="120.20936641"><time>2022-05-15T12:14:25Z</time><extensions><gpxtpx:TrackPointExtension><gpxtpx:hr>129</gpxtpx:hr></gpxtpx:TrackPointExtension></extensions></trkpt><trkpt lat="35.95349995" lon="120.20934474"><time>2022-05-15T12:14:26Z</time></trkpt><trkpt lat="35.95351328" lon="120.20932308"><time>2022-05-15T12:14:27Z</time><extensions><gpxtpx:TrackPointExtension><gpxtpx:hr>130</gpxtpx:hr></gpxtpx:TrackPointExtension></extensions></trkpt><trkpt lat="35.95353194" lon="120.20928975"><time>2022-05-15T12:14:28Z</time></trkpt><trkpt lat="35.95354661" lon="120.20926309"><time>2022-05-15T12:14:29Z</time></trkpt><trkpt lat="35.9535646" lon="120.2092281"><time>2022-05-15T12:14:30Z</time><extensions><gpxtpx:TrackPointExtension><gpxtpx:hr>131</gpxtpx:hr></gpxtpx:TrackPointExtension></extensions></trkpt><trkpt lat="35.95357992" lon="120.2092031"><time>2022-05-15T12:14:31Z</time><extensions><gpxtpx:TrackPointExtension><gpxtpx:hr>130</gpxtpx:hr></gpxtpx:TrackPointExtension></extensions></trkpt><trkpt lat="35.95359192" lon="120.20918144"><time>2022-05-15T12:14:32Z</time></trkpt><trkpt lat="35.95360458" lon="120.20916144"><time>2022-05-15T12:14:33Z</time><extensions><gpxtpx:TrackPointExtension><gpxtpx:hr>131</gpxtpx:hr></gpxtpx:TrackPointExtension></extensions></trkpt><trkpt lat="35.95361491" lon="120.20914645"><time>2022-05-15T12:14:34Z</time><extensions><gpxtpx:TrackPointExtension><gpxtpx:hr>132</gpxtpx:hr></gpxtpx:TrackPointExtension></extensions></trkpt><trkpt lat="35.95362524" lon="120.20912812"><time>2022-05-15T12:14:35Z</time><extensions><gpxtpx:TrackPointExtension><gpxtpx:hr>133</gpxtpx:hr></gpxtpx:TrackPointExtension></extensions></trkpt><trkpt lat="35.95363657" lon="120.20911145"><time>2022-05-15T12:14:36Z</time></trkpt><trkpt lat="35.95365023" lon="120.20908813"><time>2022-05-15T12:14:37Z</time><extensions><gpxtpx:TrackPointExtension><gpxtpx:hr>134</gpxtpx:hr></gpxtpx:TrackPointExtension></extensions></trkpt><trkpt lat="35.95366323" lon="120.20906813"><time>2022-05-15T12:14:38Z</time><extensions><gpxtpx:TrackPointExtension><gpxtpx:hr>133</gpxtpx:hr></gpxtpx:TrackPointExtension></extensions></trkpt><trkpt lat="35.95367457" lon="120.20905147"><time>2022-05-15T12:14:39Z</time></trkpt><trkpt lat="35.95369156" lon="120.20902314"><time>2022-05-15T12:14:40Z</time></trkpt><trkpt lat="35.95370689" lon="120.20899981"><time>2022-05-15T12:14:41Z</time></trkpt><trkpt lat="35.95371988" lon="120.20897815"><time>2022-05-15T12:14:42Z</time></trkpt><trkpt lat="35.95373055" lon="120.20896315"><time>2022-05-15T12:14:43Z</time><extensions><gpxtpx:TrackPointExtension><gpxtpx:hr>134</gpxtpx:hr></gpxtpx:TrackPointExtension></extensions></trkpt><trkpt lat="35.95374355" lon="120.20894482"><time>2022-05-15T12:14:44Z</time></trkpt><trkpt lat="35.95377287" lon="120.20894317"><time>2022-05-15T12:14:45Z</time></trkpt><trkpt lat="35.95378954" lon="120.20892317"><time>2022-05-15T12:14:46Z</time></trkpt><trkpt lat="35.95379953" lon="120.20889984"><time>2022-05-15T12:14:47Z</time><extensions><gpxtpx:TrackPointExtension><gpxtpx:hr>135</gpxtpx:hr></gpxtpx:TrackPointExtension></extensions></trkpt><trkpt lat="35.95380953" lon="120.20886985"><time>2022-05-15T12:14:48Z</time></trkpt><trkpt lat="35.95382085" lon="120.20884819"><time>2022-05-15T12:14:49Z</time></trkpt><trkpt lat="35.95383452" lon="120.2088182"><time>2022-05-15T12:14:50Z</time></trkpt><trkpt lat="35.95384584" lon="120.20879487"><time>2022-05-15T12:14:51Z</time></trkpt><trkpt lat="35.95385783" lon="120.20876487"><time>2022-05-15T12:14:52Z</time><extensions><gpxtpx:TrackPointExtension><gpxtpx:hr>136</gpxtpx:hr></gpxtpx:TrackPointExtension></extensions></trkpt><trkpt lat="35.95386783" lon="120.20874155"><time>2022-05-15T12:14:53Z</time></trkpt><trkpt lat="35.95387382" lon="120.20872655"><time>2022-05-15T12:14:54Z</time><extensions><gpxtpx:TrackPointExtension><gpxtpx:hr>135</gpxtpx:hr></gpxtpx:TrackPointExtension></extensions></trkpt><trkpt lat="35.95388081" lon="120.20870822"><time>2022-05-15T12:14:55Z</time><extensions><gpxtpx:TrackPointExtension><gpxtpx:hr>134</gpxtpx:hr></gpxtpx:TrackPointExtension></extensions></trkpt><trkpt lat="35.95388814" lon="120.20869156"><time>2022-05-15T12:14:56Z</time></trkpt><trkpt lat="35.95389713" lon="120.20867489"><time>2022-05-15T12:14:57Z</time><extensions><gpxtpx:TrackPointExtension><gpxtpx:hr>133</gpxtpx:hr></gpxtpx:TrackPointExtension></extensions></trkpt><trkpt lat="35.95390447" lon="120.2086599"><time>2022-05-15T12:14:58Z</time></trkpt><trkpt lat="35.95391346" lon="120.20864157"><time>2022-05-15T12:14:59Z</time></trkpt><trkpt lat="35.95392179" lon="120.20862324"><time>2022-05-15T12:15:00Z</time><extensions><gpxtpx:TrackPointExtension><gpxtpx:hr>132</gpxtpx:hr></gpxtpx:TrackPointExtension></extensions></trkpt><trkpt lat="35.95392845" lon="120.20860991"><time>2022-05-15T12:15:01Z</time><extensions><gpxtpx:TrackPointExtension><gpxtpx:hr>133</gpxtpx:hr></gpxtpx:TrackPointExtension></extensions></trkpt><trkpt lat="35.95393444" lon="120.20860158"><time>2022-05-15T12:15:02Z</time><extensions><gpxtpx:TrackPointExtension><gpxtpx:hr>131</gpxtpx:hr></gpxtpx:TrackPointExtension></extensions></trkpt><trkpt lat="35.95394177" lon="120.20858991"><time>2022-05-15T12:15:03Z</time></trkpt><trkpt lat="35.95395777" lon="120.20858158"><time>2022-05-15T12:15:04Z</time><extensions><gpxtpx:TrackPointExtension><gpxtpx:hr>130</gpxtpx:hr></gpxtpx:TrackPointExtension></extensions></trkpt><trkpt lat="35.9539661" lon="120.20857292"><time>2022-05-15T12:15:05Z</time><extensions><gpxtpx:TrackPointExtension><gpxtpx:hr>129</gpxtpx:hr></gpxtpx:TrackPointExtension></extensions></trkpt><trkpt lat="35.95397943" lon="120.2085476"><time>2022-05-15T12:15:06Z</time></trkpt><trkpt lat="35.95398943" lon="120.20852893"><time>2022-05-15T12:15:07Z</time></trkpt><trkpt lat="35.95399443" lon="120.20850661"><time>2022-05-15T12:15:08Z</time></trkpt><trkpt lat="35.95399575" lon="120.20849161"><time>2022-05-15T12:15:09Z</time></trkpt><trkpt lat="35.95399842" lon="120.20848495"><time>2022-05-15T12:15:10Z</time><extensions><gpxtpx:TrackPointExtension><gpxtpx:hr>128</gpxtpx:hr></gpxtpx:TrackPointExtension></extensions></trkpt><trkpt lat="35.95400242" lon="120.20848162"><time>2022-05-15T12:15:11Z</time></trkpt><trkpt lat="35.95400874" lon="120.20847496"><time>2022-05-15T12:15:12Z</time></trkpt><trkpt lat="35.95402106" lon="120.20846996"><time>2022-05-15T12:15:13Z</time></trkpt><trkpt lat="35.95404105" lon="120.20845831"><time>2022-05-15T12:15:14Z</time><extensions><gpxtpx:TrackPointExtension><gpxtpx:hr>127</gpxtpx:hr></gpxtpx:TrackPointExtension></extensions></trkpt><trkpt lat="35.95405439" lon="120.20844764"><time>2022-05-15T12:15:15Z</time></trkpt><trkpt lat="35.95406272" lon="120.20843598"><time>2022-05-15T12:15:16Z</time></trkpt><trkpt lat="35.95407438" lon="120.20841732"><time>2022-05-15T12:15:17Z</time><extensions><gpxtpx:TrackPointExtension><gpxtpx:hr>126</gpxtpx:hr></gpxtpx:TrackPointExtension></extensions></trkpt><trkpt lat="35.95408104" lon="120.20840199"><time>2022-05-15T12:15:18Z</time></trkpt><trkpt lat="35.95408603" lon="120.20837166"><time>2022-05-15T12:15:19Z</time></trkpt><trkpt lat="35.95409103" lon="120.20835833"><time>2022-05-15T12:15:20Z</time></trkpt><trkpt lat="35.95409603" lon="120.208345"><time>2022-05-15T12:15:21Z</time><extensions><gpxtpx:TrackPointExtension><gpxtpx:hr>125</gpxtpx:hr></gpxtpx:TrackPointExtension></extensions></trkpt><trkpt lat="35.95410469" lon="120.20833"><time>2022-05-15T12:15:22Z</time></trkpt><trkpt lat="35.95411135" lon="120.20832335"><time>2022-05-15T12:15:23Z</time></trkpt><trkpt lat="35.95412601" lon="120.20832667"><time>2022-05-15T12:15:24Z</time></trkpt><trkpt lat="35.954136" lon="120.20830834"><time>2022-05-15T12:15:25Z</time><extensions><gpxtpx:TrackPointExtension><gpxtpx:hr>124</gpxtpx:hr></gpxtpx:TrackPointExtension></extensions></trkpt><trkpt lat="35.95414434" lon="120.20829435"><time>2022-05-15T12:15:26Z</time></trkpt><trkpt lat="35.95415434" lon="120.20829201"><time>2022-05-15T12:15:27Z</time></trkpt><trkpt lat="35.95416433" lon="120.20828802"><time>2022-05-15T12:15:28Z</time><extensions><gpxtpx:TrackPointExtension><gpxtpx:hr>123</gpxtpx:hr></gpxtpx:TrackPointExtension></extensions></trkpt><trkpt lat="35.95417598" lon="120.20828835"><time>2022-05-15T12:15:29Z</time></trkpt><trkpt lat="35.95418598" lon="120.20828168"><time>2022-05-15T12:15:30Z</time></trkpt><trkpt lat="35.95419932" lon="120.20827469"><time>2022-05-15T12:15:31Z</time></trkpt><trkpt lat="35.95421598" lon="120.20827269"><time>2022-05-15T12:15:32Z</time><extensions><gpxtpx:TrackPointExtension><gpxtpx:hr>122</gpxtpx:hr></gpxtpx:TrackPointExtension></extensions></trkpt><trkpt lat="35.95422597" lon="120.20826703"><time>2022-05-15T12:15:33Z</time></trkpt><trkpt lat="35.95423263" lon="120.20826138"><time>2022-05-15T12:15:34Z</time></trkpt><trkpt lat="35.95424263" lon="120.20825404"><time>2022-05-15T12:15:35Z</time><extensions><gpxtpx:TrackPointExtension><gpxtpx:hr>121</gpxtpx:hr></gpxtpx:TrackPointExtension></extensions></trkpt><trkpt lat="35.95425263" lon="120.20824672"><time>2022-05-15T12:15:36Z</time></trkpt><trkpt lat="35.95426262" lon="120.20823972"><time>2022-05-15T12:15:37Z</time></trkpt><trkpt lat="35.95427428" lon="120.20823206"><time>2022-05-15T12:15:38Z</time><extensions><gpxtpx:TrackPointExtension><gpxtpx:hr>122</gpxtpx:hr></gpxtpx:TrackPointExtension></extensions></trkpt><trkpt lat="35.95428593" lon="120.20822406"><time>2022-05-15T12:15:39Z</time><extensions><gpxtpx:TrackPointExtension><gpxtpx:hr>123</gpxtpx:hr></gpxtpx:TrackPointExtension></extensions></trkpt><trkpt lat="35.9542926" lon="120.20821874"><time>2022-05-15T12:15:40Z</time></trkpt><trkpt lat="35.95430259" lon="120.20821141"><time>2022-05-15T12:15:41Z</time><extensions><gpxtpx:TrackPointExtension><gpxtpx:hr>122</gpxtpx:hr></gpxtpx:TrackPointExtension></extensions></trkpt><trkpt lat="35.95431092" lon="120.20820607"><time>2022-05-15T12:15:42Z</time><extensions><gpxtpx:TrackPointExtension><gpxtpx:hr>121</gpxtpx:hr></gpxtpx:TrackPointExtension></extensions></trkpt><trkpt lat="35.95432092" lon="120.20819974"><ele>-1.0</ele><time>2022-05-15T12:15:43Z</time></trkpt><trkpt lat="35.95434425" lon="120.20818675"><ele>-1.0</ele><time>2022-05-15T12:15:44Z</time><extensions><gpxtpx:TrackPointExtension><gpxtpx:hr>122</gpxtpx:hr></gpxtpx:TrackPointExtension></extensions></trkpt><trkpt lat="35.95436591" lon="120.20817743"><ele>-1.0</ele><time>2022-05-15T12:15:45Z</time></trkpt><trkpt lat="35.9543859" lon="120.20816943"><ele>-1.0</ele><time>2022-05-15T12:15:46Z</time></trkpt><trkpt lat="35.95440757" lon="120.20815944"><ele>-2.0</ele><time>2022-05-15T12:15:47Z</time></trkpt><trkpt lat="35.95443423" lon="120.20814577"><ele>-2.0</ele><time>2022-05-15T12:15:48Z</time><extensions><gpxtpx:TrackPointExtension><gpxtpx:hr>123</gpxtpx:hr></gpxtpx:TrackPointExtension></extensions></trkpt><trkpt lat="35.95446089" lon="120.20813145"><ele>-2.0</ele><time>2022-05-15T12:15:49Z</time><extensions><gpxtpx:TrackPointExtension><gpxtpx:hr>124</gpxtpx:hr></gpxtpx:TrackPointExtension></extensions></trkpt><trkpt lat="35.95449255" lon="120.20811245"><ele>-2.0</ele><time>2022-05-15T12:15:50Z</time></trkpt><trkpt lat="35.95451587" lon="120.20809645"><ele>-2.0</ele><time>2022-05-15T12:15:51Z</time></trkpt><trkpt lat="35.95453086" lon="120.20808612"><ele>-2.0</ele><time>2022-05-15T12:15:52Z</time><extensions><gpxtpx:TrackPointExtension><gpxtpx:hr>125</gpxtpx:hr></gpxtpx:TrackPointExtension></extensions></trkpt><trkpt lat="35.95456253" lon="120.20806679"><ele>-2.0</ele><time>2022-05-15T12:15:53Z</time></trkpt><trkpt lat="35.95459085" lon="120.20805012"><ele>-2.0</ele><time>2022-05-15T12:15:54Z</time><extensions><gpxtpx:TrackPointExtension><gpxtpx:hr>124</gpxtpx:hr></gpxtpx:TrackPointExtension></extensions></trkpt><trkpt lat="35.95461418" lon="120.20803847"><ele>-2.0</ele><time>2022-05-15T12:15:55Z</time></trkpt><trkpt lat="35.95463417" lon="120.20804012"><ele>-2.0</ele><time>2022-05-15T12:15:56Z</time><extensions><gpxtpx:TrackPointExtension><gpxtpx:hr>123</gpxtpx:hr></gpxtpx:TrackPointExtension></extensions></trkpt><trkpt lat="35.95465583" lon="120.20803347"><ele>-2.0</ele><time>2022-05-15T12:15:57Z</time></trkpt><trkpt lat="35.9546775" lon="120.20802548"><ele>-2.0</ele><time>2022-05-15T12:15:58Z</time></trkpt><trkpt lat="35.95469416" lon="120.20802114"><ele>-2.0</ele><time>2022-05-15T12:15:59Z</time><extensions><gpxtpx:TrackPointExtension><gpxtpx:hr>122</gpxtpx:hr></gpxtpx:TrackPointExtension></extensions></trkpt><trkpt lat="35.95471916" lon="120.20801349"><ele>-2.0</ele><time>2022-05-15T12:16:00Z</time></trkpt><trkpt lat="35.95474249" lon="120.20800483"><ele>-2.0</ele><time>2022-05-15T12:16:01Z</time></trkpt><trkpt lat="35.95476581" lon="120.2079975"><ele>-2.0</ele><time>2022-05-15T12:16:02Z</time></trkpt><trkpt lat="35.95479081" lon="120.20799151"><ele>-2.0</ele><time>2022-05-15T12:16:03Z</time></trkpt><trkpt lat="35.95481414" lon="120.20798452"><ele>-2.0</ele><time>2022-05-15T12:16:04Z</time><extensions><gpxtpx:TrackPointExtension><gpxtpx:hr>123</gpxtpx:hr></gpxtpx:TrackPointExtension></extensions></trkpt><trkpt lat="35.95483746" lon="120.20797785"><ele>-1.0</ele><time>2022-05-15T12:16:05Z</time></trkpt><trkpt lat="35.95485913" lon="120.20796952"><ele>-1.0</ele><time>2022-05-15T12:16:06Z</time></trkpt><trkpt lat="35.95488413" lon="120.20796118"><ele>-1.0</ele><time>2022-05-15T12:16:07Z</time></trkpt><trkpt lat="35.95490913" lon="120.20795386"><ele>-1.0</ele><time>2022-05-15T12:16:08Z</time></trkpt><trkpt lat="35.95493245" lon="120.20794653"><ele>-1.0</ele><time>2022-05-15T12:16:09Z</time><extensions><gpxtpx:TrackPointExtension><gpxtpx:hr>123</gpxtpx:hr></gpxtpx:TrackPointExtension></extensions></trkpt><trkpt lat="35.95495912" lon="120.20793886"><ele>-1.0</ele><time>2022-05-15T12:16:10Z</time></trkpt><trkpt lat="35.95498077" lon="120.20793219"><ele>-1.0</ele><time>2022-05-15T12:16:11Z</time></trkpt><trkpt lat="35.95500911" lon="120.20792119"><ele>-1.0</ele><time>2022-05-15T12:16:12Z</time></trkpt><trkpt lat="35.9550291" lon="120.2079132"><ele>-1.0</ele><time>2022-05-15T12:16:13Z</time></trkpt><trkpt lat="35.95505743" lon="120.2079022"><ele>-1.0</ele><time>2022-05-15T12:16:14Z</time><extensions><gpxtpx:TrackPointExtension><gpxtpx:hr>124</gpxtpx:hr></gpxtpx:TrackPointExtension></extensions></trkpt><trkpt lat="35.95508409" lon="120.20789154"><time>2022-05-15T12:16:15Z</time></trkpt><trkpt lat="35.95510909" lon="120.20788288"><time>2022-05-15T12:16:16Z</time></trkpt><trkpt lat="35.95513574" lon="120.20787388"><time>2022-05-15T12:16:17Z</time></trkpt><trkpt lat="35.95515908" lon="120.20786622"><time>2022-05-15T12:16:18Z</time></trkpt><trkpt lat="35.95518408" lon="120.20785889"><time>2022-05-15T12:16:19Z</time><extensions><gpxtpx:TrackPointExtension><gpxtpx:hr>124</gpxtpx:hr></gpxtpx:TrackPointExtension></extensions></trkpt><trkpt lat="35.9552024" lon="120.2078529"><time>2022-05-15T12:16:20Z</time></trkpt><trkpt lat="35.95523406" lon="120.2078439"><time>2022-05-15T12:16:21Z</time></trkpt><trkpt lat="35.95526906" lon="120.2078329"><ele>1.0</ele><time>2022-05-15T12:16:22Z</time><extensions><gpxtpx:TrackPointExtension><gpxtpx:hr>123</gpxtpx:hr></gpxtpx:TrackPointExtension></extensions></trkpt><trkpt lat="35.95529738" lon="120.20782491"><ele>1.0</ele><time>2022-05-15T12:16:23Z</time></trkpt><trkpt lat="35.95531737" lon="120.20781892"><ele>1.0</ele><time>2022-05-15T12:16:24Z</time></trkpt><trkpt lat="35.95534903" lon="120.20781026"><ele>1.0</ele><time>2022-05-15T12:16:25Z</time></trkpt><trkpt lat="35.95538068" lon="120.20780226"><ele>1.0</ele><time>2022-05-15T12:16:26Z</time></trkpt><trkpt lat="35.95540735" lon="120.20779561"><ele>1.0</ele><time>2022-05-15T12:16:27Z</time></trkpt><trkpt lat="35.95543235" lon="120.20779027"><ele>2.0</ele><time>2022-05-15T12:16:28Z</time><extensions><gpxtpx:TrackPointExtension><gpxtpx:hr>123</gpxtpx:hr></gpxtpx:TrackPointExtension></extensions></trkpt><trkpt lat="35.95545401" lon="120.20778595"><ele>2.0</ele><time>2022-05-15T12:16:29Z</time></trkpt><trkpt lat="35.95547401" lon="120.20778195"><ele>2.0</ele><time>2022-05-15T12:16:30Z</time></trkpt><trkpt lat="35.95550066" lon="120.20777829"><ele>2.0</ele><time>2022-05-15T12:16:31Z</time></trkpt><trkpt lat="35.95552399" lon="120.20777596"><ele>2.0</ele><time>2022-05-15T12:16:32Z</time></trkpt><trkpt lat="35.95554565" lon="120.2077723"><ele>2.0</ele><time>2022-05-15T12:16:33Z</time><extensions><gpxtpx:TrackPointExtension><gpxtpx:hr>122</gpxtpx:hr></gpxtpx:TrackPointExtension></extensions></trkpt><trkpt lat="35.95556732" lon="120.20776864"><ele>3.0</ele><time>2022-05-15T12:16:33Z</time></trkpt><trkpt lat="35.95558731" lon="120.20776364"><ele>3.0</ele><time>2022-05-15T12:16:34Z</time></trkpt><trkpt lat="35.95560563" lon="120.20775864"><ele>3.0</ele><time>2022-05-15T12:16:35Z</time><extensions><gpxtpx:TrackPointExtension><gpxtpx:hr>123</gpxtpx:hr></gpxtpx:TrackPointExtension></extensions></trkpt><trkpt lat="35.95562063" lon="120.20775431"><ele>3.0</ele><time>2022-05-15T12:16:36Z</time></trkpt><trkpt lat="35.95563229" lon="120.20775065"><ele>3.0</ele><time>2022-05-15T12:16:37Z</time></trkpt><trkpt lat="35.95564228" lon="120.20774565"><ele>3.0</ele><time>2022-05-15T12:16:38Z</time><extensions><gpxtpx:TrackPointExtension><gpxtpx:hr>124</gpxtpx:hr></gpxtpx:TrackPointExtension></extensions></trkpt><trkpt lat="35.95564895" lon="120.20774298"><ele>3.0</ele><time>2022-05-15T12:16:39Z</time></trkpt><trkpt lat="35.95565728" lon="120.20773832"><ele>3.0</ele><time>2022-05-15T12:16:40Z</time><extensions><gpxtpx:TrackPointExtension><gpxtpx:hr>123</gpxtpx:hr></gpxtpx:TrackPointExtension></extensions></trkpt><trkpt lat="35.95566561" lon="120.20773299"><ele>3.0</ele><time>2022-05-15T12:16:41Z</time></trkpt><trkpt lat="35.9556756" lon="120.20772767"><ele>4.0</ele><time>2022-05-15T12:16:42Z</time></trkpt><trkpt lat="35.9556856" lon="120.20772168"><ele>4.0</ele><time>2022-05-15T12:16:43Z</time></trkpt><trkpt lat="35.95569559" lon="120.20771535"><ele>4.0</ele><time>2022-05-15T12:16:44Z</time></trkpt><trkpt lat="35.95570393" lon="120.20770802"><ele>4.0</ele><time>2022-05-15T12:16:45Z</time><extensions><gpxtpx:TrackPointExtension><gpxtpx:hr>124</gpxtpx:hr></gpxtpx:TrackPointExtension></extensions></trkpt><trkpt lat="35.95571393" lon="120.20770203"><ele>4.0</ele><time>2022-05-15T12:16:46Z</time></trkpt><trkpt lat="35.95572058" lon="120.2076967"><ele>4.0</ele><time>2022-05-15T12:16:47Z</time></trkpt><trkpt lat="35.95572892" lon="120.20768971"><ele>4.0</ele><time>2022-05-15T12:16:48Z</time></trkpt><trkpt lat="35.95573392" lon="120.20768505"><ele>4.0</ele><time>2022-05-15T12:16:49Z</time></trkpt><trkpt lat="35.95574057" lon="120.20767872"><ele>4.0</ele><time>2022-05-15T12:16:50Z</time><extensions><gpxtpx:TrackPointExtension><gpxtpx:hr>125</gpxtpx:hr></gpxtpx:TrackPointExtension></extensions></trkpt><trkpt lat="35.95574891" lon="120.20767338"><ele>4.0</ele><time>2022-05-15T12:16:51Z</time></trkpt><trkpt lat="35.95575891" lon="120.20766773"><ele>4.0</ele><time>2022-05-15T12:16:52Z</time><extensions><gpxtpx:TrackPointExtension><gpxtpx:hr>124</gpxtpx:hr></gpxtpx:TrackPointExtension></extensions></trkpt><trkpt lat="35.95577056" lon="120.20766207"><ele>4.0</ele><time>2022-05-15T12:16:53Z</time></trkpt><trkpt lat="35.95577556" lon="120.20765807"><ele>4.0</ele><time>2022-05-15T12:16:54Z</time></trkpt><trkpt lat="35.9557839" lon="120.20765208"><ele>4.0</ele><time>2022-05-15T12:16:55Z</time><extensions><gpxtpx:TrackPointExtension><gpxtpx:hr>123</gpxtpx:hr></gpxtpx:TrackPointExtension></extensions></trkpt><trkpt lat="35.95579555" lon="120.20764609"><ele>4.0</ele><time>2022-05-15T12:16:56Z</time></trkpt><trkpt lat="35.95581054" lon="120.2076391"><ele>4.0</ele><time>2022-05-15T12:16:57Z</time><extensions><gpxtpx:TrackPointExtension><gpxtpx:hr>122</gpxtpx:hr></gpxtpx:TrackPointExtension></extensions></trkpt><trkpt lat="35.9558222" lon="120.20763343"><ele>4.0</ele><time>2022-05-15T12:16:58Z</time><extensions><gpxtpx:TrackPointExtension><gpxtpx:hr>121</gpxtpx:hr></gpxtpx:TrackPointExtension></extensions></trkpt><trkpt lat="35.95583553" lon="120.20762744"><ele>4.0</ele><time>2022-05-15T12:16:59Z</time></trkpt><trkpt lat="35.95584887" lon="120.20762145"><ele>4.0</ele><time>2022-05-15T12:17:00Z</time></trkpt><trkpt lat="35.95585886" lon="120.2076158"><ele>4.0</ele><time>2022-05-15T12:17:01Z</time><extensions><gpxtpx:TrackPointExtension><gpxtpx:hr>119</gpxtpx:hr></gpxtpx:TrackPointExtension></extensions></trkpt><trkpt lat="35.95586552" lon="120.20761246"><ele>3.0</ele><time>2022-05-15T12:17:02Z</time><extensions><gpxtpx:TrackPointExtension><gpxtpx:hr>118</gpxtpx:hr></gpxtpx:TrackPointExtension></extensions></trkpt><trkpt lat="35.95587885" lon="120.20760547"><ele>3.0</ele><time>2022-05-15T12:17:03Z</time></trkpt><trkpt lat="35.95589885" lon="120.20759714"><ele>3.0</ele><time>2022-05-15T12:17:04Z</time><extensions><gpxtpx:TrackPointExtension><gpxtpx:hr>117</gpxtpx:hr></gpxtpx:TrackPointExtension></extensions></trkpt><trkpt lat="35.9559055" lon="120.20759282"><ele>3.0</ele><time>2022-05-15T12:17:05Z</time><extensions><gpxtpx:TrackPointExtension><gpxtpx:hr>116</gpxtpx:hr></gpxtpx:TrackPointExtension></extensions></trkpt><trkpt lat="35.9559155" lon="120.20758715"><ele>3.0</ele><time>2022-05-15T12:17:06Z</time></trkpt><trkpt lat="35.9559155" lon="120.20758549"><ele>3.0</ele><time>2022-05-15T12:17:07Z</time><extensions><gpxtpx:TrackPointExtension><gpxtpx:hr>115</gpxtpx:hr></gpxtpx:TrackPointExtension></extensions></trkpt><trkpt lat="35.95593383" lon="120.20757516"><ele>3.0</ele><time>2022-05-15T12:17:08Z</time><extensions><gpxtpx:TrackPointExtension><gpxtpx:hr>114</gpxtpx:hr></gpxtpx:TrackPointExtension></extensions></trkpt><trkpt lat="35.95595382" lon="120.20756516"><ele>3.0</ele><time>2022-05-15T12:17:09Z</time><extensions><gpxtpx:TrackPointExtension><gpxtpx:hr>113</gpxtpx:hr></gpxtpx:TrackPointExtension></extensions></trkpt><trkpt lat="35.95597381" lon="120.20755484"><ele>3.0</ele><time>2022-05-15T12:17:10Z</time></trkpt><trkpt lat="35.95597713" lon="120.2075505"><ele>3.0</ele><time>2022-05-15T12:17:11Z</time></trkpt><trkpt lat="35.95598046" lon="120.20754485"><ele>3.0</ele><time>2022-05-15T12:17:12Z</time><extensions><gpxtpx:TrackPointExtension><gpxtpx:hr>114</gpxtpx:hr></gpxtpx:TrackPointExtension></extensions></trkpt><trkpt lat="35.95598046" lon="120.20751219"><ele>3.0</ele><time>2022-05-15T12:17:13Z</time></trkpt><trkpt lat="35.95597546" lon="120.20750053"><ele>3.0</ele><time>2022-05-15T12:17:14Z</time><extensions><gpxtpx:TrackPointExtension><gpxtpx:hr>115</gpxtpx:hr></gpxtpx:TrackPointExtension></extensions></trkpt><trkpt lat="35.95598046" lon="120.20748687"><ele>3.0</ele><time>2022-05-15T12:17:15Z</time><extensions><gpxtpx:TrackPointExtension><gpxtpx:hr>116</gpxtpx:hr></gpxtpx:TrackPointExtension></extensions></trkpt><trkpt lat="35.95598379" lon="120.20747553"><ele>3.0</ele><time>2022-05-15T12:17:16Z</time></trkpt><trkpt lat="35.95598544" lon="120.2074622"><ele>3.0</ele><time>2022-05-15T12:17:17Z</time><extensions><gpxtpx:TrackPointExtension><gpxtpx:hr>115</gpxtpx:hr></gpxtpx:TrackPointExtension></extensions></trkpt><trkpt lat="35.95598711" lon="120.20744887"><ele>3.0</ele><time>2022-05-15T12:17:18Z</time></trkpt><trkpt lat="35.95599043" lon="120.20743554"><ele>3.0</ele><time>2022-05-15T12:17:19Z</time></trkpt><trkpt lat="35.9559951" lon="120.20742721"><ele>3.0</ele><time>2022-05-15T12:17:20Z</time></trkpt><trkpt lat="35.95600043" lon="120.20742554"><ele>3.0</ele><time>2022-05-15T12:17:21Z</time></trkpt><trkpt lat="35.95601376" lon="120.20742222"><ele>3.0</ele><time>2022-05-15T12:17:22Z</time><extensions><gpxtpx:TrackPointExtension><gpxtpx:hr>114</gpxtpx:hr></gpxtpx:TrackPointExtension></extensions></trkpt><trkpt lat="35.95602209" lon="120.2074189"><ele>3.0</ele><time>2022-05-15T12:17:23Z</time></trkpt><trkpt lat="35.95602542" lon="120.20741556"><ele>3.0</ele><time>2022-05-15T12:17:24Z</time></trkpt><trkpt lat="35.95603041" lon="120.20738057"><ele>3.0</ele><time>2022-05-15T12:17:25Z</time><extensions><gpxtpx:TrackPointExtension><gpxtpx:hr>115</gpxtpx:hr></gpxtpx:TrackPointExtension></extensions></trkpt><trkpt lat="35.95604041" lon="120.20736224"><ele>3.0</ele><time>2022-05-15T12:17:26Z</time><extensions><gpxtpx:TrackPointExtension><gpxtpx:hr>114</gpxtpx:hr></gpxtpx:TrackPointExtension></extensions></trkpt><trkpt lat="35.95605441" lon="120.20734392"><ele>3.0</ele><time>2022-05-15T12:17:27Z</time></trkpt><trkpt lat="35.95607274" lon="120.20732558"><ele>3.0</ele><time>2022-05-15T12:17:28Z</time><extensions><gpxtpx:TrackPointExtension><gpxtpx:hr>115</gpxtpx:hr></gpxtpx:TrackPointExtension></extensions></trkpt><trkpt lat="35.9560824" lon="120.20731559"><ele>3.0</ele><time>2022-05-15T12:17:29Z</time><extensions><gpxtpx:TrackPointExtension><gpxtpx:hr>113</gpxtpx:hr></gpxtpx:TrackPointExtension></extensions></trkpt><trkpt lat="35.95609173" lon="120.20730726"><ele>3.0</ele><time>2022-05-15T12:17:30Z</time></trkpt><trkpt lat="35.95610806" lon="120.20729393"><ele>3.0</ele><time>2022-05-15T12:17:31Z</time></trkpt><trkpt lat="35.95612739" lon="120.20727726"><ele>3.0</ele><time>2022-05-15T12:17:32Z</time><extensions><gpxtpx:TrackPointExtension><gpxtpx:hr>112</gpxtpx:hr></gpxtpx:TrackPointExtension></extensions></trkpt><trkpt lat="35.95614373" lon="120.20729226"><ele>3.0</ele><time>2022-05-15T12:17:33Z</time></trkpt><trkpt lat="35.95615538" lon="120.20729726"><ele>3.0</ele><time>2022-05-15T12:17:34Z</time><extensions><gpxtpx:TrackPointExtension><gpxtpx:hr>111</gpxtpx:hr></gpxtpx:TrackPointExtension></extensions></trkpt><trkpt lat="35.95616537" lon="120.20730226"><ele>3.0</ele><time>2022-05-15T12:17:35Z</time><extensions><gpxtpx:TrackPointExtension><gpxtpx:hr>110</gpxtpx:hr></gpxtpx:TrackPointExtension></extensions></trkpt><trkpt lat="35.95617871" lon="120.20731059"><ele>3.0</ele><time>2022-05-15T12:17:36Z</time><extensions><gpxtpx:TrackPointExtension><gpxtpx:hr>109</gpxtpx:hr></gpxtpx:TrackPointExtension></extensions></trkpt><trkpt lat="35.95619204" lon="120.20732225"><ele>3.0</ele><time>2022-05-15T12:17:37Z</time></trkpt><trkpt lat="35.95620871" lon="120.20733392"><ele>3.0</ele><time>2022-05-15T12:17:38Z</time><extensions><gpxtpx:TrackPointExtension><gpxtpx:hr>108</gpxtpx:hr></gpxtpx:TrackPointExtension></extensions></trkpt><trkpt lat="35.95622204" lon="120.20733225"><ele>3.0</ele><time>2022-05-15T12:17:39Z</time><extensions><gpxtpx:TrackPointExtension><gpxtpx:hr>109</gpxtpx:hr></gpxtpx:TrackPointExtension></extensions></trkpt><trkpt lat="35.95622703" lon="120.20732958"><ele>3.0</ele><time>2022-05-15T12:17:40Z</time></trkpt><trkpt lat="35.95623203" lon="120.20732659"><ele>3.0</ele><time>2022-05-15T12:17:41Z</time></trkpt><trkpt lat="35.95624036" lon="120.20733358"><ele>3.0</ele><time>2022-05-15T12:17:42Z</time></trkpt><trkpt lat="35.9562487" lon="120.20734725"><ele>3.0</ele><time>2022-05-15T12:17:43Z</time></trkpt><trkpt lat="35.95627036" lon="120.20737557"><ele>3.0</ele><time>2022-05-15T12:17:44Z</time><extensions><gpxtpx:TrackPointExtension><gpxtpx:hr>109</gpxtpx:hr></gpxtpx:TrackPointExtension></extensions></trkpt><trkpt lat="35.95628703" lon="120.20739023"><ele>3.0</ele><time>2022-05-15T12:17:45Z</time><extensions><gpxtpx:TrackPointExtension><gpxtpx:hr>108</gpxtpx:hr></gpxtpx:TrackPointExtension></extensions></trkpt><trkpt lat="35.95629202" lon="120.20740823"><ele>3.0</ele><time>2022-05-15T12:17:46Z</time></trkpt><trkpt lat="35.95628703" lon="120.20744889"><ele>3.0</ele><time>2022-05-15T12:17:47Z</time></trkpt><trkpt lat="35.95630702" lon="120.20747555"><ele>3.0</ele><time>2022-05-15T12:17:48Z</time><extensions><gpxtpx:TrackPointExtension><gpxtpx:hr>107</gpxtpx:hr></gpxtpx:TrackPointExtension></extensions></trkpt><trkpt lat="35.95634701" lon="120.20751054"><ele>3.0</ele><time>2022-05-15T12:17:49Z</time><extensions><gpxtpx:TrackPointExtension><gpxtpx:hr>109</gpxtpx:hr></gpxtpx:TrackPointExtension></extensions></trkpt><trkpt lat="35.95639168" lon="120.2075372"><ele>3.0</ele><time>2022-05-15T12:17:50Z</time></trkpt><trkpt lat="35.95639367" lon="120.20753221"><ele>3.0</ele><time>2022-05-15T12:17:51Z</time><extensions><gpxtpx:TrackPointExtension><gpxtpx:hr>108</gpxtpx:hr></gpxtpx:TrackPointExtension></extensions></trkpt><trkpt lat="35.95636201" lon="120.20751721"><ele>3.0</ele><time>2022-05-15T12:17:52Z</time><extensions><gpxtpx:TrackPointExtension><gpxtpx:hr>107</gpxtpx:hr></gpxtpx:TrackPointExtension></extensions></trkpt><trkpt lat="35.95637534" lon="120.20751221"><ele>3.0</ele><time>2022-05-15T12:17:53Z</time></trkpt><trkpt lat="35.95637202" lon="120.20749822"><ele>3.0</ele><time>2022-05-15T12:17:54Z</time><extensions><gpxtpx:TrackPointExtension><gpxtpx:hr>108</gpxtpx:hr></gpxtpx:TrackPointExtension></extensions></trkpt><trkpt lat="35.95637534" lon="120.20747055"><ele>3.0</ele><time>2022-05-15T12:17:55Z</time><extensions><gpxtpx:TrackPointExtension><gpxtpx:hr>107</gpxtpx:hr></gpxtpx:TrackPointExtension></extensions></trkpt><trkpt lat="35.95638368" lon="120.20748722"><ele>3.0</ele><time>2022-05-15T12:17:56Z</time><extensions><gpxtpx:TrackPointExtension><gpxtpx:hr>106</gpxtpx:hr></gpxtpx:TrackPointExtension></extensions></trkpt><trkpt lat="35.95639201" lon="120.20750421"><ele>3.0</ele><time>2022-05-15T12:17:57Z</time></trkpt><trkpt lat="35.95640367" lon="120.20751687"><ele>3.0</ele><time>2022-05-15T12:17:58Z</time></trkpt><trkpt lat="35.956412" lon="120.2075322"><ele>2.0</ele><time>2022-05-15T12:17:59Z</time><extensions><gpxtpx:TrackPointExtension><gpxtpx:hr>107</gpxtpx:hr></gpxtpx:TrackPointExtension></extensions></trkpt><trkpt lat="35.95642033" lon="120.20754719"><ele>2.0</ele><time>2022-05-15T12:18:00Z</time></trkpt><trkpt lat="35.95644032" lon="120.20756286"><ele>2.0</ele><time>2022-05-15T12:18:01Z</time><extensions><gpxtpx:TrackPointExtension><gpxtpx:hr>105</gpxtpx:hr></gpxtpx:TrackPointExtension></extensions></trkpt><trkpt lat="35.95644365" lon="120.20756685"><ele>2.0</ele><time>2022-05-15T12:18:02Z</time><extensions><gpxtpx:TrackPointExtension><gpxtpx:hr>107</gpxtpx:hr></gpxtpx:TrackPointExtension></extensions></trkpt><trkpt lat="35.95645365" lon="120.20757884"><ele>2.0</ele><time>2022-05-15T12:18:03Z</time><extensions><gpxtpx:TrackPointExtension><gpxtpx:hr>106</gpxtpx:hr></gpxtpx:TrackPointExtension></extensions></trkpt><trkpt lat="35.95646864" lon="120.20759384"><ele>2.0</ele><time>2022-05-15T12:18:04Z</time></trkpt><trkpt lat="35.95648363" lon="120.20760384"><ele>2.0</ele><time>2022-05-15T12:18:05Z</time><extensions><gpxtpx:TrackPointExtension><gpxtpx:hr>107</gpxtpx:hr></gpxtpx:TrackPointExtension></extensions></trkpt><trkpt lat="35.95649196" lon="120.20761516"><ele>2.0</ele><time>2022-05-15T12:18:06Z</time></trkpt><trkpt lat="35.95648363" lon="120.20761516"><ele>2.0</ele><time>2022-05-15T12:18:07Z</time></trkpt><trkpt lat="35.95648696" lon="120.20765383"><ele>2.0</ele><time>2022-05-15T12:18:08Z</time></trkpt></trkseg></trk></gpx>