<?xml version='1.0' encoding='utf-8'?>
<gpx xmlns:xsi="http://www.w3.org/2001/XMLSchema-instance" xmlns="http://www.brytonsport.com/BDX/2/2" version="2.2.0.3" creator="bryton">
  <metadata>
    <name>2015/08/28 06:07</name>
    <time>2015-08-27T22:07:46Z</time>
    <bounds minlat="35.94201" maxlon="120.213025" minlon="120.204364" maxlat="35.957784"/>
    <extensions>
      <user>
        <bike>0<wheel>204.00</wheel></bike>
        <weight>68</weight>
        <gender>1</gender>
        <height>172</height>
        <age>28</age>
        <mhr>190</mhr>
        <lthr>172</lthr>
        <map>0</map>
        <ftp>0</ftp>
        <zonedef type="1">
          <zone high="74" id="1" low="0"/>
          <zone high="80" id="2" low="74"/>
          <zone high="85" id="3" low="80"/>
          <zone high="91" id="4" low="85"/>
          <zone high="93" id="5" low="91"/>
          <zone high="95" id="6" low="93"/>
          <zone high="0" id="7" low="95"/>
        </zonedef>
        <zonedef type="2">
          <zone high="80" id="1" low="0"/>
          <zone high="87" id="2" low="80"/>
          <zone high="91" id="3" low="87"/>
          <zone high="100" id="4" low="91"/>
          <zone high="101" id="5" low="100"/>
          <zone high="105" id="6" low="101"/>
          <zone high="0" id="7" low="105"/>
        </zonedef>
        <zonedef type="3">
          <zone high="40" id="1" low="17"/>
          <zone high="55" id="2" low="40"/>
          <zone high="65" id="3" low="55"/>
          <zone high="75" id="4" low="65"/>
          <zone high="85" id="5" low="75"/>
          <zone high="110" id="6" low="85"/>
          <zone high="65535" id="7" low="110"/>
        </zonedef>
        <zonedef type="4">
          <zone high="55" id="1" low="23"/>
          <zone high="75" id="2" low="55"/>
          <zone high="90" id="3" low="75"/>
          <zone high="105" id="4" low="90"/>
          <zone high="120" id="5" low="105"/>
          <zone high="150" id="6" low="120"/>
          <zone high="65535" id="7" low="150"/>
        </zonedef>
      </user>
      <sys version="1.0.0.R041 BB2.8.0.14">Cardio60<apps><app version="148" name="bc"/></apps></sys>
      <sharetype>2</sharetype>
      <acttype subtype="0">1</acttype>
      <trvTime>27</trvTime>
      <trvDist>4868</trvDist>
      <stime>1440713266</stime>
      <etime>1440714886</etime>
    </extensions>
  </metadata>
  <rte>
    <number>2</number>
    <rtept lat="35.957784" lon="120.208814">
      <type>1</type>
    </rtept>
    <rtept lat="35.956767" lon="120.208541">
      <type>2</type>
    </rtept>
  </rte>
  <trk>
    <trkseg>
      <trkpt lat="35.957784" lon="120.208814">
        <ele>15.3</ele>
        <time>2015-08-27T22:07:55Z</time>
      </trkpt>
      <trkpt lat="35.957493" lon="120.208611">
        <ele>15.3</ele>
        <time>2015-08-27T22:07:59Z</time>
      </trkpt>
      <trkpt lat="35.957395" lon="120.208488">
        <ele>15.2</ele>
        <time>2015-08-27T22:08:03Z</time>
      </trkpt>
      <trkpt lat="35.957343" lon="120.208357">
        <ele>15.1</ele>
        <time>2015-08-27T22:08:07Z</time>
      </trkpt>
      <trkpt lat="35.957286" lon="120.208233">
        <ele>15.0</ele>
        <time>2015-08-27T22:08:11Z</time>
      </trkpt>
      <trkpt lat="35.957237" lon="120.208102">
        <ele>14.9</ele>
        <time>2015-08-27T22:08:15Z</time>
      </trkpt>
      <trkpt lat="35.957185" lon="120.207968">
        <ele>14.7</ele>
        <time>2015-08-27T22:08:19Z</time>
      </trkpt>
      <trkpt lat="35.957166" lon="120.207842">
        <ele>14.5</ele>
        <time>2015-08-27T22:08:23Z</time>
      </trkpt>
      <trkpt lat="35.957149" lon="120.207717">
        <ele>14.3</ele>
        <time>2015-08-27T22:08:27Z</time>
      </trkpt>
      <trkpt lat="35.957121" lon="120.207598">
        <ele>14.1</ele>
        <time>2015-08-27T22:08:31Z</time>
      </trkpt>
      <trkpt lat="35.957017" lon="120.207567">
        <ele>13.8</ele>
        <time>2015-08-27T22:08:35Z</time>
      </trkpt>
      <trkpt lat="35.956898" lon="120.207595">
        <ele>13.4</ele>
        <time>2015-08-27T22:08:39Z</time>
      </trkpt>
      <trkpt lat="35.956779" lon="120.207619">
        <ele>13.1</ele>
        <time>2015-08-27T22:08:43Z</time>
      </trkpt>
      <trkpt lat="35.956645" lon="120.207647">
        <ele>12.7</ele>
        <time>2015-08-27T22:08:47Z</time>
      </trkpt>
      <trkpt lat="35.956505" lon="120.207667">
        <ele>12.2</ele>
        <time>2015-08-27T22:08:51Z</time>
      </trkpt>
      <trkpt lat="35.956377" lon="120.207702">
        <ele>11.7</ele>
        <time>2015-08-27T22:08:55Z</time>
      </trkpt>
      <trkpt lat="35.956227" lon="120.207733">
        <ele>11.2</ele>
        <time>2015-08-27T22:08:59Z</time>
      </trkpt>
      <trkpt lat="35.956042" lon="120.207747">
        <ele>10.6</ele>
        <time>2015-08-27T22:09:03Z</time>
      </trkpt>
      <trkpt lat="35.955854" lon="120.207774">
        <ele>10.0</ele>
        <time>2015-08-27T22:09:07Z</time>
      </trkpt>
      <trkpt lat="35.955726" lon="120.207827">
        <ele>9.4</ele>
        <time>2015-08-27T22:09:11Z</time>
      </trkpt>
      <trkpt lat="35.955594" lon="120.207901">
        <ele>8.7</ele>
        <time>2015-08-27T22:09:15Z</time>
      </trkpt>
      <trkpt lat="35.955457" lon="120.207974">
        <ele>8.0</ele>
        <time>2015-08-27T22:09:19Z</time>
      </trkpt>
      <trkpt lat="35.955324" lon="120.208044">
        <ele>7.4</ele>
        <time>2015-08-27T22:09:23Z</time>
      </trkpt>
      <trkpt lat="35.955189" lon="120.208109">
        <ele>6.7</ele>
        <time>2015-08-27T22:09:27Z</time>
      </trkpt>
      <trkpt lat="35.955055" lon="120.208146">
        <ele>6.1</ele>
        <time>2015-08-27T22:09:31Z</time>
      </trkpt>
      <trkpt lat="35.954925" lon="120.20819">
        <ele>5.5</ele>
        <time>2015-08-27T22:09:35Z</time>
      </trkpt>
      <trkpt lat="35.9548" lon="120.208247">
        <ele>5.0</ele>
        <time>2015-08-27T22:09:39Z</time>
      </trkpt>
      <trkpt lat="35.954682" lon="120.2083">
        <ele>4.5</ele>
        <time>2015-08-27T22:09:43Z</time>
      </trkpt>
      <trkpt lat="35.954572" lon="120.208343">
        <ele>4.0</ele>
        <time>2015-08-27T22:09:47Z</time>
      </trkpt>
      <trkpt lat="35.954462" lon="120.208389">
        <ele>3.6</ele>
        <time>2015-08-27T22:09:51Z</time>
      </trkpt>
      <trkpt lat="35.954342" lon="120.208417">
        <ele>3.2</ele>
        <time>2015-08-27T22:09:55Z</time>
      </trkpt>
      <trkpt lat="35.954203" lon="120.208408">
        <ele>2.9</ele>
        <time>2015-08-27T22:09:59Z</time>
      </trkpt>
      <trkpt lat="35.954072" lon="120.208412">
        <ele>2.6</ele>
        <time>2015-08-27T22:10:03Z</time>
      </trkpt>
      <trkpt lat="35.953945" lon="120.208424">
        <ele>2.3</ele>
        <time>2015-08-27T22:10:07Z</time>
      </trkpt>
      <trkpt lat="35.953818" lon="120.208448">
        <ele>2.1</ele>
        <time>2015-08-27T22:10:11Z</time>
      </trkpt>
      <trkpt lat="35.953679" lon="120.208451">
        <ele>1.9</ele>
        <time>2015-08-27T22:10:15Z</time>
      </trkpt>
      <trkpt lat="35.953541" lon="120.208435">
        <ele>1.7</ele>
        <time>2015-08-27T22:10:19Z</time>
      </trkpt>
      <trkpt lat="35.953394" lon="120.20841">
        <ele>1.5</ele>
        <time>2015-08-27T22:10:23Z</time>
      </trkpt>
      <trkpt lat="35.953266" lon="120.20841">
        <ele>1.4</ele>
        <time>2015-08-27T22:10:27Z</time>
      </trkpt>
      <trkpt lat="35.953153" lon="120.208431">
        <ele>1.3</ele>
        <time>2015-08-27T22:10:31Z</time>
      </trkpt>
      <trkpt lat="35.95304" lon="120.208457">
        <ele>1.2</ele>
        <time>2015-08-27T22:10:35Z</time>
      </trkpt>
      <trkpt lat="35.952924" lon="120.208485">
        <ele>1.1</ele>
        <time>2015-08-27T22:10:39Z</time>
      </trkpt>
      <trkpt lat="35.952814" lon="120.208522">
        <ele>1.0</ele>
        <time>2015-08-27T22:10:43Z</time>
      </trkpt>
      <trkpt lat="35.952694" lon="120.208556">
        <ele>0.9</ele>
        <time>2015-08-27T22:10:47Z</time>
      </trkpt>
      <trkpt lat="35.952591" lon="120.208595">
        <ele>0.9</ele>
        <time>2015-08-27T22:10:51Z</time>
      </trkpt>
      <trkpt lat="35.952494" lon="120.208628">
        <ele>0.8</ele>
        <time>2015-08-27T22:10:55Z</time>
      </trkpt>
      <trkpt lat="35.952401" lon="120.208661">
        <ele>0.8</ele>
        <time>2015-08-27T22:10:59Z</time>
      </trkpt>
      <trkpt lat="35.952292" lon="120.208667">
        <ele>0.7</ele>
        <time>2015-08-27T22:11:03Z</time>
      </trkpt>
      <trkpt lat="35.952179" lon="120.208665">
        <ele>0.7</ele>
        <time>2015-08-27T22:11:07Z</time>
      </trkpt>
      <trkpt lat="35.952072" lon="120.208678">
        <ele>0.6</ele>
        <time>2015-08-27T22:11:11Z</time>
      </trkpt>
      <trkpt lat="35.951997" lon="120.208755">
        <ele>0.6</ele>
        <time>2015-08-27T22:11:15Z</time>
      </trkpt>
      <trkpt lat="35.951949" lon="120.208868">
        <ele>0.5</ele>
        <time>2015-08-27T22:11:19Z</time>
      </trkpt>
      <trkpt lat="35.95189" lon="120.208955">
        <ele>0.5</ele>
        <time>2015-08-27T22:11:23Z</time>
      </trkpt>
      <trkpt lat="35.95188" lon="120.20907">
        <ele>0.4</ele>
        <time>2015-08-27T22:11:27Z</time>
      </trkpt>
      <trkpt lat="35.951916" lon="120.209197">
        <ele>0.4</ele>
        <time>2015-08-27T22:11:31Z</time>
      </trkpt>
      <trkpt lat="35.951927" lon="120.209317">
        <ele>0.4</ele>
        <time>2015-08-27T22:11:35Z</time>
      </trkpt>
      <trkpt lat="35.951918" lon="120.209432">
        <ele>0.4</ele>
        <time>2015-08-27T22:11:39Z</time>
      </trkpt>
      <trkpt lat="35.951925" lon="120.209549">
        <ele>0.4</ele>
        <time>2015-08-27T22:11:43Z</time>
      </trkpt>
      <trkpt lat="35.951959" lon="120.209674">
        <ele>0.4</ele>
        <time>2015-08-27T22:11:47Z</time>
      </trkpt>
      <trkpt lat="35.951993" lon="120.209814">
        <ele>0.4</ele>
        <time>2015-08-27T22:11:51Z</time>
      </trkpt>
      <trkpt lat="35.952032" lon="120.209946">
        <ele>0.5</ele>
        <time>2015-08-27T22:11:55Z</time>
      </trkpt>
      <trkpt lat="35.952068" lon="120.210067">
        <ele>0.5</ele>
        <time>2015-08-27T22:11:59Z</time>
      </trkpt>
      <trkpt lat="35.952111" lon="120.210189">
        <ele>0.5</ele>
        <time>2015-08-27T22:12:03Z</time>
      </trkpt>
      <trkpt lat="35.952148" lon="120.210305">
        <ele>0.6</ele>
        <time>2015-08-27T22:12:07Z</time>
      </trkpt>
      <trkpt lat="35.952166" lon="120.210418">
        <ele>0.6</ele>
        <time>2015-08-27T22:12:11Z</time>
      </trkpt>
      <trkpt lat="35.952151" lon="120.210482">
        <ele>0.6</ele>
        <time>2015-08-27T22:12:15Z</time>
      </trkpt>
      <trkpt lat="35.952071" lon="120.210513">
        <ele>0.6</ele>
        <time>2015-08-27T22:12:19Z</time>
      </trkpt>
      <trkpt lat="35.951959" lon="120.210575">
        <ele>0.6</ele>
        <time>2015-08-27T22:12:23Z</time>
      </trkpt>
      <trkpt lat="35.951851" lon="120.21067">
        <ele>0.7</ele>
        <time>2015-08-27T22:12:27Z</time>
      </trkpt>
      <trkpt lat="35.951752" lon="120.210726">
        <ele>0.7</ele>
        <time>2015-08-27T22:12:31Z</time>
      </trkpt>
      <trkpt lat="35.951673" lon="120.210744">
        <ele>0.7</ele>
        <time>2015-08-27T22:12:35Z</time>
      </trkpt>
      <trkpt lat="35.951585" lon="120.210783">
        <ele>0.8</ele>
        <time>2015-08-27T22:12:39Z</time>
      </trkpt>
      <trkpt lat="35.951484" lon="120.210841">
        <ele>0.8</ele>
        <time>2015-08-27T22:12:43Z</time>
      </trkpt>
      <trkpt lat="35.951396" lon="120.210927">
        <ele>0.9</ele>
        <time>2015-08-27T22:12:47Z</time>
      </trkpt>
      <trkpt lat="35.951315" lon="120.211011">
        <ele>0.9</ele>
        <time>2015-08-27T22:12:51Z</time>
      </trkpt>
      <trkpt lat="35.95123" lon="120.211068">
        <ele>0.9</ele>
        <time>2015-08-27T22:12:55Z</time>
      </trkpt>
      <trkpt lat="35.95115" lon="120.211097">
        <ele>0.9</ele>
        <time>2015-08-27T22:12:59Z</time>
      </trkpt>
      <trkpt lat="35.951071" lon="120.211139">
        <ele>1.0</ele>
        <time>2015-08-27T22:13:03Z</time>
      </trkpt>
      <trkpt lat="35.950992" lon="120.211194">
        <ele>1.0</ele>
        <time>2015-08-27T22:13:07Z</time>
      </trkpt>
      <trkpt lat="35.950914" lon="120.211245">
        <ele>1.0</ele>
        <time>2015-08-27T22:13:11Z</time>
      </trkpt>
      <trkpt lat="35.950819" lon="120.211302">
        <ele>1.0</ele>
        <time>2015-08-27T22:13:15Z</time>
      </trkpt>
      <trkpt lat="35.950707" lon="120.211344">
        <ele>1.1</ele>
        <time>2015-08-27T22:13:19Z</time>
      </trkpt>
      <trkpt lat="35.950606" lon="120.21138">
        <ele>1.1</ele>
        <time>2015-08-27T22:13:23Z</time>
      </trkpt>
      <trkpt lat="35.950509" lon="120.211438">
        <ele>1.2</ele>
        <time>2015-08-27T22:13:27Z</time>
      </trkpt>
      <trkpt lat="35.95041" lon="120.211498">
        <ele>1.2</ele>
        <time>2015-08-27T22:13:31Z</time>
      </trkpt>
      <trkpt lat="35.950305" lon="120.211544">
        <ele>1.3</ele>
        <time>2015-08-27T22:13:35Z</time>
      </trkpt>
      <trkpt lat="35.950207" lon="120.211585">
        <ele>1.3</ele>
        <time>2015-08-27T22:13:39Z</time>
      </trkpt>
      <trkpt lat="35.95011" lon="120.211616">
        <ele>1.3</ele>
        <time>2015-08-27T22:13:43Z</time>
      </trkpt>
      <trkpt lat="35.950006" lon="120.211609">
        <ele>1.3</ele>
        <time>2015-08-27T22:13:47Z</time>
      </trkpt>
      <trkpt lat="35.949901" lon="120.211605">
        <ele>1.3</ele>
        <time>2015-08-27T22:13:51Z</time>
      </trkpt>
      <trkpt lat="35.949817" lon="120.211655">
        <ele>1.3</ele>
        <time>2015-08-27T22:13:55Z</time>
      </trkpt>
      <trkpt lat="35.949735" lon="120.211715">
        <ele>1.2</ele>
        <time>2015-08-27T22:13:59Z</time>
      </trkpt>
      <trkpt lat="35.949645" lon="120.21175">
        <ele>1.2</ele>
        <time>2015-08-27T22:14:03Z</time>
      </trkpt>
      <trkpt lat="35.949558" lon="120.211785">
        <ele>1.2</ele>
        <time>2015-08-27T22:14:07Z</time>
      </trkpt>
      <trkpt lat="35.949484" lon="120.211816">
        <ele>1.2</ele>
        <time>2015-08-27T22:14:11Z</time>
      </trkpt>
      <trkpt lat="35.949396" lon="120.211844">
        <ele>1.2</ele>
        <time>2015-08-27T22:14:15Z</time>
      </trkpt>
      <trkpt lat="35.949267" lon="120.21186">
        <ele>1.2</ele>
        <time>2015-08-27T22:14:19Z</time>
      </trkpt>
      <trkpt lat="35.949133" lon="120.211836">
        <ele>1.2</ele>
        <time>2015-08-27T22:14:23Z</time>
      </trkpt>
      <trkpt lat="35.949013" lon="120.211779">
        <ele>1.2</ele>
        <time>2015-08-27T22:14:27Z</time>
      </trkpt>
      <trkpt lat="35.948929" lon="120.211749">
        <ele>1.2</ele>
        <time>2015-08-27T22:14:31Z</time>
      </trkpt>
      <trkpt lat="35.948706" lon="120.211781">
        <ele>1.1</ele>
        <time>2015-08-27T22:14:35Z</time>
      </trkpt>
      <trkpt lat="35.948563" lon="120.211813">
        <ele>1.1</ele>
        <time>2015-08-27T22:14:39Z</time>
      </trkpt>
      <trkpt lat="35.948429" lon="120.211839">
        <ele>1.1</ele>
        <time>2015-08-27T22:14:43Z</time>
      </trkpt>
      <trkpt lat="35.948294" lon="120.211857">
        <ele>1.1</ele>
        <time>2015-08-27T22:14:47Z</time>
      </trkpt>
      <trkpt lat="35.948165" lon="120.211879">
        <ele>1.1</ele>
        <time>2015-08-27T22:14:51Z</time>
      </trkpt>
      <trkpt lat="35.948047" lon="120.211899">
        <ele>1.1</ele>
        <time>2015-08-27T22:14:55Z</time>
      </trkpt>
      <trkpt lat="35.947918" lon="120.21191">
        <ele>1.1</ele>
        <time>2015-08-27T22:14:59Z</time>
      </trkpt>
      <trkpt lat="35.947785" lon="120.211914">
        <ele>1.1</ele>
        <time>2015-08-27T22:15:03Z</time>
      </trkpt>
      <trkpt lat="35.947652" lon="120.211911">
        <ele>1.2</ele>
        <time>2015-08-27T22:15:07Z</time>
      </trkpt>
      <trkpt lat="35.947507" lon="120.211937">
        <ele>1.3</ele>
        <time>2015-08-27T22:15:11Z</time>
      </trkpt>
      <trkpt lat="35.947369" lon="120.211967">
        <ele>1.4</ele>
        <time>2015-08-27T22:15:15Z</time>
      </trkpt>
      <trkpt lat="35.947233" lon="120.211995">
        <ele>1.6</ele>
        <time>2015-08-27T22:15:19Z</time>
      </trkpt>
      <trkpt lat="35.947109" lon="120.211998">
        <ele>1.7</ele>
        <time>2015-08-27T22:15:23Z</time>
      </trkpt>
      <trkpt lat="35.946997" lon="120.212046">
        <ele>1.8</ele>
        <time>2015-08-27T22:15:27Z</time>
      </trkpt>
      <trkpt lat="35.946888" lon="120.21211">
        <ele>1.9</ele>
        <time>2015-08-27T22:15:31Z</time>
      </trkpt>
      <trkpt lat="35.946781" lon="120.212162">
        <ele>2.0</ele>
        <time>2015-08-27T22:15:35Z</time>
      </trkpt>
      <trkpt lat="35.946675" lon="120.212199">
        <ele>2.0</ele>
        <time>2015-08-27T22:15:39Z</time>
      </trkpt>
      <trkpt lat="35.946564" lon="120.21222">
        <ele>2.1</ele>
        <time>2015-08-27T22:15:43Z</time>
      </trkpt>
      <trkpt lat="35.946461" lon="120.212251">
        <ele>2.1</ele>
        <time>2015-08-27T22:15:47Z</time>
      </trkpt>
      <trkpt lat="35.946361" lon="120.212281">
        <ele>2.2</ele>
        <time>2015-08-27T22:15:51Z</time>
      </trkpt>
      <trkpt lat="35.946252" lon="120.212309">
        <ele>2.4</ele>
        <time>2015-08-27T22:15:55Z</time>
      </trkpt>
      <trkpt lat="35.946134" lon="120.212326">
        <ele>2.5</ele>
        <time>2015-08-27T22:15:59Z</time>
      </trkpt>
      <trkpt lat="35.946012" lon="120.212334">
        <ele>2.7</ele>
        <time>2015-08-27T22:16:03Z</time>
      </trkpt>
      <trkpt lat="35.945893" lon="120.212349">
        <ele>2.9</ele>
        <time>2015-08-27T22:16:07Z</time>
      </trkpt>
      <trkpt lat="35.94577" lon="120.212373">
        <ele>3.1</ele>
        <time>2015-08-27T22:16:11Z</time>
      </trkpt>
      <trkpt lat="35.945639" lon="120.212401">
        <ele>3.3</ele>
        <time>2015-08-27T22:16:15Z</time>
      </trkpt>
      <trkpt lat="35.945518" lon="120.212431">
        <ele>3.4</ele>
        <time>2015-08-27T22:16:19Z</time>
      </trkpt>
      <trkpt lat="35.945402" lon="120.21246">
        <ele>3.6</ele>
        <time>2015-08-27T22:16:23Z</time>
      </trkpt>
      <trkpt lat="35.94528" lon="120.21249">
        <ele>3.8</ele>
        <time>2015-08-27T22:16:27Z</time>
      </trkpt>
      <trkpt lat="35.945163" lon="120.21253">
        <ele>4.0</ele>
        <time>2015-08-27T22:16:31Z</time>
      </trkpt>
      <trkpt lat="35.945058" lon="120.212572">
        <ele>4.2</ele>
        <time>2015-08-27T22:16:35Z</time>
      </trkpt>
      <trkpt lat="35.944958" lon="120.212614">
        <ele>4.3</ele>
        <time>2015-08-27T22:16:39Z</time>
      </trkpt>
      <trkpt lat="35.944843" lon="120.212657">
        <ele>4.5</ele>
        <time>2015-08-27T22:16:43Z</time>
      </trkpt>
      <trkpt lat="35.94473" lon="120.212692">
        <ele>4.6</ele>
        <time>2015-08-27T22:16:47Z</time>
      </trkpt>
      <trkpt lat="35.944624" lon="120.21273">
        <ele>4.8</ele>
        <time>2015-08-27T22:16:51Z</time>
      </trkpt>
      <trkpt lat="35.944512" lon="120.212778">
        <ele>4.9</ele>
        <time>2015-08-27T22:16:55Z</time>
      </trkpt>
      <trkpt lat="35.944402" lon="120.212813">
        <ele>5.1</ele>
        <time>2015-08-27T22:16:59Z</time>
      </trkpt>
      <trkpt lat="35.944294" lon="120.212842">
        <ele>5.2</ele>
        <time>2015-08-27T22:17:03Z</time>
      </trkpt>
      <trkpt lat="35.944186" lon="120.21288">
        <ele>5.3</ele>
        <time>2015-08-27T22:17:07Z</time>
      </trkpt>
      <trkpt lat="35.944081" lon="120.212914">
        <ele>5.4</ele>
        <time>2015-08-27T22:17:11Z</time>
      </trkpt>
      <trkpt lat="35.94397" lon="120.212971">
        <ele>5.5</ele>
        <time>2015-08-27T22:17:15Z</time>
      </trkpt>
      <trkpt lat="35.943872" lon="120.213014">
        <ele>5.5</ele>
        <time>2015-08-27T22:17:19Z</time>
      </trkpt>
      <trkpt lat="35.943786" lon="120.213025">
        <ele>5.5</ele>
        <time>2015-08-27T22:17:23Z</time>
      </trkpt>
      <trkpt lat="35.943753" lon="120.212971">
        <ele>5.5</ele>
        <time>2015-08-27T22:17:27Z</time>
      </trkpt>
      <trkpt lat="35.943762" lon="120.212909">
        <ele>5.4</ele>
        <time>2015-08-27T22:17:31Z</time>
      </trkpt>
      <trkpt lat="35.943757" lon="120.21281">
        <ele>5.3</ele>
        <time>2015-08-27T22:17:35Z</time>
      </trkpt>
      <trkpt lat="35.943772" lon="120.212706">
        <ele>5.1</ele>
        <time>2015-08-27T22:17:39Z</time>
      </trkpt>
      <trkpt lat="35.943765" lon="120.212608">
        <ele>5.0</ele>
        <time>2015-08-27T22:17:43Z</time>
      </trkpt>
      <trkpt lat="35.943709" lon="120.212503">
        <ele>4.7</ele>
        <time>2015-08-27T22:17:47Z</time>
      </trkpt>
      <trkpt lat="35.943671" lon="120.212396">
        <ele>4.5</ele>
        <time>2015-08-27T22:17:51Z</time>
      </trkpt>
      <trkpt lat="35.943646" lon="120.212281">
        <ele>4.3</ele>
        <time>2015-08-27T22:17:55Z</time>
      </trkpt>
      <trkpt lat="35.943614" lon="120.212188">
        <ele>4.0</ele>
        <time>2015-08-27T22:17:59Z</time>
      </trkpt>
      <trkpt lat="35.943582" lon="120.21207">
        <ele>3.8</ele>
        <time>2015-08-27T22:18:03Z</time>
      </trkpt>
      <trkpt lat="35.943553" lon="120.211943">
        <ele>3.6</ele>
        <time>2015-08-27T22:18:07Z</time>
      </trkpt>
      <trkpt lat="35.943505" lon="120.211838">
        <ele>3.3</ele>
        <time>2015-08-27T22:18:11Z</time>
      </trkpt>
      <trkpt lat="35.943415" lon="120.211754">
        <ele>3.1</ele>
        <time>2015-08-27T22:18:15Z</time>
      </trkpt>
      <trkpt lat="35.943348" lon="120.211655">
        <ele>2.9</ele>
        <time>2015-08-27T22:18:19Z</time>
      </trkpt>
      <trkpt lat="35.943286" lon="120.211546">
        <ele>2.7</ele>
        <time>2015-08-27T22:18:23Z</time>
      </trkpt>
      <trkpt lat="35.943185" lon="120.211427">
        <ele>2.4</ele>
        <time>2015-08-27T22:18:27Z</time>
      </trkpt>
      <trkpt lat="35.943112" lon="120.211313">
        <ele>2.2</ele>
        <time>2015-08-27T22:18:31Z</time>
      </trkpt>
      <trkpt lat="35.943055" lon="120.21119">
        <ele>2.0</ele>
        <time>2015-08-27T22:18:35Z</time>
      </trkpt>
      <trkpt lat="35.942984" lon="120.211076">
        <ele>1.7</ele>
        <time>2015-08-27T22:18:39Z</time>
      </trkpt>
      <trkpt lat="35.94291" lon="120.210963">
        <ele>1.5</ele>
        <time>2015-08-27T22:18:43Z</time>
      </trkpt>
      <trkpt lat="35.942836" lon="120.210842">
        <ele>1.4</ele>
        <time>2015-08-27T22:18:47Z</time>
      </trkpt>
      <trkpt lat="35.942762" lon="120.21072">
        <ele>1.2</ele>
        <time>2015-08-27T22:18:51Z</time>
      </trkpt>
      <trkpt lat="35.942695" lon="120.21061">
        <ele>1.1</ele>
        <time>2015-08-27T22:18:55Z</time>
      </trkpt>
      <trkpt lat="35.942648" lon="120.210522">
        <ele>1.0</ele>
        <time>2015-08-27T22:18:59Z</time>
      </trkpt>
      <trkpt lat="35.942594" lon="120.210439">
        <ele>0.9</ele>
        <time>2015-08-27T22:19:03Z</time>
      </trkpt>
      <trkpt lat="35.942537" lon="120.210338">
        <ele>0.8</ele>
        <time>2015-08-27T22:19:11Z</time>
      </trkpt>
      <trkpt lat="35.94245" lon="120.21012">
        <ele>0.7</ele>
        <time>2015-08-27T22:19:15Z</time>
      </trkpt>
      <trkpt lat="35.942402" lon="120.210034">
        <ele>0.7</ele>
        <time>2015-08-27T22:19:23Z</time>
      </trkpt>
      <trkpt lat="35.942349" lon="120.209942">
        <ele>0.6</ele>
        <time>2015-08-27T22:19:27Z</time>
      </trkpt>
      <trkpt lat="35.942301" lon="120.20984">
        <ele>0.5</ele>
        <time>2015-08-27T22:19:31Z</time>
      </trkpt>
      <trkpt lat="35.942167" lon="120.209653">
        <ele>0.5</ele>
        <time>2015-08-27T22:19:35Z</time>
      </trkpt>
      <trkpt lat="35.942061" lon="120.209535">
        <ele>0.5</ele>
        <time>2015-08-27T22:19:39Z</time>
      </trkpt>
      <trkpt lat="35.94201" lon="120.209418">
        <ele>0.5</ele>
        <time>2015-08-27T22:19:43Z</time>
      </trkpt>
      <trkpt lat="35.942036" lon="120.20934">
        <ele>0.4</ele>
        <time>2015-08-27T22:19:47Z</time>
      </trkpt>
      <trkpt lat="35.9421" lon="120.209309">
        <ele>0.4</ele>
        <time>2015-08-27T22:19:51Z</time>
      </trkpt>
      <trkpt lat="35.942194" lon="120.209264">
        <ele>0.5</ele>
        <time>2015-08-27T22:19:55Z</time>
      </trkpt>
      <trkpt lat="35.942321" lon="120.209209">
        <ele>0.5</ele>
        <time>2015-08-27T22:19:59Z</time>
      </trkpt>
      <trkpt lat="35.942432" lon="120.209141">
        <ele>0.4</ele>
        <time>2015-08-27T22:20:03Z</time>
      </trkpt>
      <trkpt lat="35.942553" lon="120.209059">
        <ele>0.4</ele>
        <time>2015-08-27T22:20:07Z</time>
      </trkpt>
      <trkpt lat="35.942666" lon="120.208984">
        <ele>0.4</ele>
        <time>2015-08-27T22:20:11Z</time>
      </trkpt>
      <trkpt lat="35.942797" lon="120.208919">
        <ele>0.4</ele>
        <time>2015-08-27T22:20:15Z</time>
      </trkpt>
      <trkpt lat="35.942958" lon="120.208876">
        <ele>0.3</ele>
        <time>2015-08-27T22:20:23Z</time>
      </trkpt>
      <trkpt lat="35.943102" lon="120.208849">
        <ele>0.3</ele>
        <time>2015-08-27T22:20:27Z</time>
      </trkpt>
      <trkpt lat="35.943221" lon="120.20884">
        <ele>0.3</ele>
        <time>2015-08-27T22:20:31Z</time>
      </trkpt>
      <trkpt lat="35.943333" lon="120.208826">
        <ele>0.3</ele>
        <time>2015-08-27T22:20:35Z</time>
      </trkpt>
      <trkpt lat="35.943434" lon="120.208797">
        <ele>0.3</ele>
        <time>2015-08-27T22:20:39Z</time>
      </trkpt>
      <trkpt lat="35.943529" lon="120.20877">
        <ele>0.3</ele>
        <time>2015-08-27T22:20:43Z</time>
      </trkpt>
      <trkpt lat="35.943619" lon="120.208743">
        <ele>0.3</ele>
        <time>2015-08-27T22:20:47Z</time>
      </trkpt>
      <trkpt lat="35.943726" lon="120.208703">
        <ele>0.3</ele>
        <time>2015-08-27T22:20:51Z</time>
      </trkpt>
      <trkpt lat="35.943832" lon="120.208665">
        <ele>0.3</ele>
        <time>2015-08-27T22:20:55Z</time>
      </trkpt>
      <trkpt lat="35.943937" lon="120.208661">
        <ele>0.3</ele>
        <time>2015-08-27T22:20:59Z</time>
      </trkpt>
      <trkpt lat="35.944041" lon="120.208687">
        <ele>0.3</ele>
        <time>2015-08-27T22:21:03Z</time>
      </trkpt>
      <trkpt lat="35.94414" lon="120.208727">
        <ele>0.2</ele>
        <time>2015-08-27T22:21:07Z</time>
      </trkpt>
      <trkpt lat="35.944302" lon="120.208823">
        <ele>0.2</ele>
        <time>2015-08-27T22:21:11Z</time>
      </trkpt>
      <trkpt lat="35.944397" lon="120.208845">
        <ele>0.1</ele>
        <time>2015-08-27T22:21:19Z</time>
      </trkpt>
      <trkpt lat="35.94461" lon="120.208838">
        <ele>0.1</ele>
        <time>2015-08-27T22:21:23Z</time>
      </trkpt>
      <trkpt lat="35.944722" lon="120.208816">
        <ele>0.0</ele>
        <time>2015-08-27T22:21:31Z</time>
      </trkpt>
      <trkpt lat="35.944832" lon="120.208806">
        <ele>0.0</ele>
        <time>2015-08-27T22:21:35Z</time>
      </trkpt>
      <trkpt lat="35.94495" lon="120.208792">
        <ele>0.0</ele>
        <time>2015-08-27T22:21:39Z</time>
      </trkpt>
      <trkpt lat="35.945057" lon="120.208771">
        <ele>0.0</ele>
        <time>2015-08-27T22:21:43Z</time>
      </trkpt>
      <trkpt lat="35.945162" lon="120.208746">
        <ele>0.0</ele>
        <time>2015-08-27T22:21:47Z</time>
      </trkpt>
      <trkpt lat="35.945403" lon="120.208717">
        <ele>0.0</ele>
        <time>2015-08-27T22:21:51Z</time>
      </trkpt>
      <trkpt lat="35.945558" lon="120.208696">
        <ele>0.0</ele>
        <time>2015-08-27T22:21:59Z</time>
      </trkpt>
      <trkpt lat="35.945717" lon="120.208675">
        <ele>0.0</ele>
        <time>2015-08-27T22:22:03Z</time>
      </trkpt>
      <trkpt lat="35.945893" lon="120.208655">
        <ele>0.0</ele>
        <time>2015-08-27T22:22:07Z</time>
      </trkpt>
      <trkpt lat="35.946186" lon="120.20863">
        <ele>0.0</ele>
        <time>2015-08-27T22:22:11Z</time>
      </trkpt>
      <trkpt lat="35.946315" lon="120.208613">
        <ele>0.0</ele>
        <time>2015-08-27T22:22:19Z</time>
      </trkpt>
      <trkpt lat="35.946452" lon="120.208585">
        <ele>0.0</ele>
        <time>2015-08-27T22:22:23Z</time>
      </trkpt>
      <trkpt lat="35.946599" lon="120.208562">
        <ele>0.0</ele>
        <time>2015-08-27T22:22:27Z</time>
      </trkpt>
      <trkpt lat="35.946731" lon="120.208545">
        <ele>0.0</ele>
        <time>2015-08-27T22:22:31Z</time>
      </trkpt>
      <trkpt lat="35.946866" lon="120.20853">
        <ele>0.0</ele>
        <time>2015-08-27T22:22:35Z</time>
      </trkpt>
      <trkpt lat="35.946992" lon="120.208511">
        <ele>0.0</ele>
        <time>2015-08-27T22:22:39Z</time>
      </trkpt>
      <trkpt lat="35.947101" lon="120.208496">
        <ele>0.0</ele>
        <time>2015-08-27T22:22:43Z</time>
      </trkpt>
      <trkpt lat="35.947223" lon="120.208484">
        <ele>0.0</ele>
        <time>2015-08-27T22:22:47Z</time>
      </trkpt>
      <trkpt lat="35.947329" lon="120.208469">
        <ele>0.0</ele>
        <time>2015-08-27T22:22:51Z</time>
      </trkpt>
      <trkpt lat="35.947454" lon="120.208462">
        <ele>0.0</ele>
        <time>2015-08-27T22:22:55Z</time>
      </trkpt>
      <trkpt lat="35.947574" lon="120.20844">
        <ele>0.0</ele>
        <time>2015-08-27T22:22:59Z</time>
      </trkpt>
      <trkpt lat="35.947604" lon="120.208362">
        <ele>0.0</ele>
        <time>2015-08-27T22:23:03Z</time>
      </trkpt>
      <trkpt lat="35.94761" lon="120.208232">
        <ele>0.0</ele>
        <time>2015-08-27T22:23:07Z</time>
      </trkpt>
      <trkpt lat="35.947579" lon="120.208107">
        <ele>0.0</ele>
        <time>2015-08-27T22:23:11Z</time>
      </trkpt>
      <trkpt lat="35.947532" lon="120.208004">
        <ele>0.0</ele>
        <time>2015-08-27T22:23:15Z</time>
      </trkpt>
      <trkpt lat="35.947477" lon="120.207756">
        <ele>0.0</ele>
        <time>2015-08-27T22:23:19Z</time>
      </trkpt>
      <trkpt lat="35.94745" lon="120.207645">
        <ele>0.0</ele>
        <time>2015-08-27T22:23:27Z</time>
      </trkpt>
      <trkpt lat="35.947423" lon="120.207531">
        <ele>0.0</ele>
        <time>2015-08-27T22:23:31Z</time>
      </trkpt>
      <trkpt lat="35.947399" lon="120.207393">
        <ele>0.0</ele>
        <time>2015-08-27T22:23:35Z</time>
      </trkpt>
      <trkpt lat="35.947402" lon="120.207257">
        <ele>0.0</ele>
        <time>2015-08-27T22:23:39Z</time>
      </trkpt>
      <trkpt lat="35.947464" lon="120.207137">
        <ele>0.0</ele>
        <time>2015-08-27T22:23:43Z</time>
      </trkpt>
      <trkpt lat="35.947526" lon="120.207031">
        <ele>0.0</ele>
        <time>2015-08-27T22:23:47Z</time>
      </trkpt>
      <trkpt lat="35.947605" lon="120.206919">
        <ele>0.0</ele>
        <time>2015-08-27T22:23:51Z</time>
      </trkpt>
      <trkpt lat="35.947684" lon="120.206813">
        <ele>0.0</ele>
        <time>2015-08-27T22:23:55Z</time>
      </trkpt>
      <trkpt lat="35.947753" lon="120.206713">
        <ele>0.0</ele>
        <time>2015-08-27T22:23:59Z</time>
      </trkpt>
      <trkpt lat="35.947828" lon="120.206603">
        <ele>0.0</ele>
        <time>2015-08-27T22:24:03Z</time>
      </trkpt>
      <trkpt lat="35.947905" lon="120.20648">
        <ele>0.0</ele>
        <time>2015-08-27T22:24:07Z</time>
      </trkpt>
      <trkpt lat="35.947977" lon="120.206355">
        <ele>0.0</ele>
        <time>2015-08-27T22:24:11Z</time>
      </trkpt>
      <trkpt lat="35.948033" lon="120.206245">
        <ele>0.0</ele>
        <time>2015-08-27T22:24:15Z</time>
      </trkpt>
      <trkpt lat="35.948157" lon="120.206056">
        <ele>0.0</ele>
        <time>2015-08-27T22:24:19Z</time>
      </trkpt>
      <trkpt lat="35.948199" lon="120.205947">
        <ele>0.0</ele>
        <time>2015-08-27T22:24:27Z</time>
      </trkpt>
      <trkpt lat="35.948238" lon="120.205829">
        <ele>0.0</ele>
        <time>2015-08-27T22:24:31Z</time>
      </trkpt>
      <trkpt lat="35.948277" lon="120.205704">
        <ele>0.0</ele>
        <time>2015-08-27T22:24:35Z</time>
      </trkpt>
      <trkpt lat="35.948329" lon="120.205565">
        <ele>0.0</ele>
        <time>2015-08-27T22:24:39Z</time>
      </trkpt>
      <trkpt lat="35.948383" lon="120.205451">
        <ele>0.0</ele>
        <time>2015-08-27T22:24:43Z</time>
      </trkpt>
      <trkpt lat="35.948467" lon="120.205313">
        <ele>0.0</ele>
        <time>2015-08-27T22:24:47Z</time>
      </trkpt>
      <trkpt lat="35.94853" lon="120.205187">
        <ele>0.0</ele>
        <time>2015-08-27T22:24:51Z</time>
      </trkpt>
      <trkpt lat="35.948587" lon="120.205043">
        <ele>0.0</ele>
        <time>2015-08-27T22:24:55Z</time>
      </trkpt>
      <trkpt lat="35.948644" lon="120.204922">
        <ele>0.0</ele>
        <time>2015-08-27T22:24:59Z</time>
      </trkpt>
      <trkpt lat="35.948689" lon="120.204798">
        <ele>0.0</ele>
        <time>2015-08-27T22:25:03Z</time>
      </trkpt>
      <trkpt lat="35.948698" lon="120.20468">
        <ele>0.0</ele>
        <time>2015-08-27T22:25:07Z</time>
      </trkpt>
      <trkpt lat="35.948667" lon="120.204568">
        <ele>0.0</ele>
        <time>2015-08-27T22:25:11Z</time>
      </trkpt>
      <trkpt lat="35.948577" lon="120.204467">
        <ele>0.0</ele>
        <time>2015-08-27T22:25:15Z</time>
      </trkpt>
      <trkpt lat="35.948537" lon="120.204364">
        <ele>0.0</ele>
        <time>2015-08-27T22:25:19Z</time>
      </trkpt>
      <trkpt lat="35.948507" lon="120.204388">
        <ele>0.0</ele>
        <time>2015-08-27T22:25:23Z</time>
      </trkpt>
      <trkpt lat="35.948534" lon="120.204588">
        <ele>0.0</ele>
        <time>2015-08-27T22:25:27Z</time>
      </trkpt>
      <trkpt lat="35.948541" lon="120.204709">
        <ele>0.0</ele>
        <time>2015-08-27T22:25:35Z</time>
      </trkpt>
      <trkpt lat="35.94857" lon="120.20482">
        <ele>0.0</ele>
        <time>2015-08-27T22:25:39Z</time>
      </trkpt>
      <trkpt lat="35.948625" lon="120.204902">
        <ele>0.0</ele>
        <time>2015-08-27T22:25:43Z</time>
      </trkpt>
      <trkpt lat="35.948697" lon="120.204971">
        <ele>0.0</ele>
        <time>2015-08-27T22:25:47Z</time>
      </trkpt>
      <trkpt lat="35.948777" lon="120.205027">
        <ele>0.0</ele>
        <time>2015-08-27T22:25:51Z</time>
      </trkpt>
      <trkpt lat="35.948836" lon="120.205096">
        <ele>0.0</ele>
        <time>2015-08-27T22:25:55Z</time>
      </trkpt>
      <trkpt lat="35.948907" lon="120.205172">
        <ele>0.0</ele>
        <time>2015-08-27T22:25:59Z</time>
      </trkpt>
      <trkpt lat="35.948984" lon="120.205267">
        <ele>0.0</ele>
        <time>2015-08-27T22:26:03Z</time>
      </trkpt>
      <trkpt lat="35.949042" lon="120.205368">
        <ele>0.0</ele>
        <time>2015-08-27T22:26:07Z</time>
      </trkpt>
      <trkpt lat="35.949103" lon="120.205443">
        <ele>0.0</ele>
        <time>2015-08-27T22:26:11Z</time>
      </trkpt>
      <trkpt lat="35.949182" lon="120.205491">
        <ele>0.0</ele>
        <time>2015-08-27T22:26:15Z</time>
      </trkpt>
      <trkpt lat="35.94928" lon="120.205535">
        <ele>0.0</ele>
        <time>2015-08-27T22:26:19Z</time>
      </trkpt>
      <trkpt lat="35.949357" lon="120.205604">
        <ele>0.0</ele>
        <time>2015-08-27T22:26:23Z</time>
      </trkpt>
      <trkpt lat="35.949479" lon="120.205776">
        <ele>0.0</ele>
        <time>2015-08-27T22:26:27Z</time>
      </trkpt>
      <trkpt lat="35.949555" lon="120.205846">
        <ele>0.0</ele>
        <time>2015-08-27T22:26:35Z</time>
      </trkpt>
      <trkpt lat="35.94964" lon="120.20592">
        <ele>0.0</ele>
        <time>2015-08-27T22:26:39Z</time>
      </trkpt>
      <trkpt lat="35.949715" lon="120.205986">
        <ele>0.0</ele>
        <time>2015-08-27T22:26:43Z</time>
      </trkpt>
      <trkpt lat="35.949738" lon="120.206068">
        <ele>0.0</ele>
        <time>2015-08-27T22:26:47Z</time>
      </trkpt>
      <trkpt lat="35.949789" lon="120.206134">
        <ele>-0.1</ele>
        <time>2015-08-27T22:26:51Z</time>
      </trkpt>
      <trkpt lat="35.949861" lon="120.206191">
        <ele>-0.2</ele>
        <time>2015-08-27T22:26:55Z</time>
      </trkpt>
      <trkpt lat="35.94994" lon="120.206254">
        <ele>-0.3</ele>
        <time>2015-08-27T22:26:59Z</time>
      </trkpt>
      <trkpt lat="35.950013" lon="120.20634">
        <ele>-0.5</ele>
        <time>2015-08-27T22:27:03Z</time>
      </trkpt>
      <trkpt lat="35.95009" lon="120.206439">
        <ele>-0.6</ele>
        <time>2015-08-27T22:27:07Z</time>
      </trkpt>
      <trkpt lat="35.95016" lon="120.206515">
        <ele>-0.8</ele>
        <time>2015-08-27T22:27:11Z</time>
      </trkpt>
      <trkpt lat="35.950216" lon="120.206591">
        <ele>-1.0</ele>
        <time>2015-08-27T22:27:15Z</time>
      </trkpt>
      <trkpt lat="35.950284" lon="120.206674">
        <ele>-1.1</ele>
        <time>2015-08-27T22:27:19Z</time>
      </trkpt>
      <trkpt lat="35.950345" lon="120.206765">
        <ele>-1.3</ele>
        <time>2015-08-27T22:27:23Z</time>
      </trkpt>
      <trkpt lat="35.950407" lon="120.206847">
        <ele>-1.5</ele>
        <time>2015-08-27T22:27:27Z</time>
      </trkpt>
      <trkpt lat="35.950479" lon="120.206923">
        <ele>-1.6</ele>
        <time>2015-08-27T22:27:31Z</time>
      </trkpt>
      <trkpt lat="35.950549" lon="120.207001">
        <ele>-1.8</ele>
        <time>2015-08-27T22:27:35Z</time>
      </trkpt>
      <trkpt lat="35.950611" lon="120.207076">
        <ele>-1.8</ele>
        <time>2015-08-27T22:27:39Z</time>
      </trkpt>
      <trkpt lat="35.950674" lon="120.207166">
        <ele>-1.9</ele>
        <time>2015-08-27T22:27:43Z</time>
      </trkpt>
      <trkpt lat="35.950747" lon="120.207261">
        <ele>-1.9</ele>
        <time>2015-08-27T22:27:47Z</time>
      </trkpt>
      <trkpt lat="35.950843" lon="120.207346">
        <ele>-1.9</ele>
        <time>2015-08-27T22:27:51Z</time>
      </trkpt>
      <trkpt lat="35.95093" lon="120.207455">
        <ele>-1.9</ele>
        <time>2015-08-27T22:27:55Z</time>
      </trkpt>
      <trkpt lat="35.951007" lon="120.207562">
        <ele>-1.9</ele>
        <time>2015-08-27T22:27:59Z</time>
      </trkpt>
      <trkpt lat="35.951096" lon="120.207648">
        <ele>-1.9</ele>
        <time>2015-08-27T22:28:03Z</time>
      </trkpt>
      <trkpt lat="35.951196" lon="120.207746">
        <ele>-1.9</ele>
        <time>2015-08-27T22:28:07Z</time>
      </trkpt>
      <trkpt lat="35.951266" lon="120.207857">
        <ele>-1.9</ele>
        <time>2015-08-27T22:28:11Z</time>
      </trkpt>
      <trkpt lat="35.951347" lon="120.208142">
        <ele>-1.8</ele>
        <time>2015-08-27T22:28:15Z</time>
      </trkpt>
      <trkpt lat="35.951361" lon="120.208281">
        <ele>-1.7</ele>
        <time>2015-08-27T22:28:23Z</time>
      </trkpt>
      <trkpt lat="35.951379" lon="120.208437">
        <ele>-1.6</ele>
        <time>2015-08-27T22:28:27Z</time>
      </trkpt>
      <trkpt lat="35.951404" lon="120.208574">
        <ele>-1.4</ele>
        <time>2015-08-27T22:28:31Z</time>
      </trkpt>
      <trkpt lat="35.95146" lon="120.208882">
        <ele>-1.2</ele>
        <time>2015-08-27T22:28:35Z</time>
      </trkpt>
      <trkpt lat="35.951499" lon="120.209033">
        <ele>-0.9</ele>
        <time>2015-08-27T22:28:43Z</time>
      </trkpt>
      <trkpt lat="35.951541" lon="120.209192">
        <ele>-0.7</ele>
        <time>2015-08-27T22:28:47Z</time>
      </trkpt>
      <trkpt lat="35.95157" lon="120.209353">
        <ele>-0.5</ele>
        <time>2015-08-27T22:28:51Z</time>
      </trkpt>
      <trkpt lat="35.951593" lon="120.209511">
        <ele>-0.3</ele>
        <time>2015-08-27T22:28:55Z</time>
      </trkpt>
      <trkpt lat="35.951616" lon="120.209665">
        <ele>-0.1</ele>
        <time>2015-08-27T22:28:59Z</time>
      </trkpt>
      <trkpt lat="35.951659" lon="120.209815">
        <ele>0.1</ele>
        <time>2015-08-27T22:29:03Z</time>
      </trkpt>
      <trkpt lat="35.951697" lon="120.209959">
        <ele>0.3</ele>
        <time>2015-08-27T22:29:07Z</time>
      </trkpt>
      <trkpt lat="35.951721" lon="120.210111">
        <ele>0.4</ele>
        <time>2015-08-27T22:29:11Z</time>
      </trkpt>
      <trkpt lat="35.951749" lon="120.210242">
        <ele>0.5</ele>
        <time>2015-08-27T22:29:15Z</time>
      </trkpt>
      <trkpt lat="35.951791" lon="120.210362">
        <ele>0.6</ele>
        <time>2015-08-27T22:29:19Z</time>
      </trkpt>
      <trkpt lat="35.951841" lon="120.210471">
        <ele>0.6</ele>
        <time>2015-08-27T22:29:23Z</time>
      </trkpt>
      <trkpt lat="35.951878" lon="120.210545">
        <ele>0.6</ele>
        <time>2015-08-27T22:29:27Z</time>
      </trkpt>
      <trkpt lat="35.951907" lon="120.21055">
        <ele>0.6</ele>
        <time>2015-08-27T22:29:31Z</time>
      </trkpt>
      <trkpt lat="35.951896" lon="120.210551">
        <ele>0.6</ele>
        <time>2015-08-27T22:29:35Z</time>
      </trkpt>
      <trkpt lat="35.951899" lon="120.210544">
        <ele>0.6</ele>
        <time>2015-08-27T22:29:39Z</time>
      </trkpt>
      <trkpt lat="35.951973" lon="120.210392">
        <ele>0.6</ele>
        <time>2015-08-27T22:30:23Z</time>
      </trkpt>
      <trkpt lat="35.952042" lon="120.210354">
        <ele>0.6</ele>
        <time>2015-08-27T22:30:27Z</time>
      </trkpt>
      <trkpt lat="35.952096" lon="120.210267">
        <ele>0.6</ele>
        <time>2015-08-27T22:30:31Z</time>
      </trkpt>
      <trkpt lat="35.952115" lon="120.210152">
        <ele>0.5</ele>
        <time>2015-08-27T22:30:35Z</time>
      </trkpt>
      <trkpt lat="35.952104" lon="120.210031">
        <ele>0.5</ele>
        <time>2015-08-27T22:30:39Z</time>
      </trkpt>
      <trkpt lat="35.952028" lon="120.209786">
        <ele>0.5</ele>
        <time>2015-08-27T22:30:43Z</time>
      </trkpt>
      <trkpt lat="35.951997" lon="120.209653">
        <ele>0.4</ele>
        <time>2015-08-27T22:30:51Z</time>
      </trkpt>
      <trkpt lat="35.951975" lon="120.209522">
        <ele>0.4</ele>
        <time>2015-08-27T22:30:55Z</time>
      </trkpt>
      <trkpt lat="35.951949" lon="120.209402">
        <ele>0.4</ele>
        <time>2015-08-27T22:30:59Z</time>
      </trkpt>
      <trkpt lat="35.951955" lon="120.209284">
        <ele>0.4</ele>
        <time>2015-08-27T22:31:03Z</time>
      </trkpt>
      <trkpt lat="35.951978" lon="120.209149">
        <ele>0.4</ele>
        <time>2015-08-27T22:31:07Z</time>
      </trkpt>
      <trkpt lat="35.952" lon="120.209">
        <ele>0.4</ele>
        <time>2015-08-27T22:31:11Z</time>
      </trkpt>
      <trkpt lat="35.951991" lon="120.208862">
        <ele>0.4</ele>
        <time>2015-08-27T22:31:15Z</time>
      </trkpt>
      <trkpt lat="35.951982" lon="120.208721">
        <ele>0.5</ele>
        <time>2015-08-27T22:31:19Z</time>
      </trkpt>
      <trkpt lat="35.952006" lon="120.208595">
        <ele>0.5</ele>
        <time>2015-08-27T22:31:23Z</time>
      </trkpt>
      <trkpt lat="35.952056" lon="120.208546">
        <ele>0.6</ele>
        <time>2015-08-27T22:31:27Z</time>
      </trkpt>
      <trkpt lat="35.952102" lon="120.208514">
        <ele>0.7</ele>
        <time>2015-08-27T22:31:31Z</time>
      </trkpt>
      <trkpt lat="35.952169" lon="120.208481">
        <ele>0.7</ele>
        <time>2015-08-27T22:31:35Z</time>
      </trkpt>
      <trkpt lat="35.952231" lon="120.208456">
        <ele>0.8</ele>
        <time>2015-08-27T22:31:39Z</time>
      </trkpt>
      <trkpt lat="35.95233" lon="120.208438">
        <ele>0.9</ele>
        <time>2015-08-27T22:31:43Z</time>
      </trkpt>
      <trkpt lat="35.952432" lon="120.208419">
        <ele>0.9</ele>
        <time>2015-08-27T22:31:47Z</time>
      </trkpt>
      <trkpt lat="35.952594" lon="120.208394">
        <ele>1.0</ele>
        <time>2015-08-27T22:31:51Z</time>
      </trkpt>
      <trkpt lat="35.952739" lon="120.208367">
        <ele>1.1</ele>
        <time>2015-08-27T22:31:55Z</time>
      </trkpt>
      <trkpt lat="35.952906" lon="120.208357">
        <ele>1.2</ele>
        <time>2015-08-27T22:31:59Z</time>
      </trkpt>
      <trkpt lat="35.953053" lon="120.208319">
        <ele>1.4</ele>
        <time>2015-08-27T22:32:03Z</time>
      </trkpt>
      <trkpt lat="35.953179" lon="120.208301">
        <ele>1.5</ele>
        <time>2015-08-27T22:32:07Z</time>
      </trkpt>
      <trkpt lat="35.953314" lon="120.208283">
        <ele>1.7</ele>
        <time>2015-08-27T22:32:11Z</time>
      </trkpt>
      <trkpt lat="35.953447" lon="120.208276">
        <ele>2.0</ele>
        <time>2015-08-27T22:32:15Z</time>
      </trkpt>
      <trkpt lat="35.953595" lon="120.208254">
        <ele>2.2</ele>
        <time>2015-08-27T22:32:19Z</time>
      </trkpt>
      <trkpt lat="35.953734" lon="120.208244">
        <ele>2.5</ele>
        <time>2015-08-27T22:32:23Z</time>
      </trkpt>
      <trkpt lat="35.953928" lon="120.208217">
        <ele>2.8</ele>
        <time>2015-08-27T22:32:27Z</time>
      </trkpt>
      <trkpt lat="35.954173" lon="120.208198">
        <ele>3.1</ele>
        <time>2015-08-27T22:32:31Z</time>
      </trkpt>
      <trkpt lat="35.954323" lon="120.208206">
        <ele>3.5</ele>
        <time>2015-08-27T22:32:35Z</time>
      </trkpt>
      <trkpt lat="35.954448" lon="120.208205">
        <ele>3.8</ele>
        <time>2015-08-27T22:32:39Z</time>
      </trkpt>
      <trkpt lat="35.954607" lon="120.208165">
        <ele>4.2</ele>
        <time>2015-08-27T22:32:43Z</time>
      </trkpt>
      <trkpt lat="35.95474" lon="120.208155">
        <ele>4.5</ele>
        <time>2015-08-27T22:32:47Z</time>
      </trkpt>
      <trkpt lat="35.954846" lon="120.20815">
        <ele>5.0</ele>
        <time>2015-08-27T22:32:51Z</time>
      </trkpt>
      <trkpt lat="35.954964" lon="120.20813">
        <ele>5.4</ele>
        <time>2015-08-27T22:32:55Z</time>
      </trkpt>
      <trkpt lat="35.955107" lon="120.208105">
        <ele>5.9</ele>
        <time>2015-08-27T22:32:59Z</time>
      </trkpt>
      <trkpt lat="35.955237" lon="120.208066">
        <ele>6.4</ele>
        <time>2015-08-27T22:33:03Z</time>
      </trkpt>
      <trkpt lat="35.955341" lon="120.208032">
        <ele>7.0</ele>
        <time>2015-08-27T22:33:07Z</time>
      </trkpt>
      <trkpt lat="35.955433" lon="120.207996">
        <ele>7.5</ele>
        <time>2015-08-27T22:33:11Z</time>
      </trkpt>
      <trkpt lat="35.955525" lon="120.207959">
        <ele>8.1</ele>
        <time>2015-08-27T22:33:15Z</time>
      </trkpt>
      <trkpt lat="35.955608" lon="120.207923">
        <ele>8.7</ele>
        <time>2015-08-27T22:33:19Z</time>
      </trkpt>
      <trkpt lat="35.955695" lon="120.207891">
        <ele>9.2</ele>
        <time>2015-08-27T22:33:23Z</time>
      </trkpt>
      <trkpt lat="35.955806" lon="120.207857">
        <ele>9.8</ele>
        <time>2015-08-27T22:33:27Z</time>
      </trkpt>
      <trkpt lat="35.955923" lon="120.207806">
        <ele>10.3</ele>
        <time>2015-08-27T22:33:31Z</time>
      </trkpt>
      <trkpt lat="35.95602" lon="120.207754">
        <ele>10.8</ele>
        <time>2015-08-27T22:33:35Z</time>
      </trkpt>
      <trkpt lat="35.956115" lon="120.207726">
        <ele>11.2</ele>
        <time>2015-08-27T22:33:39Z</time>
      </trkpt>
      <trkpt lat="35.956221" lon="120.207683">
        <ele>11.6</ele>
        <time>2015-08-27T22:33:43Z</time>
      </trkpt>
      <trkpt lat="35.956332" lon="120.207639">
        <ele>11.9</ele>
        <time>2015-08-27T22:33:47Z</time>
      </trkpt>
      <trkpt lat="35.956451" lon="120.207613">
        <ele>12.2</ele>
        <time>2015-08-27T22:33:51Z</time>
      </trkpt>
      <trkpt lat="35.956566" lon="120.207584">
        <ele>12.4</ele>
        <time>2015-08-27T22:33:55Z</time>
      </trkpt>
      <trkpt lat="35.956675" lon="120.207542">
        <ele>12.6</ele>
        <time>2015-08-27T22:33:59Z</time>
      </trkpt>
      <trkpt lat="35.95678" lon="120.207505">
        <ele>12.8</ele>
        <time>2015-08-27T22:34:03Z</time>
      </trkpt>
      <trkpt lat="35.956855" lon="120.207499">
        <ele>13.0</ele>
        <time>2015-08-27T22:34:07Z</time>
      </trkpt>
      <trkpt lat="35.956789" lon="120.207659">
        <ele>13.2</ele>
        <time>2015-08-27T22:34:11Z</time>
      </trkpt>
      <trkpt lat="35.956759" lon="120.207816">
        <ele>13.3</ele>
        <time>2015-08-27T22:34:15Z</time>
      </trkpt>
      <trkpt lat="35.956773" lon="120.20794">
        <ele>13.4</ele>
        <time>2015-08-27T22:34:19Z</time>
      </trkpt>
      <trkpt lat="35.956781" lon="120.208028">
        <ele>13.5</ele>
        <time>2015-08-27T22:34:23Z</time>
      </trkpt>
      <trkpt lat="35.956773" lon="120.208134">
        <ele>13.6</ele>
        <time>2015-08-27T22:34:27Z</time>
      </trkpt>
      <trkpt lat="35.956788" lon="120.208268">
        <ele>13.7</ele>
        <time>2015-08-27T22:34:31Z</time>
      </trkpt>
      <trkpt lat="35.956799" lon="120.208397">
        <ele>13.8</ele>
        <time>2015-08-27T22:34:35Z</time>
      </trkpt>
      <trkpt lat="35.956767" lon="120.208541">
        <ele>13.8</ele>
        <time>2015-08-27T22:34:39Z</time>
      </trkpt>
      <extensions>
        <breaktype>2</breaktype>
      </extensions>
    </trkseg>
  </trk>
  <extensions>
    <ssrlog>
      <logseg>
        <logpt time="2015-08-27T22:07:46Z">
          <spd>2.3</spd>
          <str>0.0</str>
        </logpt>
        <logpt time="2015-08-27T22:07:50Z">
          <spd>2.7</spd>
          <str>0.0</str>
        </logpt>
        <logpt time="2015-08-27T22:07:54Z">
          <spd>5.0</spd>
          <str>27.0</str>
        </logpt>
        <logpt time="2015-08-27T22:07:55Z">
          <spd>6.8</spd>
          <str>36.0</str>
        </logpt>
        <logpt time="2015-08-27T22:07:59Z">
          <spd>8.6</spd>
          <str>46.0</str>
        </logpt>
        <logpt time="2015-08-27T22:08:03Z">
          <spd>10.3</spd>
          <str>54.0</str>
        </logpt>
        <logpt time="2015-08-27T22:08:07Z">
          <spd>11.3</spd>
          <str>61.0</str>
        </logpt>
        <logpt time="2015-08-27T22:08:11Z">
          <spd>11.3</spd>
          <str>63.0</str>
        </logpt>
        <logpt time="2015-08-27T22:08:15Z">
          <spd>11.7</spd>
          <str>67.0</str>
        </logpt>
        <logpt time="2015-08-27T22:08:19Z">
          <spd>11.7</spd>
          <str>69.0</str>
        </logpt>
        <logpt time="2015-08-27T22:08:23Z">
          <spd>11.3</spd>
          <str>71.0</str>
        </logpt>
        <logpt time="2015-08-27T22:08:27Z">
          <spd>10.8</spd>
          <str>74.0</str>
        </logpt>
        <logpt time="2015-08-27T22:08:31Z">
          <spd>10.3</spd>
          <str>74.0</str>
        </logpt>
        <logpt time="2015-08-27T22:08:35Z">
          <spd>10.8</spd>
          <str>75.0</str>
        </logpt>
        <logpt time="2015-08-27T22:08:39Z">
          <spd>11.3</spd>
          <str>77.0</str>
        </logpt>
        <logpt time="2015-08-27T22:08:43Z">
          <spd>11.7</spd>
          <str>77.0</str>
        </logpt>
        <logpt time="2015-08-27T22:08:47Z">
          <spd>12.6</spd>
          <str>86.0</str>
        </logpt>
        <logpt time="2015-08-27T22:08:51Z">
          <spd>13.1</spd>
          <str>90.0</str>
        </logpt>
        <logpt time="2015-08-27T22:08:55Z">
          <spd>13.1</spd>
          <str>90.0</str>
        </logpt>
        <logpt time="2015-08-27T22:08:59Z">
          <spd>13.9</spd>
          <str>89.0</str>
        </logpt>
        <logpt time="2015-08-27T22:09:03Z">
          <spd>13.5</spd>
          <str>89.0</str>
        </logpt>
        <logpt time="2015-08-27T22:09:07Z">
          <spd>13.5</spd>
          <str>89.0</str>
        </logpt>
        <logpt time="2015-08-27T22:09:11Z">
          <spd>13.5</spd>
          <str>89.0</str>
        </logpt>
        <logpt time="2015-08-27T22:09:15Z">
          <spd>13.5</spd>
          <str>89.0</str>
        </logpt>
        <logpt time="2015-08-27T22:09:19Z">
          <spd>13.9</spd>
          <str>89.0</str>
        </logpt>
        <logpt time="2015-08-27T22:09:23Z">
          <spd>13.9</spd>
          <str>89.0</str>
        </logpt>
        <logpt time="2015-08-27T22:09:27Z">
          <spd>13.9</spd>
          <str>88.0</str>
        </logpt>
        <logpt time="2015-08-27T22:09:31Z">
          <spd>13.9</spd>
          <str>89.0</str>
        </logpt>
        <logpt time="2015-08-27T22:09:35Z">
          <spd>13.9</spd>
          <str>89.0</str>
        </logpt>
        <logpt time="2015-08-27T22:09:39Z">
          <spd>13.9</spd>
          <str>89.0</str>
        </logpt>
        <logpt time="2015-08-27T22:09:43Z">
          <spd>13.5</spd>
          <str>89.0</str>
        </logpt>
        <logpt time="2015-08-27T22:09:47Z">
          <spd>13.1</spd>
          <str>89.0</str>
        </logpt>
        <logpt time="2015-08-27T22:09:51Z">
          <spd>13.1</spd>
          <str>89.0</str>
        </logpt>
        <logpt time="2015-08-27T22:09:55Z">
          <spd>12.6</spd>
          <str>89.0</str>
        </logpt>
        <logpt time="2015-08-27T22:09:59Z">
          <spd>13.1</spd>
          <str>89.0</str>
        </logpt>
        <logpt time="2015-08-27T22:10:03Z">
          <spd>13.1</spd>
          <str>89.0</str>
        </logpt>
        <logpt time="2015-08-27T22:10:07Z">
          <spd>13.1</spd>
          <str>89.0</str>
        </logpt>
        <logpt time="2015-08-27T22:10:11Z">
          <spd>13.1</spd>
          <str>89.0</str>
        </logpt>
        <logpt time="2015-08-27T22:10:15Z">
          <spd>13.1</spd>
          <str>89.0</str>
        </logpt>
        <logpt time="2015-08-27T22:10:19Z">
          <spd>13.5</spd>
          <str>89.0</str>
        </logpt>
        <logpt time="2015-08-27T22:10:23Z">
          <spd>13.5</spd>
          <str>89.0</str>
        </logpt>
        <logpt time="2015-08-27T22:10:27Z">
          <spd>13.5</spd>
          <str>89.0</str>
        </logpt>
        <logpt time="2015-08-27T22:10:31Z">
          <spd>13.1</spd>
          <str>89.0</str>
        </logpt>
        <logpt time="2015-08-27T22:10:35Z">
          <spd>12.6</spd>
          <str>89.0</str>
        </logpt>
        <logpt time="2015-08-27T22:10:39Z">
          <spd>12.6</spd>
          <str>89.0</str>
        </logpt>
        <logpt time="2015-08-27T22:10:43Z">
          <spd>12.2</spd>
          <str>89.0</str>
        </logpt>
        <logpt time="2015-08-27T22:10:47Z">
          <spd>12.2</spd>
          <str>89.0</str>
        </logpt>
        <logpt time="2015-08-27T22:10:51Z">
          <spd>12.2</spd>
          <str>89.0</str>
        </logpt>
        <logpt time="2015-08-27T22:10:55Z">
          <spd>11.7</spd>
          <str>89.0</str>
        </logpt>
        <logpt time="2015-08-27T22:10:59Z">
          <spd>11.3</spd>
          <str>89.0</str>
        </logpt>
        <logpt time="2015-08-27T22:11:03Z">
          <spd>11.3</spd>
          <str>89.0</str>
        </logpt>
        <logpt time="2015-08-27T22:11:07Z">
          <spd>11.3</spd>
          <str>89.0</str>
        </logpt>
        <logpt time="2015-08-27T22:11:11Z">
          <spd>11.3</spd>
          <str>89.0</str>
        </logpt>
        <logpt time="2015-08-27T22:11:15Z">
          <spd>10.8</spd>
          <str>89.0</str>
        </logpt>
        <logpt time="2015-08-27T22:11:19Z">
          <spd>10.8</spd>
          <str>89.0</str>
        </logpt>
        <logpt time="2015-08-27T22:11:23Z">
          <spd>10.3</spd>
          <str>89.0</str>
        </logpt>
        <logpt time="2015-08-27T22:11:27Z">
          <spd>10.3</spd>
          <str>89.0</str>
        </logpt>
        <logpt time="2015-08-27T22:11:31Z">
          <spd>10.3</spd>
          <str>89.0</str>
        </logpt>
        <logpt time="2015-08-27T22:11:35Z">
          <spd>10.3</spd>
          <str>88.0</str>
        </logpt>
        <logpt time="2015-08-27T22:11:39Z">
          <spd>9.9</spd>
          <str>88.0</str>
        </logpt>
        <logpt time="2015-08-27T22:11:43Z">
          <spd>9.9</spd>
          <str>88.0</str>
        </logpt>
        <logpt time="2015-08-27T22:11:47Z">
          <spd>10.3</spd>
          <str>88.0</str>
        </logpt>
        <logpt time="2015-08-27T22:11:51Z">
          <spd>10.3</spd>
          <str>88.0</str>
        </logpt>
        <logpt time="2015-08-27T22:11:55Z">
          <spd>10.8</spd>
          <str>88.0</str>
        </logpt>
        <logpt time="2015-08-27T22:11:59Z">
          <spd>10.8</spd>
          <str>88.0</str>
        </logpt>
        <logpt time="2015-08-27T22:12:03Z">
          <spd>10.8</spd>
          <str>89.0</str>
        </logpt>
        <logpt time="2015-08-27T22:12:07Z">
          <spd>10.3</spd>
          <str>89.0</str>
        </logpt>
        <logpt time="2015-08-27T22:12:11Z">
          <spd>10.3</spd>
          <str>88.0</str>
        </logpt>
        <logpt time="2015-08-27T22:12:15Z">
          <spd>9.0</spd>
          <str>88.0</str>
        </logpt>
        <logpt time="2015-08-27T22:12:19Z">
          <spd>9.0</spd>
          <str>88.0</str>
        </logpt>
        <logpt time="2015-08-27T22:12:23Z">
          <spd>9.4</spd>
          <str>88.0</str>
        </logpt>
        <logpt time="2015-08-27T22:12:27Z">
          <spd>9.9</spd>
          <str>88.0</str>
        </logpt>
        <logpt time="2015-08-27T22:12:31Z">
          <spd>10.3</spd>
          <str>88.0</str>
        </logpt>
        <logpt time="2015-08-27T22:12:35Z">
          <spd>9.9</spd>
          <str>89.0</str>
        </logpt>
        <logpt time="2015-08-27T22:12:39Z">
          <spd>9.9</spd>
          <str>89.0</str>
        </logpt>
        <logpt time="2015-08-27T22:12:43Z">
          <spd>10.3</spd>
          <str>89.0</str>
        </logpt>
        <logpt time="2015-08-27T22:12:47Z">
          <spd>10.3</spd>
          <str>89.0</str>
        </logpt>
        <logpt time="2015-08-27T22:12:51Z">
          <spd>10.3</spd>
          <str>89.0</str>
        </logpt>
        <logpt time="2015-08-27T22:12:55Z">
          <spd>10.3</spd>
          <str>89.0</str>
        </logpt>
        <logpt time="2015-08-27T22:12:59Z">
          <spd>10.3</spd>
          <str>89.0</str>
        </logpt>
        <logpt time="2015-08-27T22:13:03Z">
          <spd>9.9</spd>
          <str>89.0</str>
        </logpt>
        <logpt time="2015-08-27T22:13:07Z">
          <spd>9.9</spd>
          <str>89.0</str>
        </logpt>
        <logpt time="2015-08-27T22:13:11Z">
          <spd>9.4</spd>
          <str>89.0</str>
        </logpt>
        <logpt time="2015-08-27T22:13:15Z">
          <spd>9.9</spd>
          <str>90.0</str>
        </logpt>
        <logpt time="2015-08-27T22:13:19Z">
          <spd>9.9</spd>
          <str>89.0</str>
        </logpt>
        <logpt time="2015-08-27T22:13:23Z">
          <spd>10.3</spd>
          <str>90.0</str>
        </logpt>
        <logpt time="2015-08-27T22:13:27Z">
          <spd>10.3</spd>
          <str>90.0</str>
        </logpt>
        <logpt time="2015-08-27T22:13:31Z">
          <spd>10.3</spd>
          <str>90.0</str>
        </logpt>
        <logpt time="2015-08-27T22:13:35Z">
          <spd>10.8</spd>
          <str>90.0</str>
        </logpt>
        <logpt time="2015-08-27T22:13:39Z">
          <spd>10.8</spd>
          <str>90.0</str>
        </logpt>
        <logpt time="2015-08-27T22:13:43Z">
          <spd>10.3</spd>
          <str>90.0</str>
        </logpt>
        <logpt time="2015-08-27T22:13:47Z">
          <spd>10.3</spd>
          <str>90.0</str>
        </logpt>
        <logpt time="2015-08-27T22:13:51Z">
          <spd>10.3</spd>
          <str>90.0</str>
        </logpt>
        <logpt time="2015-08-27T22:13:55Z">
          <spd>10.3</spd>
          <str>90.0</str>
        </logpt>
        <logpt time="2015-08-27T22:13:59Z">
          <spd>9.9</spd>
          <str>90.0</str>
        </logpt>
        <logpt time="2015-08-27T22:14:03Z">
          <spd>9.9</spd>
          <str>90.0</str>
        </logpt>
        <logpt time="2015-08-27T22:14:07Z">
          <spd>9.9</spd>
          <str>90.0</str>
        </logpt>
        <logpt time="2015-08-27T22:14:11Z">
          <spd>9.4</spd>
          <str>90.0</str>
        </logpt>
        <logpt time="2015-08-27T22:14:15Z">
          <spd>9.4</spd>
          <str>90.0</str>
        </logpt>
        <logpt time="2015-08-27T22:14:19Z">
          <spd>10.3</spd>
          <str>90.0</str>
        </logpt>
        <logpt time="2015-08-27T22:14:23Z">
          <spd>10.8</spd>
          <str>90.0</str>
        </logpt>
        <logpt time="2015-08-27T22:14:27Z">
          <spd>10.8</spd>
          <str>90.0</str>
        </logpt>
        <logpt time="2015-08-27T22:14:31Z">
          <spd>10.3</spd>
          <str>90.0</str>
        </logpt>
        <logpt time="2015-08-27T22:14:35Z">
          <spd>9.9</spd>
          <str>90.0</str>
        </logpt>
        <logpt time="2015-08-27T22:14:39Z">
          <spd>10.3</spd>
          <str>90.0</str>
        </logpt>
        <logpt time="2015-08-27T22:14:43Z">
          <spd>11.3</spd>
          <str>90.0</str>
        </logpt>
        <logpt time="2015-08-27T22:14:47Z">
          <spd>11.7</spd>
          <str>90.0</str>
        </logpt>
        <logpt time="2015-08-27T22:14:51Z">
          <spd>11.7</spd>
          <str>90.0</str>
        </logpt>
        <logpt time="2015-08-27T22:14:55Z">
          <spd>11.7</spd>
          <str>90.0</str>
        </logpt>
        <logpt time="2015-08-27T22:14:59Z">
          <spd>12.2</spd>
          <str>89.0</str>
        </logpt>
        <logpt time="2015-08-27T22:15:03Z">
          <spd>12.2</spd>
          <str>89.0</str>
        </logpt>
        <logpt time="2015-08-27T22:15:07Z">
          <spd>12.6</spd>
          <str>89.0</str>
        </logpt>
        <logpt time="2015-08-27T22:15:11Z">
          <spd>13.1</spd>
          <str>89.0</str>
        </logpt>
        <logpt time="2015-08-27T22:15:15Z">
          <spd>13.1</spd>
          <str>89.0</str>
        </logpt>
        <logpt time="2015-08-27T22:15:19Z">
          <spd>13.5</spd>
          <str>89.0</str>
        </logpt>
        <logpt time="2015-08-27T22:15:23Z">
          <spd>13.1</spd>
          <str>89.0</str>
        </logpt>
        <logpt time="2015-08-27T22:15:27Z">
          <spd>12.6</spd>
          <str>88.0</str>
        </logpt>
        <logpt time="2015-08-27T22:15:31Z">
          <spd>12.6</spd>
          <str>88.0</str>
        </logpt>
        <logpt time="2015-08-27T22:15:35Z">
          <spd>12.6</spd>
          <str>88.0</str>
        </logpt>
        <logpt time="2015-08-27T22:15:39Z">
          <spd>12.2</spd>
          <str>88.0</str>
        </logpt>
        <logpt time="2015-08-27T22:15:43Z">
          <spd>11.7</spd>
          <str>88.0</str>
        </logpt>
        <logpt time="2015-08-27T22:15:47Z">
          <spd>11.7</spd>
          <str>88.0</str>
        </logpt>
        <logpt time="2015-08-27T22:15:51Z">
          <spd>11.3</spd>
          <str>88.0</str>
        </logpt>
        <logpt time="2015-08-27T22:15:55Z">
          <spd>11.3</spd>
          <str>88.0</str>
        </logpt>
        <logpt time="2015-08-27T22:15:59Z">
          <spd>11.3</spd>
          <str>88.0</str>
        </logpt>
        <logpt time="2015-08-27T22:16:03Z">
          <spd>11.7</spd>
          <str>88.0</str>
        </logpt>
        <logpt time="2015-08-27T22:16:07Z">
          <spd>11.7</spd>
          <str>88.0</str>
        </logpt>
        <logpt time="2015-08-27T22:16:11Z">
          <spd>11.7</spd>
          <str>88.0</str>
        </logpt>
        <logpt time="2015-08-27T22:16:15Z">
          <spd>12.2</spd>
          <str>88.0</str>
        </logpt>
        <logpt time="2015-08-27T22:16:19Z">
          <spd>12.2</spd>
          <str>88.0</str>
        </logpt>
        <logpt time="2015-08-27T22:16:23Z">
          <spd>12.2</spd>
          <str>88.0</str>
        </logpt>
        <logpt time="2015-08-27T22:16:27Z">
          <spd>12.2</spd>
          <str>88.0</str>
        </logpt>
        <logpt time="2015-08-27T22:16:31Z">
          <spd>12.2</spd>
          <str>89.0</str>
        </logpt>
        <logpt time="2015-08-27T22:16:35Z">
          <spd>12.2</spd>
          <str>88.0</str>
        </logpt>
        <logpt time="2015-08-27T22:16:39Z">
          <spd>11.7</spd>
          <str>88.0</str>
        </logpt>
        <logpt time="2015-08-27T22:16:43Z">
          <spd>11.7</spd>
          <str>88.0</str>
        </logpt>
        <logpt time="2015-08-27T22:16:47Z">
          <spd>11.7</spd>
          <str>88.0</str>
        </logpt>
        <logpt time="2015-08-27T22:16:51Z">
          <spd>11.7</spd>
          <str>88.0</str>
        </logpt>
        <logpt time="2015-08-27T22:16:55Z">
          <spd>11.7</spd>
          <str>88.0</str>
        </logpt>
        <logpt time="2015-08-27T22:16:59Z">
          <spd>11.7</spd>
          <str>88.0</str>
        </logpt>
        <logpt time="2015-08-27T22:17:03Z">
          <spd>11.3</spd>
          <str>88.0</str>
        </logpt>
        <logpt time="2015-08-27T22:17:07Z">
          <spd>11.3</spd>
          <str>88.0</str>
        </logpt>
        <logpt time="2015-08-27T22:17:11Z">
          <spd>11.3</spd>
          <str>88.0</str>
        </logpt>
        <logpt time="2015-08-27T22:17:15Z">
          <spd>11.3</spd>
          <str>88.0</str>
        </logpt>
        <logpt time="2015-08-27T22:17:19Z">
          <spd>11.3</spd>
          <str>88.0</str>
        </logpt>
        <logpt time="2015-08-27T22:17:23Z">
          <spd>10.8</spd>
          <str>88.0</str>
        </logpt>
        <logpt time="2015-08-27T22:17:27Z">
          <spd>10.3</spd>
          <str>88.0</str>
        </logpt>
        <logpt time="2015-08-27T22:17:31Z">
          <spd>10.8</spd>
          <str>88.0</str>
        </logpt>
        <logpt time="2015-08-27T22:17:35Z">
          <spd>10.3</spd>
          <str>88.0</str>
        </logpt>
        <logpt time="2015-08-27T22:17:39Z">
          <spd>10.3</spd>
          <str>88.0</str>
        </logpt>
        <logpt time="2015-08-27T22:17:43Z">
          <spd>9.9</spd>
          <str>88.0</str>
        </logpt>
        <logpt time="2015-08-27T22:17:47Z">
          <spd>9.9</spd>
          <str>88.0</str>
        </logpt>
        <logpt time="2015-08-27T22:17:51Z">
          <spd>9.9</spd>
          <str>89.0</str>
        </logpt>
        <logpt time="2015-08-27T22:17:55Z">
          <spd>9.4</spd>
          <str>89.0</str>
        </logpt>
        <logpt time="2015-08-27T22:17:59Z">
          <spd>9.4</spd>
          <str>89.0</str>
        </logpt>
        <logpt time="2015-08-27T22:18:03Z">
          <spd>9.4</spd>
          <str>89.0</str>
        </logpt>
        <logpt time="2015-08-27T22:18:07Z">
          <spd>9.9</spd>
          <str>89.0</str>
        </logpt>
        <logpt time="2015-08-27T22:18:11Z">
          <spd>9.9</spd>
          <str>89.0</str>
        </logpt>
        <logpt time="2015-08-27T22:18:15Z">
          <spd>9.9</spd>
          <str>89.0</str>
        </logpt>
        <logpt time="2015-08-27T22:18:19Z">
          <spd>10.3</spd>
          <str>89.0</str>
        </logpt>
        <logpt time="2015-08-27T22:18:23Z">
          <spd>10.3</spd>
          <str>89.0</str>
        </logpt>
        <logpt time="2015-08-27T22:18:27Z">
          <spd>10.3</spd>
          <str>89.0</str>
        </logpt>
        <logpt time="2015-08-27T22:18:31Z">
          <spd>10.8</spd>
          <str>89.0</str>
        </logpt>
        <logpt time="2015-08-27T22:18:35Z">
          <spd>10.8</spd>
          <str>89.0</str>
        </logpt>
        <logpt time="2015-08-27T22:18:39Z">
          <spd>10.8</spd>
          <str>89.0</str>
        </logpt>
        <logpt time="2015-08-27T22:18:43Z">
          <spd>10.8</spd>
          <str>89.0</str>
        </logpt>
        <logpt time="2015-08-27T22:18:47Z">
          <spd>11.3</spd>
          <str>89.0</str>
        </logpt>
        <logpt time="2015-08-27T22:18:51Z">
          <spd>11.3</spd>
          <str>89.0</str>
        </logpt>
        <logpt time="2015-08-27T22:18:55Z">
          <spd>11.3</spd>
          <str>89.0</str>
        </logpt>
        <logpt time="2015-08-27T22:18:59Z">
          <spd>10.8</spd>
          <str>89.0</str>
        </logpt>
        <logpt time="2015-08-27T22:19:03Z">
          <spd>10.3</spd>
          <str>89.0</str>
        </logpt>
        <logpt time="2015-08-27T22:19:07Z">
          <spd>9.9</spd>
          <str>89.0</str>
        </logpt>
        <logpt time="2015-08-27T22:19:11Z">
          <spd>10.3</spd>
          <str>89.0</str>
        </logpt>
        <logpt time="2015-08-27T22:19:15Z">
          <spd>9.9</spd>
          <str>89.0</str>
        </logpt>
        <logpt time="2015-08-27T22:19:19Z">
          <spd>9.9</spd>
          <str>89.0</str>
        </logpt>
        <logpt time="2015-08-27T22:19:23Z">
          <spd>9.4</spd>
          <str>89.0</str>
        </logpt>
        <logpt time="2015-08-27T22:19:27Z">
          <spd>9.4</spd>
          <str>89.0</str>
        </logpt>
        <logpt time="2015-08-27T22:19:31Z">
          <spd>9.4</spd>
          <str>89.0</str>
        </logpt>
        <logpt time="2015-08-27T22:19:35Z">
          <spd>9.4</spd>
          <str>89.0</str>
        </logpt>
        <logpt time="2015-08-27T22:19:39Z">
          <spd>9.9</spd>
          <str>89.0</str>
        </logpt>
        <logpt time="2015-08-27T22:19:43Z">
          <spd>9.9</spd>
          <str>89.0</str>
        </logpt>
        <logpt time="2015-08-27T22:19:47Z">
          <spd>9.4</spd>
          <str>89.0</str>
        </logpt>
        <logpt time="2015-08-27T22:19:51Z">
          <spd>9.4</spd>
          <str>89.0</str>
        </logpt>
        <logpt time="2015-08-27T22:19:55Z">
          <spd>9.9</spd>
          <str>89.0</str>
        </logpt>
        <logpt time="2015-08-27T22:19:59Z">
          <spd>10.3</spd>
          <str>90.0</str>
        </logpt>
        <logpt time="2015-08-27T22:20:03Z">
          <spd>10.8</spd>
          <str>90.0</str>
        </logpt>
        <logpt time="2015-08-27T22:20:07Z">
          <spd>11.3</spd>
          <str>90.0</str>
        </logpt>
        <logpt time="2015-08-27T22:20:11Z">
          <spd>11.7</spd>
          <str>90.0</str>
        </logpt>
        <logpt time="2015-08-27T22:20:15Z">
          <spd>12.2</spd>
          <str>91.0</str>
        </logpt>
        <logpt time="2015-08-27T22:20:19Z">
          <spd>12.2</spd>
          <str>91.0</str>
        </logpt>
        <logpt time="2015-08-27T22:20:23Z">
          <spd>12.6</spd>
          <str>91.0</str>
        </logpt>
        <logpt time="2015-08-27T22:20:27Z">
          <spd>12.6</spd>
          <str>91.0</str>
        </logpt>
        <logpt time="2015-08-27T22:20:31Z">
          <spd>12.2</spd>
          <str>91.0</str>
        </logpt>
        <logpt time="2015-08-27T22:20:35Z">
          <spd>11.7</spd>
          <str>91.0</str>
        </logpt>
        <logpt time="2015-08-27T22:20:39Z">
          <spd>11.3</spd>
          <str>91.0</str>
        </logpt>
        <logpt time="2015-08-27T22:20:43Z">
          <spd>10.8</spd>
          <str>92.0</str>
        </logpt>
        <logpt time="2015-08-27T22:20:47Z">
          <spd>10.8</spd>
          <str>92.0</str>
        </logpt>
        <logpt time="2015-08-27T22:20:51Z">
          <spd>10.8</spd>
          <str>92.0</str>
        </logpt>
        <logpt time="2015-08-27T22:20:55Z">
          <spd>10.8</spd>
          <str>91.0</str>
        </logpt>
        <logpt time="2015-08-27T22:20:59Z">
          <spd>10.8</spd>
          <str>91.0</str>
        </logpt>
        <logpt time="2015-08-27T22:21:03Z">
          <spd>10.8</spd>
          <str>91.0</str>
        </logpt>
        <logpt time="2015-08-27T22:21:07Z">
          <spd>10.3</spd>
          <str>91.0</str>
        </logpt>
        <logpt time="2015-08-27T22:21:11Z">
          <spd>9.9</spd>
          <str>90.0</str>
        </logpt>
        <logpt time="2015-08-27T22:21:15Z">
          <spd>9.9</spd>
          <str>90.0</str>
        </logpt>
        <logpt time="2015-08-27T22:21:19Z">
          <spd>9.9</spd>
          <str>90.0</str>
        </logpt>
        <logpt time="2015-08-27T22:21:23Z">
          <spd>10.3</spd>
          <str>90.0</str>
        </logpt>
        <logpt time="2015-08-27T22:21:27Z">
          <spd>10.3</spd>
          <str>90.0</str>
        </logpt>
        <logpt time="2015-08-27T22:21:31Z">
          <spd>10.3</spd>
          <str>90.0</str>
        </logpt>
        <logpt time="2015-08-27T22:21:35Z">
          <spd>10.8</spd>
          <str>90.0</str>
        </logpt>
        <logpt time="2015-08-27T22:21:39Z">
          <spd>10.8</spd>
          <str>90.0</str>
        </logpt>
        <logpt time="2015-08-27T22:21:43Z">
          <spd>10.8</spd>
          <str>90.0</str>
        </logpt>
        <logpt time="2015-08-27T22:21:47Z">
          <spd>10.8</spd>
          <str>90.0</str>
        </logpt>
        <logpt time="2015-08-27T22:21:51Z">
          <spd>11.3</spd>
          <str>90.0</str>
        </logpt>
        <logpt time="2015-08-27T22:21:55Z">
          <spd>11.3</spd>
          <str>90.0</str>
        </logpt>
        <logpt time="2015-08-27T22:21:59Z">
          <spd>11.7</spd>
          <str>90.0</str>
        </logpt>
        <logpt time="2015-08-27T22:22:03Z">
          <spd>12.6</spd>
          <str>90.0</str>
        </logpt>
        <logpt time="2015-08-27T22:22:07Z">
          <spd>12.2</spd>
          <str>90.0</str>
        </logpt>
        <logpt time="2015-08-27T22:22:11Z">
          <spd>12.6</spd>
          <str>90.0</str>
        </logpt>
        <logpt time="2015-08-27T22:22:15Z">
          <spd>12.6</spd>
          <str>90.0</str>
        </logpt>
        <logpt time="2015-08-27T22:22:19Z">
          <spd>12.6</spd>
          <str>90.0</str>
        </logpt>
        <logpt time="2015-08-27T22:22:23Z">
          <spd>13.1</spd>
          <str>90.0</str>
        </logpt>
        <logpt time="2015-08-27T22:22:27Z">
          <spd>13.1</spd>
          <str>90.0</str>
        </logpt>
        <logpt time="2015-08-27T22:22:31Z">
          <spd>13.1</spd>
          <str>90.0</str>
        </logpt>
        <logpt time="2015-08-27T22:22:35Z">
          <spd>13.5</spd>
          <str>90.0</str>
        </logpt>
        <logpt time="2015-08-27T22:22:39Z">
          <spd>13.1</spd>
          <str>90.0</str>
        </logpt>
        <logpt time="2015-08-27T22:22:43Z">
          <spd>12.6</spd>
          <str>90.0</str>
        </logpt>
        <logpt time="2015-08-27T22:22:47Z">
          <spd>12.2</spd>
          <str>90.0</str>
        </logpt>
        <logpt time="2015-08-27T22:22:51Z">
          <spd>12.2</spd>
          <str>89.0</str>
        </logpt>
        <logpt time="2015-08-27T22:22:55Z">
          <spd>12.2</spd>
          <str>89.0</str>
        </logpt>
        <logpt time="2015-08-27T22:22:59Z">
          <spd>11.7</spd>
          <str>89.0</str>
        </logpt>
        <logpt time="2015-08-27T22:23:03Z">
          <spd>11.7</spd>
          <str>90.0</str>
        </logpt>
        <logpt time="2015-08-27T22:23:07Z">
          <spd>11.7</spd>
          <str>89.0</str>
        </logpt>
        <logpt time="2015-08-27T22:23:11Z">
          <spd>11.7</spd>
          <str>89.0</str>
        </logpt>
        <logpt time="2015-08-27T22:23:15Z">
          <spd>11.3</spd>
          <str>89.0</str>
        </logpt>
        <logpt time="2015-08-27T22:23:19Z">
          <spd>11.3</spd>
          <str>89.0</str>
        </logpt>
        <logpt time="2015-08-27T22:23:23Z">
          <spd>10.8</spd>
          <str>89.0</str>
        </logpt>
        <logpt time="2015-08-27T22:23:27Z">
          <spd>10.3</spd>
          <str>90.0</str>
        </logpt>
        <logpt time="2015-08-27T22:23:31Z">
          <spd>10.3</spd>
          <str>90.0</str>
        </logpt>
        <logpt time="2015-08-27T22:23:35Z">
          <spd>10.8</spd>
          <str>89.0</str>
        </logpt>
        <logpt time="2015-08-27T22:23:39Z">
          <spd>10.8</spd>
          <str>89.0</str>
        </logpt>
        <logpt time="2015-08-27T22:23:43Z">
          <spd>10.8</spd>
          <str>89.0</str>
        </logpt>
        <logpt time="2015-08-27T22:23:47Z">
          <spd>10.8</spd>
          <str>89.0</str>
        </logpt>
        <logpt time="2015-08-27T22:23:51Z">
          <spd>11.3</spd>
          <str>90.0</str>
        </logpt>
        <logpt time="2015-08-27T22:23:55Z">
          <spd>11.3</spd>
          <str>89.0</str>
        </logpt>
        <logpt time="2015-08-27T22:23:59Z">
          <spd>11.3</spd>
          <str>89.0</str>
        </logpt>
        <logpt time="2015-08-27T22:24:03Z">
          <spd>11.3</spd>
          <str>89.0</str>
        </logpt>
        <logpt time="2015-08-27T22:24:07Z">
          <spd>11.7</spd>
          <str>89.0</str>
        </logpt>
        <logpt time="2015-08-27T22:24:11Z">
          <spd>11.7</spd>
          <str>89.0</str>
        </logpt>
        <logpt time="2015-08-27T22:24:15Z">
          <spd>11.3</spd>
          <str>89.0</str>
        </logpt>
        <logpt time="2015-08-27T22:24:19Z">
          <spd>11.3</spd>
          <str>89.0</str>
        </logpt>
        <logpt time="2015-08-27T22:24:23Z">
          <spd>10.8</spd>
          <str>89.0</str>
        </logpt>
        <logpt time="2015-08-27T22:24:27Z">
          <spd>10.8</spd>
          <str>89.0</str>
        </logpt>
        <logpt time="2015-08-27T22:24:31Z">
          <spd>10.3</spd>
          <str>88.0</str>
        </logpt>
        <logpt time="2015-08-27T22:24:35Z">
          <spd>10.8</spd>
          <str>89.0</str>
        </logpt>
        <logpt time="2015-08-27T22:24:39Z">
          <spd>11.3</spd>
          <str>89.0</str>
        </logpt>
        <logpt time="2015-08-27T22:24:43Z">
          <spd>11.3</spd>
          <str>88.0</str>
        </logpt>
        <logpt time="2015-08-27T22:24:47Z">
          <spd>11.3</spd>
          <str>88.0</str>
        </logpt>
        <logpt time="2015-08-27T22:24:51Z">
          <spd>11.7</spd>
          <str>88.0</str>
        </logpt>
        <logpt time="2015-08-27T22:24:55Z">
          <spd>12.2</spd>
          <str>88.0</str>
        </logpt>
        <logpt time="2015-08-27T22:24:59Z">
          <spd>11.7</spd>
          <str>88.0</str>
        </logpt>
        <logpt time="2015-08-27T22:25:03Z">
          <spd>11.7</spd>
          <str>88.0</str>
        </logpt>
        <logpt time="2015-08-27T22:25:07Z">
          <spd>11.3</spd>
          <str>88.0</str>
        </logpt>
        <logpt time="2015-08-27T22:25:11Z">
          <spd>11.3</spd>
          <str>88.0</str>
        </logpt>
        <logpt time="2015-08-27T22:25:15Z">
          <spd>11.3</spd>
          <str>88.0</str>
        </logpt>
        <logpt time="2015-08-27T22:25:19Z">
          <spd>10.8</spd>
          <str>88.0</str>
        </logpt>
        <logpt time="2015-08-27T22:25:23Z">
          <spd>10.8</spd>
          <str>88.0</str>
        </logpt>
        <logpt time="2015-08-27T22:25:27Z">
          <spd>10.8</spd>
          <str>87.0</str>
        </logpt>
        <logpt time="2015-08-27T22:25:31Z">
          <spd>10.8</spd>
          <str>88.0</str>
        </logpt>
        <logpt time="2015-08-27T22:25:35Z">
          <spd>10.8</spd>
          <str>88.0</str>
        </logpt>
        <logpt time="2015-08-27T22:25:39Z">
          <spd>10.8</spd>
          <str>88.0</str>
        </logpt>
        <logpt time="2015-08-27T22:25:43Z">
          <spd>10.3</spd>
          <str>88.0</str>
        </logpt>
        <logpt time="2015-08-27T22:25:47Z">
          <spd>9.9</spd>
          <str>88.0</str>
        </logpt>
        <logpt time="2015-08-27T22:25:51Z">
          <spd>9.9</spd>
          <str>88.0</str>
        </logpt>
        <logpt time="2015-08-27T22:25:55Z">
          <spd>9.4</spd>
          <str>88.0</str>
        </logpt>
        <logpt time="2015-08-27T22:25:59Z">
          <spd>9.9</spd>
          <str>88.0</str>
        </logpt>
        <logpt time="2015-08-27T22:26:03Z">
          <spd>9.9</spd>
          <str>88.0</str>
        </logpt>
        <logpt time="2015-08-27T22:26:07Z">
          <spd>9.9</spd>
          <str>88.0</str>
        </logpt>
        <logpt time="2015-08-27T22:26:11Z">
          <spd>9.4</spd>
          <str>89.0</str>
        </logpt>
        <logpt time="2015-08-27T22:26:15Z">
          <spd>9.4</spd>
          <str>89.0</str>
        </logpt>
        <logpt time="2015-08-27T22:26:19Z">
          <spd>9.9</spd>
          <str>89.0</str>
        </logpt>
        <logpt time="2015-08-27T22:26:23Z">
          <spd>9.4</spd>
          <str>89.0</str>
        </logpt>
        <logpt time="2015-08-27T22:26:27Z">
          <spd>9.4</spd>
          <str>89.0</str>
        </logpt>
        <logpt time="2015-08-27T22:26:31Z">
          <spd>9.4</spd>
          <str>89.0</str>
        </logpt>
        <logpt time="2015-08-27T22:26:35Z">
          <spd>9.4</spd>
          <str>89.0</str>
        </logpt>
        <logpt time="2015-08-27T22:26:39Z">
          <spd>9.9</spd>
          <str>89.0</str>
        </logpt>
        <logpt time="2015-08-27T22:26:43Z">
          <spd>9.4</spd>
          <str>89.0</str>
        </logpt>
        <logpt time="2015-08-27T22:26:47Z">
          <spd>9.0</spd>
          <str>89.0</str>
        </logpt>
        <logpt time="2015-08-27T22:26:51Z">
          <spd>8.6</spd>
          <str>89.0</str>
        </logpt>
        <logpt time="2015-08-27T22:26:55Z">
          <spd>8.6</spd>
          <str>89.0</str>
        </logpt>
        <logpt time="2015-08-27T22:26:59Z">
          <spd>9.0</spd>
          <str>89.0</str>
        </logpt>
        <logpt time="2015-08-27T22:27:03Z">
          <spd>9.4</spd>
          <str>89.0</str>
        </logpt>
        <logpt time="2015-08-27T22:27:07Z">
          <spd>9.4</spd>
          <str>90.0</str>
        </logpt>
        <logpt time="2015-08-27T22:27:11Z">
          <spd>9.4</spd>
          <str>89.0</str>
        </logpt>
        <logpt time="2015-08-27T22:27:15Z">
          <spd>9.4</spd>
          <str>89.0</str>
        </logpt>
        <logpt time="2015-08-27T22:27:19Z">
          <spd>9.4</spd>
          <str>90.0</str>
        </logpt>
        <logpt time="2015-08-27T22:27:23Z">
          <spd>9.4</spd>
          <str>89.0</str>
        </logpt>
        <logpt time="2015-08-27T22:27:27Z">
          <spd>9.4</spd>
          <str>89.0</str>
        </logpt>
        <logpt time="2015-08-27T22:27:31Z">
          <spd>9.4</spd>
          <str>89.0</str>
        </logpt>
        <logpt time="2015-08-27T22:27:35Z">
          <spd>9.0</spd>
          <str>89.0</str>
        </logpt>
        <logpt time="2015-08-27T22:27:39Z">
          <spd>9.4</spd>
          <str>89.0</str>
        </logpt>
        <logpt time="2015-08-27T22:27:43Z">
          <spd>9.4</spd>
          <str>89.0</str>
        </logpt>
        <logpt time="2015-08-27T22:27:47Z">
          <spd>9.9</spd>
          <str>89.0</str>
        </logpt>
        <logpt time="2015-08-27T22:27:51Z">
          <spd>10.3</spd>
          <str>89.0</str>
        </logpt>
        <logpt time="2015-08-27T22:27:55Z">
          <spd>10.8</spd>
          <str>89.0</str>
        </logpt>
        <logpt time="2015-08-27T22:27:59Z">
          <spd>10.8</spd>
          <str>89.0</str>
        </logpt>
        <logpt time="2015-08-27T22:28:03Z">
          <spd>11.3</spd>
          <str>89.0</str>
        </logpt>
        <logpt time="2015-08-27T22:28:07Z">
          <spd>11.3</spd>
          <str>89.0</str>
        </logpt>
        <logpt time="2015-08-27T22:28:11Z">
          <spd>11.7</spd>
          <str>89.0</str>
        </logpt>
        <logpt time="2015-08-27T22:28:15Z">
          <spd>11.7</spd>
          <str>89.0</str>
        </logpt>
        <logpt time="2015-08-27T22:28:19Z">
          <spd>11.7</spd>
          <str>89.0</str>
        </logpt>
        <logpt time="2015-08-27T22:28:23Z">
          <spd>11.7</spd>
          <str>89.0</str>
        </logpt>
        <logpt time="2015-08-27T22:28:27Z">
          <spd>11.7</spd>
          <str>89.0</str>
        </logpt>
        <logpt time="2015-08-27T22:28:31Z">
          <spd>11.7</spd>
          <str>89.0</str>
        </logpt>
        <logpt time="2015-08-27T22:28:35Z">
          <spd>12.2</spd>
          <str>89.0</str>
        </logpt>
        <logpt time="2015-08-27T22:28:39Z">
          <spd>12.2</spd>
          <str>89.0</str>
        </logpt>
        <logpt time="2015-08-27T22:28:43Z">
          <spd>12.6</spd>
          <str>89.0</str>
        </logpt>
        <logpt time="2015-08-27T22:28:47Z">
          <spd>12.6</spd>
          <str>89.0</str>
        </logpt>
        <logpt time="2015-08-27T22:28:51Z">
          <spd>13.1</spd>
          <str>89.0</str>
        </logpt>
        <logpt time="2015-08-27T22:28:55Z">
          <spd>13.1</spd>
          <str>89.0</str>
        </logpt>
        <logpt time="2015-08-27T22:28:59Z">
          <spd>12.6</spd>
          <str>89.0</str>
        </logpt>
        <logpt time="2015-08-27T22:29:03Z">
          <spd>12.6</spd>
          <str>89.0</str>
        </logpt>
        <logpt time="2015-08-27T22:29:07Z">
          <spd>12.6</spd>
          <str>89.0</str>
        </logpt>
        <logpt time="2015-08-27T22:29:11Z">
          <spd>12.6</spd>
          <str>89.0</str>
        </logpt>
        <logpt time="2015-08-27T22:29:15Z">
          <spd>12.2</spd>
          <str>89.0</str>
        </logpt>
        <logpt time="2015-08-27T22:29:19Z">
          <spd>11.7</spd>
          <str>89.0</str>
        </logpt>
        <logpt time="2015-08-27T22:29:23Z">
          <spd>11.3</spd>
          <str>89.0</str>
        </logpt>
        <logpt time="2015-08-27T22:29:27Z">
          <spd>10.8</spd>
          <str>87.0</str>
        </logpt>
        <logpt time="2015-08-27T22:29:31Z">
          <spd>5.8</spd>
          <str>86.0</str>
        </logpt>
        <logpt time="2015-08-27T22:29:35Z">
          <spd>3.1</spd>
          <str>85.0</str>
        </logpt>
        <logpt time="2015-08-27T22:29:39Z">
          <spd>0.0</spd>
          <str>84.0</str>
        </logpt>
        <logpt time="2015-08-27T22:29:43Z">
          <spd>0.0</spd>
          <str>82.0</str>
        </logpt>
        <logpt time="2015-08-27T22:29:47Z">
          <spd>0.0</spd>
          <str>82.0</str>
        </logpt>
        <logpt time="2015-08-27T22:29:51Z">
          <spd>0.0</spd>
          <str>80.0</str>
        </logpt>
        <logpt time="2015-08-27T22:29:55Z">
          <spd>0.0</spd>
          <str>78.0</str>
        </logpt>
        <logpt time="2015-08-27T22:29:59Z">
          <spd>0.0</spd>
          <str>78.0</str>
        </logpt>
        <logpt time="2015-08-27T22:30:03Z">
          <spd>0.0</spd>
          <str>76.0</str>
        </logpt>
        <logpt time="2015-08-27T22:30:07Z">
          <spd>0.0</spd>
          <str>74.0</str>
        </logpt>
        <logpt time="2015-08-27T22:30:11Z">
          <spd>0.0</spd>
          <str>73.0</str>
        </logpt>
        <logpt time="2015-08-27T22:30:15Z">
          <spd>0.0</spd>
          <str>72.0</str>
        </logpt>
        <logpt time="2015-08-27T22:30:19Z">
          <spd>3.1</spd>
          <str>71.0</str>
        </logpt>
        <logpt time="2015-08-27T22:30:23Z">
          <spd>3.6</spd>
          <str>72.0</str>
        </logpt>
        <logpt time="2015-08-27T22:30:27Z">
          <spd>6.8</spd>
          <str>73.0</str>
        </logpt>
        <logpt time="2015-08-27T22:30:31Z">
          <spd>7.7</spd>
          <str>75.0</str>
        </logpt>
        <logpt time="2015-08-27T22:30:35Z">
          <spd>9.0</spd>
          <str>76.0</str>
        </logpt>
        <logpt time="2015-08-27T22:30:39Z">
          <spd>9.4</spd>
          <str>77.0</str>
        </logpt>
        <logpt time="2015-08-27T22:30:43Z">
          <spd>10.3</spd>
          <str>78.0</str>
        </logpt>
        <logpt time="2015-08-27T22:30:47Z">
          <spd>10.8</spd>
          <str>80.0</str>
        </logpt>
        <logpt time="2015-08-27T22:30:51Z">
          <spd>10.8</spd>
          <str>82.0</str>
        </logpt>
        <logpt time="2015-08-27T22:30:55Z">
          <spd>10.8</spd>
          <str>84.0</str>
        </logpt>
        <logpt time="2015-08-27T22:30:59Z">
          <spd>9.9</spd>
          <str>84.0</str>
        </logpt>
        <logpt time="2015-08-27T22:31:03Z">
          <spd>9.9</spd>
          <str>86.0</str>
        </logpt>
        <logpt time="2015-08-27T22:31:07Z">
          <spd>10.8</spd>
          <str>87.0</str>
        </logpt>
        <logpt time="2015-08-27T22:31:11Z">
          <spd>11.3</spd>
          <str>88.0</str>
        </logpt>
        <logpt time="2015-08-27T22:31:15Z">
          <spd>11.3</spd>
          <str>89.0</str>
        </logpt>
        <logpt time="2015-08-27T22:31:19Z">
          <spd>11.3</spd>
          <str>90.0</str>
        </logpt>
        <logpt time="2015-08-27T22:31:23Z">
          <spd>10.3</spd>
          <str>89.0</str>
        </logpt>
        <logpt time="2015-08-27T22:31:27Z">
          <spd>9.4</spd>
          <str>90.0</str>
        </logpt>
        <logpt time="2015-08-27T22:31:31Z">
          <spd>8.6</spd>
          <str>89.0</str>
        </logpt>
        <logpt time="2015-08-27T22:31:35Z">
          <spd>8.6</spd>
          <str>89.0</str>
        </logpt>
        <logpt time="2015-08-27T22:31:39Z">
          <spd>8.6</spd>
          <str>89.0</str>
        </logpt>
        <logpt time="2015-08-27T22:31:43Z">
          <spd>8.6</spd>
          <str>89.0</str>
        </logpt>
        <logpt time="2015-08-27T22:31:47Z">
          <spd>8.6</spd>
          <str>89.0</str>
        </logpt>
        <logpt time="2015-08-27T22:31:51Z">
          <spd>9.0</spd>
          <str>88.0</str>
        </logpt>
        <logpt time="2015-08-27T22:31:55Z">
          <spd>9.0</spd>
          <str>88.0</str>
        </logpt>
        <logpt time="2015-08-27T22:31:59Z">
          <spd>9.0</spd>
          <str>88.0</str>
        </logpt>
        <logpt time="2015-08-27T22:32:03Z">
          <spd>9.9</spd>
          <str>89.0</str>
        </logpt>
        <logpt time="2015-08-27T22:32:07Z">
          <spd>10.3</spd>
          <str>89.0</str>
        </logpt>
        <logpt time="2015-08-27T22:32:11Z">
          <spd>12.2</spd>
          <str>88.0</str>
        </logpt>
        <logpt time="2015-08-27T22:32:15Z">
          <spd>12.2</spd>
          <str>88.0</str>
        </logpt>
        <logpt time="2015-08-27T22:32:19Z">
          <spd>11.7</spd>
          <str>88.0</str>
        </logpt>
        <logpt time="2015-08-27T22:32:23Z">
          <spd>11.3</spd>
          <str>89.0</str>
        </logpt>
        <logpt time="2015-08-27T22:32:27Z">
          <spd>11.3</spd>
          <str>89.0</str>
        </logpt>
        <logpt time="2015-08-27T22:32:31Z">
          <spd>11.7</spd>
          <str>89.0</str>
        </logpt>
        <logpt time="2015-08-27T22:32:35Z">
          <spd>12.2</spd>
          <str>89.0</str>
        </logpt>
        <logpt time="2015-08-27T22:32:39Z">
          <spd>12.2</spd>
          <str>88.0</str>
        </logpt>
        <logpt time="2015-08-27T22:32:43Z">
          <spd>12.6</spd>
          <str>89.0</str>
        </logpt>
        <logpt time="2015-08-27T22:32:47Z">
          <spd>12.2</spd>
          <str>89.0</str>
        </logpt>
        <logpt time="2015-08-27T22:32:51Z">
          <spd>11.7</spd>
          <str>89.0</str>
        </logpt>
        <logpt time="2015-08-27T22:32:55Z">
          <spd>12.2</spd>
          <str>89.0</str>
        </logpt>
        <logpt time="2015-08-27T22:32:59Z">
          <spd>12.6</spd>
          <str>89.0</str>
        </logpt>
        <logpt time="2015-08-27T22:33:03Z">
          <spd>12.2</spd>
          <str>89.0</str>
        </logpt>
        <logpt time="2015-08-27T22:33:07Z">
          <spd>11.7</spd>
          <str>89.0</str>
        </logpt>
        <logpt time="2015-08-27T22:33:11Z">
          <spd>11.3</spd>
          <str>89.0</str>
        </logpt>
        <logpt time="2015-08-27T22:33:15Z">
          <spd>10.8</spd>
          <str>89.0</str>
        </logpt>
        <logpt time="2015-08-27T22:33:19Z">
          <spd>10.3</spd>
          <str>89.0</str>
        </logpt>
        <logpt time="2015-08-27T22:33:23Z">
          <spd>10.3</spd>
          <str>89.0</str>
        </logpt>
        <logpt time="2015-08-27T22:33:27Z">
          <spd>10.8</spd>
          <str>89.0</str>
        </logpt>
        <logpt time="2015-08-27T22:33:31Z">
          <spd>10.8</spd>
          <str>89.0</str>
        </logpt>
        <logpt time="2015-08-27T22:33:35Z">
          <spd>10.8</spd>
          <str>89.0</str>
        </logpt>
        <logpt time="2015-08-27T22:33:39Z">
          <spd>10.3</spd>
          <str>89.0</str>
        </logpt>
        <logpt time="2015-08-27T22:33:43Z">
          <spd>10.8</spd>
          <str>89.0</str>
        </logpt>
        <logpt time="2015-08-27T22:33:47Z">
          <spd>10.8</spd>
          <str>88.0</str>
        </logpt>
        <logpt time="2015-08-27T22:33:51Z">
          <spd>11.3</spd>
          <str>88.0</str>
        </logpt>
        <logpt time="2015-08-27T22:33:55Z">
          <spd>11.3</spd>
          <str>89.0</str>
        </logpt>
        <logpt time="2015-08-27T22:33:59Z">
          <spd>11.3</spd>
          <str>88.0</str>
        </logpt>
        <logpt time="2015-08-27T22:34:03Z">
          <spd>11.3</spd>
          <str>88.0</str>
        </logpt>
        <logpt time="2015-08-27T22:34:07Z">
          <spd>10.3</spd>
          <str>88.0</str>
        </logpt>
        <logpt time="2015-08-27T22:34:11Z">
          <spd>10.8</spd>
          <str>88.0</str>
        </logpt>
        <logpt time="2015-08-27T22:34:15Z">
          <spd>11.3</spd>
          <str>88.0</str>
        </logpt>
        <logpt time="2015-08-27T22:34:19Z">
          <spd>10.8</spd>
          <str>88.0</str>
        </logpt>
        <logpt time="2015-08-27T22:34:23Z">
          <spd>9.9</spd>
          <str>88.0</str>
        </logpt>
        <logpt time="2015-08-27T22:34:27Z">
          <spd>9.9</spd>
          <str>88.0</str>
        </logpt>
        <logpt time="2015-08-27T22:34:31Z">
          <spd>10.3</spd>
          <str>88.0</str>
        </logpt>
        <logpt time="2015-08-27T22:34:35Z">
          <spd>10.3</spd>
          <str>88.0</str>
        </logpt>
        <logpt time="2015-08-27T22:34:39Z">
          <spd>10.8</spd>
          <str>88.0</str>
        </logpt>
        <breaktype>2</breaktype>
      </logseg>
    </ssrlog>
    <laps>
      <summary start="2015-08-27T22:07:46Z" type="0" end="2015-08-27T22:34:46Z" isautolap="0">
        <distance>4868</distance>
        <calorie>338</calorie>
        <speed max="13.5" avg="11.25"/>
        <cad max="92" avg="89"/>
        <rtime>1576</rtime>
        <acttype subtype="0">1</acttype>
      </summary>
    </laps>
  </extensions>
</gpx>
