<?xml version='1.0' encoding='utf-8'?>
<gpx xmlns:xsi="http://www.w3.org/2001/XMLSchema-instance" xmlns="http://www.brytonsport.com/BDX/2/2" version="2.2.0.3" creator="bryton">
  <metadata>
    <name>2015/08/11 05:46</name>
    <time>2015-08-10T21:46:26Z</time>
    <bounds minlat="35.951693" maxlon="120.226874" minlon="120.207489" maxlat="35.958155"/>
    <extensions>
      <user>
        <bike>0<wheel>204.00</wheel></bike>
        <weight>68</weight>
        <gender>1</gender>
        <height>172</height>
        <age>28</age>
        <mhr>190</mhr>
        <lthr>172</lthr>
        <map>0</map>
        <ftp>0</ftp>
        <zonedef type="1">
          <zone high="74" id="1" low="0"/>
          <zone high="80" id="2" low="74"/>
          <zone high="85" id="3" low="80"/>
          <zone high="91" id="4" low="85"/>
          <zone high="93" id="5" low="91"/>
          <zone high="95" id="6" low="93"/>
          <zone high="0" id="7" low="95"/>
        </zonedef>
        <zonedef type="2">
          <zone high="80" id="1" low="0"/>
          <zone high="87" id="2" low="80"/>
          <zone high="91" id="3" low="87"/>
          <zone high="100" id="4" low="91"/>
          <zone high="101" id="5" low="100"/>
          <zone high="105" id="6" low="101"/>
          <zone high="0" id="7" low="105"/>
        </zonedef>
        <zonedef type="3">
          <zone high="40" id="1" low="17"/>
          <zone high="55" id="2" low="40"/>
          <zone high="65" id="3" low="55"/>
          <zone high="75" id="4" low="65"/>
          <zone high="85" id="5" low="75"/>
          <zone high="110" id="6" low="85"/>
          <zone high="65535" id="7" low="110"/>
        </zonedef>
        <zonedef type="4">
          <zone high="55" id="1" low="23"/>
          <zone high="75" id="2" low="55"/>
          <zone high="90" id="3" low="75"/>
          <zone high="105" id="4" low="90"/>
          <zone high="120" id="5" low="105"/>
          <zone high="150" id="6" low="120"/>
          <zone high="65535" id="7" low="150"/>
        </zonedef>
      </user>
      <sys version="1.0.0.R041 BB2.8.0.14">Cardio60<apps><app version="148" name="bc"/></apps></sys>
      <sharetype>2</sharetype>
      <acttype subtype="0">1</acttype>
      <trvTime>26</trvTime>
      <trvDist>5068</trvDist>
      <stime>1439243186</stime>
      <etime>1439244752</etime>
    </extensions>
  </metadata>
  <rte>
    <number>2</number>
    <rtept lat="35.956649" lon="120.208626">
      <type>1</type>
    </rtept>
    <rtept lat="35.955753" lon="120.20754">
      <type>2</type>
    </rtept>
  </rte>
  <trk>
    <trkseg>
      <trkpt lat="35.956649" lon="120.208626">
        <ele>12.2</ele>
        <time>2015-08-10T21:46:34Z</time>
      </trkpt>
      <trkpt lat="35.956658" lon="120.208612">
        <ele>12.3</ele>
        <time>2015-08-10T21:46:38Z</time>
      </trkpt>
      <trkpt lat="35.956677" lon="120.208585">
        <ele>12.4</ele>
        <time>2015-08-10T21:46:42Z</time>
      </trkpt>
      <trkpt lat="35.956666" lon="120.208527">
        <ele>12.5</ele>
        <time>2015-08-10T21:46:46Z</time>
      </trkpt>
      <trkpt lat="35.956643" lon="120.208462">
        <ele>12.6</ele>
        <time>2015-08-10T21:46:50Z</time>
      </trkpt>
      <trkpt lat="35.956613" lon="120.208394">
        <ele>12.7</ele>
        <time>2015-08-10T21:46:54Z</time>
      </trkpt>
      <trkpt lat="35.956592" lon="120.208334">
        <ele>12.7</ele>
        <time>2015-08-10T21:46:58Z</time>
      </trkpt>
      <trkpt lat="35.956583" lon="120.208277">
        <ele>12.7</ele>
        <time>2015-08-10T21:47:02Z</time>
      </trkpt>
      <trkpt lat="35.956576" lon="120.208218">
        <ele>12.6</ele>
        <time>2015-08-10T21:47:06Z</time>
      </trkpt>
      <trkpt lat="35.956565" lon="120.208158">
        <ele>12.5</ele>
        <time>2015-08-10T21:47:10Z</time>
      </trkpt>
      <trkpt lat="35.956568" lon="120.208022">
        <ele>12.4</ele>
        <time>2015-08-10T21:47:14Z</time>
      </trkpt>
      <trkpt lat="35.956657" lon="120.207933">
        <ele>12.3</ele>
        <time>2015-08-10T21:47:22Z</time>
      </trkpt>
      <trkpt lat="35.956675" lon="120.207709">
        <ele>12.2</ele>
        <time>2015-08-10T21:47:26Z</time>
      </trkpt>
      <trkpt lat="35.956584" lon="120.207631">
        <ele>12.0</ele>
        <time>2015-08-10T21:47:34Z</time>
      </trkpt>
      <trkpt lat="35.956547" lon="120.207542">
        <ele>11.8</ele>
        <time>2015-08-10T21:47:38Z</time>
      </trkpt>
      <trkpt lat="35.956488" lon="120.207489">
        <ele>11.5</ele>
        <time>2015-08-10T21:47:42Z</time>
      </trkpt>
      <trkpt lat="35.956373" lon="120.207507">
        <ele>11.2</ele>
        <time>2015-08-10T21:47:46Z</time>
      </trkpt>
      <trkpt lat="35.95624" lon="120.207513">
        <ele>10.8</ele>
        <time>2015-08-10T21:47:50Z</time>
      </trkpt>
      <trkpt lat="35.955995" lon="120.207547">
        <ele>10.4</ele>
        <time>2015-08-10T21:47:54Z</time>
      </trkpt>
      <trkpt lat="35.955882" lon="120.207555">
        <ele>10.0</ele>
        <time>2015-08-10T21:48:02Z</time>
      </trkpt>
      <trkpt lat="35.955775" lon="120.207571">
        <ele>9.5</ele>
        <time>2015-08-10T21:48:06Z</time>
      </trkpt>
      <trkpt lat="35.955649" lon="120.207602">
        <ele>9.0</ele>
        <time>2015-08-10T21:48:10Z</time>
      </trkpt>
      <trkpt lat="35.955419" lon="120.207688">
        <ele>8.5</ele>
        <time>2015-08-10T21:48:14Z</time>
      </trkpt>
      <trkpt lat="35.955317" lon="120.207722">
        <ele>7.9</ele>
        <time>2015-08-10T21:48:22Z</time>
      </trkpt>
      <trkpt lat="35.955214" lon="120.207764">
        <ele>7.4</ele>
        <time>2015-08-10T21:48:26Z</time>
      </trkpt>
      <trkpt lat="35.955107" lon="120.207806">
        <ele>6.8</ele>
        <time>2015-08-10T21:48:30Z</time>
      </trkpt>
      <trkpt lat="35.954995" lon="120.207856">
        <ele>6.3</ele>
        <time>2015-08-10T21:48:34Z</time>
      </trkpt>
      <trkpt lat="35.954792" lon="120.207927">
        <ele>5.7</ele>
        <time>2015-08-10T21:48:38Z</time>
      </trkpt>
      <trkpt lat="35.954685" lon="120.207948">
        <ele>5.2</ele>
        <time>2015-08-10T21:48:42Z</time>
      </trkpt>
      <trkpt lat="35.954575" lon="120.207968">
        <ele>4.7</ele>
        <time>2015-08-10T21:48:46Z</time>
      </trkpt>
      <trkpt lat="35.954471" lon="120.207985">
        <ele>4.3</ele>
        <time>2015-08-10T21:48:50Z</time>
      </trkpt>
      <trkpt lat="35.954365" lon="120.208008">
        <ele>3.9</ele>
        <time>2015-08-10T21:48:58Z</time>
      </trkpt>
      <trkpt lat="35.954258" lon="120.208029">
        <ele>3.5</ele>
        <time>2015-08-10T21:49:02Z</time>
      </trkpt>
      <trkpt lat="35.954163" lon="120.208054">
        <ele>3.1</ele>
        <time>2015-08-10T21:49:06Z</time>
      </trkpt>
      <trkpt lat="35.954062" lon="120.208068">
        <ele>2.8</ele>
        <time>2015-08-10T21:49:10Z</time>
      </trkpt>
      <trkpt lat="35.953945" lon="120.20808">
        <ele>2.6</ele>
        <time>2015-08-10T21:49:14Z</time>
      </trkpt>
      <trkpt lat="35.953829" lon="120.208104">
        <ele>2.3</ele>
        <time>2015-08-10T21:49:18Z</time>
      </trkpt>
      <trkpt lat="35.953619" lon="120.20819">
        <ele>2.0</ele>
        <time>2015-08-10T21:49:22Z</time>
      </trkpt>
      <trkpt lat="35.95351" lon="120.208243">
        <ele>1.8</ele>
        <time>2015-08-10T21:49:26Z</time>
      </trkpt>
      <trkpt lat="35.953303" lon="120.208268">
        <ele>1.7</ele>
        <time>2015-08-10T21:49:34Z</time>
      </trkpt>
      <trkpt lat="35.953199" lon="120.208272">
        <ele>1.5</ele>
        <time>2015-08-10T21:49:38Z</time>
      </trkpt>
      <trkpt lat="35.9531" lon="120.208286">
        <ele>1.4</ele>
        <time>2015-08-10T21:49:42Z</time>
      </trkpt>
      <trkpt lat="35.953009" lon="120.208301">
        <ele>1.3</ele>
        <time>2015-08-10T21:49:46Z</time>
      </trkpt>
      <trkpt lat="35.952906" lon="120.208316">
        <ele>1.2</ele>
        <time>2015-08-10T21:49:50Z</time>
      </trkpt>
      <trkpt lat="35.952799" lon="120.20834">
        <ele>1.1</ele>
        <time>2015-08-10T21:49:58Z</time>
      </trkpt>
      <trkpt lat="35.952574" lon="120.208412">
        <ele>1.0</ele>
        <time>2015-08-10T21:50:02Z</time>
      </trkpt>
      <trkpt lat="35.952356" lon="120.208502">
        <ele>0.9</ele>
        <time>2015-08-10T21:50:10Z</time>
      </trkpt>
      <trkpt lat="35.952256" lon="120.208533">
        <ele>0.8</ele>
        <time>2015-08-10T21:50:18Z</time>
      </trkpt>
      <trkpt lat="35.952048" lon="120.208567">
        <ele>0.7</ele>
        <time>2015-08-10T21:50:22Z</time>
      </trkpt>
      <trkpt lat="35.951952" lon="120.208573">
        <ele>0.7</ele>
        <time>2015-08-10T21:50:30Z</time>
      </trkpt>
      <trkpt lat="35.951875" lon="120.208596">
        <ele>0.6</ele>
        <time>2015-08-10T21:50:34Z</time>
      </trkpt>
      <trkpt lat="35.951817" lon="120.208683">
        <ele>0.5</ele>
        <time>2015-08-10T21:50:38Z</time>
      </trkpt>
      <trkpt lat="35.951772" lon="120.208779">
        <ele>0.5</ele>
        <time>2015-08-10T21:50:42Z</time>
      </trkpt>
      <trkpt lat="35.951693" lon="120.208971">
        <ele>0.4</ele>
        <time>2015-08-10T21:50:46Z</time>
      </trkpt>
      <trkpt lat="35.951702" lon="120.209098">
        <ele>0.4</ele>
        <time>2015-08-10T21:50:50Z</time>
      </trkpt>
      <trkpt lat="35.951722" lon="120.209217">
        <ele>0.3</ele>
        <time>2015-08-10T21:50:54Z</time>
      </trkpt>
      <trkpt lat="35.951733" lon="120.209334">
        <ele>0.3</ele>
        <time>2015-08-10T21:50:58Z</time>
      </trkpt>
      <trkpt lat="35.951754" lon="120.209453">
        <ele>0.3</ele>
        <time>2015-08-10T21:51:06Z</time>
      </trkpt>
      <trkpt lat="35.951782" lon="120.209569">
        <ele>0.3</ele>
        <time>2015-08-10T21:51:10Z</time>
      </trkpt>
      <trkpt lat="35.951799" lon="120.209683">
        <ele>0.4</ele>
        <time>2015-08-10T21:51:14Z</time>
      </trkpt>
      <trkpt lat="35.951825" lon="120.209795">
        <ele>0.4</ele>
        <time>2015-08-10T21:51:18Z</time>
      </trkpt>
      <trkpt lat="35.951858" lon="120.209916">
        <ele>0.4</ele>
        <time>2015-08-10T21:51:22Z</time>
      </trkpt>
      <trkpt lat="35.951886" lon="120.210039">
        <ele>0.5</ele>
        <time>2015-08-10T21:51:26Z</time>
      </trkpt>
      <trkpt lat="35.951937" lon="120.210272">
        <ele>0.5</ele>
        <time>2015-08-10T21:51:30Z</time>
      </trkpt>
      <trkpt lat="35.951934" lon="120.210359">
        <ele>0.5</ele>
        <time>2015-08-10T21:51:34Z</time>
      </trkpt>
      <trkpt lat="35.951871" lon="120.210405">
        <ele>0.6</ele>
        <time>2015-08-10T21:51:38Z</time>
      </trkpt>
      <trkpt lat="35.951796" lon="120.210446">
        <ele>0.6</ele>
        <time>2015-08-10T21:51:42Z</time>
      </trkpt>
      <trkpt lat="35.951732" lon="120.210515">
        <ele>0.7</ele>
        <time>2015-08-10T21:51:46Z</time>
      </trkpt>
      <trkpt lat="35.951699" lon="120.210624">
        <ele>0.7</ele>
        <time>2015-08-10T21:51:50Z</time>
      </trkpt>
      <trkpt lat="35.951698" lon="120.210725">
        <ele>0.7</ele>
        <time>2015-08-10T21:51:54Z</time>
      </trkpt>
      <trkpt lat="35.951715" lon="120.21082">
        <ele>0.8</ele>
        <time>2015-08-10T21:51:58Z</time>
      </trkpt>
      <trkpt lat="35.951743" lon="120.210911">
        <ele>0.9</ele>
        <time>2015-08-10T21:52:02Z</time>
      </trkpt>
      <trkpt lat="35.951769" lon="120.211023">
        <ele>0.9</ele>
        <time>2015-08-10T21:52:06Z</time>
      </trkpt>
      <trkpt lat="35.951791" lon="120.21114">
        <ele>1.0</ele>
        <time>2015-08-10T21:52:10Z</time>
      </trkpt>
      <trkpt lat="35.951799" lon="120.211257">
        <ele>1.0</ele>
        <time>2015-08-10T21:52:14Z</time>
      </trkpt>
      <trkpt lat="35.951811" lon="120.211373">
        <ele>1.1</ele>
        <time>2015-08-10T21:52:18Z</time>
      </trkpt>
      <trkpt lat="35.951828" lon="120.211495">
        <ele>1.1</ele>
        <time>2015-08-10T21:52:26Z</time>
      </trkpt>
      <trkpt lat="35.951867" lon="120.211735">
        <ele>1.1</ele>
        <time>2015-08-10T21:52:30Z</time>
      </trkpt>
      <trkpt lat="35.951889" lon="120.211898">
        <ele>1.2</ele>
        <time>2015-08-10T21:52:38Z</time>
      </trkpt>
      <trkpt lat="35.951906" lon="120.212097">
        <ele>1.2</ele>
        <time>2015-08-10T21:52:42Z</time>
      </trkpt>
      <trkpt lat="35.95193" lon="120.212291">
        <ele>1.2</ele>
        <time>2015-08-10T21:52:46Z</time>
      </trkpt>
      <trkpt lat="35.951952" lon="120.212434">
        <ele>1.3</ele>
        <time>2015-08-10T21:52:50Z</time>
      </trkpt>
      <trkpt lat="35.952002" lon="120.212697">
        <ele>1.3</ele>
        <time>2015-08-10T21:52:54Z</time>
      </trkpt>
      <trkpt lat="35.952047" lon="120.212815">
        <ele>1.3</ele>
        <time>2015-08-10T21:52:58Z</time>
      </trkpt>
      <trkpt lat="35.952077" lon="120.212937">
        <ele>1.3</ele>
        <time>2015-08-10T21:53:02Z</time>
      </trkpt>
      <trkpt lat="35.952108" lon="120.213059">
        <ele>1.3</ele>
        <time>2015-08-10T21:53:06Z</time>
      </trkpt>
      <trkpt lat="35.952136" lon="120.213179">
        <ele>1.3</ele>
        <time>2015-08-10T21:53:14Z</time>
      </trkpt>
      <trkpt lat="35.952155" lon="120.213298">
        <ele>1.4</ele>
        <time>2015-08-10T21:53:18Z</time>
      </trkpt>
      <trkpt lat="35.952197" lon="120.213414">
        <ele>1.4</ele>
        <time>2015-08-10T21:53:22Z</time>
      </trkpt>
      <trkpt lat="35.952243" lon="120.213522">
        <ele>1.5</ele>
        <time>2015-08-10T21:53:26Z</time>
      </trkpt>
      <trkpt lat="35.952273" lon="120.213631">
        <ele>1.6</ele>
        <time>2015-08-10T21:53:30Z</time>
      </trkpt>
      <trkpt lat="35.952289" lon="120.213738">
        <ele>1.7</ele>
        <time>2015-08-10T21:53:34Z</time>
      </trkpt>
      <trkpt lat="35.952295" lon="120.213987">
        <ele>1.8</ele>
        <time>2015-08-10T21:53:38Z</time>
      </trkpt>
      <trkpt lat="35.952296" lon="120.214114">
        <ele>1.9</ele>
        <time>2015-08-10T21:53:46Z</time>
      </trkpt>
      <trkpt lat="35.952354" lon="120.214355">
        <ele>2.0</ele>
        <time>2015-08-10T21:53:50Z</time>
      </trkpt>
      <trkpt lat="35.952372" lon="120.214477">
        <ele>2.2</ele>
        <time>2015-08-10T21:53:54Z</time>
      </trkpt>
      <trkpt lat="35.952388" lon="120.214604">
        <ele>2.3</ele>
        <time>2015-08-10T21:53:58Z</time>
      </trkpt>
      <trkpt lat="35.952386" lon="120.214741">
        <ele>2.5</ele>
        <time>2015-08-10T21:54:02Z</time>
      </trkpt>
      <trkpt lat="35.952408" lon="120.214894">
        <ele>2.8</ele>
        <time>2015-08-10T21:54:06Z</time>
      </trkpt>
      <trkpt lat="35.952472" lon="120.215033">
        <ele>3.1</ele>
        <time>2015-08-10T21:54:10Z</time>
      </trkpt>
      <trkpt lat="35.952611" lon="120.215309">
        <ele>3.4</ele>
        <time>2015-08-10T21:54:18Z</time>
      </trkpt>
      <trkpt lat="35.952652" lon="120.215451">
        <ele>3.7</ele>
        <time>2015-08-10T21:54:22Z</time>
      </trkpt>
      <trkpt lat="35.952698" lon="120.215595">
        <ele>4.1</ele>
        <time>2015-08-10T21:54:26Z</time>
      </trkpt>
      <trkpt lat="35.952734" lon="120.215742">
        <ele>4.5</ele>
        <time>2015-08-10T21:54:34Z</time>
      </trkpt>
      <trkpt lat="35.952798" lon="120.216025">
        <ele>5.0</ele>
        <time>2015-08-10T21:54:38Z</time>
      </trkpt>
      <trkpt lat="35.952829" lon="120.216166">
        <ele>5.5</ele>
        <time>2015-08-10T21:54:46Z</time>
      </trkpt>
      <trkpt lat="35.952855" lon="120.216315">
        <ele>6.0</ele>
        <time>2015-08-10T21:54:50Z</time>
      </trkpt>
      <trkpt lat="35.952895" lon="120.21646">
        <ele>6.6</ele>
        <time>2015-08-10T21:54:54Z</time>
      </trkpt>
      <trkpt lat="35.952974" lon="120.216733">
        <ele>7.2</ele>
        <time>2015-08-10T21:54:58Z</time>
      </trkpt>
      <trkpt lat="35.953011" lon="120.216866">
        <ele>7.8</ele>
        <time>2015-08-10T21:55:02Z</time>
      </trkpt>
      <trkpt lat="35.953045" lon="120.217007">
        <ele>8.4</ele>
        <time>2015-08-10T21:55:06Z</time>
      </trkpt>
      <trkpt lat="35.953061" lon="120.217171">
        <ele>9.0</ele>
        <time>2015-08-10T21:55:10Z</time>
      </trkpt>
      <trkpt lat="35.953069" lon="120.217338">
        <ele>9.6</ele>
        <time>2015-08-10T21:55:14Z</time>
      </trkpt>
      <trkpt lat="35.953118" lon="120.217493">
        <ele>10.3</ele>
        <time>2015-08-10T21:55:22Z</time>
      </trkpt>
      <trkpt lat="35.953188" lon="120.217637">
        <ele>10.9</ele>
        <time>2015-08-10T21:55:26Z</time>
      </trkpt>
      <trkpt lat="35.953244" lon="120.217766">
        <ele>11.5</ele>
        <time>2015-08-10T21:55:30Z</time>
      </trkpt>
      <trkpt lat="35.953294" lon="120.217892">
        <ele>12.1</ele>
        <time>2015-08-10T21:55:34Z</time>
      </trkpt>
      <trkpt lat="35.953342" lon="120.218019">
        <ele>12.7</ele>
        <time>2015-08-10T21:55:38Z</time>
      </trkpt>
      <trkpt lat="35.953388" lon="120.218154">
        <ele>13.3</ele>
        <time>2015-08-10T21:55:42Z</time>
      </trkpt>
      <trkpt lat="35.953457" lon="120.218427">
        <ele>13.8</ele>
        <time>2015-08-10T21:55:46Z</time>
      </trkpt>
      <trkpt lat="35.953507" lon="120.218559">
        <ele>14.3</ele>
        <time>2015-08-10T21:55:54Z</time>
      </trkpt>
      <trkpt lat="35.953582" lon="120.218807">
        <ele>14.8</ele>
        <time>2015-08-10T21:55:58Z</time>
      </trkpt>
      <trkpt lat="35.953633" lon="120.218936">
        <ele>15.2</ele>
        <time>2015-08-10T21:56:06Z</time>
      </trkpt>
      <trkpt lat="35.953677" lon="120.219071">
        <ele>15.6</ele>
        <time>2015-08-10T21:56:10Z</time>
      </trkpt>
      <trkpt lat="35.953718" lon="120.219202">
        <ele>16.0</ele>
        <time>2015-08-10T21:56:14Z</time>
      </trkpt>
      <trkpt lat="35.953832" lon="120.219434">
        <ele>16.4</ele>
        <time>2015-08-10T21:56:18Z</time>
      </trkpt>
      <trkpt lat="35.953888" lon="120.219552">
        <ele>16.7</ele>
        <time>2015-08-10T21:56:22Z</time>
      </trkpt>
      <trkpt lat="35.953936" lon="120.219669">
        <ele>17.0</ele>
        <time>2015-08-10T21:56:26Z</time>
      </trkpt>
      <trkpt lat="35.953987" lon="120.21979">
        <ele>17.3</ele>
        <time>2015-08-10T21:56:30Z</time>
      </trkpt>
      <trkpt lat="35.954033" lon="120.21991">
        <ele>17.6</ele>
        <time>2015-08-10T21:56:34Z</time>
      </trkpt>
      <trkpt lat="35.954079" lon="120.220025">
        <ele>17.8</ele>
        <time>2015-08-10T21:56:42Z</time>
      </trkpt>
      <trkpt lat="35.954175" lon="120.220257">
        <ele>17.9</ele>
        <time>2015-08-10T21:56:46Z</time>
      </trkpt>
      <trkpt lat="35.954209" lon="120.220371">
        <ele>18.0</ele>
        <time>2015-08-10T21:56:54Z</time>
      </trkpt>
      <trkpt lat="35.954251" lon="120.220488">
        <ele>18.1</ele>
        <time>2015-08-10T21:56:58Z</time>
      </trkpt>
      <trkpt lat="35.954289" lon="120.220611">
        <ele>18.1</ele>
        <time>2015-08-10T21:57:02Z</time>
      </trkpt>
      <trkpt lat="35.954337" lon="120.220857">
        <ele>18.1</ele>
        <time>2015-08-10T21:57:06Z</time>
      </trkpt>
      <trkpt lat="35.954395" lon="120.220973">
        <ele>18.0</ele>
        <time>2015-08-10T21:57:10Z</time>
      </trkpt>
      <trkpt lat="35.954459" lon="120.221089">
        <ele>18.0</ele>
        <time>2015-08-10T21:57:14Z</time>
      </trkpt>
      <trkpt lat="35.954503" lon="120.22121">
        <ele>17.9</ele>
        <time>2015-08-10T21:57:18Z</time>
      </trkpt>
      <trkpt lat="35.954549" lon="120.221332">
        <ele>17.9</ele>
        <time>2015-08-10T21:57:22Z</time>
      </trkpt>
      <trkpt lat="35.954585" lon="120.221458">
        <ele>17.8</ele>
        <time>2015-08-10T21:57:30Z</time>
      </trkpt>
      <trkpt lat="35.954631" lon="120.22158">
        <ele>17.7</ele>
        <time>2015-08-10T21:57:34Z</time>
      </trkpt>
      <trkpt lat="35.95471" lon="120.221687">
        <ele>17.7</ele>
        <time>2015-08-10T21:57:38Z</time>
      </trkpt>
      <trkpt lat="35.954791" lon="120.221782">
        <ele>17.6</ele>
        <time>2015-08-10T21:57:42Z</time>
      </trkpt>
      <trkpt lat="35.954858" lon="120.221885">
        <ele>17.5</ele>
        <time>2015-08-10T21:57:46Z</time>
      </trkpt>
      <trkpt lat="35.95492" lon="120.222003">
        <ele>17.5</ele>
        <time>2015-08-10T21:57:50Z</time>
      </trkpt>
      <trkpt lat="35.955051" lon="120.222249">
        <ele>17.4</ele>
        <time>2015-08-10T21:57:54Z</time>
      </trkpt>
      <trkpt lat="35.955106" lon="120.222377">
        <ele>17.4</ele>
        <time>2015-08-10T21:58:02Z</time>
      </trkpt>
      <trkpt lat="35.955183" lon="120.222654">
        <ele>17.3</ele>
        <time>2015-08-10T21:58:06Z</time>
      </trkpt>
      <trkpt lat="35.955226" lon="120.222784">
        <ele>17.3</ele>
        <time>2015-08-10T21:58:14Z</time>
      </trkpt>
      <trkpt lat="35.955276" lon="120.222904">
        <ele>17.3</ele>
        <time>2015-08-10T21:58:18Z</time>
      </trkpt>
      <trkpt lat="35.955335" lon="120.22316">
        <ele>17.3</ele>
        <time>2015-08-10T21:58:22Z</time>
      </trkpt>
      <trkpt lat="35.955367" lon="120.223282">
        <ele>17.3</ele>
        <time>2015-08-10T21:58:26Z</time>
      </trkpt>
      <trkpt lat="35.955441" lon="120.223388">
        <ele>17.4</ele>
        <time>2015-08-10T21:58:30Z</time>
      </trkpt>
      <trkpt lat="35.955545" lon="120.223473">
        <ele>17.6</ele>
        <time>2015-08-10T21:58:34Z</time>
      </trkpt>
      <trkpt lat="35.955633" lon="120.223562">
        <ele>17.7</ele>
        <time>2015-08-10T21:58:38Z</time>
      </trkpt>
      <trkpt lat="35.955727" lon="120.223645">
        <ele>17.9</ele>
        <time>2015-08-10T21:58:42Z</time>
      </trkpt>
      <trkpt lat="35.955831" lon="120.22373">
        <ele>18.1</ele>
        <time>2015-08-10T21:58:50Z</time>
      </trkpt>
      <trkpt lat="35.956005" lon="120.223921">
        <ele>18.3</ele>
        <time>2015-08-10T21:58:54Z</time>
      </trkpt>
      <trkpt lat="35.956076" lon="120.224018">
        <ele>18.5</ele>
        <time>2015-08-10T21:59:02Z</time>
      </trkpt>
      <trkpt lat="35.956146" lon="120.224107">
        <ele>18.7</ele>
        <time>2015-08-10T21:59:06Z</time>
      </trkpt>
      <trkpt lat="35.956211" lon="120.224202">
        <ele>18.9</ele>
        <time>2015-08-10T21:59:10Z</time>
      </trkpt>
      <trkpt lat="35.956341" lon="120.224397">
        <ele>19.2</ele>
        <time>2015-08-10T21:59:14Z</time>
      </trkpt>
      <trkpt lat="35.956402" lon="120.224503">
        <ele>19.4</ele>
        <time>2015-08-10T21:59:22Z</time>
      </trkpt>
      <trkpt lat="35.956475" lon="120.224608">
        <ele>19.6</ele>
        <time>2015-08-10T21:59:26Z</time>
      </trkpt>
      <trkpt lat="35.956548" lon="120.224703">
        <ele>19.9</ele>
        <time>2015-08-10T21:59:30Z</time>
      </trkpt>
      <trkpt lat="35.956581" lon="120.224804">
        <ele>20.1</ele>
        <time>2015-08-10T21:59:34Z</time>
      </trkpt>
      <trkpt lat="35.956632" lon="120.224898">
        <ele>20.4</ele>
        <time>2015-08-10T21:59:38Z</time>
      </trkpt>
      <trkpt lat="35.956702" lon="120.224989">
        <ele>20.6</ele>
        <time>2015-08-10T21:59:42Z</time>
      </trkpt>
      <trkpt lat="35.956777" lon="120.225088">
        <ele>20.8</ele>
        <time>2015-08-10T21:59:46Z</time>
      </trkpt>
      <trkpt lat="35.956842" lon="120.225194">
        <ele>21.0</ele>
        <time>2015-08-10T21:59:50Z</time>
      </trkpt>
      <trkpt lat="35.956919" lon="120.2253">
        <ele>21.2</ele>
        <time>2015-08-10T21:59:54Z</time>
      </trkpt>
      <trkpt lat="35.956997" lon="120.225406">
        <ele>21.4</ele>
        <time>2015-08-10T21:59:58Z</time>
      </trkpt>
      <trkpt lat="35.957142" lon="120.225613">
        <ele>21.5</ele>
        <time>2015-08-10T22:00:02Z</time>
      </trkpt>
      <trkpt lat="35.957201" lon="120.225724">
        <ele>21.6</ele>
        <time>2015-08-10T22:00:10Z</time>
      </trkpt>
      <trkpt lat="35.957322" lon="120.225932">
        <ele>21.6</ele>
        <time>2015-08-10T22:00:14Z</time>
      </trkpt>
      <trkpt lat="35.957389" lon="120.226035">
        <ele>21.7</ele>
        <time>2015-08-10T22:00:22Z</time>
      </trkpt>
      <trkpt lat="35.957448" lon="120.226127">
        <ele>21.8</ele>
        <time>2015-08-10T22:00:26Z</time>
      </trkpt>
      <trkpt lat="35.957506" lon="120.226236">
        <ele>21.9</ele>
        <time>2015-08-10T22:00:30Z</time>
      </trkpt>
      <trkpt lat="35.957569" lon="120.226449">
        <ele>21.9</ele>
        <time>2015-08-10T22:00:34Z</time>
      </trkpt>
      <trkpt lat="35.957625" lon="120.226564">
        <ele>22.0</ele>
        <time>2015-08-10T22:00:38Z</time>
      </trkpt>
      <trkpt lat="35.957702" lon="120.226665">
        <ele>22.0</ele>
        <time>2015-08-10T22:00:42Z</time>
      </trkpt>
      <trkpt lat="35.957784" lon="120.22675">
        <ele>22.1</ele>
        <time>2015-08-10T22:00:46Z</time>
      </trkpt>
      <trkpt lat="35.957867" lon="120.22684">
        <ele>22.1</ele>
        <time>2015-08-10T22:00:50Z</time>
      </trkpt>
      <trkpt lat="35.95797" lon="120.226874">
        <ele>22.1</ele>
        <time>2015-08-10T22:00:58Z</time>
      </trkpt>
      <trkpt lat="35.958135" lon="120.226738">
        <ele>22.1</ele>
        <time>2015-08-10T22:01:02Z</time>
      </trkpt>
      <trkpt lat="35.958155" lon="120.226628">
        <ele>22.1</ele>
        <time>2015-08-10T22:01:10Z</time>
      </trkpt>
      <trkpt lat="35.958129" lon="120.226532">
        <ele>22.1</ele>
        <time>2015-08-10T22:01:14Z</time>
      </trkpt>
      <trkpt lat="35.958086" lon="120.226439">
        <ele>22.0</ele>
        <time>2015-08-10T22:01:18Z</time>
      </trkpt>
      <trkpt lat="35.95795" lon="120.226265">
        <ele>22.0</ele>
        <time>2015-08-10T22:01:22Z</time>
      </trkpt>
      <trkpt lat="35.957872" lon="120.226167">
        <ele>21.9</ele>
        <time>2015-08-10T22:01:30Z</time>
      </trkpt>
      <trkpt lat="35.957806" lon="120.226061">
        <ele>21.8</ele>
        <time>2015-08-10T22:01:34Z</time>
      </trkpt>
      <trkpt lat="35.957752" lon="120.225948">
        <ele>21.8</ele>
        <time>2015-08-10T22:01:38Z</time>
      </trkpt>
      <trkpt lat="35.95769" lon="120.225846">
        <ele>21.7</ele>
        <time>2015-08-10T22:01:42Z</time>
      </trkpt>
      <trkpt lat="35.957622" lon="120.225743">
        <ele>21.6</ele>
        <time>2015-08-10T22:01:46Z</time>
      </trkpt>
      <trkpt lat="35.95757" lon="120.225642">
        <ele>21.6</ele>
        <time>2015-08-10T22:01:50Z</time>
      </trkpt>
      <trkpt lat="35.957515" lon="120.225526">
        <ele>21.5</ele>
        <time>2015-08-10T22:01:54Z</time>
      </trkpt>
      <trkpt lat="35.957456" lon="120.225402">
        <ele>21.4</ele>
        <time>2015-08-10T22:01:58Z</time>
      </trkpt>
      <trkpt lat="35.957392" lon="120.225274">
        <ele>21.2</ele>
        <time>2015-08-10T22:02:02Z</time>
      </trkpt>
      <trkpt lat="35.95732" lon="120.225155">
        <ele>21.1</ele>
        <time>2015-08-10T22:02:06Z</time>
      </trkpt>
      <trkpt lat="35.957257" lon="120.225056">
        <ele>20.9</ele>
        <time>2015-08-10T22:02:10Z</time>
      </trkpt>
      <trkpt lat="35.957193" lon="120.224959">
        <ele>20.8</ele>
        <time>2015-08-10T22:02:14Z</time>
      </trkpt>
      <trkpt lat="35.957117" lon="120.224851">
        <ele>20.6</ele>
        <time>2015-08-10T22:02:18Z</time>
      </trkpt>
      <trkpt lat="35.956968" lon="120.224626">
        <ele>20.4</ele>
        <time>2015-08-10T22:02:22Z</time>
      </trkpt>
      <trkpt lat="35.956901" lon="120.224516">
        <ele>20.2</ele>
        <time>2015-08-10T22:02:26Z</time>
      </trkpt>
      <trkpt lat="35.95684" lon="120.224411">
        <ele>19.9</ele>
        <time>2015-08-10T22:02:30Z</time>
      </trkpt>
      <trkpt lat="35.956789" lon="120.224314">
        <ele>19.7</ele>
        <time>2015-08-10T22:02:38Z</time>
      </trkpt>
      <trkpt lat="35.956669" lon="120.224112">
        <ele>19.5</ele>
        <time>2015-08-10T22:02:42Z</time>
      </trkpt>
      <trkpt lat="35.956609" lon="120.223998">
        <ele>19.2</ele>
        <time>2015-08-10T22:02:46Z</time>
      </trkpt>
      <trkpt lat="35.956554" lon="120.223901">
        <ele>19.0</ele>
        <time>2015-08-10T22:02:50Z</time>
      </trkpt>
      <trkpt lat="35.956526" lon="120.223806">
        <ele>18.9</ele>
        <time>2015-08-10T22:02:54Z</time>
      </trkpt>
      <trkpt lat="35.956465" lon="120.223733">
        <ele>18.8</ele>
        <time>2015-08-10T22:02:58Z</time>
      </trkpt>
      <trkpt lat="35.956409" lon="120.223656">
        <ele>18.7</ele>
        <time>2015-08-10T22:03:06Z</time>
      </trkpt>
      <trkpt lat="35.956286" lon="120.223429">
        <ele>18.6</ele>
        <time>2015-08-10T22:03:10Z</time>
      </trkpt>
      <trkpt lat="35.956223" lon="120.223315">
        <ele>18.5</ele>
        <time>2015-08-10T22:03:18Z</time>
      </trkpt>
      <trkpt lat="35.956157" lon="120.223185">
        <ele>18.4</ele>
        <time>2015-08-10T22:03:22Z</time>
      </trkpt>
      <trkpt lat="35.956101" lon="120.223061">
        <ele>18.3</ele>
        <time>2015-08-10T22:03:26Z</time>
      </trkpt>
      <trkpt lat="35.955982" lon="120.222825">
        <ele>18.1</ele>
        <time>2015-08-10T22:03:30Z</time>
      </trkpt>
      <trkpt lat="35.955923" lon="120.222765">
        <ele>17.9</ele>
        <time>2015-08-10T22:03:38Z</time>
      </trkpt>
      <trkpt lat="35.955925" lon="120.222767">
        <ele>17.7</ele>
        <time>2015-08-10T22:03:42Z</time>
      </trkpt>
      <trkpt lat="35.954815" lon="120.223358">
        <ele>17.6</ele>
        <time>2015-08-10T22:03:46Z</time>
      </trkpt>
      <trkpt lat="35.954444" lon="120.223441">
        <ele>17.5</ele>
        <time>2015-08-10T22:03:50Z</time>
      </trkpt>
      <trkpt lat="35.954419" lon="120.223293">
        <ele>17.4</ele>
        <time>2015-08-10T22:03:54Z</time>
      </trkpt>
      <trkpt lat="35.954366" lon="120.223178">
        <ele>17.4</ele>
        <time>2015-08-10T22:03:58Z</time>
      </trkpt>
      <trkpt lat="35.954335" lon="120.223133">
        <ele>17.4</ele>
        <time>2015-08-10T22:04:02Z</time>
      </trkpt>
      <trkpt lat="35.954336" lon="120.223135">
        <ele>17.4</ele>
        <time>2015-08-10T22:04:06Z</time>
      </trkpt>
      <trkpt lat="35.954852" lon="120.222431">
        <ele>17.4</ele>
        <time>2015-08-10T22:04:10Z</time>
      </trkpt>
      <trkpt lat="35.955228" lon="120.221829">
        <ele>17.4</ele>
        <time>2015-08-10T22:04:14Z</time>
      </trkpt>
      <trkpt lat="35.95522" lon="120.221692">
        <ele>17.5</ele>
        <time>2015-08-10T22:04:18Z</time>
      </trkpt>
      <trkpt lat="35.955179" lon="120.22156">
        <ele>17.5</ele>
        <time>2015-08-10T22:04:22Z</time>
      </trkpt>
      <trkpt lat="35.95513" lon="120.221432">
        <ele>17.6</ele>
        <time>2015-08-10T22:04:26Z</time>
      </trkpt>
      <trkpt lat="35.955068" lon="120.22129">
        <ele>17.5</ele>
        <time>2015-08-10T22:04:30Z</time>
      </trkpt>
      <trkpt lat="35.955001" lon="120.221154">
        <ele>17.4</ele>
        <time>2015-08-10T22:04:34Z</time>
      </trkpt>
      <trkpt lat="35.954929" lon="120.221024">
        <ele>17.3</ele>
        <time>2015-08-10T22:04:38Z</time>
      </trkpt>
      <trkpt lat="35.954868" lon="120.220885">
        <ele>17.2</ele>
        <time>2015-08-10T22:04:42Z</time>
      </trkpt>
      <trkpt lat="35.954823" lon="120.220734">
        <ele>17.1</ele>
        <time>2015-08-10T22:04:46Z</time>
      </trkpt>
      <trkpt lat="35.954783" lon="120.22058">
        <ele>17.0</ele>
        <time>2015-08-10T22:04:50Z</time>
      </trkpt>
      <trkpt lat="35.954736" lon="120.220433">
        <ele>17.0</ele>
        <time>2015-08-10T22:04:54Z</time>
      </trkpt>
      <trkpt lat="35.954695" lon="120.220287">
        <ele>17.0</ele>
        <time>2015-08-10T22:04:58Z</time>
      </trkpt>
      <trkpt lat="35.954665" lon="120.220143">
        <ele>17.0</ele>
        <time>2015-08-10T22:05:02Z</time>
      </trkpt>
      <trkpt lat="35.954618" lon="120.220005">
        <ele>17.0</ele>
        <time>2015-08-10T22:05:06Z</time>
      </trkpt>
      <trkpt lat="35.95456" lon="120.219875">
        <ele>17.0</ele>
        <time>2015-08-10T22:05:10Z</time>
      </trkpt>
      <trkpt lat="35.954488" lon="120.219751">
        <ele>16.9</ele>
        <time>2015-08-10T22:05:14Z</time>
      </trkpt>
      <trkpt lat="35.954428" lon="120.219616">
        <ele>16.7</ele>
        <time>2015-08-10T22:05:18Z</time>
      </trkpt>
      <trkpt lat="35.954376" lon="120.219476">
        <ele>16.5</ele>
        <time>2015-08-10T22:05:22Z</time>
      </trkpt>
      <trkpt lat="35.954314" lon="120.219349">
        <ele>16.3</ele>
        <time>2015-08-10T22:05:26Z</time>
      </trkpt>
      <trkpt lat="35.954252" lon="120.219224">
        <ele>16.0</ele>
        <time>2015-08-10T22:05:30Z</time>
      </trkpt>
      <trkpt lat="35.954189" lon="120.219095">
        <ele>15.7</ele>
        <time>2015-08-10T22:05:34Z</time>
      </trkpt>
      <trkpt lat="35.954132" lon="120.218963">
        <ele>15.4</ele>
        <time>2015-08-10T22:05:38Z</time>
      </trkpt>
      <trkpt lat="35.954082" lon="120.218827">
        <ele>15.0</ele>
        <time>2015-08-10T22:05:42Z</time>
      </trkpt>
      <trkpt lat="35.954042" lon="120.218704">
        <ele>14.6</ele>
        <time>2015-08-10T22:05:46Z</time>
      </trkpt>
      <trkpt lat="35.953997" lon="120.218577">
        <ele>14.2</ele>
        <time>2015-08-10T22:05:50Z</time>
      </trkpt>
      <trkpt lat="35.953948" lon="120.218437">
        <ele>13.7</ele>
        <time>2015-08-10T22:05:54Z</time>
      </trkpt>
      <trkpt lat="35.953891" lon="120.218286">
        <ele>13.3</ele>
        <time>2015-08-10T22:05:58Z</time>
      </trkpt>
      <trkpt lat="35.953827" lon="120.218141">
        <ele>12.8</ele>
        <time>2015-08-10T22:06:02Z</time>
      </trkpt>
      <trkpt lat="35.95377" lon="120.217998">
        <ele>12.2</ele>
        <time>2015-08-10T22:06:06Z</time>
      </trkpt>
      <trkpt lat="35.953729" lon="120.217859">
        <ele>11.7</ele>
        <time>2015-08-10T22:06:10Z</time>
      </trkpt>
      <trkpt lat="35.953697" lon="120.217737">
        <ele>11.2</ele>
        <time>2015-08-10T22:06:14Z</time>
      </trkpt>
      <trkpt lat="35.953667" lon="120.217602">
        <ele>10.6</ele>
        <time>2015-08-10T22:06:18Z</time>
      </trkpt>
      <trkpt lat="35.95362" lon="120.21745">
        <ele>10.0</ele>
        <time>2015-08-10T22:06:22Z</time>
      </trkpt>
      <trkpt lat="35.953588" lon="120.217301">
        <ele>9.4</ele>
        <time>2015-08-10T22:06:26Z</time>
      </trkpt>
      <trkpt lat="35.95357" lon="120.217167">
        <ele>8.9</ele>
        <time>2015-08-10T22:06:30Z</time>
      </trkpt>
      <trkpt lat="35.95354" lon="120.217039">
        <ele>8.3</ele>
        <time>2015-08-10T22:06:34Z</time>
      </trkpt>
      <trkpt lat="35.953487" lon="120.216907">
        <ele>7.7</ele>
        <time>2015-08-10T22:06:38Z</time>
      </trkpt>
      <trkpt lat="35.953421" lon="120.216761">
        <ele>7.2</ele>
        <time>2015-08-10T22:06:42Z</time>
      </trkpt>
      <trkpt lat="35.953381" lon="120.216612">
        <ele>6.7</ele>
        <time>2015-08-10T22:06:46Z</time>
      </trkpt>
      <trkpt lat="35.953353" lon="120.216464">
        <ele>6.2</ele>
        <time>2015-08-10T22:06:50Z</time>
      </trkpt>
      <trkpt lat="35.953334" lon="120.216309">
        <ele>5.7</ele>
        <time>2015-08-10T22:06:54Z</time>
      </trkpt>
      <trkpt lat="35.953301" lon="120.216146">
        <ele>5.2</ele>
        <time>2015-08-10T22:06:58Z</time>
      </trkpt>
      <trkpt lat="35.95326" lon="120.215992">
        <ele>4.8</ele>
        <time>2015-08-10T22:07:02Z</time>
      </trkpt>
      <trkpt lat="35.953216" lon="120.215849">
        <ele>4.4</ele>
        <time>2015-08-10T22:07:06Z</time>
      </trkpt>
      <trkpt lat="35.953179" lon="120.215699">
        <ele>4.0</ele>
        <time>2015-08-10T22:07:10Z</time>
      </trkpt>
      <trkpt lat="35.953162" lon="120.215545">
        <ele>3.7</ele>
        <time>2015-08-10T22:07:14Z</time>
      </trkpt>
      <trkpt lat="35.953144" lon="120.215386">
        <ele>3.4</ele>
        <time>2015-08-10T22:07:18Z</time>
      </trkpt>
      <trkpt lat="35.953111" lon="120.21523">
        <ele>3.1</ele>
        <time>2015-08-10T22:07:22Z</time>
      </trkpt>
      <trkpt lat="35.953068" lon="120.215082">
        <ele>2.9</ele>
        <time>2015-08-10T22:07:26Z</time>
      </trkpt>
      <trkpt lat="35.953034" lon="120.214938">
        <ele>2.7</ele>
        <time>2015-08-10T22:07:30Z</time>
      </trkpt>
      <trkpt lat="35.953005" lon="120.214789">
        <ele>2.5</ele>
        <time>2015-08-10T22:07:34Z</time>
      </trkpt>
      <trkpt lat="35.952979" lon="120.21463">
        <ele>2.3</ele>
        <time>2015-08-10T22:07:38Z</time>
      </trkpt>
      <trkpt lat="35.95294" lon="120.2145">
        <ele>2.2</ele>
        <time>2015-08-10T22:07:42Z</time>
      </trkpt>
      <trkpt lat="35.952887" lon="120.214361">
        <ele>2.1</ele>
        <time>2015-08-10T22:07:46Z</time>
      </trkpt>
      <trkpt lat="35.952819" lon="120.214213">
        <ele>2.1</ele>
        <time>2015-08-10T22:07:50Z</time>
      </trkpt>
      <trkpt lat="35.952792" lon="120.214094">
        <ele>2.0</ele>
        <time>2015-08-10T22:07:54Z</time>
      </trkpt>
      <trkpt lat="35.952779" lon="120.213951">
        <ele>1.9</ele>
        <time>2015-08-10T22:07:58Z</time>
      </trkpt>
      <trkpt lat="35.952724" lon="120.213809">
        <ele>1.9</ele>
        <time>2015-08-10T22:08:02Z</time>
      </trkpt>
      <trkpt lat="35.952664" lon="120.21367">
        <ele>1.8</ele>
        <time>2015-08-10T22:08:06Z</time>
      </trkpt>
      <trkpt lat="35.952613" lon="120.21354">
        <ele>1.8</ele>
        <time>2015-08-10T22:08:10Z</time>
      </trkpt>
      <trkpt lat="35.952581" lon="120.213413">
        <ele>1.7</ele>
        <time>2015-08-10T22:08:14Z</time>
      </trkpt>
      <trkpt lat="35.952571" lon="120.213248">
        <ele>1.7</ele>
        <time>2015-08-10T22:08:18Z</time>
      </trkpt>
      <trkpt lat="35.952539" lon="120.213103">
        <ele>1.7</ele>
        <time>2015-08-10T22:08:22Z</time>
      </trkpt>
      <trkpt lat="35.95249" lon="120.212982">
        <ele>1.8</ele>
        <time>2015-08-10T22:08:26Z</time>
      </trkpt>
      <trkpt lat="35.952445" lon="120.21286">
        <ele>1.8</ele>
        <time>2015-08-10T22:08:30Z</time>
      </trkpt>
      <trkpt lat="35.952402" lon="120.212729">
        <ele>1.8</ele>
        <time>2015-08-10T22:08:34Z</time>
      </trkpt>
      <trkpt lat="35.952394" lon="120.212544">
        <ele>1.8</ele>
        <time>2015-08-10T22:08:38Z</time>
      </trkpt>
      <trkpt lat="35.952357" lon="120.212398">
        <ele>1.8</ele>
        <time>2015-08-10T22:08:42Z</time>
      </trkpt>
      <trkpt lat="35.952314" lon="120.212277">
        <ele>1.8</ele>
        <time>2015-08-10T22:08:46Z</time>
      </trkpt>
      <trkpt lat="35.952294" lon="120.21215">
        <ele>1.8</ele>
        <time>2015-08-10T22:08:50Z</time>
      </trkpt>
      <trkpt lat="35.952317" lon="120.212033">
        <ele>1.8</ele>
        <time>2015-08-10T22:08:54Z</time>
      </trkpt>
      <trkpt lat="35.952379" lon="120.211884">
        <ele>1.7</ele>
        <time>2015-08-10T22:08:58Z</time>
      </trkpt>
      <trkpt lat="35.952486" lon="120.211788">
        <ele>1.7</ele>
        <time>2015-08-10T22:09:02Z</time>
      </trkpt>
      <trkpt lat="35.952575" lon="120.211832">
        <ele>1.6</ele>
        <time>2015-08-10T22:09:06Z</time>
      </trkpt>
      <trkpt lat="35.952687" lon="120.211903">
        <ele>1.5</ele>
        <time>2015-08-10T22:09:10Z</time>
      </trkpt>
      <trkpt lat="35.952789" lon="120.211976">
        <ele>1.4</ele>
        <time>2015-08-10T22:09:14Z</time>
      </trkpt>
      <trkpt lat="35.952892" lon="120.212004">
        <ele>1.4</ele>
        <time>2015-08-10T22:09:18Z</time>
      </trkpt>
      <trkpt lat="35.953046" lon="120.211953">
        <ele>1.4</ele>
        <time>2015-08-10T22:09:22Z</time>
      </trkpt>
      <trkpt lat="35.953264" lon="120.211835">
        <ele>1.5</ele>
        <time>2015-08-10T22:09:26Z</time>
      </trkpt>
      <trkpt lat="35.953458" lon="120.211775">
        <ele>1.6</ele>
        <time>2015-08-10T22:09:30Z</time>
      </trkpt>
      <trkpt lat="35.953623" lon="120.211697">
        <ele>1.6</ele>
        <time>2015-08-10T22:09:34Z</time>
      </trkpt>
      <trkpt lat="35.953773" lon="120.2116">
        <ele>1.7</ele>
        <time>2015-08-10T22:09:38Z</time>
      </trkpt>
      <trkpt lat="35.953848" lon="120.211435">
        <ele>1.8</ele>
        <time>2015-08-10T22:09:42Z</time>
      </trkpt>
      <trkpt lat="35.953864" lon="120.211244">
        <ele>1.9</ele>
        <time>2015-08-10T22:09:46Z</time>
      </trkpt>
      <trkpt lat="35.953856" lon="120.211077">
        <ele>1.9</ele>
        <time>2015-08-10T22:09:50Z</time>
      </trkpt>
      <trkpt lat="35.953855" lon="120.210906">
        <ele>2.0</ele>
        <time>2015-08-10T22:09:54Z</time>
      </trkpt>
      <trkpt lat="35.953888" lon="120.210732">
        <ele>1.9</ele>
        <time>2015-08-10T22:09:58Z</time>
      </trkpt>
      <trkpt lat="35.953875" lon="120.21057">
        <ele>1.9</ele>
        <time>2015-08-10T22:10:02Z</time>
      </trkpt>
      <trkpt lat="35.953847" lon="120.210413">
        <ele>1.9</ele>
        <time>2015-08-10T22:10:06Z</time>
      </trkpt>
      <trkpt lat="35.953824" lon="120.210252">
        <ele>1.8</ele>
        <time>2015-08-10T22:10:10Z</time>
      </trkpt>
      <trkpt lat="35.953796" lon="120.210091">
        <ele>1.8</ele>
        <time>2015-08-10T22:10:14Z</time>
      </trkpt>
      <trkpt lat="35.953766" lon="120.20993">
        <ele>1.8</ele>
        <time>2015-08-10T22:10:18Z</time>
      </trkpt>
      <trkpt lat="35.953737" lon="120.209768">
        <ele>1.8</ele>
        <time>2015-08-10T22:10:22Z</time>
      </trkpt>
      <trkpt lat="35.953714" lon="120.209608">
        <ele>1.8</ele>
        <time>2015-08-10T22:10:26Z</time>
      </trkpt>
      <trkpt lat="35.95369" lon="120.209469">
        <ele>1.9</ele>
        <time>2015-08-10T22:10:30Z</time>
      </trkpt>
      <trkpt lat="35.953661" lon="120.209321">
        <ele>1.9</ele>
        <time>2015-08-10T22:10:34Z</time>
      </trkpt>
      <trkpt lat="35.953633" lon="120.209162">
        <ele>1.9</ele>
        <time>2015-08-10T22:10:38Z</time>
      </trkpt>
      <trkpt lat="35.953605" lon="120.209004">
        <ele>1.9</ele>
        <time>2015-08-10T22:10:42Z</time>
      </trkpt>
      <trkpt lat="35.953573" lon="120.208867">
        <ele>1.9</ele>
        <time>2015-08-10T22:10:46Z</time>
      </trkpt>
      <trkpt lat="35.953545" lon="120.208741">
        <ele>1.9</ele>
        <time>2015-08-10T22:10:50Z</time>
      </trkpt>
      <trkpt lat="35.953525" lon="120.208626">
        <ele>1.9</ele>
        <time>2015-08-10T22:10:54Z</time>
      </trkpt>
      <trkpt lat="35.953514" lon="120.208489">
        <ele>1.9</ele>
        <time>2015-08-10T22:10:58Z</time>
      </trkpt>
      <trkpt lat="35.9535" lon="120.208326">
        <ele>1.8</ele>
        <time>2015-08-10T22:11:02Z</time>
      </trkpt>
      <trkpt lat="35.953506" lon="120.208171">
        <ele>1.9</ele>
        <time>2015-08-10T22:11:06Z</time>
      </trkpt>
      <trkpt lat="35.953607" lon="120.208108">
        <ele>1.9</ele>
        <time>2015-08-10T22:11:10Z</time>
      </trkpt>
      <trkpt lat="35.953716" lon="120.208088">
        <ele>2.0</ele>
        <time>2015-08-10T22:11:14Z</time>
      </trkpt>
      <trkpt lat="35.953823" lon="120.208091">
        <ele>2.2</ele>
        <time>2015-08-10T22:11:18Z</time>
      </trkpt>
      <trkpt lat="35.953939" lon="120.208085">
        <ele>2.4</ele>
        <time>2015-08-10T22:11:22Z</time>
      </trkpt>
      <trkpt lat="35.954073" lon="120.208069">
        <ele>2.7</ele>
        <time>2015-08-10T22:11:26Z</time>
      </trkpt>
      <trkpt lat="35.954174" lon="120.208058">
        <ele>3.1</ele>
        <time>2015-08-10T22:11:30Z</time>
      </trkpt>
      <trkpt lat="35.954259" lon="120.208036">
        <ele>3.5</ele>
        <time>2015-08-10T22:11:34Z</time>
      </trkpt>
      <trkpt lat="35.954376" lon="120.208005">
        <ele>3.9</ele>
        <time>2015-08-10T22:11:38Z</time>
      </trkpt>
      <trkpt lat="35.954496" lon="120.207978">
        <ele>4.3</ele>
        <time>2015-08-10T22:11:42Z</time>
      </trkpt>
      <trkpt lat="35.95462" lon="120.207941">
        <ele>4.8</ele>
        <time>2015-08-10T22:11:46Z</time>
      </trkpt>
      <trkpt lat="35.954733" lon="120.207897">
        <ele>4.9</ele>
        <time>2015-08-10T22:11:50Z</time>
      </trkpt>
      <trkpt lat="35.954846" lon="120.207849">
        <ele>5.1</ele>
        <time>2015-08-10T22:11:54Z</time>
      </trkpt>
      <trkpt lat="35.954984" lon="120.20781">
        <ele>5.3</ele>
        <time>2015-08-10T22:11:58Z</time>
      </trkpt>
      <trkpt lat="35.955112" lon="120.207772">
        <ele>5.5</ele>
        <time>2015-08-10T22:12:02Z</time>
      </trkpt>
      <trkpt lat="35.95521" lon="120.207713">
        <ele>5.8</ele>
        <time>2015-08-10T22:12:06Z</time>
      </trkpt>
      <trkpt lat="35.955306" lon="120.207673">
        <ele>6.0</ele>
        <time>2015-08-10T22:12:10Z</time>
      </trkpt>
      <trkpt lat="35.955432" lon="120.207618">
        <ele>6.3</ele>
        <time>2015-08-10T22:12:14Z</time>
      </trkpt>
      <trkpt lat="35.955541" lon="120.207563">
        <ele>6.6</ele>
        <time>2015-08-10T22:12:18Z</time>
      </trkpt>
      <trkpt lat="35.955648" lon="120.207544">
        <ele>6.9</ele>
        <time>2015-08-10T22:12:22Z</time>
      </trkpt>
      <trkpt lat="35.955753" lon="120.20754">
        <ele>7.3</ele>
        <time>2015-08-10T22:12:26Z</time>
      </trkpt>
      <extensions>
        <breaktype>2</breaktype>
      </extensions>
    </trkseg>
  </trk>
  <extensions>
    <ssrlog>
      <logseg>
        <logpt time="2015-08-10T21:46:26Z">
          <spd>0.9</spd>
          <str>0.0</str>
        </logpt>
        <logpt time="2015-08-10T21:46:30Z">
          <spd>0.9</spd>
          <str>0.0</str>
        </logpt>
        <logpt time="2015-08-10T21:46:34Z">
          <spd>0.9</spd>
          <str>0.0</str>
        </logpt>
        <logpt time="2015-08-10T21:46:34Z">
          <spd>0.9</spd>
          <str>19.0</str>
        </logpt>
        <logpt time="2015-08-10T21:46:38Z">
          <spd>0.9</spd>
          <str>26.0</str>
        </logpt>
        <logpt time="2015-08-10T21:46:42Z">
          <spd>3.6</spd>
          <str>34.0</str>
        </logpt>
        <logpt time="2015-08-10T21:46:46Z">
          <spd>4.5</spd>
          <str>38.0</str>
        </logpt>
        <logpt time="2015-08-10T21:46:50Z">
          <spd>5.4</spd>
          <str>39.0</str>
        </logpt>
        <logpt time="2015-08-10T21:46:54Z">
          <spd>5.4</spd>
          <str>41.0</str>
        </logpt>
        <logpt time="2015-08-10T21:46:58Z">
          <spd>5.0</spd>
          <str>44.0</str>
        </logpt>
        <logpt time="2015-08-10T21:47:02Z">
          <spd>5.0</spd>
          <str>46.0</str>
        </logpt>
        <logpt time="2015-08-10T21:47:06Z">
          <spd>5.0</spd>
          <str>47.0</str>
        </logpt>
        <logpt time="2015-08-10T21:47:10Z">
          <spd>5.0</spd>
          <str>50.0</str>
        </logpt>
        <logpt time="2015-08-10T21:47:14Z">
          <spd>5.8</spd>
          <str>54.0</str>
        </logpt>
        <logpt time="2015-08-10T21:47:18Z">
          <spd>7.7</spd>
          <str>56.0</str>
        </logpt>
        <logpt time="2015-08-10T21:47:22Z">
          <spd>9.0</spd>
          <str>58.0</str>
        </logpt>
        <logpt time="2015-08-10T21:47:26Z">
          <spd>9.0</spd>
          <str>67.0</str>
        </logpt>
        <logpt time="2015-08-10T21:47:30Z">
          <spd>9.9</spd>
          <str>72.0</str>
        </logpt>
        <logpt time="2015-08-10T21:47:34Z">
          <spd>9.4</spd>
          <str>73.0</str>
        </logpt>
        <logpt time="2015-08-10T21:47:38Z">
          <spd>8.1</spd>
          <str>74.0</str>
        </logpt>
        <logpt time="2015-08-10T21:47:42Z">
          <spd>7.7</spd>
          <str>76.0</str>
        </logpt>
        <logpt time="2015-08-10T21:47:46Z">
          <spd>7.2</spd>
          <str>78.0</str>
        </logpt>
        <logpt time="2015-08-10T21:47:50Z">
          <spd>7.2</spd>
          <str>81.0</str>
        </logpt>
        <logpt time="2015-08-10T21:47:54Z">
          <spd>8.6</spd>
          <str>84.0</str>
        </logpt>
        <logpt time="2015-08-10T21:47:58Z">
          <spd>9.0</spd>
          <str>84.0</str>
        </logpt>
        <logpt time="2015-08-10T21:48:02Z">
          <spd>9.4</spd>
          <str>86.0</str>
        </logpt>
        <logpt time="2015-08-10T21:48:06Z">
          <spd>9.9</spd>
          <str>88.0</str>
        </logpt>
        <logpt time="2015-08-10T21:48:10Z">
          <spd>10.3</spd>
          <str>88.0</str>
        </logpt>
        <logpt time="2015-08-10T21:48:14Z">
          <spd>10.3</spd>
          <str>88.0</str>
        </logpt>
        <logpt time="2015-08-10T21:48:18Z">
          <spd>10.3</spd>
          <str>88.0</str>
        </logpt>
        <logpt time="2015-08-10T21:48:22Z">
          <spd>10.8</spd>
          <str>88.0</str>
        </logpt>
        <logpt time="2015-08-10T21:48:26Z">
          <spd>10.8</spd>
          <str>88.0</str>
        </logpt>
        <logpt time="2015-08-10T21:48:30Z">
          <spd>10.8</spd>
          <str>87.0</str>
        </logpt>
        <logpt time="2015-08-10T21:48:34Z">
          <spd>10.8</spd>
          <str>88.0</str>
        </logpt>
        <logpt time="2015-08-10T21:48:38Z">
          <spd>10.8</spd>
          <str>88.0</str>
        </logpt>
        <logpt time="2015-08-10T21:48:42Z">
          <spd>10.8</spd>
          <str>88.0</str>
        </logpt>
        <logpt time="2015-08-10T21:48:46Z">
          <spd>10.8</spd>
          <str>88.0</str>
        </logpt>
        <logpt time="2015-08-10T21:48:50Z">
          <spd>10.8</spd>
          <str>88.0</str>
        </logpt>
        <logpt time="2015-08-10T21:48:54Z">
          <spd>10.8</spd>
          <str>88.0</str>
        </logpt>
        <logpt time="2015-08-10T21:48:58Z">
          <spd>10.8</spd>
          <str>88.0</str>
        </logpt>
        <logpt time="2015-08-10T21:49:02Z">
          <spd>10.8</spd>
          <str>88.0</str>
        </logpt>
        <logpt time="2015-08-10T21:49:06Z">
          <spd>10.3</spd>
          <str>88.0</str>
        </logpt>
        <logpt time="2015-08-10T21:49:10Z">
          <spd>10.8</spd>
          <str>88.0</str>
        </logpt>
        <logpt time="2015-08-10T21:49:14Z">
          <spd>10.8</spd>
          <str>88.0</str>
        </logpt>
        <logpt time="2015-08-10T21:49:18Z">
          <spd>10.8</spd>
          <str>87.0</str>
        </logpt>
        <logpt time="2015-08-10T21:49:22Z">
          <spd>11.3</spd>
          <str>88.0</str>
        </logpt>
        <logpt time="2015-08-10T21:49:26Z">
          <spd>11.3</spd>
          <str>88.0</str>
        </logpt>
        <logpt time="2015-08-10T21:49:30Z">
          <spd>11.3</spd>
          <str>88.0</str>
        </logpt>
        <logpt time="2015-08-10T21:49:34Z">
          <spd>10.8</spd>
          <str>88.0</str>
        </logpt>
        <logpt time="2015-08-10T21:49:38Z">
          <spd>10.8</spd>
          <str>87.0</str>
        </logpt>
        <logpt time="2015-08-10T21:49:42Z">
          <spd>10.8</spd>
          <str>88.0</str>
        </logpt>
        <logpt time="2015-08-10T21:49:46Z">
          <spd>10.3</spd>
          <str>87.0</str>
        </logpt>
        <logpt time="2015-08-10T21:49:50Z">
          <spd>10.3</spd>
          <str>87.0</str>
        </logpt>
        <logpt time="2015-08-10T21:49:54Z">
          <spd>10.3</spd>
          <str>88.0</str>
        </logpt>
        <logpt time="2015-08-10T21:49:58Z">
          <spd>10.8</spd>
          <str>87.0</str>
        </logpt>
        <logpt time="2015-08-10T21:50:02Z">
          <spd>10.8</spd>
          <str>87.0</str>
        </logpt>
        <logpt time="2015-08-10T21:50:06Z">
          <spd>10.8</spd>
          <str>87.0</str>
        </logpt>
        <logpt time="2015-08-10T21:50:10Z">
          <spd>10.8</spd>
          <str>88.0</str>
        </logpt>
        <logpt time="2015-08-10T21:50:14Z">
          <spd>10.8</spd>
          <str>87.0</str>
        </logpt>
        <logpt time="2015-08-10T21:50:18Z">
          <spd>10.8</spd>
          <str>88.0</str>
        </logpt>
        <logpt time="2015-08-10T21:50:22Z">
          <spd>10.8</spd>
          <str>87.0</str>
        </logpt>
        <logpt time="2015-08-10T21:50:26Z">
          <spd>10.3</spd>
          <str>87.0</str>
        </logpt>
        <logpt time="2015-08-10T21:50:30Z">
          <spd>9.9</spd>
          <str>88.0</str>
        </logpt>
        <logpt time="2015-08-10T21:50:34Z">
          <spd>9.9</spd>
          <str>87.0</str>
        </logpt>
        <logpt time="2015-08-10T21:50:38Z">
          <spd>9.4</spd>
          <str>87.0</str>
        </logpt>
        <logpt time="2015-08-10T21:50:42Z">
          <spd>9.4</spd>
          <str>87.0</str>
        </logpt>
        <logpt time="2015-08-10T21:50:46Z">
          <spd>9.4</spd>
          <str>87.0</str>
        </logpt>
        <logpt time="2015-08-10T21:50:50Z">
          <spd>9.4</spd>
          <str>87.0</str>
        </logpt>
        <logpt time="2015-08-10T21:50:54Z">
          <spd>9.4</spd>
          <str>87.0</str>
        </logpt>
        <logpt time="2015-08-10T21:50:58Z">
          <spd>9.4</spd>
          <str>87.0</str>
        </logpt>
        <logpt time="2015-08-10T21:51:02Z">
          <spd>9.4</spd>
          <str>87.0</str>
        </logpt>
        <logpt time="2015-08-10T21:51:06Z">
          <spd>9.9</spd>
          <str>88.0</str>
        </logpt>
        <logpt time="2015-08-10T21:51:10Z">
          <spd>9.9</spd>
          <str>87.0</str>
        </logpt>
        <logpt time="2015-08-10T21:51:14Z">
          <spd>9.4</spd>
          <str>88.0</str>
        </logpt>
        <logpt time="2015-08-10T21:51:18Z">
          <spd>9.9</spd>
          <str>88.0</str>
        </logpt>
        <logpt time="2015-08-10T21:51:22Z">
          <spd>9.9</spd>
          <str>88.0</str>
        </logpt>
        <logpt time="2015-08-10T21:51:26Z">
          <spd>9.9</spd>
          <str>89.0</str>
        </logpt>
        <logpt time="2015-08-10T21:51:30Z">
          <spd>9.9</spd>
          <str>88.0</str>
        </logpt>
        <logpt time="2015-08-10T21:51:34Z">
          <spd>9.4</spd>
          <str>89.0</str>
        </logpt>
        <logpt time="2015-08-10T21:51:38Z">
          <spd>9.0</spd>
          <str>89.0</str>
        </logpt>
        <logpt time="2015-08-10T21:51:42Z">
          <spd>9.4</spd>
          <str>89.0</str>
        </logpt>
        <logpt time="2015-08-10T21:51:46Z">
          <spd>9.4</spd>
          <str>89.0</str>
        </logpt>
        <logpt time="2015-08-10T21:51:50Z">
          <spd>9.4</spd>
          <str>89.0</str>
        </logpt>
        <logpt time="2015-08-10T21:51:54Z">
          <spd>9.4</spd>
          <str>89.0</str>
        </logpt>
        <logpt time="2015-08-10T21:51:58Z">
          <spd>9.4</spd>
          <str>89.0</str>
        </logpt>
        <logpt time="2015-08-10T21:52:02Z">
          <spd>9.0</spd>
          <str>89.0</str>
        </logpt>
        <logpt time="2015-08-10T21:52:06Z">
          <spd>9.0</spd>
          <str>88.0</str>
        </logpt>
        <logpt time="2015-08-10T21:52:10Z">
          <spd>9.0</spd>
          <str>89.0</str>
        </logpt>
        <logpt time="2015-08-10T21:52:14Z">
          <spd>9.4</spd>
          <str>89.0</str>
        </logpt>
        <logpt time="2015-08-10T21:52:18Z">
          <spd>9.4</spd>
          <str>89.0</str>
        </logpt>
        <logpt time="2015-08-10T21:52:22Z">
          <spd>9.4</spd>
          <str>89.0</str>
        </logpt>
        <logpt time="2015-08-10T21:52:26Z">
          <spd>9.4</spd>
          <str>88.0</str>
        </logpt>
        <logpt time="2015-08-10T21:52:30Z">
          <spd>9.4</spd>
          <str>89.0</str>
        </logpt>
        <logpt time="2015-08-10T21:52:34Z">
          <spd>10.3</spd>
          <str>89.0</str>
        </logpt>
        <logpt time="2015-08-10T21:52:38Z">
          <spd>13.5</spd>
          <str>89.0</str>
        </logpt>
        <logpt time="2015-08-10T21:52:42Z">
          <spd>14.8</spd>
          <str>89.0</str>
        </logpt>
        <logpt time="2015-08-10T21:52:46Z">
          <spd>13.9</spd>
          <str>89.0</str>
        </logpt>
        <logpt time="2015-08-10T21:52:50Z">
          <spd>12.2</spd>
          <str>89.0</str>
        </logpt>
        <logpt time="2015-08-10T21:52:54Z">
          <spd>12.2</spd>
          <str>89.0</str>
        </logpt>
        <logpt time="2015-08-10T21:52:58Z">
          <spd>11.7</spd>
          <str>89.0</str>
        </logpt>
        <logpt time="2015-08-10T21:53:02Z">
          <spd>11.7</spd>
          <str>89.0</str>
        </logpt>
        <logpt time="2015-08-10T21:53:06Z">
          <spd>11.3</spd>
          <str>89.0</str>
        </logpt>
        <logpt time="2015-08-10T21:53:10Z">
          <spd>10.8</spd>
          <str>89.0</str>
        </logpt>
        <logpt time="2015-08-10T21:53:14Z">
          <spd>10.8</spd>
          <str>89.0</str>
        </logpt>
        <logpt time="2015-08-10T21:53:18Z">
          <spd>10.8</spd>
          <str>89.0</str>
        </logpt>
        <logpt time="2015-08-10T21:53:22Z">
          <spd>10.3</spd>
          <str>89.0</str>
        </logpt>
        <logpt time="2015-08-10T21:53:26Z">
          <spd>10.3</spd>
          <str>89.0</str>
        </logpt>
        <logpt time="2015-08-10T21:53:30Z">
          <spd>9.9</spd>
          <str>89.0</str>
        </logpt>
        <logpt time="2015-08-10T21:53:34Z">
          <spd>9.9</spd>
          <str>89.0</str>
        </logpt>
        <logpt time="2015-08-10T21:53:38Z">
          <spd>9.9</spd>
          <str>88.0</str>
        </logpt>
        <logpt time="2015-08-10T21:53:42Z">
          <spd>9.9</spd>
          <str>88.0</str>
        </logpt>
        <logpt time="2015-08-10T21:53:46Z">
          <spd>10.3</spd>
          <str>89.0</str>
        </logpt>
        <logpt time="2015-08-10T21:53:50Z">
          <spd>10.3</spd>
          <str>88.0</str>
        </logpt>
        <logpt time="2015-08-10T21:53:54Z">
          <spd>10.3</spd>
          <str>88.0</str>
        </logpt>
        <logpt time="2015-08-10T21:53:58Z">
          <spd>10.3</spd>
          <str>88.0</str>
        </logpt>
        <logpt time="2015-08-10T21:54:02Z">
          <spd>10.3</spd>
          <str>88.0</str>
        </logpt>
        <logpt time="2015-08-10T21:54:06Z">
          <spd>10.8</spd>
          <str>88.0</str>
        </logpt>
        <logpt time="2015-08-10T21:54:10Z">
          <spd>11.3</spd>
          <str>88.0</str>
        </logpt>
        <logpt time="2015-08-10T21:54:14Z">
          <spd>11.7</spd>
          <str>88.0</str>
        </logpt>
        <logpt time="2015-08-10T21:54:18Z">
          <spd>12.2</spd>
          <str>88.0</str>
        </logpt>
        <logpt time="2015-08-10T21:54:22Z">
          <spd>12.2</spd>
          <str>88.0</str>
        </logpt>
        <logpt time="2015-08-10T21:54:26Z">
          <spd>12.2</spd>
          <str>88.0</str>
        </logpt>
        <logpt time="2015-08-10T21:54:30Z">
          <spd>12.2</spd>
          <str>88.0</str>
        </logpt>
        <logpt time="2015-08-10T21:54:34Z">
          <spd>12.2</spd>
          <str>88.0</str>
        </logpt>
        <logpt time="2015-08-10T21:54:38Z">
          <spd>12.2</spd>
          <str>88.0</str>
        </logpt>
        <logpt time="2015-08-10T21:54:42Z">
          <spd>12.2</spd>
          <str>88.0</str>
        </logpt>
        <logpt time="2015-08-10T21:54:46Z">
          <spd>12.2</spd>
          <str>88.0</str>
        </logpt>
        <logpt time="2015-08-10T21:54:50Z">
          <spd>12.2</spd>
          <str>88.0</str>
        </logpt>
        <logpt time="2015-08-10T21:54:54Z">
          <spd>12.2</spd>
          <str>88.0</str>
        </logpt>
        <logpt time="2015-08-10T21:54:58Z">
          <spd>12.2</spd>
          <str>88.0</str>
        </logpt>
        <logpt time="2015-08-10T21:55:02Z">
          <spd>11.7</spd>
          <str>88.0</str>
        </logpt>
        <logpt time="2015-08-10T21:55:06Z">
          <spd>11.7</spd>
          <str>89.0</str>
        </logpt>
        <logpt time="2015-08-10T21:55:10Z">
          <spd>12.2</spd>
          <str>88.0</str>
        </logpt>
        <logpt time="2015-08-10T21:55:14Z">
          <spd>12.6</spd>
          <str>89.0</str>
        </logpt>
        <logpt time="2015-08-10T21:55:18Z">
          <spd>12.6</spd>
          <str>89.0</str>
        </logpt>
        <logpt time="2015-08-10T21:55:22Z">
          <spd>13.1</spd>
          <str>89.0</str>
        </logpt>
        <logpt time="2015-08-10T21:55:26Z">
          <spd>12.6</spd>
          <str>89.0</str>
        </logpt>
        <logpt time="2015-08-10T21:55:30Z">
          <spd>12.6</spd>
          <str>88.0</str>
        </logpt>
        <logpt time="2015-08-10T21:55:34Z">
          <spd>12.2</spd>
          <str>89.0</str>
        </logpt>
        <logpt time="2015-08-10T21:55:38Z">
          <spd>12.2</spd>
          <str>89.0</str>
        </logpt>
        <logpt time="2015-08-10T21:55:42Z">
          <spd>12.2</spd>
          <str>88.0</str>
        </logpt>
        <logpt time="2015-08-10T21:55:46Z">
          <spd>11.7</spd>
          <str>88.0</str>
        </logpt>
        <logpt time="2015-08-10T21:55:50Z">
          <spd>12.2</spd>
          <str>88.0</str>
        </logpt>
        <logpt time="2015-08-10T21:55:54Z">
          <spd>11.7</spd>
          <str>88.0</str>
        </logpt>
        <logpt time="2015-08-10T21:55:58Z">
          <spd>11.3</spd>
          <str>88.0</str>
        </logpt>
        <logpt time="2015-08-10T21:56:02Z">
          <spd>11.3</spd>
          <str>88.0</str>
        </logpt>
        <logpt time="2015-08-10T21:56:06Z">
          <spd>11.7</spd>
          <str>88.0</str>
        </logpt>
        <logpt time="2015-08-10T21:56:10Z">
          <spd>11.7</spd>
          <str>88.0</str>
        </logpt>
        <logpt time="2015-08-10T21:56:14Z">
          <spd>11.7</spd>
          <str>88.0</str>
        </logpt>
        <logpt time="2015-08-10T21:56:18Z">
          <spd>11.3</spd>
          <str>88.0</str>
        </logpt>
        <logpt time="2015-08-10T21:56:22Z">
          <spd>11.3</spd>
          <str>88.0</str>
        </logpt>
        <logpt time="2015-08-10T21:56:26Z">
          <spd>11.3</spd>
          <str>87.0</str>
        </logpt>
        <logpt time="2015-08-10T21:56:30Z">
          <spd>11.3</spd>
          <str>88.0</str>
        </logpt>
        <logpt time="2015-08-10T21:56:34Z">
          <spd>11.3</spd>
          <str>88.0</str>
        </logpt>
        <logpt time="2015-08-10T21:56:38Z">
          <spd>10.8</spd>
          <str>88.0</str>
        </logpt>
        <logpt time="2015-08-10T21:56:42Z">
          <spd>10.8</spd>
          <str>88.0</str>
        </logpt>
        <logpt time="2015-08-10T21:56:46Z">
          <spd>10.8</spd>
          <str>88.0</str>
        </logpt>
        <logpt time="2015-08-10T21:56:50Z">
          <spd>10.8</spd>
          <str>88.0</str>
        </logpt>
        <logpt time="2015-08-10T21:56:54Z">
          <spd>10.3</spd>
          <str>88.0</str>
        </logpt>
        <logpt time="2015-08-10T21:56:58Z">
          <spd>10.3</spd>
          <str>89.0</str>
        </logpt>
        <logpt time="2015-08-10T21:57:02Z">
          <spd>10.3</spd>
          <str>88.0</str>
        </logpt>
        <logpt time="2015-08-10T21:57:06Z">
          <spd>10.3</spd>
          <str>89.0</str>
        </logpt>
        <logpt time="2015-08-10T21:57:10Z">
          <spd>10.3</spd>
          <str>88.0</str>
        </logpt>
        <logpt time="2015-08-10T21:57:14Z">
          <spd>10.8</spd>
          <str>88.0</str>
        </logpt>
        <logpt time="2015-08-10T21:57:18Z">
          <spd>10.8</spd>
          <str>88.0</str>
        </logpt>
        <logpt time="2015-08-10T21:57:22Z">
          <spd>10.8</spd>
          <str>88.0</str>
        </logpt>
        <logpt time="2015-08-10T21:57:26Z">
          <spd>10.8</spd>
          <str>88.0</str>
        </logpt>
        <logpt time="2015-08-10T21:57:30Z">
          <spd>10.8</spd>
          <str>88.0</str>
        </logpt>
        <logpt time="2015-08-10T21:57:34Z">
          <spd>10.8</spd>
          <str>88.0</str>
        </logpt>
        <logpt time="2015-08-10T21:57:38Z">
          <spd>11.3</spd>
          <str>88.0</str>
        </logpt>
        <logpt time="2015-08-10T21:57:42Z">
          <spd>10.8</spd>
          <str>88.0</str>
        </logpt>
        <logpt time="2015-08-10T21:57:46Z">
          <spd>10.8</spd>
          <str>88.0</str>
        </logpt>
        <logpt time="2015-08-10T21:57:50Z">
          <spd>11.3</spd>
          <str>88.0</str>
        </logpt>
        <logpt time="2015-08-10T21:57:54Z">
          <spd>11.3</spd>
          <str>88.0</str>
        </logpt>
        <logpt time="2015-08-10T21:57:58Z">
          <spd>11.7</spd>
          <str>88.0</str>
        </logpt>
        <logpt time="2015-08-10T21:58:02Z">
          <spd>11.7</spd>
          <str>88.0</str>
        </logpt>
        <logpt time="2015-08-10T21:58:06Z">
          <spd>11.7</spd>
          <str>88.0</str>
        </logpt>
        <logpt time="2015-08-10T21:58:10Z">
          <spd>11.7</spd>
          <str>88.0</str>
        </logpt>
        <logpt time="2015-08-10T21:58:14Z">
          <spd>11.7</spd>
          <str>88.0</str>
        </logpt>
        <logpt time="2015-08-10T21:58:18Z">
          <spd>11.3</spd>
          <str>88.0</str>
        </logpt>
        <logpt time="2015-08-10T21:58:22Z">
          <spd>11.3</spd>
          <str>88.0</str>
        </logpt>
        <logpt time="2015-08-10T21:58:26Z">
          <spd>11.3</spd>
          <str>88.0</str>
        </logpt>
        <logpt time="2015-08-10T21:58:30Z">
          <spd>11.3</spd>
          <str>88.0</str>
        </logpt>
        <logpt time="2015-08-10T21:58:34Z">
          <spd>11.3</spd>
          <str>88.0</str>
        </logpt>
        <logpt time="2015-08-10T21:58:38Z">
          <spd>11.3</spd>
          <str>88.0</str>
        </logpt>
        <logpt time="2015-08-10T21:58:42Z">
          <spd>11.3</spd>
          <str>88.0</str>
        </logpt>
        <logpt time="2015-08-10T21:58:46Z">
          <spd>11.7</spd>
          <str>88.0</str>
        </logpt>
        <logpt time="2015-08-10T21:58:50Z">
          <spd>11.7</spd>
          <str>88.0</str>
        </logpt>
        <logpt time="2015-08-10T21:58:54Z">
          <spd>11.7</spd>
          <str>88.0</str>
        </logpt>
        <logpt time="2015-08-10T21:58:58Z">
          <spd>11.7</spd>
          <str>88.0</str>
        </logpt>
        <logpt time="2015-08-10T21:59:02Z">
          <spd>11.3</spd>
          <str>88.0</str>
        </logpt>
        <logpt time="2015-08-10T21:59:06Z">
          <spd>10.8</spd>
          <str>88.0</str>
        </logpt>
        <logpt time="2015-08-10T21:59:10Z">
          <spd>10.8</spd>
          <str>88.0</str>
        </logpt>
        <logpt time="2015-08-10T21:59:14Z">
          <spd>10.8</spd>
          <str>88.0</str>
        </logpt>
        <logpt time="2015-08-10T21:59:18Z">
          <spd>10.3</spd>
          <str>88.0</str>
        </logpt>
        <logpt time="2015-08-10T21:59:22Z">
          <spd>10.8</spd>
          <str>88.0</str>
        </logpt>
        <logpt time="2015-08-10T21:59:26Z">
          <spd>10.8</spd>
          <str>88.0</str>
        </logpt>
        <logpt time="2015-08-10T21:59:30Z">
          <spd>10.3</spd>
          <str>88.0</str>
        </logpt>
        <logpt time="2015-08-10T21:59:34Z">
          <spd>9.9</spd>
          <str>88.0</str>
        </logpt>
        <logpt time="2015-08-10T21:59:38Z">
          <spd>9.9</spd>
          <str>88.0</str>
        </logpt>
        <logpt time="2015-08-10T21:59:42Z">
          <spd>10.3</spd>
          <str>88.0</str>
        </logpt>
        <logpt time="2015-08-10T21:59:46Z">
          <spd>10.3</spd>
          <str>88.0</str>
        </logpt>
        <logpt time="2015-08-10T21:59:50Z">
          <spd>10.3</spd>
          <str>88.0</str>
        </logpt>
        <logpt time="2015-08-10T21:59:54Z">
          <spd>10.8</spd>
          <str>88.0</str>
        </logpt>
        <logpt time="2015-08-10T21:59:58Z">
          <spd>10.8</spd>
          <str>88.0</str>
        </logpt>
        <logpt time="2015-08-10T22:00:02Z">
          <spd>10.8</spd>
          <str>88.0</str>
        </logpt>
        <logpt time="2015-08-10T22:00:06Z">
          <spd>11.3</spd>
          <str>88.0</str>
        </logpt>
        <logpt time="2015-08-10T22:00:10Z">
          <spd>10.8</spd>
          <str>87.0</str>
        </logpt>
        <logpt time="2015-08-10T22:00:14Z">
          <spd>10.8</spd>
          <str>88.0</str>
        </logpt>
        <logpt time="2015-08-10T22:00:18Z">
          <spd>10.8</spd>
          <str>88.0</str>
        </logpt>
        <logpt time="2015-08-10T22:00:22Z">
          <spd>10.8</spd>
          <str>88.0</str>
        </logpt>
        <logpt time="2015-08-10T22:00:26Z">
          <spd>10.3</spd>
          <str>88.0</str>
        </logpt>
        <logpt time="2015-08-10T22:00:30Z">
          <spd>10.3</spd>
          <str>88.0</str>
        </logpt>
        <logpt time="2015-08-10T22:00:34Z">
          <spd>9.9</spd>
          <str>88.0</str>
        </logpt>
        <logpt time="2015-08-10T22:00:38Z">
          <spd>10.3</spd>
          <str>88.0</str>
        </logpt>
        <logpt time="2015-08-10T22:00:42Z">
          <spd>10.3</spd>
          <str>88.0</str>
        </logpt>
        <logpt time="2015-08-10T22:00:46Z">
          <spd>10.3</spd>
          <str>88.0</str>
        </logpt>
        <logpt time="2015-08-10T22:00:50Z">
          <spd>10.8</spd>
          <str>88.0</str>
        </logpt>
        <logpt time="2015-08-10T22:00:54Z">
          <spd>10.8</spd>
          <str>88.0</str>
        </logpt>
        <logpt time="2015-08-10T22:00:58Z">
          <spd>10.3</spd>
          <str>88.0</str>
        </logpt>
        <logpt time="2015-08-10T22:01:02Z">
          <spd>10.3</spd>
          <str>88.0</str>
        </logpt>
        <logpt time="2015-08-10T22:01:06Z">
          <spd>10.3</spd>
          <str>88.0</str>
        </logpt>
        <logpt time="2015-08-10T22:01:10Z">
          <spd>10.3</spd>
          <str>88.0</str>
        </logpt>
        <logpt time="2015-08-10T22:01:14Z">
          <spd>10.3</spd>
          <str>88.0</str>
        </logpt>
        <logpt time="2015-08-10T22:01:18Z">
          <spd>9.9</spd>
          <str>88.0</str>
        </logpt>
        <logpt time="2015-08-10T22:01:22Z">
          <spd>9.9</spd>
          <str>88.0</str>
        </logpt>
        <logpt time="2015-08-10T22:01:26Z">
          <spd>10.3</spd>
          <str>88.0</str>
        </logpt>
        <logpt time="2015-08-10T22:01:30Z">
          <spd>10.3</spd>
          <str>88.0</str>
        </logpt>
        <logpt time="2015-08-10T22:01:34Z">
          <spd>10.3</spd>
          <str>87.0</str>
        </logpt>
        <logpt time="2015-08-10T22:01:38Z">
          <spd>10.3</spd>
          <str>88.0</str>
        </logpt>
        <logpt time="2015-08-10T22:01:42Z">
          <spd>10.3</spd>
          <str>87.0</str>
        </logpt>
        <logpt time="2015-08-10T22:01:46Z">
          <spd>10.3</spd>
          <str>87.0</str>
        </logpt>
        <logpt time="2015-08-10T22:01:50Z">
          <spd>10.3</spd>
          <str>88.0</str>
        </logpt>
        <logpt time="2015-08-10T22:01:54Z">
          <spd>10.8</spd>
          <str>88.0</str>
        </logpt>
        <logpt time="2015-08-10T22:01:58Z">
          <spd>10.8</spd>
          <str>88.0</str>
        </logpt>
        <logpt time="2015-08-10T22:02:02Z">
          <spd>11.3</spd>
          <str>88.0</str>
        </logpt>
        <logpt time="2015-08-10T22:02:06Z">
          <spd>11.3</spd>
          <str>88.0</str>
        </logpt>
        <logpt time="2015-08-10T22:02:10Z">
          <spd>10.8</spd>
          <str>88.0</str>
        </logpt>
        <logpt time="2015-08-10T22:02:14Z">
          <spd>10.8</spd>
          <str>88.0</str>
        </logpt>
        <logpt time="2015-08-10T22:02:18Z">
          <spd>11.3</spd>
          <str>88.0</str>
        </logpt>
        <logpt time="2015-08-10T22:02:22Z">
          <spd>11.3</spd>
          <str>88.0</str>
        </logpt>
        <logpt time="2015-08-10T22:02:26Z">
          <spd>11.3</spd>
          <str>88.0</str>
        </logpt>
        <logpt time="2015-08-10T22:02:30Z">
          <spd>11.3</spd>
          <str>88.0</str>
        </logpt>
        <logpt time="2015-08-10T22:02:34Z">
          <spd>10.8</spd>
          <str>88.0</str>
        </logpt>
        <logpt time="2015-08-10T22:02:38Z">
          <spd>10.3</spd>
          <str>88.0</str>
        </logpt>
        <logpt time="2015-08-10T22:02:42Z">
          <spd>10.3</spd>
          <str>88.0</str>
        </logpt>
        <logpt time="2015-08-10T22:02:46Z">
          <spd>10.8</spd>
          <str>88.0</str>
        </logpt>
        <logpt time="2015-08-10T22:02:50Z">
          <spd>10.3</spd>
          <str>87.0</str>
        </logpt>
        <logpt time="2015-08-10T22:02:54Z">
          <spd>9.9</spd>
          <str>88.0</str>
        </logpt>
        <logpt time="2015-08-10T22:02:58Z">
          <spd>9.4</spd>
          <str>88.0</str>
        </logpt>
        <logpt time="2015-08-10T22:03:02Z">
          <spd>9.4</spd>
          <str>87.0</str>
        </logpt>
        <logpt time="2015-08-10T22:03:06Z">
          <spd>9.4</spd>
          <str>88.0</str>
        </logpt>
        <logpt time="2015-08-10T22:03:10Z">
          <spd>9.9</spd>
          <str>87.0</str>
        </logpt>
        <logpt time="2015-08-10T22:03:14Z">
          <spd>10.3</spd>
          <str>87.0</str>
        </logpt>
        <logpt time="2015-08-10T22:03:18Z">
          <spd>10.3</spd>
          <str>88.0</str>
        </logpt>
        <logpt time="2015-08-10T22:03:22Z">
          <spd>10.8</spd>
          <str>88.0</str>
        </logpt>
        <logpt time="2015-08-10T22:03:26Z">
          <spd>10.8</spd>
          <str>88.0</str>
        </logpt>
        <logpt time="2015-08-10T22:03:30Z">
          <spd>10.8</spd>
          <str>88.0</str>
        </logpt>
        <logpt time="2015-08-10T22:03:34Z">
          <spd>10.8</spd>
          <str>88.0</str>
        </logpt>
        <logpt time="2015-08-10T22:03:38Z">
          <spd>10.8</spd>
          <str>88.0</str>
        </logpt>
        <logpt time="2015-08-10T22:03:42Z">
          <spd>10.8</spd>
          <str>88.0</str>
        </logpt>
        <logpt time="2015-08-10T22:03:46Z">
          <spd>11.3</spd>
          <str>88.0</str>
        </logpt>
        <logpt time="2015-08-10T22:03:50Z">
          <spd>11.7</spd>
          <str>88.0</str>
        </logpt>
        <logpt time="2015-08-10T22:03:54Z">
          <spd>11.7</spd>
          <str>88.0</str>
        </logpt>
        <logpt time="2015-08-10T22:03:58Z">
          <spd>11.3</spd>
          <str>88.0</str>
        </logpt>
        <logpt time="2015-08-10T22:04:02Z">
          <spd>11.3</spd>
          <str>89.0</str>
        </logpt>
        <logpt time="2015-08-10T22:04:06Z">
          <spd>11.3</spd>
          <str>88.0</str>
        </logpt>
        <logpt time="2015-08-10T22:04:10Z">
          <spd>11.7</spd>
          <str>88.0</str>
        </logpt>
        <logpt time="2015-08-10T22:04:14Z">
          <spd>15.3</spd>
          <str>89.0</str>
        </logpt>
        <logpt time="2015-08-10T22:04:18Z">
          <spd>13.1</spd>
          <str>89.0</str>
        </logpt>
        <logpt time="2015-08-10T22:04:22Z">
          <spd>12.6</spd>
          <str>88.0</str>
        </logpt>
        <logpt time="2015-08-10T22:04:26Z">
          <spd>12.6</spd>
          <str>88.0</str>
        </logpt>
        <logpt time="2015-08-10T22:04:30Z">
          <spd>12.6</spd>
          <str>88.0</str>
        </logpt>
        <logpt time="2015-08-10T22:04:34Z">
          <spd>12.6</spd>
          <str>88.0</str>
        </logpt>
        <logpt time="2015-08-10T22:04:38Z">
          <spd>12.6</spd>
          <str>88.0</str>
        </logpt>
        <logpt time="2015-08-10T22:04:42Z">
          <spd>12.6</spd>
          <str>88.0</str>
        </logpt>
        <logpt time="2015-08-10T22:04:46Z">
          <spd>12.6</spd>
          <str>88.0</str>
        </logpt>
        <logpt time="2015-08-10T22:04:50Z">
          <spd>13.1</spd>
          <str>87.0</str>
        </logpt>
        <logpt time="2015-08-10T22:04:54Z">
          <spd>12.6</spd>
          <str>88.0</str>
        </logpt>
        <logpt time="2015-08-10T22:04:58Z">
          <spd>12.6</spd>
          <str>88.0</str>
        </logpt>
        <logpt time="2015-08-10T22:05:02Z">
          <spd>12.6</spd>
          <str>88.0</str>
        </logpt>
        <logpt time="2015-08-10T22:05:06Z">
          <spd>12.6</spd>
          <str>88.0</str>
        </logpt>
        <logpt time="2015-08-10T22:05:10Z">
          <spd>12.6</spd>
          <str>88.0</str>
        </logpt>
        <logpt time="2015-08-10T22:05:14Z">
          <spd>12.6</spd>
          <str>88.0</str>
        </logpt>
        <logpt time="2015-08-10T22:05:18Z">
          <spd>12.6</spd>
          <str>88.0</str>
        </logpt>
        <logpt time="2015-08-10T22:05:22Z">
          <spd>12.6</spd>
          <str>88.0</str>
        </logpt>
        <logpt time="2015-08-10T22:05:26Z">
          <spd>12.2</spd>
          <str>88.0</str>
        </logpt>
        <logpt time="2015-08-10T22:05:30Z">
          <spd>12.2</spd>
          <str>88.0</str>
        </logpt>
        <logpt time="2015-08-10T22:05:34Z">
          <spd>12.2</spd>
          <str>88.0</str>
        </logpt>
        <logpt time="2015-08-10T22:05:38Z">
          <spd>12.2</spd>
          <str>88.0</str>
        </logpt>
        <logpt time="2015-08-10T22:05:42Z">
          <spd>12.2</spd>
          <str>89.0</str>
        </logpt>
        <logpt time="2015-08-10T22:05:46Z">
          <spd>11.7</spd>
          <str>89.0</str>
        </logpt>
        <logpt time="2015-08-10T22:05:50Z">
          <spd>11.7</spd>
          <str>89.0</str>
        </logpt>
        <logpt time="2015-08-10T22:05:54Z">
          <spd>11.7</spd>
          <str>89.0</str>
        </logpt>
        <logpt time="2015-08-10T22:05:58Z">
          <spd>12.2</spd>
          <str>89.0</str>
        </logpt>
        <logpt time="2015-08-10T22:06:02Z">
          <spd>12.6</spd>
          <str>89.0</str>
        </logpt>
        <logpt time="2015-08-10T22:06:06Z">
          <spd>12.6</spd>
          <str>89.0</str>
        </logpt>
        <logpt time="2015-08-10T22:06:10Z">
          <spd>12.2</spd>
          <str>89.0</str>
        </logpt>
        <logpt time="2015-08-10T22:06:14Z">
          <spd>11.7</spd>
          <str>89.0</str>
        </logpt>
        <logpt time="2015-08-10T22:06:18Z">
          <spd>11.7</spd>
          <str>89.0</str>
        </logpt>
        <logpt time="2015-08-10T22:06:22Z">
          <spd>12.2</spd>
          <str>89.0</str>
        </logpt>
        <logpt time="2015-08-10T22:06:26Z">
          <spd>12.2</spd>
          <str>89.0</str>
        </logpt>
        <logpt time="2015-08-10T22:06:30Z">
          <spd>11.7</spd>
          <str>90.0</str>
        </logpt>
        <logpt time="2015-08-10T22:06:34Z">
          <spd>11.7</spd>
          <str>90.0</str>
        </logpt>
        <logpt time="2015-08-10T22:06:38Z">
          <spd>11.7</spd>
          <str>90.0</str>
        </logpt>
        <logpt time="2015-08-10T22:06:42Z">
          <spd>12.2</spd>
          <str>90.0</str>
        </logpt>
        <logpt time="2015-08-10T22:06:46Z">
          <spd>12.2</spd>
          <str>89.0</str>
        </logpt>
        <logpt time="2015-08-10T22:06:50Z">
          <spd>12.2</spd>
          <str>89.0</str>
        </logpt>
        <logpt time="2015-08-10T22:06:54Z">
          <spd>12.6</spd>
          <str>89.0</str>
        </logpt>
        <logpt time="2015-08-10T22:06:58Z">
          <spd>12.6</spd>
          <str>89.0</str>
        </logpt>
        <logpt time="2015-08-10T22:07:02Z">
          <spd>12.6</spd>
          <str>89.0</str>
        </logpt>
        <logpt time="2015-08-10T22:07:06Z">
          <spd>12.6</spd>
          <str>89.0</str>
        </logpt>
        <logpt time="2015-08-10T22:07:10Z">
          <spd>12.6</spd>
          <str>89.0</str>
        </logpt>
        <logpt time="2015-08-10T22:07:14Z">
          <spd>12.6</spd>
          <str>89.0</str>
        </logpt>
        <logpt time="2015-08-10T22:07:18Z">
          <spd>12.6</spd>
          <str>89.0</str>
        </logpt>
        <logpt time="2015-08-10T22:07:22Z">
          <spd>12.6</spd>
          <str>89.0</str>
        </logpt>
        <logpt time="2015-08-10T22:07:26Z">
          <spd>12.6</spd>
          <str>89.0</str>
        </logpt>
        <logpt time="2015-08-10T22:07:30Z">
          <spd>12.6</spd>
          <str>88.0</str>
        </logpt>
        <logpt time="2015-08-10T22:07:34Z">
          <spd>12.6</spd>
          <str>88.0</str>
        </logpt>
        <logpt time="2015-08-10T22:07:38Z">
          <spd>12.6</spd>
          <str>88.0</str>
        </logpt>
        <logpt time="2015-08-10T22:07:42Z">
          <spd>12.2</spd>
          <str>88.0</str>
        </logpt>
        <logpt time="2015-08-10T22:07:46Z">
          <spd>12.6</spd>
          <str>88.0</str>
        </logpt>
        <logpt time="2015-08-10T22:07:50Z">
          <spd>12.6</spd>
          <str>88.0</str>
        </logpt>
        <logpt time="2015-08-10T22:07:54Z">
          <spd>12.2</spd>
          <str>88.0</str>
        </logpt>
        <logpt time="2015-08-10T22:07:58Z">
          <spd>12.2</spd>
          <str>88.0</str>
        </logpt>
        <logpt time="2015-08-10T22:08:02Z">
          <spd>12.2</spd>
          <str>88.0</str>
        </logpt>
        <logpt time="2015-08-10T22:08:06Z">
          <spd>12.2</spd>
          <str>88.0</str>
        </logpt>
        <logpt time="2015-08-10T22:08:10Z">
          <spd>11.7</spd>
          <str>88.0</str>
        </logpt>
        <logpt time="2015-08-10T22:08:14Z">
          <spd>12.2</spd>
          <str>88.0</str>
        </logpt>
        <logpt time="2015-08-10T22:08:18Z">
          <spd>12.2</spd>
          <str>88.0</str>
        </logpt>
        <logpt time="2015-08-10T22:08:22Z">
          <spd>12.2</spd>
          <str>88.0</str>
        </logpt>
        <logpt time="2015-08-10T22:08:26Z">
          <spd>11.7</spd>
          <str>88.0</str>
        </logpt>
        <logpt time="2015-08-10T22:08:30Z">
          <spd>11.7</spd>
          <str>89.0</str>
        </logpt>
        <logpt time="2015-08-10T22:08:34Z">
          <spd>11.7</spd>
          <str>88.0</str>
        </logpt>
        <logpt time="2015-08-10T22:08:38Z">
          <spd>12.2</spd>
          <str>88.0</str>
        </logpt>
        <logpt time="2015-08-10T22:08:42Z">
          <spd>11.7</spd>
          <str>88.0</str>
        </logpt>
        <logpt time="2015-08-10T22:08:46Z">
          <spd>11.7</spd>
          <str>88.0</str>
        </logpt>
        <logpt time="2015-08-10T22:08:50Z">
          <spd>11.3</spd>
          <str>88.0</str>
        </logpt>
        <logpt time="2015-08-10T22:08:54Z">
          <spd>11.3</spd>
          <str>88.0</str>
        </logpt>
        <logpt time="2015-08-10T22:08:58Z">
          <spd>11.3</spd>
          <str>88.0</str>
        </logpt>
        <logpt time="2015-08-10T22:09:02Z">
          <spd>11.7</spd>
          <str>87.0</str>
        </logpt>
        <logpt time="2015-08-10T22:09:06Z">
          <spd>11.7</spd>
          <str>88.0</str>
        </logpt>
        <logpt time="2015-08-10T22:09:10Z">
          <spd>11.7</spd>
          <str>88.0</str>
        </logpt>
        <logpt time="2015-08-10T22:09:14Z">
          <spd>11.7</spd>
          <str>87.0</str>
        </logpt>
        <logpt time="2015-08-10T22:09:18Z">
          <spd>11.7</spd>
          <str>87.0</str>
        </logpt>
        <logpt time="2015-08-10T22:09:22Z">
          <spd>11.7</spd>
          <str>88.0</str>
        </logpt>
        <logpt time="2015-08-10T22:09:26Z">
          <spd>11.7</spd>
          <str>88.0</str>
        </logpt>
        <logpt time="2015-08-10T22:09:30Z">
          <spd>12.2</spd>
          <str>87.0</str>
        </logpt>
        <logpt time="2015-08-10T22:09:34Z">
          <spd>15.3</spd>
          <str>87.0</str>
        </logpt>
        <logpt time="2015-08-10T22:09:38Z">
          <spd>14.8</spd>
          <str>87.0</str>
        </logpt>
        <logpt time="2015-08-10T22:09:42Z">
          <spd>14.4</spd>
          <str>87.0</str>
        </logpt>
        <logpt time="2015-08-10T22:09:46Z">
          <spd>13.9</spd>
          <str>87.0</str>
        </logpt>
        <logpt time="2015-08-10T22:09:50Z">
          <spd>13.9</spd>
          <str>87.0</str>
        </logpt>
        <logpt time="2015-08-10T22:09:54Z">
          <spd>13.9</spd>
          <str>87.0</str>
        </logpt>
        <logpt time="2015-08-10T22:09:58Z">
          <spd>13.9</spd>
          <str>87.0</str>
        </logpt>
        <logpt time="2015-08-10T22:10:02Z">
          <spd>13.9</spd>
          <str>88.0</str>
        </logpt>
        <logpt time="2015-08-10T22:10:06Z">
          <spd>13.5</spd>
          <str>87.0</str>
        </logpt>
        <logpt time="2015-08-10T22:10:10Z">
          <spd>13.5</spd>
          <str>87.0</str>
        </logpt>
        <logpt time="2015-08-10T22:10:14Z">
          <spd>13.5</spd>
          <str>87.0</str>
        </logpt>
        <logpt time="2015-08-10T22:10:18Z">
          <spd>13.5</spd>
          <str>87.0</str>
        </logpt>
        <logpt time="2015-08-10T22:10:22Z">
          <spd>13.5</spd>
          <str>87.0</str>
        </logpt>
        <logpt time="2015-08-10T22:10:26Z">
          <spd>13.1</spd>
          <str>87.0</str>
        </logpt>
        <logpt time="2015-08-10T22:10:30Z">
          <spd>13.1</spd>
          <str>87.0</str>
        </logpt>
        <logpt time="2015-08-10T22:10:34Z">
          <spd>13.1</spd>
          <str>87.0</str>
        </logpt>
        <logpt time="2015-08-10T22:10:38Z">
          <spd>13.1</spd>
          <str>88.0</str>
        </logpt>
        <logpt time="2015-08-10T22:10:42Z">
          <spd>13.1</spd>
          <str>87.0</str>
        </logpt>
        <logpt time="2015-08-10T22:10:46Z">
          <spd>12.2</spd>
          <str>87.0</str>
        </logpt>
        <logpt time="2015-08-10T22:10:50Z">
          <spd>11.7</spd>
          <str>87.0</str>
        </logpt>
        <logpt time="2015-08-10T22:10:54Z">
          <spd>11.3</spd>
          <str>88.0</str>
        </logpt>
        <logpt time="2015-08-10T22:10:58Z">
          <spd>11.7</spd>
          <str>87.0</str>
        </logpt>
        <logpt time="2015-08-10T22:11:02Z">
          <spd>12.2</spd>
          <str>87.0</str>
        </logpt>
        <logpt time="2015-08-10T22:11:06Z">
          <spd>12.2</spd>
          <str>87.0</str>
        </logpt>
        <logpt time="2015-08-10T22:11:10Z">
          <spd>12.2</spd>
          <str>87.0</str>
        </logpt>
        <logpt time="2015-08-10T22:11:14Z">
          <spd>12.2</spd>
          <str>87.0</str>
        </logpt>
        <logpt time="2015-08-10T22:11:18Z">
          <spd>12.2</spd>
          <str>87.0</str>
        </logpt>
        <logpt time="2015-08-10T22:11:22Z">
          <spd>12.2</spd>
          <str>87.0</str>
        </logpt>
        <logpt time="2015-08-10T22:11:26Z">
          <spd>12.2</spd>
          <str>87.0</str>
        </logpt>
        <logpt time="2015-08-10T22:11:30Z">
          <spd>11.3</spd>
          <str>87.0</str>
        </logpt>
        <logpt time="2015-08-10T22:11:34Z">
          <spd>11.3</spd>
          <str>87.0</str>
        </logpt>
        <logpt time="2015-08-10T22:11:38Z">
          <spd>11.3</spd>
          <str>86.0</str>
        </logpt>
        <logpt time="2015-08-10T22:11:42Z">
          <spd>11.7</spd>
          <str>87.0</str>
        </logpt>
        <logpt time="2015-08-10T22:11:46Z">
          <spd>11.7</spd>
          <str>86.0</str>
        </logpt>
        <logpt time="2015-08-10T22:11:50Z">
          <spd>11.7</spd>
          <str>87.0</str>
        </logpt>
        <logpt time="2015-08-10T22:11:54Z">
          <spd>12.2</spd>
          <str>87.0</str>
        </logpt>
        <logpt time="2015-08-10T22:11:58Z">
          <spd>12.6</spd>
          <str>87.0</str>
        </logpt>
        <logpt time="2015-08-10T22:12:02Z">
          <spd>12.2</spd>
          <str>87.0</str>
        </logpt>
        <logpt time="2015-08-10T22:12:06Z">
          <spd>12.2</spd>
          <str>87.0</str>
        </logpt>
        <logpt time="2015-08-10T22:12:10Z">
          <spd>12.2</spd>
          <str>87.0</str>
        </logpt>
        <logpt time="2015-08-10T22:12:14Z">
          <spd>12.2</spd>
          <str>87.0</str>
        </logpt>
        <logpt time="2015-08-10T22:12:18Z">
          <spd>12.2</spd>
          <str>86.0</str>
        </logpt>
        <logpt time="2015-08-10T22:12:22Z">
          <spd>11.7</spd>
          <str>87.0</str>
        </logpt>
        <logpt time="2015-08-10T22:12:26Z">
          <spd>11.7</spd>
          <str>87.0</str>
        </logpt>
        <breaktype>2</breaktype>
      </logseg>
    </ssrlog>
    <laps>
      <summary start="2015-08-10T21:46:26Z" type="0" end="2015-08-10T22:12:32Z" isautolap="0">
        <distance>5068</distance>
        <calorie>272</calorie>
        <speed max="22.5" avg="11.7"/>
        <cad max="90" avg="86"/>
        <rtime>1560</rtime>
        <acttype subtype="0">1</acttype>
      </summary>
    </laps>
  </extensions>
</gpx>
