<?xml version='1.0' encoding='utf-8'?>
<gpx xmlns:xsi="http://www.w3.org/2001/XMLSchema-instance" xmlns="http://www.brytonsport.com/BDX/2/2" version="2.2.0.3" creator="bryton">
  <metadata>
    <name>2015/08/31 05:56</name>
    <time>2015-08-30T21:56:04Z</time>
    <bounds minlat="35.941676" maxlon="120.213125" minlon="120.2075" maxlat="35.957131"/>
    <extensions>
      <user>
        <bike>0<wheel>204.00</wheel></bike>
        <weight>68</weight>
        <gender>1</gender>
        <height>172</height>
        <age>28</age>
        <mhr>190</mhr>
        <lthr>172</lthr>
        <map>0</map>
        <ftp>0</ftp>
        <zonedef type="1">
          <zone high="74" id="1" low="0"/>
          <zone high="80" id="2" low="74"/>
          <zone high="85" id="3" low="80"/>
          <zone high="91" id="4" low="85"/>
          <zone high="93" id="5" low="91"/>
          <zone high="95" id="6" low="93"/>
          <zone high="0" id="7" low="95"/>
        </zonedef>
        <zonedef type="2">
          <zone high="80" id="1" low="0"/>
          <zone high="87" id="2" low="80"/>
          <zone high="91" id="3" low="87"/>
          <zone high="100" id="4" low="91"/>
          <zone high="101" id="5" low="100"/>
          <zone high="105" id="6" low="101"/>
          <zone high="0" id="7" low="105"/>
        </zonedef>
        <zonedef type="3">
          <zone high="40" id="1" low="17"/>
          <zone high="55" id="2" low="40"/>
          <zone high="65" id="3" low="55"/>
          <zone high="75" id="4" low="65"/>
          <zone high="85" id="5" low="75"/>
          <zone high="110" id="6" low="85"/>
          <zone high="65535" id="7" low="110"/>
        </zonedef>
        <zonedef type="4">
          <zone high="55" id="1" low="23"/>
          <zone high="75" id="2" low="55"/>
          <zone high="90" id="3" low="75"/>
          <zone high="105" id="4" low="90"/>
          <zone high="120" id="5" low="105"/>
          <zone high="150" id="6" low="120"/>
          <zone high="65535" id="7" low="150"/>
        </zonedef>
      </user>
      <sys version="1.0.0.R041 BB2.8.0.14">Cardio60<apps><app version="148" name="bc"/></apps></sys>
      <sharetype>2</sharetype>
      <acttype subtype="0">1</acttype>
      <trvTime>16</trvTime>
      <trvDist>5</trvDist>
      <stime>1440971764</stime>
      <etime>1440972772</etime>
    </extensions>
  </metadata>
  <rte>
    <number>2</number>
    <rtept lat="35.957127" lon="120.2101">
      <type>1</type>
    </rtept>
    <rtept lat="35.942901" lon="120.209049">
      <type>2</type>
    </rtept>
  </rte>
  <trk>
    <trkseg/>
    <trkseg>
      <trkpt lat="35.957127" lon="120.2101">
        <ele>12.1</ele>
        <time>2015-08-30T21:56:10Z</time>
      </trkpt>
      <trkpt lat="35.957131" lon="120.210043">
        <ele>12.1</ele>
        <time>2015-08-30T21:56:14Z</time>
      </trkpt>
      <trkpt lat="35.957131" lon="120.209995">
        <ele>12.1</ele>
        <time>2015-08-30T21:56:18Z</time>
      </trkpt>
      <trkpt lat="35.957092" lon="120.20986">
        <ele>12.0</ele>
        <time>2015-08-30T21:56:26Z</time>
      </trkpt>
      <trkpt lat="35.957074" lon="120.209759">
        <ele>12.0</ele>
        <time>2015-08-30T21:56:30Z</time>
      </trkpt>
      <trkpt lat="35.957062" lon="120.20967">
        <ele>12.0</ele>
        <time>2015-08-30T21:56:34Z</time>
      </trkpt>
      <trkpt lat="35.957033" lon="120.209591">
        <ele>12.0</ele>
        <time>2015-08-30T21:56:38Z</time>
      </trkpt>
      <trkpt lat="35.957011" lon="120.209521">
        <ele>11.9</ele>
        <time>2015-08-30T21:56:42Z</time>
      </trkpt>
      <trkpt lat="35.956977" lon="120.209459">
        <ele>11.9</ele>
        <time>2015-08-30T21:56:46Z</time>
      </trkpt>
      <trkpt lat="35.956937" lon="120.209355">
        <ele>12.0</ele>
        <time>2015-08-30T21:56:50Z</time>
      </trkpt>
      <trkpt lat="35.956866" lon="120.209196">
        <ele>12.0</ele>
        <time>2015-08-30T21:56:54Z</time>
      </trkpt>
      <trkpt lat="35.956807" lon="120.209105">
        <ele>12.1</ele>
        <time>2015-08-30T21:56:58Z</time>
      </trkpt>
      <trkpt lat="35.956755" lon="120.209041">
        <ele>12.1</ele>
        <time>2015-08-30T21:57:02Z</time>
      </trkpt>
      <trkpt lat="35.956653" lon="120.208864">
        <ele>12.2</ele>
        <time>2015-08-30T21:57:50Z</time>
      </trkpt>
      <trkpt lat="35.956664" lon="120.208808">
        <ele>12.2</ele>
        <time>2015-08-30T21:57:54Z</time>
      </trkpt>
      <trkpt lat="35.956665" lon="120.208742">
        <ele>12.3</ele>
        <time>2015-08-30T21:57:58Z</time>
      </trkpt>
      <trkpt lat="35.956638" lon="120.20864">
        <ele>12.3</ele>
        <time>2015-08-30T21:58:02Z</time>
      </trkpt>
      <trkpt lat="35.956616" lon="120.208528">
        <ele>12.3</ele>
        <time>2015-08-30T21:58:06Z</time>
      </trkpt>
      <trkpt lat="35.956594" lon="120.20843">
        <ele>12.3</ele>
        <time>2015-08-30T21:58:10Z</time>
      </trkpt>
      <trkpt lat="35.956577" lon="120.208322">
        <ele>12.3</ele>
        <time>2015-08-30T21:58:14Z</time>
      </trkpt>
      <trkpt lat="35.956572" lon="120.208206">
        <ele>12.3</ele>
        <time>2015-08-30T21:58:18Z</time>
      </trkpt>
      <trkpt lat="35.956567" lon="120.208096">
        <ele>12.2</ele>
        <time>2015-08-30T21:58:22Z</time>
      </trkpt>
      <trkpt lat="35.956534" lon="120.207967">
        <ele>12.2</ele>
        <time>2015-08-30T21:58:26Z</time>
      </trkpt>
      <trkpt lat="35.956503" lon="120.207839">
        <ele>12.1</ele>
        <time>2015-08-30T21:58:30Z</time>
      </trkpt>
      <trkpt lat="35.956474" lon="120.207726">
        <ele>12.1</ele>
        <time>2015-08-30T21:58:34Z</time>
      </trkpt>
      <trkpt lat="35.956441" lon="120.20762">
        <ele>12.0</ele>
        <time>2015-08-30T21:58:38Z</time>
      </trkpt>
      <trkpt lat="35.956406" lon="120.207529">
        <ele>11.9</ele>
        <time>2015-08-30T21:58:42Z</time>
      </trkpt>
      <trkpt lat="35.956347" lon="120.2075">
        <ele>11.7</ele>
        <time>2015-08-30T21:58:46Z</time>
      </trkpt>
      <trkpt lat="35.956266" lon="120.207519">
        <ele>11.5</ele>
        <time>2015-08-30T21:58:50Z</time>
      </trkpt>
      <trkpt lat="35.956182" lon="120.207529">
        <ele>11.3</ele>
        <time>2015-08-30T21:58:54Z</time>
      </trkpt>
      <trkpt lat="35.956088" lon="120.207539">
        <ele>11.0</ele>
        <time>2015-08-30T21:58:58Z</time>
      </trkpt>
      <trkpt lat="35.955988" lon="120.207566">
        <ele>10.6</ele>
        <time>2015-08-30T21:59:02Z</time>
      </trkpt>
      <trkpt lat="35.955899" lon="120.207591">
        <ele>10.3</ele>
        <time>2015-08-30T21:59:06Z</time>
      </trkpt>
      <trkpt lat="35.955803" lon="120.20762">
        <ele>9.9</ele>
        <time>2015-08-30T21:59:10Z</time>
      </trkpt>
      <trkpt lat="35.955707" lon="120.20765">
        <ele>9.4</ele>
        <time>2015-08-30T21:59:14Z</time>
      </trkpt>
      <trkpt lat="35.955585" lon="120.207697">
        <ele>9.0</ele>
        <time>2015-08-30T21:59:18Z</time>
      </trkpt>
      <trkpt lat="35.955479" lon="120.207741">
        <ele>8.5</ele>
        <time>2015-08-30T21:59:22Z</time>
      </trkpt>
      <trkpt lat="35.955381" lon="120.207782">
        <ele>8.0</ele>
        <time>2015-08-30T21:59:26Z</time>
      </trkpt>
      <trkpt lat="35.955288" lon="120.207817">
        <ele>7.5</ele>
        <time>2015-08-30T21:59:30Z</time>
      </trkpt>
      <trkpt lat="35.955196" lon="120.207877">
        <ele>7.0</ele>
        <time>2015-08-30T21:59:34Z</time>
      </trkpt>
      <trkpt lat="35.955109" lon="120.207931">
        <ele>6.5</ele>
        <time>2015-08-30T21:59:38Z</time>
      </trkpt>
      <trkpt lat="35.955016" lon="120.207966">
        <ele>6.0</ele>
        <time>2015-08-30T21:59:42Z</time>
      </trkpt>
      <trkpt lat="35.954931" lon="120.208007">
        <ele>5.5</ele>
        <time>2015-08-30T21:59:46Z</time>
      </trkpt>
      <trkpt lat="35.954853" lon="120.208042">
        <ele>5.1</ele>
        <time>2015-08-30T21:59:50Z</time>
      </trkpt>
      <trkpt lat="35.954766" lon="120.208069">
        <ele>4.6</ele>
        <time>2015-08-30T21:59:54Z</time>
      </trkpt>
      <trkpt lat="35.954678" lon="120.20809">
        <ele>4.2</ele>
        <time>2015-08-30T21:59:58Z</time>
      </trkpt>
      <trkpt lat="35.954587" lon="120.208111">
        <ele>3.8</ele>
        <time>2015-08-30T22:00:02Z</time>
      </trkpt>
      <trkpt lat="35.954489" lon="120.208138">
        <ele>3.5</ele>
        <time>2015-08-30T22:00:06Z</time>
      </trkpt>
      <trkpt lat="35.954394" lon="120.20817">
        <ele>3.1</ele>
        <time>2015-08-30T22:00:10Z</time>
      </trkpt>
      <trkpt lat="35.954299" lon="120.208199">
        <ele>2.8</ele>
        <time>2015-08-30T22:00:14Z</time>
      </trkpt>
      <trkpt lat="35.954208" lon="120.208232">
        <ele>2.6</ele>
        <time>2015-08-30T22:00:18Z</time>
      </trkpt>
      <trkpt lat="35.954128" lon="120.208247">
        <ele>2.4</ele>
        <time>2015-08-30T22:00:22Z</time>
      </trkpt>
      <trkpt lat="35.95404" lon="120.208263">
        <ele>2.2</ele>
        <time>2015-08-30T22:00:26Z</time>
      </trkpt>
      <trkpt lat="35.953918" lon="120.208275">
        <ele>2.1</ele>
        <time>2015-08-30T22:00:30Z</time>
      </trkpt>
      <trkpt lat="35.953794" lon="120.208291">
        <ele>1.9</ele>
        <time>2015-08-30T22:00:34Z</time>
      </trkpt>
      <trkpt lat="35.953686" lon="120.208315">
        <ele>1.8</ele>
        <time>2015-08-30T22:00:38Z</time>
      </trkpt>
      <trkpt lat="35.953575" lon="120.208351">
        <ele>1.7</ele>
        <time>2015-08-30T22:00:42Z</time>
      </trkpt>
      <trkpt lat="35.953465" lon="120.208382">
        <ele>1.6</ele>
        <time>2015-08-30T22:00:46Z</time>
      </trkpt>
      <trkpt lat="35.953351" lon="120.208405">
        <ele>1.5</ele>
        <time>2015-08-30T22:00:50Z</time>
      </trkpt>
      <trkpt lat="35.953249" lon="120.208412">
        <ele>1.5</ele>
        <time>2015-08-30T22:00:54Z</time>
      </trkpt>
      <trkpt lat="35.953145" lon="120.208425">
        <ele>1.4</ele>
        <time>2015-08-30T22:00:58Z</time>
      </trkpt>
      <trkpt lat="35.953043" lon="120.208451">
        <ele>1.3</ele>
        <time>2015-08-30T22:01:02Z</time>
      </trkpt>
      <trkpt lat="35.952948" lon="120.20848">
        <ele>1.2</ele>
        <time>2015-08-30T22:01:06Z</time>
      </trkpt>
      <trkpt lat="35.95284" lon="120.208499">
        <ele>1.1</ele>
        <time>2015-08-30T22:01:10Z</time>
      </trkpt>
      <trkpt lat="35.952733" lon="120.208518">
        <ele>1.0</ele>
        <time>2015-08-30T22:01:14Z</time>
      </trkpt>
      <trkpt lat="35.952639" lon="120.208541">
        <ele>1.0</ele>
        <time>2015-08-30T22:01:18Z</time>
      </trkpt>
      <trkpt lat="35.952553" lon="120.208556">
        <ele>0.9</ele>
        <time>2015-08-30T22:01:22Z</time>
      </trkpt>
      <trkpt lat="35.952456" lon="120.208574">
        <ele>0.9</ele>
        <time>2015-08-30T22:01:26Z</time>
      </trkpt>
      <trkpt lat="35.95236" lon="120.20859">
        <ele>0.8</ele>
        <time>2015-08-30T22:01:30Z</time>
      </trkpt>
      <trkpt lat="35.952267" lon="120.208603">
        <ele>0.8</ele>
        <time>2015-08-30T22:01:34Z</time>
      </trkpt>
      <trkpt lat="35.952162" lon="120.208621">
        <ele>0.7</ele>
        <time>2015-08-30T22:01:38Z</time>
      </trkpt>
      <trkpt lat="35.952067" lon="120.208645">
        <ele>0.6</ele>
        <time>2015-08-30T22:01:42Z</time>
      </trkpt>
      <trkpt lat="35.952" lon="120.208684">
        <ele>0.5</ele>
        <time>2015-08-30T22:01:46Z</time>
      </trkpt>
      <trkpt lat="35.951963" lon="120.208776">
        <ele>0.5</ele>
        <time>2015-08-30T22:01:50Z</time>
      </trkpt>
      <trkpt lat="35.951926" lon="120.208873">
        <ele>0.4</ele>
        <time>2015-08-30T22:01:54Z</time>
      </trkpt>
      <trkpt lat="35.951874" lon="120.208951">
        <ele>0.3</ele>
        <time>2015-08-30T22:01:58Z</time>
      </trkpt>
      <trkpt lat="35.951833" lon="120.209046">
        <ele>0.3</ele>
        <time>2015-08-30T22:02:02Z</time>
      </trkpt>
      <trkpt lat="35.951845" lon="120.209157">
        <ele>0.3</ele>
        <time>2015-08-30T22:02:06Z</time>
      </trkpt>
      <trkpt lat="35.95187" lon="120.209277">
        <ele>0.3</ele>
        <time>2015-08-30T22:02:10Z</time>
      </trkpt>
      <trkpt lat="35.951878" lon="120.209383">
        <ele>0.3</ele>
        <time>2015-08-30T22:02:14Z</time>
      </trkpt>
      <trkpt lat="35.951885" lon="120.20949">
        <ele>0.3</ele>
        <time>2015-08-30T22:02:18Z</time>
      </trkpt>
      <trkpt lat="35.9519" lon="120.209608">
        <ele>0.3</ele>
        <time>2015-08-30T22:02:22Z</time>
      </trkpt>
      <trkpt lat="35.951913" lon="120.209758">
        <ele>0.4</ele>
        <time>2015-08-30T22:02:30Z</time>
      </trkpt>
      <trkpt lat="35.951933" lon="120.209885">
        <ele>0.4</ele>
        <time>2015-08-30T22:02:34Z</time>
      </trkpt>
      <trkpt lat="35.95195" lon="120.209982">
        <ele>0.5</ele>
        <time>2015-08-30T22:02:38Z</time>
      </trkpt>
      <trkpt lat="35.951954" lon="120.210088">
        <ele>0.5</ele>
        <time>2015-08-30T22:02:42Z</time>
      </trkpt>
      <trkpt lat="35.951969" lon="120.210198">
        <ele>0.5</ele>
        <time>2015-08-30T22:02:46Z</time>
      </trkpt>
      <trkpt lat="35.951976" lon="120.210295">
        <ele>0.6</ele>
        <time>2015-08-30T22:02:50Z</time>
      </trkpt>
      <trkpt lat="35.951987" lon="120.210389">
        <ele>0.6</ele>
        <time>2015-08-30T22:02:54Z</time>
      </trkpt>
      <trkpt lat="35.95196" lon="120.210455">
        <ele>0.6</ele>
        <time>2015-08-30T22:02:58Z</time>
      </trkpt>
      <trkpt lat="35.951905" lon="120.210492">
        <ele>0.7</ele>
        <time>2015-08-30T22:03:02Z</time>
      </trkpt>
      <trkpt lat="35.951859" lon="120.210507">
        <ele>0.7</ele>
        <time>2015-08-30T22:03:06Z</time>
      </trkpt>
      <trkpt lat="35.9518" lon="120.210537">
        <ele>0.8</ele>
        <time>2015-08-30T22:03:10Z</time>
      </trkpt>
      <trkpt lat="35.951727" lon="120.210574">
        <ele>0.8</ele>
        <time>2015-08-30T22:03:14Z</time>
      </trkpt>
      <trkpt lat="35.951652" lon="120.210627">
        <ele>0.9</ele>
        <time>2015-08-30T22:03:18Z</time>
      </trkpt>
      <trkpt lat="35.951567" lon="120.210663">
        <ele>0.9</ele>
        <time>2015-08-30T22:03:22Z</time>
      </trkpt>
      <trkpt lat="35.951474" lon="120.210678">
        <ele>1.0</ele>
        <time>2015-08-30T22:03:26Z</time>
      </trkpt>
      <trkpt lat="35.951392" lon="120.210691">
        <ele>1.0</ele>
        <time>2015-08-30T22:03:30Z</time>
      </trkpt>
      <trkpt lat="35.951321" lon="120.210723">
        <ele>1.1</ele>
        <time>2015-08-30T22:03:34Z</time>
      </trkpt>
      <trkpt lat="35.951224" lon="120.210752">
        <ele>1.1</ele>
        <time>2015-08-30T22:03:38Z</time>
      </trkpt>
      <trkpt lat="35.951116" lon="120.210778">
        <ele>1.1</ele>
        <time>2015-08-30T22:03:42Z</time>
      </trkpt>
      <trkpt lat="35.951" lon="120.210818">
        <ele>1.2</ele>
        <time>2015-08-30T22:03:46Z</time>
      </trkpt>
      <trkpt lat="35.950921" lon="120.210867">
        <ele>1.2</ele>
        <time>2015-08-30T22:03:50Z</time>
      </trkpt>
      <trkpt lat="35.950853" lon="120.210916">
        <ele>1.2</ele>
        <time>2015-08-30T22:03:54Z</time>
      </trkpt>
      <trkpt lat="35.950777" lon="120.210969">
        <ele>1.2</ele>
        <time>2015-08-30T22:03:58Z</time>
      </trkpt>
      <trkpt lat="35.950687" lon="120.210975">
        <ele>1.2</ele>
        <time>2015-08-30T22:04:02Z</time>
      </trkpt>
      <trkpt lat="35.950568" lon="120.210994">
        <ele>1.3</ele>
        <time>2015-08-30T22:04:06Z</time>
      </trkpt>
      <trkpt lat="35.950459" lon="120.211035">
        <ele>1.3</ele>
        <time>2015-08-30T22:04:10Z</time>
      </trkpt>
      <trkpt lat="35.950351" lon="120.211078">
        <ele>1.3</ele>
        <time>2015-08-30T22:04:14Z</time>
      </trkpt>
      <trkpt lat="35.950262" lon="120.211131">
        <ele>1.2</ele>
        <time>2015-08-30T22:04:18Z</time>
      </trkpt>
      <trkpt lat="35.950179" lon="120.21116">
        <ele>1.2</ele>
        <time>2015-08-30T22:04:22Z</time>
      </trkpt>
      <trkpt lat="35.950084" lon="120.211168">
        <ele>1.2</ele>
        <time>2015-08-30T22:04:26Z</time>
      </trkpt>
      <trkpt lat="35.949983" lon="120.211194">
        <ele>1.1</ele>
        <time>2015-08-30T22:04:30Z</time>
      </trkpt>
      <trkpt lat="35.94988" lon="120.211229">
        <ele>1.0</ele>
        <time>2015-08-30T22:04:34Z</time>
      </trkpt>
      <trkpt lat="35.949801" lon="120.211285">
        <ele>0.9</ele>
        <time>2015-08-30T22:04:38Z</time>
      </trkpt>
      <trkpt lat="35.949715" lon="120.211308">
        <ele>0.8</ele>
        <time>2015-08-30T22:04:42Z</time>
      </trkpt>
      <trkpt lat="35.949621" lon="120.211323">
        <ele>0.7</ele>
        <time>2015-08-30T22:04:46Z</time>
      </trkpt>
      <trkpt lat="35.949512" lon="120.211346">
        <ele>0.6</ele>
        <time>2015-08-30T22:04:50Z</time>
      </trkpt>
      <trkpt lat="35.949412" lon="120.211366">
        <ele>0.5</ele>
        <time>2015-08-30T22:04:54Z</time>
      </trkpt>
      <trkpt lat="35.949306" lon="120.211404">
        <ele>0.4</ele>
        <time>2015-08-30T22:04:58Z</time>
      </trkpt>
      <trkpt lat="35.949204" lon="120.211429">
        <ele>0.3</ele>
        <time>2015-08-30T22:05:02Z</time>
      </trkpt>
      <trkpt lat="35.949104" lon="120.211433">
        <ele>0.3</ele>
        <time>2015-08-30T22:05:06Z</time>
      </trkpt>
      <trkpt lat="35.949002" lon="120.211427">
        <ele>0.3</ele>
        <time>2015-08-30T22:05:10Z</time>
      </trkpt>
      <trkpt lat="35.948904" lon="120.211436">
        <ele>0.3</ele>
        <time>2015-08-30T22:05:14Z</time>
      </trkpt>
      <trkpt lat="35.948803" lon="120.211447">
        <ele>0.3</ele>
        <time>2015-08-30T22:05:18Z</time>
      </trkpt>
      <trkpt lat="35.948703" lon="120.211472">
        <ele>0.3</ele>
        <time>2015-08-30T22:05:22Z</time>
      </trkpt>
      <trkpt lat="35.948613" lon="120.211484">
        <ele>0.3</ele>
        <time>2015-08-30T22:05:26Z</time>
      </trkpt>
      <trkpt lat="35.948508" lon="120.211487">
        <ele>0.3</ele>
        <time>2015-08-30T22:05:30Z</time>
      </trkpt>
      <trkpt lat="35.948395" lon="120.211499">
        <ele>0.3</ele>
        <time>2015-08-30T22:05:34Z</time>
      </trkpt>
      <trkpt lat="35.948287" lon="120.211511">
        <ele>0.3</ele>
        <time>2015-08-30T22:05:38Z</time>
      </trkpt>
      <trkpt lat="35.948195" lon="120.211523">
        <ele>0.3</ele>
        <time>2015-08-30T22:05:42Z</time>
      </trkpt>
      <trkpt lat="35.948109" lon="120.211551">
        <ele>0.3</ele>
        <time>2015-08-30T22:05:46Z</time>
      </trkpt>
      <trkpt lat="35.948013" lon="120.21158">
        <ele>0.4</ele>
        <time>2015-08-30T22:05:50Z</time>
      </trkpt>
      <trkpt lat="35.947916" lon="120.211604">
        <ele>0.5</ele>
        <time>2015-08-30T22:05:54Z</time>
      </trkpt>
      <trkpt lat="35.947813" lon="120.211634">
        <ele>0.5</ele>
        <time>2015-08-30T22:05:58Z</time>
      </trkpt>
      <trkpt lat="35.947711" lon="120.211655">
        <ele>0.6</ele>
        <time>2015-08-30T22:06:02Z</time>
      </trkpt>
      <trkpt lat="35.947629" lon="120.211666">
        <ele>0.8</ele>
        <time>2015-08-30T22:06:06Z</time>
      </trkpt>
      <trkpt lat="35.947547" lon="120.211676">
        <ele>0.8</ele>
        <time>2015-08-30T22:06:10Z</time>
      </trkpt>
      <trkpt lat="35.947457" lon="120.211696">
        <ele>0.9</ele>
        <time>2015-08-30T22:06:14Z</time>
      </trkpt>
      <trkpt lat="35.947378" lon="120.211722">
        <ele>1.0</ele>
        <time>2015-08-30T22:06:18Z</time>
      </trkpt>
      <trkpt lat="35.947289" lon="120.211745">
        <ele>1.1</ele>
        <time>2015-08-30T22:06:22Z</time>
      </trkpt>
      <trkpt lat="35.947199" lon="120.211769">
        <ele>1.2</ele>
        <time>2015-08-30T22:06:26Z</time>
      </trkpt>
      <trkpt lat="35.947106" lon="120.211794">
        <ele>1.2</ele>
        <time>2015-08-30T22:06:30Z</time>
      </trkpt>
      <trkpt lat="35.947015" lon="120.211814">
        <ele>1.3</ele>
        <time>2015-08-30T22:06:34Z</time>
      </trkpt>
      <trkpt lat="35.946927" lon="120.211826">
        <ele>1.3</ele>
        <time>2015-08-30T22:06:38Z</time>
      </trkpt>
      <trkpt lat="35.946823" lon="120.211854">
        <ele>1.3</ele>
        <time>2015-08-30T22:06:42Z</time>
      </trkpt>
      <trkpt lat="35.946733" lon="120.211886">
        <ele>1.4</ele>
        <time>2015-08-30T22:06:46Z</time>
      </trkpt>
      <trkpt lat="35.94665" lon="120.211914">
        <ele>1.4</ele>
        <time>2015-08-30T22:06:50Z</time>
      </trkpt>
      <trkpt lat="35.946556" lon="120.211943">
        <ele>1.5</ele>
        <time>2015-08-30T22:06:54Z</time>
      </trkpt>
      <trkpt lat="35.946462" lon="120.211965">
        <ele>1.6</ele>
        <time>2015-08-30T22:06:58Z</time>
      </trkpt>
      <trkpt lat="35.946369" lon="120.211995">
        <ele>1.7</ele>
        <time>2015-08-30T22:07:02Z</time>
      </trkpt>
      <trkpt lat="35.946261" lon="120.212032">
        <ele>1.7</ele>
        <time>2015-08-30T22:07:06Z</time>
      </trkpt>
      <trkpt lat="35.946174" lon="120.212069">
        <ele>1.9</ele>
        <time>2015-08-30T22:07:10Z</time>
      </trkpt>
      <trkpt lat="35.9461" lon="120.212104">
        <ele>2.0</ele>
        <time>2015-08-30T22:07:14Z</time>
      </trkpt>
      <trkpt lat="35.946011" lon="120.212134">
        <ele>2.1</ele>
        <time>2015-08-30T22:07:18Z</time>
      </trkpt>
      <trkpt lat="35.945914" lon="120.212149">
        <ele>2.2</ele>
        <time>2015-08-30T22:07:22Z</time>
      </trkpt>
      <trkpt lat="35.945821" lon="120.212173">
        <ele>2.4</ele>
        <time>2015-08-30T22:07:26Z</time>
      </trkpt>
      <trkpt lat="35.945739" lon="120.212208">
        <ele>2.6</ele>
        <time>2015-08-30T22:07:30Z</time>
      </trkpt>
      <trkpt lat="35.945652" lon="120.212245">
        <ele>2.7</ele>
        <time>2015-08-30T22:07:34Z</time>
      </trkpt>
      <trkpt lat="35.945558" lon="120.212281">
        <ele>2.9</ele>
        <time>2015-08-30T22:07:38Z</time>
      </trkpt>
      <trkpt lat="35.945462" lon="120.212324">
        <ele>3.1</ele>
        <time>2015-08-30T22:07:42Z</time>
      </trkpt>
      <trkpt lat="35.945372" lon="120.212367">
        <ele>3.3</ele>
        <time>2015-08-30T22:07:46Z</time>
      </trkpt>
      <trkpt lat="35.945288" lon="120.212405">
        <ele>3.5</ele>
        <time>2015-08-30T22:07:50Z</time>
      </trkpt>
      <trkpt lat="35.94519" lon="120.212439">
        <ele>3.7</ele>
        <time>2015-08-30T22:07:54Z</time>
      </trkpt>
      <trkpt lat="35.94509" lon="120.212477">
        <ele>3.8</ele>
        <time>2015-08-30T22:07:58Z</time>
      </trkpt>
      <trkpt lat="35.945002" lon="120.212517">
        <ele>4.0</ele>
        <time>2015-08-30T22:08:02Z</time>
      </trkpt>
      <trkpt lat="35.944914" lon="120.212557">
        <ele>4.2</ele>
        <time>2015-08-30T22:08:06Z</time>
      </trkpt>
      <trkpt lat="35.944789" lon="120.212619">
        <ele>4.4</ele>
        <time>2015-08-30T22:08:14Z</time>
      </trkpt>
      <trkpt lat="35.94468" lon="120.212663">
        <ele>4.6</ele>
        <time>2015-08-30T22:08:18Z</time>
      </trkpt>
      <trkpt lat="35.944587" lon="120.212711">
        <ele>4.8</ele>
        <time>2015-08-30T22:08:22Z</time>
      </trkpt>
      <trkpt lat="35.944499" lon="120.212764">
        <ele>4.9</ele>
        <time>2015-08-30T22:08:26Z</time>
      </trkpt>
      <trkpt lat="35.944412" lon="120.212799">
        <ele>5.1</ele>
        <time>2015-08-30T22:08:30Z</time>
      </trkpt>
      <trkpt lat="35.944259" lon="120.21289">
        <ele>5.2</ele>
        <time>2015-08-30T22:08:34Z</time>
      </trkpt>
      <trkpt lat="35.944165" lon="120.212948">
        <ele>5.3</ele>
        <time>2015-08-30T22:08:42Z</time>
      </trkpt>
      <trkpt lat="35.944068" lon="120.213006">
        <ele>5.4</ele>
        <time>2015-08-30T22:08:46Z</time>
      </trkpt>
      <trkpt lat="35.943985" lon="120.21307">
        <ele>5.4</ele>
        <time>2015-08-30T22:08:50Z</time>
      </trkpt>
      <trkpt lat="35.943915" lon="120.213125">
        <ele>5.4</ele>
        <time>2015-08-30T22:08:54Z</time>
      </trkpt>
      <trkpt lat="35.943848" lon="120.213107">
        <ele>5.4</ele>
        <time>2015-08-30T22:08:58Z</time>
      </trkpt>
      <trkpt lat="35.943794" lon="120.213034">
        <ele>5.4</ele>
        <time>2015-08-30T22:09:02Z</time>
      </trkpt>
      <trkpt lat="35.94373" lon="120.212962">
        <ele>5.3</ele>
        <time>2015-08-30T22:09:06Z</time>
      </trkpt>
      <trkpt lat="35.943659" lon="120.21288">
        <ele>5.2</ele>
        <time>2015-08-30T22:09:10Z</time>
      </trkpt>
      <trkpt lat="35.94356" lon="120.212777">
        <ele>5.0</ele>
        <time>2015-08-30T22:09:14Z</time>
      </trkpt>
      <trkpt lat="35.943475" lon="120.212676">
        <ele>4.8</ele>
        <time>2015-08-30T22:09:18Z</time>
      </trkpt>
      <trkpt lat="35.94336" lon="120.212501">
        <ele>4.7</ele>
        <time>2015-08-30T22:09:22Z</time>
      </trkpt>
      <trkpt lat="35.943304" lon="120.212415">
        <ele>4.4</ele>
        <time>2015-08-30T22:09:30Z</time>
      </trkpt>
      <trkpt lat="35.943253" lon="120.212327">
        <ele>4.2</ele>
        <time>2015-08-30T22:09:34Z</time>
      </trkpt>
      <trkpt lat="35.943206" lon="120.212248">
        <ele>4.0</ele>
        <time>2015-08-30T22:09:38Z</time>
      </trkpt>
      <trkpt lat="35.943153" lon="120.212165">
        <ele>3.7</ele>
        <time>2015-08-30T22:09:42Z</time>
      </trkpt>
      <trkpt lat="35.943103" lon="120.212075">
        <ele>3.5</ele>
        <time>2015-08-30T22:09:46Z</time>
      </trkpt>
      <trkpt lat="35.943058" lon="120.211979">
        <ele>3.2</ele>
        <time>2015-08-30T22:09:50Z</time>
      </trkpt>
      <trkpt lat="35.943027" lon="120.211878">
        <ele>3.0</ele>
        <time>2015-08-30T22:09:54Z</time>
      </trkpt>
      <trkpt lat="35.942985" lon="120.211773">
        <ele>2.7</ele>
        <time>2015-08-30T22:09:58Z</time>
      </trkpt>
      <trkpt lat="35.942945" lon="120.211671">
        <ele>2.5</ele>
        <time>2015-08-30T22:10:02Z</time>
      </trkpt>
      <trkpt lat="35.94291" lon="120.211582">
        <ele>2.2</ele>
        <time>2015-08-30T22:10:06Z</time>
      </trkpt>
      <trkpt lat="35.942841" lon="120.211489">
        <ele>2.0</ele>
        <time>2015-08-30T22:10:10Z</time>
      </trkpt>
      <trkpt lat="35.942768" lon="120.211397">
        <ele>1.7</ele>
        <time>2015-08-30T22:10:14Z</time>
      </trkpt>
      <trkpt lat="35.942714" lon="120.211305">
        <ele>1.5</ele>
        <time>2015-08-30T22:10:18Z</time>
      </trkpt>
      <trkpt lat="35.94266" lon="120.211218">
        <ele>1.2</ele>
        <time>2015-08-30T22:10:22Z</time>
      </trkpt>
      <trkpt lat="35.942614" lon="120.21113">
        <ele>1.0</ele>
        <time>2015-08-30T22:10:26Z</time>
      </trkpt>
      <trkpt lat="35.942574" lon="120.211043">
        <ele>0.8</ele>
        <time>2015-08-30T22:10:30Z</time>
      </trkpt>
      <trkpt lat="35.94252" lon="120.210957">
        <ele>0.6</ele>
        <time>2015-08-30T22:10:34Z</time>
      </trkpt>
      <trkpt lat="35.942453" lon="120.210873">
        <ele>0.5</ele>
        <time>2015-08-30T22:10:38Z</time>
      </trkpt>
      <trkpt lat="35.942381" lon="120.210779">
        <ele>0.4</ele>
        <time>2015-08-30T22:10:42Z</time>
      </trkpt>
      <trkpt lat="35.942298" lon="120.210667">
        <ele>0.2</ele>
        <time>2015-08-30T22:10:46Z</time>
      </trkpt>
      <trkpt lat="35.942236" lon="120.210568">
        <ele>0.2</ele>
        <time>2015-08-30T22:10:50Z</time>
      </trkpt>
      <trkpt lat="35.942176" lon="120.210472">
        <ele>0.1</ele>
        <time>2015-08-30T22:10:54Z</time>
      </trkpt>
      <trkpt lat="35.942123" lon="120.21038">
        <ele>0.1</ele>
        <time>2015-08-30T22:10:58Z</time>
      </trkpt>
      <trkpt lat="35.94207" lon="120.210296">
        <ele>0.0</ele>
        <time>2015-08-30T22:11:02Z</time>
      </trkpt>
      <trkpt lat="35.942018" lon="120.210222">
        <ele>-0.0</ele>
        <time>2015-08-30T22:11:06Z</time>
      </trkpt>
      <trkpt lat="35.941968" lon="120.210128">
        <ele>-0.0</ele>
        <time>2015-08-30T22:11:10Z</time>
      </trkpt>
      <trkpt lat="35.941917" lon="120.210018">
        <ele>-0.1</ele>
        <time>2015-08-30T22:11:14Z</time>
      </trkpt>
      <trkpt lat="35.941862" lon="120.209923">
        <ele>-0.1</ele>
        <time>2015-08-30T22:11:18Z</time>
      </trkpt>
      <trkpt lat="35.941805" lon="120.209845">
        <ele>-0.1</ele>
        <time>2015-08-30T22:11:22Z</time>
      </trkpt>
      <trkpt lat="35.941749" lon="120.209773">
        <ele>-0.2</ele>
        <time>2015-08-30T22:11:26Z</time>
      </trkpt>
      <trkpt lat="35.941702" lon="120.209702">
        <ele>-0.2</ele>
        <time>2015-08-30T22:11:30Z</time>
      </trkpt>
      <trkpt lat="35.941676" lon="120.209615">
        <ele>-0.2</ele>
        <time>2015-08-30T22:11:34Z</time>
      </trkpt>
      <trkpt lat="35.941676" lon="120.209524">
        <ele>-0.1</ele>
        <time>2015-08-30T22:11:38Z</time>
      </trkpt>
      <trkpt lat="35.941728" lon="120.209455">
        <ele>-0.1</ele>
        <time>2015-08-30T22:11:42Z</time>
      </trkpt>
      <trkpt lat="35.94181" lon="120.209428">
        <ele>-0.1</ele>
        <time>2015-08-30T22:11:46Z</time>
      </trkpt>
      <trkpt lat="35.941895" lon="120.209408">
        <ele>-0.0</ele>
        <time>2015-08-30T22:11:50Z</time>
      </trkpt>
      <trkpt lat="35.94198" lon="120.209388">
        <ele>0.0</ele>
        <time>2015-08-30T22:11:54Z</time>
      </trkpt>
      <trkpt lat="35.942063" lon="120.209367">
        <ele>0.1</ele>
        <time>2015-08-30T22:11:58Z</time>
      </trkpt>
      <trkpt lat="35.942144" lon="120.209332">
        <ele>0.1</ele>
        <time>2015-08-30T22:12:02Z</time>
      </trkpt>
      <trkpt lat="35.942228" lon="120.209283">
        <ele>0.1</ele>
        <time>2015-08-30T22:12:06Z</time>
      </trkpt>
      <trkpt lat="35.942312" lon="120.209235">
        <ele>0.2</ele>
        <time>2015-08-30T22:12:10Z</time>
      </trkpt>
      <trkpt lat="35.942391" lon="120.209191">
        <ele>0.2</ele>
        <time>2015-08-30T22:12:14Z</time>
      </trkpt>
      <trkpt lat="35.942473" lon="120.209142">
        <ele>0.1</ele>
        <time>2015-08-30T22:12:18Z</time>
      </trkpt>
      <trkpt lat="35.942558" lon="120.209092">
        <ele>0.1</ele>
        <time>2015-08-30T22:12:22Z</time>
      </trkpt>
      <trkpt lat="35.942644" lon="120.209056">
        <ele>0.1</ele>
        <time>2015-08-30T22:12:26Z</time>
      </trkpt>
      <trkpt lat="35.94274" lon="120.209045">
        <ele>0.1</ele>
        <time>2015-08-30T22:12:30Z</time>
      </trkpt>
      <trkpt lat="35.942818" lon="120.209047">
        <ele>0.1</ele>
        <time>2015-08-30T22:12:34Z</time>
      </trkpt>
      <trkpt lat="35.942863" lon="120.20905">
        <ele>0.1</ele>
        <time>2015-08-30T22:12:38Z</time>
      </trkpt>
      <trkpt lat="35.942901" lon="120.209049">
        <ele>0.1</ele>
        <time>2015-08-30T22:12:42Z</time>
      </trkpt>
      <extensions>
        <breaktype>2</breaktype>
      </extensions>
    </trkseg>
  </trk>
  <extensions>
    <ssrlog>
      <logseg>
        <logpt time="2015-08-30T21:56:04Z">
          <spd>3.1</spd>
          <str>0.0</str>
        </logpt>
        <logpt time="2015-08-30T21:56:08Z">
          <spd>3.1</spd>
          <str>0.0</str>
        </logpt>
        <breaktype>2</breaktype>
      </logseg>
      <logseg>
        <logpt time="2015-08-30T21:56:10Z">
          <spd>3.6</spd>
          <str>0.0</str>
        </logpt>
        <logpt time="2015-08-30T21:56:14Z">
          <spd>3.6</spd>
          <str>0.0</str>
        </logpt>
        <logpt time="2015-08-30T21:56:18Z">
          <spd>3.1</spd>
          <str>0.0</str>
        </logpt>
        <logpt time="2015-08-30T21:56:22Z">
          <spd>0.0</spd>
          <str>0.0</str>
        </logpt>
        <logpt time="2015-08-30T21:56:26Z">
          <spd>5.0</spd>
          <str>0.0</str>
        </logpt>
        <logpt time="2015-08-30T21:56:30Z">
          <spd>6.8</spd>
          <str>0.0</str>
        </logpt>
        <logpt time="2015-08-30T21:56:34Z">
          <spd>7.2</spd>
          <str>0.0</str>
        </logpt>
        <logpt time="2015-08-30T21:56:38Z">
          <spd>7.2</spd>
          <str>0.0</str>
        </logpt>
        <logpt time="2015-08-30T21:56:42Z">
          <spd>6.8</spd>
          <str>0.0</str>
        </logpt>
        <logpt time="2015-08-30T21:56:46Z">
          <spd>5.8</spd>
          <str>0.0</str>
        </logpt>
        <logpt time="2015-08-30T21:56:50Z">
          <spd>5.4</spd>
          <str>0.0</str>
        </logpt>
        <logpt time="2015-08-30T21:56:54Z">
          <spd>4.5</spd>
          <str>0.0</str>
        </logpt>
        <logpt time="2015-08-30T21:56:58Z">
          <spd>4.5</spd>
          <str>0.0</str>
        </logpt>
        <logpt time="2015-08-30T21:57:02Z">
          <spd>4.5</spd>
          <str>0.0</str>
        </logpt>
        <logpt time="2015-08-30T21:57:06Z">
          <spd>0.0</spd>
          <str>0.0</str>
        </logpt>
        <logpt time="2015-08-30T21:57:10Z">
          <spd>0.0</spd>
          <str>0.0</str>
        </logpt>
        <logpt time="2015-08-30T21:57:14Z">
          <spd>0.0</spd>
          <str>0.0</str>
        </logpt>
        <logpt time="2015-08-30T21:57:18Z">
          <spd>0.0</spd>
          <str>0.0</str>
        </logpt>
        <logpt time="2015-08-30T21:57:22Z">
          <spd>0.0</spd>
          <str>0.0</str>
        </logpt>
        <logpt time="2015-08-30T21:57:26Z">
          <spd>0.0</spd>
          <str>0.0</str>
        </logpt>
        <logpt time="2015-08-30T21:57:30Z">
          <spd>0.0</spd>
          <str>0.0</str>
        </logpt>
        <logpt time="2015-08-30T21:57:34Z">
          <spd>0.0</spd>
          <str>0.0</str>
        </logpt>
        <logpt time="2015-08-30T21:57:38Z">
          <spd>0.0</spd>
          <str>0.0</str>
        </logpt>
        <logpt time="2015-08-30T21:57:42Z">
          <spd>0.0</spd>
          <str>0.0</str>
        </logpt>
        <logpt time="2015-08-30T21:57:46Z">
          <spd>2.3</spd>
          <str>0.0</str>
        </logpt>
        <logpt time="2015-08-30T21:57:50Z">
          <spd>2.7</spd>
          <str>0.0</str>
        </logpt>
        <logpt time="2015-08-30T21:57:54Z">
          <spd>2.7</spd>
          <str>0.0</str>
        </logpt>
        <logpt time="2015-08-30T21:57:58Z">
          <spd>5.4</spd>
          <str>0.0</str>
        </logpt>
        <logpt time="2015-08-30T21:58:02Z">
          <spd>7.2</spd>
          <str>0.0</str>
        </logpt>
        <logpt time="2015-08-30T21:58:06Z">
          <spd>8.1</spd>
          <str>0.0</str>
        </logpt>
        <logpt time="2015-08-30T21:58:10Z">
          <spd>8.1</spd>
          <str>0.0</str>
        </logpt>
        <logpt time="2015-08-30T21:58:14Z">
          <spd>8.6</spd>
          <str>0.0</str>
        </logpt>
        <logpt time="2015-08-30T21:58:18Z">
          <spd>9.0</spd>
          <str>0.0</str>
        </logpt>
        <logpt time="2015-08-30T21:58:22Z">
          <spd>9.0</spd>
          <str>0.0</str>
        </logpt>
        <logpt time="2015-08-30T21:58:26Z">
          <spd>10.3</spd>
          <str>0.0</str>
        </logpt>
        <logpt time="2015-08-30T21:58:30Z">
          <spd>10.3</spd>
          <str>0.0</str>
        </logpt>
        <logpt time="2015-08-30T21:58:34Z">
          <spd>9.9</spd>
          <str>0.0</str>
        </logpt>
        <logpt time="2015-08-30T21:58:38Z">
          <spd>9.4</spd>
          <str>0.0</str>
        </logpt>
        <logpt time="2015-08-30T21:58:42Z">
          <spd>8.6</spd>
          <str>0.0</str>
        </logpt>
        <logpt time="2015-08-30T21:58:46Z">
          <spd>8.6</spd>
          <str>0.0</str>
        </logpt>
        <logpt time="2015-08-30T21:58:50Z">
          <spd>8.1</spd>
          <str>0.0</str>
        </logpt>
        <logpt time="2015-08-30T21:58:54Z">
          <spd>8.1</spd>
          <str>0.0</str>
        </logpt>
        <logpt time="2015-08-30T21:58:58Z">
          <spd>8.1</spd>
          <str>0.0</str>
        </logpt>
        <logpt time="2015-08-30T21:59:02Z">
          <spd>8.6</spd>
          <str>0.0</str>
        </logpt>
        <logpt time="2015-08-30T21:59:06Z">
          <spd>9.0</spd>
          <str>0.0</str>
        </logpt>
        <logpt time="2015-08-30T21:59:10Z">
          <spd>9.0</spd>
          <str>0.0</str>
        </logpt>
        <logpt time="2015-08-30T21:59:14Z">
          <spd>9.4</spd>
          <str>0.0</str>
        </logpt>
        <logpt time="2015-08-30T21:59:18Z">
          <spd>9.9</spd>
          <str>0.0</str>
        </logpt>
        <logpt time="2015-08-30T21:59:22Z">
          <spd>9.9</spd>
          <str>0.0</str>
        </logpt>
        <logpt time="2015-08-30T21:59:26Z">
          <spd>9.9</spd>
          <str>0.0</str>
        </logpt>
        <logpt time="2015-08-30T21:59:30Z">
          <spd>9.9</spd>
          <str>0.0</str>
        </logpt>
        <logpt time="2015-08-30T21:59:34Z">
          <spd>9.9</spd>
          <str>0.0</str>
        </logpt>
        <logpt time="2015-08-30T21:59:38Z">
          <spd>9.9</spd>
          <str>0.0</str>
        </logpt>
        <logpt time="2015-08-30T21:59:42Z">
          <spd>9.9</spd>
          <str>0.0</str>
        </logpt>
        <logpt time="2015-08-30T21:59:46Z">
          <spd>9.9</spd>
          <str>0.0</str>
        </logpt>
        <logpt time="2015-08-30T21:59:50Z">
          <spd>9.4</spd>
          <str>0.0</str>
        </logpt>
        <logpt time="2015-08-30T21:59:54Z">
          <spd>9.4</spd>
          <str>0.0</str>
        </logpt>
        <logpt time="2015-08-30T21:59:58Z">
          <spd>9.4</spd>
          <str>0.0</str>
        </logpt>
        <logpt time="2015-08-30T22:00:02Z">
          <spd>9.4</spd>
          <str>0.0</str>
        </logpt>
        <logpt time="2015-08-30T22:00:06Z">
          <spd>9.4</spd>
          <str>0.0</str>
        </logpt>
        <logpt time="2015-08-30T22:00:10Z">
          <spd>9.4</spd>
          <str>0.0</str>
        </logpt>
        <logpt time="2015-08-30T22:00:14Z">
          <spd>9.4</spd>
          <str>0.0</str>
        </logpt>
        <logpt time="2015-08-30T22:00:18Z">
          <spd>9.4</spd>
          <str>0.0</str>
        </logpt>
        <logpt time="2015-08-30T22:00:22Z">
          <spd>9.4</spd>
          <str>0.0</str>
        </logpt>
        <logpt time="2015-08-30T22:00:26Z">
          <spd>9.0</spd>
          <str>0.0</str>
        </logpt>
        <logpt time="2015-08-30T22:00:30Z">
          <spd>9.9</spd>
          <str>0.0</str>
        </logpt>
        <logpt time="2015-08-30T22:00:34Z">
          <spd>10.3</spd>
          <str>0.0</str>
        </logpt>
        <logpt time="2015-08-30T22:00:38Z">
          <spd>10.3</spd>
          <str>0.0</str>
        </logpt>
        <logpt time="2015-08-30T22:00:42Z">
          <spd>10.8</spd>
          <str>0.0</str>
        </logpt>
        <logpt time="2015-08-30T22:00:46Z">
          <spd>10.8</spd>
          <str>0.0</str>
        </logpt>
        <logpt time="2015-08-30T22:00:50Z">
          <spd>11.3</spd>
          <str>0.0</str>
        </logpt>
        <logpt time="2015-08-30T22:00:54Z">
          <spd>10.8</spd>
          <str>0.0</str>
        </logpt>
        <logpt time="2015-08-30T22:00:58Z">
          <spd>10.8</spd>
          <str>0.0</str>
        </logpt>
        <logpt time="2015-08-30T22:01:02Z">
          <spd>10.8</spd>
          <str>0.0</str>
        </logpt>
        <logpt time="2015-08-30T22:01:06Z">
          <spd>10.3</spd>
          <str>0.0</str>
        </logpt>
        <logpt time="2015-08-30T22:01:10Z">
          <spd>10.8</spd>
          <str>0.0</str>
        </logpt>
        <logpt time="2015-08-30T22:01:14Z">
          <spd>10.8</spd>
          <str>0.0</str>
        </logpt>
        <logpt time="2015-08-30T22:01:18Z">
          <spd>10.3</spd>
          <str>0.0</str>
        </logpt>
        <logpt time="2015-08-30T22:01:22Z">
          <spd>9.9</spd>
          <str>0.0</str>
        </logpt>
        <logpt time="2015-08-30T22:01:26Z">
          <spd>9.9</spd>
          <str>0.0</str>
        </logpt>
        <logpt time="2015-08-30T22:01:30Z">
          <spd>9.9</spd>
          <str>0.0</str>
        </logpt>
        <logpt time="2015-08-30T22:01:34Z">
          <spd>9.9</spd>
          <str>0.0</str>
        </logpt>
        <logpt time="2015-08-30T22:01:38Z">
          <spd>9.9</spd>
          <str>0.0</str>
        </logpt>
        <logpt time="2015-08-30T22:01:42Z">
          <spd>9.9</spd>
          <str>0.0</str>
        </logpt>
        <logpt time="2015-08-30T22:01:46Z">
          <spd>9.4</spd>
          <str>0.0</str>
        </logpt>
        <logpt time="2015-08-30T22:01:50Z">
          <spd>9.0</spd>
          <str>0.0</str>
        </logpt>
        <logpt time="2015-08-30T22:01:54Z">
          <spd>9.4</spd>
          <str>0.0</str>
        </logpt>
        <logpt time="2015-08-30T22:01:58Z">
          <spd>9.0</spd>
          <str>0.0</str>
        </logpt>
        <logpt time="2015-08-30T22:02:02Z">
          <spd>9.0</spd>
          <str>0.0</str>
        </logpt>
        <logpt time="2015-08-30T22:02:06Z">
          <spd>9.0</spd>
          <str>0.0</str>
        </logpt>
        <logpt time="2015-08-30T22:02:10Z">
          <spd>9.4</spd>
          <str>0.0</str>
        </logpt>
        <logpt time="2015-08-30T22:02:14Z">
          <spd>9.0</spd>
          <str>0.0</str>
        </logpt>
        <logpt time="2015-08-30T22:02:18Z">
          <spd>9.0</spd>
          <str>0.0</str>
        </logpt>
        <logpt time="2015-08-30T22:02:22Z">
          <spd>9.0</spd>
          <str>0.0</str>
        </logpt>
        <logpt time="2015-08-30T22:02:26Z">
          <spd>9.4</spd>
          <str>0.0</str>
        </logpt>
        <logpt time="2015-08-30T22:02:30Z">
          <spd>9.4</spd>
          <str>0.0</str>
        </logpt>
        <logpt time="2015-08-30T22:02:34Z">
          <spd>9.0</spd>
          <str>0.0</str>
        </logpt>
        <logpt time="2015-08-30T22:02:38Z">
          <spd>9.0</spd>
          <str>0.0</str>
        </logpt>
        <logpt time="2015-08-30T22:02:42Z">
          <spd>9.0</spd>
          <str>0.0</str>
        </logpt>
        <logpt time="2015-08-30T22:02:46Z">
          <spd>9.0</spd>
          <str>0.0</str>
        </logpt>
        <logpt time="2015-08-30T22:02:50Z">
          <spd>8.6</spd>
          <str>0.0</str>
        </logpt>
        <logpt time="2015-08-30T22:02:54Z">
          <spd>8.6</spd>
          <str>0.0</str>
        </logpt>
        <logpt time="2015-08-30T22:02:58Z">
          <spd>8.6</spd>
          <str>0.0</str>
        </logpt>
        <logpt time="2015-08-30T22:03:02Z">
          <spd>8.6</spd>
          <str>0.0</str>
        </logpt>
        <logpt time="2015-08-30T22:03:06Z">
          <spd>7.7</spd>
          <str>0.0</str>
        </logpt>
        <logpt time="2015-08-30T22:03:10Z">
          <spd>7.7</spd>
          <str>0.0</str>
        </logpt>
        <logpt time="2015-08-30T22:03:14Z">
          <spd>8.1</spd>
          <str>0.0</str>
        </logpt>
        <logpt time="2015-08-30T22:03:18Z">
          <spd>8.1</spd>
          <str>0.0</str>
        </logpt>
        <logpt time="2015-08-30T22:03:22Z">
          <spd>8.1</spd>
          <str>0.0</str>
        </logpt>
        <logpt time="2015-08-30T22:03:26Z">
          <spd>8.6</spd>
          <str>0.0</str>
        </logpt>
        <logpt time="2015-08-30T22:03:30Z">
          <spd>8.1</spd>
          <str>0.0</str>
        </logpt>
        <logpt time="2015-08-30T22:03:34Z">
          <spd>8.6</spd>
          <str>0.0</str>
        </logpt>
        <logpt time="2015-08-30T22:03:38Z">
          <spd>9.0</spd>
          <str>0.0</str>
        </logpt>
        <logpt time="2015-08-30T22:03:42Z">
          <spd>9.4</spd>
          <str>0.0</str>
        </logpt>
        <logpt time="2015-08-30T22:03:46Z">
          <spd>9.9</spd>
          <str>0.0</str>
        </logpt>
        <logpt time="2015-08-30T22:03:50Z">
          <spd>9.4</spd>
          <str>0.0</str>
        </logpt>
        <logpt time="2015-08-30T22:03:54Z">
          <spd>9.0</spd>
          <str>0.0</str>
        </logpt>
        <logpt time="2015-08-30T22:03:58Z">
          <spd>9.0</spd>
          <str>0.0</str>
        </logpt>
        <logpt time="2015-08-30T22:04:02Z">
          <spd>9.4</spd>
          <str>0.0</str>
        </logpt>
        <logpt time="2015-08-30T22:04:06Z">
          <spd>9.9</spd>
          <str>0.0</str>
        </logpt>
        <logpt time="2015-08-30T22:04:10Z">
          <spd>10.3</spd>
          <str>0.0</str>
        </logpt>
        <logpt time="2015-08-30T22:04:14Z">
          <spd>10.3</spd>
          <str>0.0</str>
        </logpt>
        <logpt time="2015-08-30T22:04:18Z">
          <spd>9.9</spd>
          <str>0.0</str>
        </logpt>
        <logpt time="2015-08-30T22:04:22Z">
          <spd>9.9</spd>
          <str>0.0</str>
        </logpt>
        <logpt time="2015-08-30T22:04:26Z">
          <spd>9.9</spd>
          <str>0.0</str>
        </logpt>
        <logpt time="2015-08-30T22:04:30Z">
          <spd>9.9</spd>
          <str>0.0</str>
        </logpt>
        <logpt time="2015-08-30T22:04:34Z">
          <spd>9.9</spd>
          <str>0.0</str>
        </logpt>
        <logpt time="2015-08-30T22:04:38Z">
          <spd>9.4</spd>
          <str>0.0</str>
        </logpt>
        <logpt time="2015-08-30T22:04:42Z">
          <spd>9.4</spd>
          <str>0.0</str>
        </logpt>
        <logpt time="2015-08-30T22:04:46Z">
          <spd>9.9</spd>
          <str>0.0</str>
        </logpt>
        <logpt time="2015-08-30T22:04:50Z">
          <spd>9.9</spd>
          <str>0.0</str>
        </logpt>
        <logpt time="2015-08-30T22:04:54Z">
          <spd>9.9</spd>
          <str>0.0</str>
        </logpt>
        <logpt time="2015-08-30T22:04:58Z">
          <spd>10.3</spd>
          <str>0.0</str>
        </logpt>
        <logpt time="2015-08-30T22:05:02Z">
          <spd>10.3</spd>
          <str>0.0</str>
        </logpt>
        <logpt time="2015-08-30T22:05:06Z">
          <spd>10.3</spd>
          <str>0.0</str>
        </logpt>
        <logpt time="2015-08-30T22:05:10Z">
          <spd>9.9</spd>
          <str>0.0</str>
        </logpt>
        <logpt time="2015-08-30T22:05:14Z">
          <spd>10.3</spd>
          <str>0.0</str>
        </logpt>
        <logpt time="2015-08-30T22:05:18Z">
          <spd>10.3</spd>
          <str>0.0</str>
        </logpt>
        <logpt time="2015-08-30T22:05:22Z">
          <spd>9.9</spd>
          <str>0.0</str>
        </logpt>
        <logpt time="2015-08-30T22:05:26Z">
          <spd>9.9</spd>
          <str>0.0</str>
        </logpt>
        <logpt time="2015-08-30T22:05:30Z">
          <spd>10.3</spd>
          <str>0.0</str>
        </logpt>
        <logpt time="2015-08-30T22:05:34Z">
          <spd>10.3</spd>
          <str>0.0</str>
        </logpt>
        <logpt time="2015-08-30T22:05:38Z">
          <spd>10.3</spd>
          <str>0.0</str>
        </logpt>
        <logpt time="2015-08-30T22:05:42Z">
          <spd>9.9</spd>
          <str>0.0</str>
        </logpt>
        <logpt time="2015-08-30T22:05:46Z">
          <spd>9.9</spd>
          <str>0.0</str>
        </logpt>
        <logpt time="2015-08-30T22:05:50Z">
          <spd>9.9</spd>
          <str>0.0</str>
        </logpt>
        <logpt time="2015-08-30T22:05:54Z">
          <spd>9.9</spd>
          <str>0.0</str>
        </logpt>
        <logpt time="2015-08-30T22:05:58Z">
          <spd>10.3</spd>
          <str>0.0</str>
        </logpt>
        <logpt time="2015-08-30T22:06:02Z">
          <spd>9.9</spd>
          <str>0.0</str>
        </logpt>
        <logpt time="2015-08-30T22:06:06Z">
          <spd>9.4</spd>
          <str>0.0</str>
        </logpt>
        <logpt time="2015-08-30T22:06:10Z">
          <spd>9.4</spd>
          <str>0.0</str>
        </logpt>
        <logpt time="2015-08-30T22:06:14Z">
          <spd>9.0</spd>
          <str>0.0</str>
        </logpt>
        <logpt time="2015-08-30T22:06:18Z">
          <spd>9.0</spd>
          <str>0.0</str>
        </logpt>
        <logpt time="2015-08-30T22:06:22Z">
          <spd>9.0</spd>
          <str>0.0</str>
        </logpt>
        <logpt time="2015-08-30T22:06:26Z">
          <spd>9.0</spd>
          <str>0.0</str>
        </logpt>
        <logpt time="2015-08-30T22:06:30Z">
          <spd>9.4</spd>
          <str>0.0</str>
        </logpt>
        <logpt time="2015-08-30T22:06:34Z">
          <spd>9.0</spd>
          <str>0.0</str>
        </logpt>
        <logpt time="2015-08-30T22:06:38Z">
          <spd>9.4</spd>
          <str>0.0</str>
        </logpt>
        <logpt time="2015-08-30T22:06:42Z">
          <spd>9.4</spd>
          <str>0.0</str>
        </logpt>
        <logpt time="2015-08-30T22:06:46Z">
          <spd>9.4</spd>
          <str>0.0</str>
        </logpt>
        <logpt time="2015-08-30T22:06:50Z">
          <spd>9.4</spd>
          <str>0.0</str>
        </logpt>
        <logpt time="2015-08-30T22:06:54Z">
          <spd>9.4</spd>
          <str>0.0</str>
        </logpt>
        <logpt time="2015-08-30T22:06:58Z">
          <spd>9.4</spd>
          <str>0.0</str>
        </logpt>
        <logpt time="2015-08-30T22:07:02Z">
          <spd>9.4</spd>
          <str>0.0</str>
        </logpt>
        <logpt time="2015-08-30T22:07:06Z">
          <spd>9.9</spd>
          <str>0.0</str>
        </logpt>
        <logpt time="2015-08-30T22:07:10Z">
          <spd>9.4</spd>
          <str>0.0</str>
        </logpt>
        <logpt time="2015-08-30T22:07:14Z">
          <spd>9.0</spd>
          <str>0.0</str>
        </logpt>
        <logpt time="2015-08-30T22:07:18Z">
          <spd>9.0</spd>
          <str>0.0</str>
        </logpt>
        <logpt time="2015-08-30T22:07:22Z">
          <spd>9.4</spd>
          <str>0.0</str>
        </logpt>
        <logpt time="2015-08-30T22:07:26Z">
          <spd>9.4</spd>
          <str>0.0</str>
        </logpt>
        <logpt time="2015-08-30T22:07:30Z">
          <spd>9.0</spd>
          <str>0.0</str>
        </logpt>
        <logpt time="2015-08-30T22:07:34Z">
          <spd>9.0</spd>
          <str>0.0</str>
        </logpt>
        <logpt time="2015-08-30T22:07:38Z">
          <spd>9.4</spd>
          <str>0.0</str>
        </logpt>
        <logpt time="2015-08-30T22:07:42Z">
          <spd>9.4</spd>
          <str>0.0</str>
        </logpt>
        <logpt time="2015-08-30T22:07:46Z">
          <spd>9.4</spd>
          <str>0.0</str>
        </logpt>
        <logpt time="2015-08-30T22:07:50Z">
          <spd>9.4</spd>
          <str>0.0</str>
        </logpt>
        <logpt time="2015-08-30T22:07:54Z">
          <spd>9.4</spd>
          <str>0.0</str>
        </logpt>
        <logpt time="2015-08-30T22:07:58Z">
          <spd>9.9</spd>
          <str>0.0</str>
        </logpt>
        <logpt time="2015-08-30T22:08:02Z">
          <spd>9.4</spd>
          <str>0.0</str>
        </logpt>
        <logpt time="2015-08-30T22:08:06Z">
          <spd>9.4</spd>
          <str>0.0</str>
        </logpt>
        <logpt time="2015-08-30T22:08:10Z">
          <spd>9.4</spd>
          <str>0.0</str>
        </logpt>
        <logpt time="2015-08-30T22:08:14Z">
          <spd>9.4</spd>
          <str>0.0</str>
        </logpt>
        <logpt time="2015-08-30T22:08:18Z">
          <spd>9.9</spd>
          <str>0.0</str>
        </logpt>
        <logpt time="2015-08-30T22:08:22Z">
          <spd>9.9</spd>
          <str>0.0</str>
        </logpt>
        <logpt time="2015-08-30T22:08:26Z">
          <spd>9.9</spd>
          <str>0.0</str>
        </logpt>
        <logpt time="2015-08-30T22:08:30Z">
          <spd>9.4</spd>
          <str>0.0</str>
        </logpt>
        <logpt time="2015-08-30T22:08:34Z">
          <spd>9.0</spd>
          <str>0.0</str>
        </logpt>
        <logpt time="2015-08-30T22:08:38Z">
          <spd>9.4</spd>
          <str>0.0</str>
        </logpt>
        <logpt time="2015-08-30T22:08:42Z">
          <spd>9.4</spd>
          <str>0.0</str>
        </logpt>
        <logpt time="2015-08-30T22:08:46Z">
          <spd>9.9</spd>
          <str>0.0</str>
        </logpt>
        <logpt time="2015-08-30T22:08:50Z">
          <spd>9.4</spd>
          <str>0.0</str>
        </logpt>
        <logpt time="2015-08-30T22:08:54Z">
          <spd>9.0</spd>
          <str>0.0</str>
        </logpt>
        <logpt time="2015-08-30T22:08:58Z">
          <spd>9.0</spd>
          <str>0.0</str>
        </logpt>
        <logpt time="2015-08-30T22:09:02Z">
          <spd>9.0</spd>
          <str>0.0</str>
        </logpt>
        <logpt time="2015-08-30T22:09:06Z">
          <spd>9.0</spd>
          <str>0.0</str>
        </logpt>
        <logpt time="2015-08-30T22:09:10Z">
          <spd>9.9</spd>
          <str>0.0</str>
        </logpt>
        <logpt time="2015-08-30T22:09:14Z">
          <spd>10.3</spd>
          <str>0.0</str>
        </logpt>
        <logpt time="2015-08-30T22:09:18Z">
          <spd>9.9</spd>
          <str>0.0</str>
        </logpt>
        <logpt time="2015-08-30T22:09:22Z">
          <spd>9.9</spd>
          <str>0.0</str>
        </logpt>
        <logpt time="2015-08-30T22:09:26Z">
          <spd>9.9</spd>
          <str>0.0</str>
        </logpt>
        <logpt time="2015-08-30T22:09:30Z">
          <spd>9.4</spd>
          <str>0.0</str>
        </logpt>
        <logpt time="2015-08-30T22:09:34Z">
          <spd>9.4</spd>
          <str>0.0</str>
        </logpt>
        <logpt time="2015-08-30T22:09:38Z">
          <spd>9.0</spd>
          <str>0.0</str>
        </logpt>
        <logpt time="2015-08-30T22:09:42Z">
          <spd>9.0</spd>
          <str>0.0</str>
        </logpt>
        <logpt time="2015-08-30T22:09:46Z">
          <spd>9.0</spd>
          <str>0.0</str>
        </logpt>
        <logpt time="2015-08-30T22:09:50Z">
          <spd>9.0</spd>
          <str>0.0</str>
        </logpt>
        <logpt time="2015-08-30T22:09:54Z">
          <spd>9.0</spd>
          <str>0.0</str>
        </logpt>
        <logpt time="2015-08-30T22:09:58Z">
          <spd>9.0</spd>
          <str>0.0</str>
        </logpt>
        <logpt time="2015-08-30T22:10:02Z">
          <spd>9.0</spd>
          <str>0.0</str>
        </logpt>
        <logpt time="2015-08-30T22:10:06Z">
          <spd>9.0</spd>
          <str>0.0</str>
        </logpt>
        <logpt time="2015-08-30T22:10:10Z">
          <spd>9.4</spd>
          <str>0.0</str>
        </logpt>
        <logpt time="2015-08-30T22:10:14Z">
          <spd>9.4</spd>
          <str>0.0</str>
        </logpt>
        <logpt time="2015-08-30T22:10:18Z">
          <spd>9.4</spd>
          <str>0.0</str>
        </logpt>
        <logpt time="2015-08-30T22:10:22Z">
          <spd>9.0</spd>
          <str>0.0</str>
        </logpt>
        <logpt time="2015-08-30T22:10:26Z">
          <spd>9.0</spd>
          <str>0.0</str>
        </logpt>
        <logpt time="2015-08-30T22:10:30Z">
          <spd>9.0</spd>
          <str>0.0</str>
        </logpt>
        <logpt time="2015-08-30T22:10:34Z">
          <spd>9.0</spd>
          <str>0.0</str>
        </logpt>
        <logpt time="2015-08-30T22:10:38Z">
          <spd>9.0</spd>
          <str>0.0</str>
        </logpt>
        <logpt time="2015-08-30T22:10:42Z">
          <spd>9.4</spd>
          <str>0.0</str>
        </logpt>
        <logpt time="2015-08-30T22:10:46Z">
          <spd>9.9</spd>
          <str>0.0</str>
        </logpt>
        <logpt time="2015-08-30T22:10:50Z">
          <spd>9.9</spd>
          <str>0.0</str>
        </logpt>
        <logpt time="2015-08-30T22:10:54Z">
          <spd>9.9</spd>
          <str>0.0</str>
        </logpt>
        <logpt time="2015-08-30T22:10:58Z">
          <spd>9.9</spd>
          <str>0.0</str>
        </logpt>
        <logpt time="2015-08-30T22:11:02Z">
          <spd>9.4</spd>
          <str>0.0</str>
        </logpt>
        <logpt time="2015-08-30T22:11:06Z">
          <spd>9.0</spd>
          <str>0.0</str>
        </logpt>
        <logpt time="2015-08-30T22:11:10Z">
          <spd>9.0</spd>
          <str>0.0</str>
        </logpt>
        <logpt time="2015-08-30T22:11:14Z">
          <spd>9.4</spd>
          <str>0.0</str>
        </logpt>
        <logpt time="2015-08-30T22:11:18Z">
          <spd>9.4</spd>
          <str>0.0</str>
        </logpt>
        <logpt time="2015-08-30T22:11:22Z">
          <spd>9.0</spd>
          <str>0.0</str>
        </logpt>
        <logpt time="2015-08-30T22:11:26Z">
          <spd>9.0</spd>
          <str>0.0</str>
        </logpt>
        <logpt time="2015-08-30T22:11:30Z">
          <spd>8.6</spd>
          <str>0.0</str>
        </logpt>
        <logpt time="2015-08-30T22:11:34Z">
          <spd>8.1</spd>
          <str>0.0</str>
        </logpt>
        <logpt time="2015-08-30T22:11:38Z">
          <spd>8.1</spd>
          <str>0.0</str>
        </logpt>
        <logpt time="2015-08-30T22:11:42Z">
          <spd>8.6</spd>
          <str>0.0</str>
        </logpt>
        <logpt time="2015-08-30T22:11:46Z">
          <spd>8.6</spd>
          <str>0.0</str>
        </logpt>
        <logpt time="2015-08-30T22:11:50Z">
          <spd>8.6</spd>
          <str>0.0</str>
        </logpt>
        <logpt time="2015-08-30T22:11:54Z">
          <spd>8.6</spd>
          <str>0.0</str>
        </logpt>
        <logpt time="2015-08-30T22:11:58Z">
          <spd>8.6</spd>
          <str>0.0</str>
        </logpt>
        <logpt time="2015-08-30T22:12:02Z">
          <spd>8.6</spd>
          <str>0.0</str>
        </logpt>
        <logpt time="2015-08-30T22:12:06Z">
          <spd>9.0</spd>
          <str>0.0</str>
        </logpt>
        <logpt time="2015-08-30T22:12:10Z">
          <spd>9.0</spd>
          <str>0.0</str>
        </logpt>
        <logpt time="2015-08-30T22:12:14Z">
          <spd>9.0</spd>
          <str>0.0</str>
        </logpt>
        <logpt time="2015-08-30T22:12:18Z">
          <spd>9.0</spd>
          <str>0.0</str>
        </logpt>
        <logpt time="2015-08-30T22:12:22Z">
          <spd>9.0</spd>
          <str>0.0</str>
        </logpt>
        <logpt time="2015-08-30T22:12:26Z">
          <spd>9.0</spd>
          <str>0.0</str>
        </logpt>
        <logpt time="2015-08-30T22:12:30Z">
          <spd>9.0</spd>
          <str>0.0</str>
        </logpt>
        <logpt time="2015-08-30T22:12:34Z">
          <spd>8.6</spd>
          <str>0.0</str>
        </logpt>
        <logpt time="2015-08-30T22:12:38Z">
          <spd>7.7</spd>
          <str>0.0</str>
        </logpt>
        <logpt time="2015-08-30T22:12:42Z">
          <spd>7.2</spd>
          <str>0.0</str>
        </logpt>
        <breaktype>2</breaktype>
      </logseg>
    </ssrlog>
    <laps>
      <lap start="2015-08-30T21:56:04Z" type="1" end="2015-08-30T21:57:51Z" order="1" isautolap="0">
        <distance>5</distance>
        <calorie>0</calorie>
        <speed max="3.15" avg="3.15"/>
        <cad max="0" avg="0"/>
        <rtime>3</rtime>
        <acttype subtype="0">1</acttype>
      </lap>
      <lap start="2015-08-30T21:57:51Z" type="1" end="2015-08-30T22:12:35Z" order="2" isautolap="0">
        <distance>0</distance>
        <calorie>0</calorie>
        <speed max="0.0" avg="0.0"/>
        <cad max="0" avg="0"/>
        <rtime>0</rtime>
        <acttype subtype="0">1</acttype>
      </lap>
      <lap start="2015-08-30T22:12:35Z" type="1" end="2015-08-30T22:12:52Z" order="3" isautolap="0">
        <distance>0</distance>
        <calorie>0</calorie>
        <speed max="0.0" avg="0.0"/>
        <cad max="0" avg="0"/>
        <rtime>0</rtime>
        <acttype subtype="0">1</acttype>
      </lap>
      <summary start="2015-08-30T21:56:04Z" type="0" end="2015-08-30T22:12:52Z" isautolap="0">
        <distance>5</distance>
        <calorie>0</calorie>
        <speed max="3.15" avg="0.0"/>
        <cad max="0" avg="0"/>
        <rtime>3</rtime>
        <acttype subtype="0">1</acttype>
      </summary>
    </laps>
  </extensions>
</gpx>
