<?xml version='1.0' encoding='utf-8'?>
<gpx xmlns:xsi="http://www.w3.org/2001/XMLSchema-instance" xmlns="http://www.brytonsport.com/BDX/2/2" version="2.2.0.3" creator="bryton">
  <metadata>
    <name>2015/03/25 05:54</name>
    <time>2015-03-24T21:54:12Z</time>
    <bounds minlat="35.953333" maxlon="120.205517" minlon="120.2045" maxlat="35.954839"/>
    <extensions>
      <user>
        <bike>0<wheel>204.00</wheel></bike>
        <weight>68</weight>
        <gender>1</gender>
        <height>172</height>
        <age>28</age>
        <mhr>190</mhr>
        <lthr>172</lthr>
        <map>0</map>
        <ftp>0</ftp>
        <zonedef type="1">
          <zone high="74" id="1" low="0"/>
          <zone high="80" id="2" low="74"/>
          <zone high="85" id="3" low="80"/>
          <zone high="91" id="4" low="85"/>
          <zone high="93" id="5" low="91"/>
          <zone high="95" id="6" low="93"/>
          <zone high="0" id="7" low="95"/>
        </zonedef>
        <zonedef type="2">
          <zone high="80" id="1" low="0"/>
          <zone high="87" id="2" low="80"/>
          <zone high="91" id="3" low="87"/>
          <zone high="100" id="4" low="91"/>
          <zone high="101" id="5" low="100"/>
          <zone high="105" id="6" low="101"/>
          <zone high="0" id="7" low="105"/>
        </zonedef>
        <zonedef type="3">
          <zone high="40" id="1" low="17"/>
          <zone high="55" id="2" low="40"/>
          <zone high="65" id="3" low="55"/>
          <zone high="75" id="4" low="65"/>
          <zone high="85" id="5" low="75"/>
          <zone high="110" id="6" low="85"/>
          <zone high="65535" id="7" low="110"/>
        </zonedef>
        <zonedef type="4">
          <zone high="55" id="1" low="23"/>
          <zone high="75" id="2" low="55"/>
          <zone high="90" id="3" low="75"/>
          <zone high="105" id="4" low="90"/>
          <zone high="120" id="5" low="105"/>
          <zone high="150" id="6" low="120"/>
          <zone high="65535" id="7" low="150"/>
        </zonedef>
      </user>
      <sys version="1.0.0.R041 BB2.8.0.14">Cardio60<apps><app version="148" name="bc"/></apps></sys>
      <sharetype>2</sharetype>
      <acttype subtype="0">1</acttype>
      <trvTime>32</trvTime>
      <trvDist>4354</trvDist>
      <stime>1427234051</stime>
      <etime>1427235973</etime>
    </extensions>
  </metadata>
  <rte>
    <number>2</number>
    <rtept lat="35.954779" lon="120.205506">
      <type>1</type>
    </rtept>
    <rtept lat="35.953791" lon="120.205484">
      <type>2</type>
    </rtept>
  </rte>
  <trk>
    <trkseg>
      <trkpt lat="35.954779" lon="120.205506">
        <ele>6.0</ele>
        <time>2015-03-24T21:54:20Z</time>
      </trkpt>
      <trkpt lat="35.954739" lon="120.205223">
        <ele>5.9</ele>
        <time>2015-03-24T21:54:24Z</time>
      </trkpt>
      <trkpt lat="35.954771" lon="120.20511">
        <ele>5.8</ele>
        <time>2015-03-24T21:54:28Z</time>
      </trkpt>
      <trkpt lat="35.954792" lon="120.204992">
        <ele>5.8</ele>
        <time>2015-03-24T21:54:32Z</time>
      </trkpt>
      <trkpt lat="35.954789" lon="120.204882">
        <ele>5.7</ele>
        <time>2015-03-24T21:54:36Z</time>
      </trkpt>
      <trkpt lat="35.954772" lon="120.204776">
        <ele>5.7</ele>
        <time>2015-03-24T21:54:40Z</time>
      </trkpt>
      <trkpt lat="35.954727" lon="120.204676">
        <ele>5.6</ele>
        <time>2015-03-24T21:54:44Z</time>
      </trkpt>
      <trkpt lat="35.95466" lon="120.204603">
        <ele>5.6</ele>
        <time>2015-03-24T21:54:48Z</time>
      </trkpt>
      <trkpt lat="35.954587" lon="120.204547">
        <ele>5.5</ele>
        <time>2015-03-24T21:54:52Z</time>
      </trkpt>
      <trkpt lat="35.954501" lon="120.204519">
        <ele>5.4</ele>
        <time>2015-03-24T21:54:56Z</time>
      </trkpt>
      <trkpt lat="35.954411" lon="120.204521">
        <ele>5.3</ele>
        <time>2015-03-24T21:55:00Z</time>
      </trkpt>
      <trkpt lat="35.954321" lon="120.204546">
        <ele>5.1</ele>
        <time>2015-03-24T21:55:04Z</time>
      </trkpt>
      <trkpt lat="35.954229" lon="120.204569">
        <ele>4.9</ele>
        <time>2015-03-24T21:55:08Z</time>
      </trkpt>
      <trkpt lat="35.954129" lon="120.204596">
        <ele>4.7</ele>
        <time>2015-03-24T21:55:12Z</time>
      </trkpt>
      <trkpt lat="35.954035" lon="120.204617">
        <ele>4.5</ele>
        <time>2015-03-24T21:55:16Z</time>
      </trkpt>
      <trkpt lat="35.95394" lon="120.20464">
        <ele>4.3</ele>
        <time>2015-03-24T21:55:20Z</time>
      </trkpt>
      <trkpt lat="35.953845" lon="120.204664">
        <ele>4.1</ele>
        <time>2015-03-24T21:55:24Z</time>
      </trkpt>
      <trkpt lat="35.953745" lon="120.204696">
        <ele>3.9</ele>
        <time>2015-03-24T21:55:28Z</time>
      </trkpt>
      <trkpt lat="35.953648" lon="120.204726">
        <ele>3.8</ele>
        <time>2015-03-24T21:55:32Z</time>
      </trkpt>
      <trkpt lat="35.953556" lon="120.20477">
        <ele>3.7</ele>
        <time>2015-03-24T21:55:36Z</time>
      </trkpt>
      <trkpt lat="35.953467" lon="120.204854">
        <ele>3.6</ele>
        <time>2015-03-24T21:55:44Z</time>
      </trkpt>
      <trkpt lat="35.953387" lon="120.204983">
        <ele>3.6</ele>
        <time>2015-03-24T21:55:48Z</time>
      </trkpt>
      <trkpt lat="35.953359" lon="120.205082">
        <ele>3.5</ele>
        <time>2015-03-24T21:55:52Z</time>
      </trkpt>
      <trkpt lat="35.953356" lon="120.205182">
        <ele>3.5</ele>
        <time>2015-03-24T21:55:56Z</time>
      </trkpt>
      <trkpt lat="35.953378" lon="120.205284">
        <ele>3.5</ele>
        <time>2015-03-24T21:56:00Z</time>
      </trkpt>
      <trkpt lat="35.953428" lon="120.205371">
        <ele>3.5</ele>
        <time>2015-03-24T21:56:04Z</time>
      </trkpt>
      <trkpt lat="35.953493" lon="120.205441">
        <ele>3.5</ele>
        <time>2015-03-24T21:56:08Z</time>
      </trkpt>
      <trkpt lat="35.953566" lon="120.205493">
        <ele>3.6</ele>
        <time>2015-03-24T21:56:12Z</time>
      </trkpt>
      <trkpt lat="35.953655" lon="120.205514">
        <ele>3.6</ele>
        <time>2015-03-24T21:56:16Z</time>
      </trkpt>
      <trkpt lat="35.953741" lon="120.205493">
        <ele>3.7</ele>
        <time>2015-03-24T21:56:20Z</time>
      </trkpt>
      <trkpt lat="35.953836" lon="120.205457">
        <ele>3.8</ele>
        <time>2015-03-24T21:56:24Z</time>
      </trkpt>
      <trkpt lat="35.953926" lon="120.205425">
        <ele>4.0</ele>
        <time>2015-03-24T21:56:28Z</time>
      </trkpt>
      <trkpt lat="35.954021" lon="120.20539">
        <ele>4.2</ele>
        <time>2015-03-24T21:56:32Z</time>
      </trkpt>
      <trkpt lat="35.954114" lon="120.20536">
        <ele>4.4</ele>
        <time>2015-03-24T21:56:36Z</time>
      </trkpt>
      <trkpt lat="35.95421" lon="120.205349">
        <ele>4.6</ele>
        <time>2015-03-24T21:56:40Z</time>
      </trkpt>
      <trkpt lat="35.954319" lon="120.205334">
        <ele>4.8</ele>
        <time>2015-03-24T21:56:44Z</time>
      </trkpt>
      <trkpt lat="35.954416" lon="120.205311">
        <ele>4.9</ele>
        <time>2015-03-24T21:56:48Z</time>
      </trkpt>
      <trkpt lat="35.954505" lon="120.205282">
        <ele>5.0</ele>
        <time>2015-03-24T21:56:52Z</time>
      </trkpt>
      <trkpt lat="35.954596" lon="120.205255">
        <ele>5.1</ele>
        <time>2015-03-24T21:56:56Z</time>
      </trkpt>
      <trkpt lat="35.954674" lon="120.205221">
        <ele>5.2</ele>
        <time>2015-03-24T21:57:00Z</time>
      </trkpt>
      <trkpt lat="35.95474" lon="120.205163">
        <ele>5.3</ele>
        <time>2015-03-24T21:57:04Z</time>
      </trkpt>
      <trkpt lat="35.954783" lon="120.205078">
        <ele>5.4</ele>
        <time>2015-03-24T21:57:08Z</time>
      </trkpt>
      <trkpt lat="35.954799" lon="120.204974">
        <ele>5.5</ele>
        <time>2015-03-24T21:57:12Z</time>
      </trkpt>
      <trkpt lat="35.954806" lon="120.204866">
        <ele>5.5</ele>
        <time>2015-03-24T21:57:16Z</time>
      </trkpt>
      <trkpt lat="35.954785" lon="120.204769">
        <ele>5.5</ele>
        <time>2015-03-24T21:57:20Z</time>
      </trkpt>
      <trkpt lat="35.954741" lon="120.204682">
        <ele>5.6</ele>
        <time>2015-03-24T21:57:24Z</time>
      </trkpt>
      <trkpt lat="35.954656" lon="120.204608">
        <ele>5.5</ele>
        <time>2015-03-24T21:57:28Z</time>
      </trkpt>
      <trkpt lat="35.954566" lon="120.20456">
        <ele>5.5</ele>
        <time>2015-03-24T21:57:32Z</time>
      </trkpt>
      <trkpt lat="35.95448" lon="120.204534">
        <ele>5.4</ele>
        <time>2015-03-24T21:57:36Z</time>
      </trkpt>
      <trkpt lat="35.95439" lon="120.204542">
        <ele>5.2</ele>
        <time>2015-03-24T21:57:40Z</time>
      </trkpt>
      <trkpt lat="35.954296" lon="120.20457">
        <ele>5.1</ele>
        <time>2015-03-24T21:57:44Z</time>
      </trkpt>
      <trkpt lat="35.9542" lon="120.2046">
        <ele>4.9</ele>
        <time>2015-03-24T21:57:48Z</time>
      </trkpt>
      <trkpt lat="35.954101" lon="120.204632">
        <ele>4.7</ele>
        <time>2015-03-24T21:57:52Z</time>
      </trkpt>
      <trkpt lat="35.954009" lon="120.204661">
        <ele>4.5</ele>
        <time>2015-03-24T21:57:56Z</time>
      </trkpt>
      <trkpt lat="35.95392" lon="120.204685">
        <ele>4.3</ele>
        <time>2015-03-24T21:58:00Z</time>
      </trkpt>
      <trkpt lat="35.953826" lon="120.204708">
        <ele>4.1</ele>
        <time>2015-03-24T21:58:04Z</time>
      </trkpt>
      <trkpt lat="35.95373" lon="120.204735">
        <ele>3.9</ele>
        <time>2015-03-24T21:58:08Z</time>
      </trkpt>
      <trkpt lat="35.953639" lon="120.204759">
        <ele>3.8</ele>
        <time>2015-03-24T21:58:12Z</time>
      </trkpt>
      <trkpt lat="35.953546" lon="120.204796">
        <ele>3.7</ele>
        <time>2015-03-24T21:58:16Z</time>
      </trkpt>
      <trkpt lat="35.953465" lon="120.204855">
        <ele>3.6</ele>
        <time>2015-03-24T21:58:20Z</time>
      </trkpt>
      <trkpt lat="35.953405" lon="120.204932">
        <ele>3.5</ele>
        <time>2015-03-24T21:58:24Z</time>
      </trkpt>
      <trkpt lat="35.953362" lon="120.205025">
        <ele>3.5</ele>
        <time>2015-03-24T21:58:28Z</time>
      </trkpt>
      <trkpt lat="35.95334" lon="120.205123">
        <ele>3.4</ele>
        <time>2015-03-24T21:58:32Z</time>
      </trkpt>
      <trkpt lat="35.953358" lon="120.205222">
        <ele>3.4</ele>
        <time>2015-03-24T21:58:36Z</time>
      </trkpt>
      <trkpt lat="35.953397" lon="120.205316">
        <ele>3.4</ele>
        <time>2015-03-24T21:58:40Z</time>
      </trkpt>
      <trkpt lat="35.953454" lon="120.205393">
        <ele>3.4</ele>
        <time>2015-03-24T21:58:44Z</time>
      </trkpt>
      <trkpt lat="35.953526" lon="120.205452">
        <ele>3.5</ele>
        <time>2015-03-24T21:58:48Z</time>
      </trkpt>
      <trkpt lat="35.953606" lon="120.205488">
        <ele>3.5</ele>
        <time>2015-03-24T21:58:52Z</time>
      </trkpt>
      <trkpt lat="35.953695" lon="120.205493">
        <ele>3.6</ele>
        <time>2015-03-24T21:58:56Z</time>
      </trkpt>
      <trkpt lat="35.953788" lon="120.205464">
        <ele>3.8</ele>
        <time>2015-03-24T21:59:04Z</time>
      </trkpt>
      <trkpt lat="35.953889" lon="120.205425">
        <ele>3.9</ele>
        <time>2015-03-24T21:59:08Z</time>
      </trkpt>
      <trkpt lat="35.953973" lon="120.205392">
        <ele>4.1</ele>
        <time>2015-03-24T21:59:12Z</time>
      </trkpt>
      <trkpt lat="35.954072" lon="120.205355">
        <ele>4.3</ele>
        <time>2015-03-24T21:59:16Z</time>
      </trkpt>
      <trkpt lat="35.954169" lon="120.205321">
        <ele>4.5</ele>
        <time>2015-03-24T21:59:20Z</time>
      </trkpt>
      <trkpt lat="35.954277" lon="120.205301">
        <ele>4.7</ele>
        <time>2015-03-24T21:59:24Z</time>
      </trkpt>
      <trkpt lat="35.954374" lon="120.205286">
        <ele>4.8</ele>
        <time>2015-03-24T21:59:28Z</time>
      </trkpt>
      <trkpt lat="35.954459" lon="120.20527">
        <ele>5.0</ele>
        <time>2015-03-24T21:59:32Z</time>
      </trkpt>
      <trkpt lat="35.95455" lon="120.205253">
        <ele>5.1</ele>
        <time>2015-03-24T21:59:36Z</time>
      </trkpt>
      <trkpt lat="35.954639" lon="120.205227">
        <ele>5.2</ele>
        <time>2015-03-24T21:59:40Z</time>
      </trkpt>
      <trkpt lat="35.954711" lon="120.205171">
        <ele>5.3</ele>
        <time>2015-03-24T21:59:44Z</time>
      </trkpt>
      <trkpt lat="35.95477" lon="120.205095">
        <ele>5.4</ele>
        <time>2015-03-24T21:59:48Z</time>
      </trkpt>
      <trkpt lat="35.954805" lon="120.205006">
        <ele>5.5</ele>
        <time>2015-03-24T21:59:52Z</time>
      </trkpt>
      <trkpt lat="35.954812" lon="120.204914">
        <ele>5.5</ele>
        <time>2015-03-24T21:59:56Z</time>
      </trkpt>
      <trkpt lat="35.954785" lon="120.204833">
        <ele>5.6</ele>
        <time>2015-03-24T22:00:00Z</time>
      </trkpt>
      <trkpt lat="35.954746" lon="120.204743">
        <ele>5.6</ele>
        <time>2015-03-24T22:00:04Z</time>
      </trkpt>
      <trkpt lat="35.954699" lon="120.204656">
        <ele>5.5</ele>
        <time>2015-03-24T22:00:08Z</time>
      </trkpt>
      <trkpt lat="35.954623" lon="120.204598">
        <ele>5.5</ele>
        <time>2015-03-24T22:00:12Z</time>
      </trkpt>
      <trkpt lat="35.954536" lon="120.204569">
        <ele>5.4</ele>
        <time>2015-03-24T22:00:16Z</time>
      </trkpt>
      <trkpt lat="35.954445" lon="120.204559">
        <ele>5.3</ele>
        <time>2015-03-24T22:00:20Z</time>
      </trkpt>
      <trkpt lat="35.954351" lon="120.204573">
        <ele>5.1</ele>
        <time>2015-03-24T22:00:24Z</time>
      </trkpt>
      <trkpt lat="35.954261" lon="120.204591">
        <ele>4.9</ele>
        <time>2015-03-24T22:00:28Z</time>
      </trkpt>
      <trkpt lat="35.954168" lon="120.20461">
        <ele>4.7</ele>
        <time>2015-03-24T22:00:32Z</time>
      </trkpt>
      <trkpt lat="35.954077" lon="120.20463">
        <ele>4.5</ele>
        <time>2015-03-24T22:00:36Z</time>
      </trkpt>
      <trkpt lat="35.953987" lon="120.204656">
        <ele>4.3</ele>
        <time>2015-03-24T22:00:40Z</time>
      </trkpt>
      <trkpt lat="35.953803" lon="120.204718">
        <ele>4.1</ele>
        <time>2015-03-24T22:00:44Z</time>
      </trkpt>
      <trkpt lat="35.953715" lon="120.204744">
        <ele>3.9</ele>
        <time>2015-03-24T22:00:48Z</time>
      </trkpt>
      <trkpt lat="35.953634" lon="120.204755">
        <ele>3.8</ele>
        <time>2015-03-24T22:00:52Z</time>
      </trkpt>
      <trkpt lat="35.953552" lon="120.204792">
        <ele>3.7</ele>
        <time>2015-03-24T22:00:56Z</time>
      </trkpt>
      <trkpt lat="35.953472" lon="120.204858">
        <ele>3.6</ele>
        <time>2015-03-24T22:01:00Z</time>
      </trkpt>
      <trkpt lat="35.953404" lon="120.20494">
        <ele>3.5</ele>
        <time>2015-03-24T22:01:04Z</time>
      </trkpt>
      <trkpt lat="35.953356" lon="120.205026">
        <ele>3.5</ele>
        <time>2015-03-24T22:01:12Z</time>
      </trkpt>
      <trkpt lat="35.953333" lon="120.205119">
        <ele>3.4</ele>
        <time>2015-03-24T22:01:16Z</time>
      </trkpt>
      <trkpt lat="35.953345" lon="120.205222">
        <ele>3.4</ele>
        <time>2015-03-24T22:01:20Z</time>
      </trkpt>
      <trkpt lat="35.953385" lon="120.20532">
        <ele>3.4</ele>
        <time>2015-03-24T22:01:24Z</time>
      </trkpt>
      <trkpt lat="35.953447" lon="120.205399">
        <ele>3.4</ele>
        <time>2015-03-24T22:01:28Z</time>
      </trkpt>
      <trkpt lat="35.953517" lon="120.205462">
        <ele>3.4</ele>
        <time>2015-03-24T22:01:32Z</time>
      </trkpt>
      <trkpt lat="35.953588" lon="120.205503">
        <ele>3.4</ele>
        <time>2015-03-24T22:01:36Z</time>
      </trkpt>
      <trkpt lat="35.953679" lon="120.205515">
        <ele>3.5</ele>
        <time>2015-03-24T22:01:40Z</time>
      </trkpt>
      <trkpt lat="35.953767" lon="120.205489">
        <ele>3.6</ele>
        <time>2015-03-24T22:01:44Z</time>
      </trkpt>
      <trkpt lat="35.953858" lon="120.205454">
        <ele>3.8</ele>
        <time>2015-03-24T22:01:48Z</time>
      </trkpt>
      <trkpt lat="35.953945" lon="120.205421">
        <ele>4.0</ele>
        <time>2015-03-24T22:01:52Z</time>
      </trkpt>
      <trkpt lat="35.954034" lon="120.205406">
        <ele>4.2</ele>
        <time>2015-03-24T22:01:56Z</time>
      </trkpt>
      <trkpt lat="35.954121" lon="120.205388">
        <ele>4.4</ele>
        <time>2015-03-24T22:02:00Z</time>
      </trkpt>
      <trkpt lat="35.954209" lon="120.205367">
        <ele>4.6</ele>
        <time>2015-03-24T22:02:04Z</time>
      </trkpt>
      <trkpt lat="35.9543" lon="120.205346">
        <ele>4.8</ele>
        <time>2015-03-24T22:02:08Z</time>
      </trkpt>
      <trkpt lat="35.954392" lon="120.205316">
        <ele>4.9</ele>
        <time>2015-03-24T22:02:12Z</time>
      </trkpt>
      <trkpt lat="35.954482" lon="120.205294">
        <ele>5.1</ele>
        <time>2015-03-24T22:02:16Z</time>
      </trkpt>
      <trkpt lat="35.954573" lon="120.205272">
        <ele>5.2</ele>
        <time>2015-03-24T22:02:20Z</time>
      </trkpt>
      <trkpt lat="35.954657" lon="120.205238">
        <ele>5.3</ele>
        <time>2015-03-24T22:02:24Z</time>
      </trkpt>
      <trkpt lat="35.954723" lon="120.205183">
        <ele>5.4</ele>
        <time>2015-03-24T22:02:28Z</time>
      </trkpt>
      <trkpt lat="35.954775" lon="120.205105">
        <ele>5.5</ele>
        <time>2015-03-24T22:02:32Z</time>
      </trkpt>
      <trkpt lat="35.954812" lon="120.205009">
        <ele>5.5</ele>
        <time>2015-03-24T22:02:36Z</time>
      </trkpt>
      <trkpt lat="35.954821" lon="120.204907">
        <ele>5.6</ele>
        <time>2015-03-24T22:02:40Z</time>
      </trkpt>
      <trkpt lat="35.954805" lon="120.204817">
        <ele>5.6</ele>
        <time>2015-03-24T22:02:44Z</time>
      </trkpt>
      <trkpt lat="35.954767" lon="120.204719">
        <ele>5.6</ele>
        <time>2015-03-24T22:02:48Z</time>
      </trkpt>
      <trkpt lat="35.954704" lon="120.204641">
        <ele>5.6</ele>
        <time>2015-03-24T22:02:52Z</time>
      </trkpt>
      <trkpt lat="35.95462" lon="120.204588">
        <ele>5.5</ele>
        <time>2015-03-24T22:02:56Z</time>
      </trkpt>
      <trkpt lat="35.954535" lon="120.20455">
        <ele>5.4</ele>
        <time>2015-03-24T22:03:00Z</time>
      </trkpt>
      <trkpt lat="35.954445" lon="120.204538">
        <ele>5.3</ele>
        <time>2015-03-24T22:03:04Z</time>
      </trkpt>
      <trkpt lat="35.954353" lon="120.204556">
        <ele>5.2</ele>
        <time>2015-03-24T22:03:08Z</time>
      </trkpt>
      <trkpt lat="35.954261" lon="120.20459">
        <ele>5.0</ele>
        <time>2015-03-24T22:03:12Z</time>
      </trkpt>
      <trkpt lat="35.95417" lon="120.204636">
        <ele>4.8</ele>
        <time>2015-03-24T22:03:16Z</time>
      </trkpt>
      <trkpt lat="35.954073" lon="120.204666">
        <ele>4.6</ele>
        <time>2015-03-24T22:03:20Z</time>
      </trkpt>
      <trkpt lat="35.953978" lon="120.204698">
        <ele>4.4</ele>
        <time>2015-03-24T22:03:24Z</time>
      </trkpt>
      <trkpt lat="35.953887" lon="120.204725">
        <ele>4.2</ele>
        <time>2015-03-24T22:03:28Z</time>
      </trkpt>
      <trkpt lat="35.953788" lon="120.20474">
        <ele>4.0</ele>
        <time>2015-03-24T22:03:32Z</time>
      </trkpt>
      <trkpt lat="35.953692" lon="120.204757">
        <ele>3.9</ele>
        <time>2015-03-24T22:03:36Z</time>
      </trkpt>
      <trkpt lat="35.953603" lon="120.204788">
        <ele>3.7</ele>
        <time>2015-03-24T22:03:40Z</time>
      </trkpt>
      <trkpt lat="35.953528" lon="120.204831">
        <ele>3.7</ele>
        <time>2015-03-24T22:03:44Z</time>
      </trkpt>
      <trkpt lat="35.953463" lon="120.204901">
        <ele>3.6</ele>
        <time>2015-03-24T22:03:48Z</time>
      </trkpt>
      <trkpt lat="35.953404" lon="120.204995">
        <ele>3.5</ele>
        <time>2015-03-24T22:03:52Z</time>
      </trkpt>
      <trkpt lat="35.953379" lon="120.205092">
        <ele>3.5</ele>
        <time>2015-03-24T22:03:56Z</time>
      </trkpt>
      <trkpt lat="35.953369" lon="120.205181">
        <ele>3.4</ele>
        <time>2015-03-24T22:04:00Z</time>
      </trkpt>
      <trkpt lat="35.953385" lon="120.205267">
        <ele>3.4</ele>
        <time>2015-03-24T22:04:04Z</time>
      </trkpt>
      <trkpt lat="35.953421" lon="120.205355">
        <ele>3.4</ele>
        <time>2015-03-24T22:04:08Z</time>
      </trkpt>
      <trkpt lat="35.953478" lon="120.205443">
        <ele>3.4</ele>
        <time>2015-03-24T22:04:12Z</time>
      </trkpt>
      <trkpt lat="35.953556" lon="120.205491">
        <ele>3.5</ele>
        <time>2015-03-24T22:04:16Z</time>
      </trkpt>
      <trkpt lat="35.953652" lon="120.205504">
        <ele>3.6</ele>
        <time>2015-03-24T22:04:20Z</time>
      </trkpt>
      <trkpt lat="35.953729" lon="120.205482">
        <ele>3.7</ele>
        <time>2015-03-24T22:04:24Z</time>
      </trkpt>
      <trkpt lat="35.953816" lon="120.205445">
        <ele>3.8</ele>
        <time>2015-03-24T22:04:28Z</time>
      </trkpt>
      <trkpt lat="35.95391" lon="120.205417">
        <ele>4.0</ele>
        <time>2015-03-24T22:04:32Z</time>
      </trkpt>
      <trkpt lat="35.954007" lon="120.205394">
        <ele>4.2</ele>
        <time>2015-03-24T22:04:36Z</time>
      </trkpt>
      <trkpt lat="35.954106" lon="120.205367">
        <ele>4.4</ele>
        <time>2015-03-24T22:04:40Z</time>
      </trkpt>
      <trkpt lat="35.954209" lon="120.205344">
        <ele>4.6</ele>
        <time>2015-03-24T22:04:44Z</time>
      </trkpt>
      <trkpt lat="35.954304" lon="120.205328">
        <ele>4.7</ele>
        <time>2015-03-24T22:04:48Z</time>
      </trkpt>
      <trkpt lat="35.954399" lon="120.205313">
        <ele>4.9</ele>
        <time>2015-03-24T22:04:52Z</time>
      </trkpt>
      <trkpt lat="35.954494" lon="120.205289">
        <ele>5.0</ele>
        <time>2015-03-24T22:04:56Z</time>
      </trkpt>
      <trkpt lat="35.954583" lon="120.205269">
        <ele>5.1</ele>
        <time>2015-03-24T22:05:00Z</time>
      </trkpt>
      <trkpt lat="35.954666" lon="120.205227">
        <ele>5.2</ele>
        <time>2015-03-24T22:05:04Z</time>
      </trkpt>
      <trkpt lat="35.954733" lon="120.205155">
        <ele>5.3</ele>
        <time>2015-03-24T22:05:08Z</time>
      </trkpt>
      <trkpt lat="35.95478" lon="120.205067">
        <ele>5.4</ele>
        <time>2015-03-24T22:05:12Z</time>
      </trkpt>
      <trkpt lat="35.954806" lon="120.204962">
        <ele>5.5</ele>
        <time>2015-03-24T22:05:16Z</time>
      </trkpt>
      <trkpt lat="35.954813" lon="120.204856">
        <ele>5.5</ele>
        <time>2015-03-24T22:05:20Z</time>
      </trkpt>
      <trkpt lat="35.954783" lon="120.204765">
        <ele>5.5</ele>
        <time>2015-03-24T22:05:24Z</time>
      </trkpt>
      <trkpt lat="35.954742" lon="120.204669">
        <ele>5.5</ele>
        <time>2015-03-24T22:05:28Z</time>
      </trkpt>
      <trkpt lat="35.954674" lon="120.204598">
        <ele>5.5</ele>
        <time>2015-03-24T22:05:32Z</time>
      </trkpt>
      <trkpt lat="35.954584" lon="120.204555">
        <ele>5.4</ele>
        <time>2015-03-24T22:05:36Z</time>
      </trkpt>
      <trkpt lat="35.95449" lon="120.204538">
        <ele>5.3</ele>
        <time>2015-03-24T22:05:40Z</time>
      </trkpt>
      <trkpt lat="35.954403" lon="120.204549">
        <ele>5.1</ele>
        <time>2015-03-24T22:05:44Z</time>
      </trkpt>
      <trkpt lat="35.954311" lon="120.20458">
        <ele>5.0</ele>
        <time>2015-03-24T22:05:48Z</time>
      </trkpt>
      <trkpt lat="35.954221" lon="120.204614">
        <ele>4.8</ele>
        <time>2015-03-24T22:05:52Z</time>
      </trkpt>
      <trkpt lat="35.954041" lon="120.20467">
        <ele>4.6</ele>
        <time>2015-03-24T22:05:56Z</time>
      </trkpt>
      <trkpt lat="35.953872" lon="120.204708">
        <ele>4.4</ele>
        <time>2015-03-24T22:06:04Z</time>
      </trkpt>
      <trkpt lat="35.953796" lon="120.204725">
        <ele>4.2</ele>
        <time>2015-03-24T22:06:08Z</time>
      </trkpt>
      <trkpt lat="35.953707" lon="120.204749">
        <ele>4.0</ele>
        <time>2015-03-24T22:06:12Z</time>
      </trkpt>
      <trkpt lat="35.953616" lon="120.204775">
        <ele>3.8</ele>
        <time>2015-03-24T22:06:16Z</time>
      </trkpt>
      <trkpt lat="35.953535" lon="120.204824">
        <ele>3.7</ele>
        <time>2015-03-24T22:06:20Z</time>
      </trkpt>
      <trkpt lat="35.953467" lon="120.204895">
        <ele>3.6</ele>
        <time>2015-03-24T22:06:24Z</time>
      </trkpt>
      <trkpt lat="35.95342" lon="120.204981">
        <ele>3.6</ele>
        <time>2015-03-24T22:06:28Z</time>
      </trkpt>
      <trkpt lat="35.953393" lon="120.205082">
        <ele>3.5</ele>
        <time>2015-03-24T22:06:32Z</time>
      </trkpt>
      <trkpt lat="35.953386" lon="120.205185">
        <ele>3.5</ele>
        <time>2015-03-24T22:06:36Z</time>
      </trkpt>
      <trkpt lat="35.95341" lon="120.205287">
        <ele>3.5</ele>
        <time>2015-03-24T22:06:40Z</time>
      </trkpt>
      <trkpt lat="35.953461" lon="120.205384">
        <ele>3.5</ele>
        <time>2015-03-24T22:06:44Z</time>
      </trkpt>
      <trkpt lat="35.953536" lon="120.205451">
        <ele>3.5</ele>
        <time>2015-03-24T22:06:48Z</time>
      </trkpt>
      <trkpt lat="35.953609" lon="120.205494">
        <ele>3.6</ele>
        <time>2015-03-24T22:06:52Z</time>
      </trkpt>
      <trkpt lat="35.953688" lon="120.205512">
        <ele>3.7</ele>
        <time>2015-03-24T22:06:56Z</time>
      </trkpt>
      <trkpt lat="35.953768" lon="120.20549">
        <ele>3.8</ele>
        <time>2015-03-24T22:07:00Z</time>
      </trkpt>
      <trkpt lat="35.953855" lon="120.205454">
        <ele>3.9</ele>
        <time>2015-03-24T22:07:04Z</time>
      </trkpt>
      <trkpt lat="35.953956" lon="120.205416">
        <ele>4.1</ele>
        <time>2015-03-24T22:07:08Z</time>
      </trkpt>
      <trkpt lat="35.954057" lon="120.205381">
        <ele>4.3</ele>
        <time>2015-03-24T22:07:12Z</time>
      </trkpt>
      <trkpt lat="35.954151" lon="120.205357">
        <ele>4.4</ele>
        <time>2015-03-24T22:07:16Z</time>
      </trkpt>
      <trkpt lat="35.954249" lon="120.205344">
        <ele>4.6</ele>
        <time>2015-03-24T22:07:20Z</time>
      </trkpt>
      <trkpt lat="35.954341" lon="120.205326">
        <ele>4.8</ele>
        <time>2015-03-24T22:07:24Z</time>
      </trkpt>
      <trkpt lat="35.954431" lon="120.20531">
        <ele>4.9</ele>
        <time>2015-03-24T22:07:28Z</time>
      </trkpt>
      <trkpt lat="35.954516" lon="120.205298">
        <ele>5.0</ele>
        <time>2015-03-24T22:07:32Z</time>
      </trkpt>
      <trkpt lat="35.9546" lon="120.205272">
        <ele>5.1</ele>
        <time>2015-03-24T22:07:36Z</time>
      </trkpt>
      <trkpt lat="35.954674" lon="120.205222">
        <ele>5.2</ele>
        <time>2015-03-24T22:07:40Z</time>
      </trkpt>
      <trkpt lat="35.954741" lon="120.205147">
        <ele>5.3</ele>
        <time>2015-03-24T22:07:44Z</time>
      </trkpt>
      <trkpt lat="35.954791" lon="120.205045">
        <ele>5.4</ele>
        <time>2015-03-24T22:07:48Z</time>
      </trkpt>
      <trkpt lat="35.954812" lon="120.204931">
        <ele>5.5</ele>
        <time>2015-03-24T22:07:52Z</time>
      </trkpt>
      <trkpt lat="35.954787" lon="120.204828">
        <ele>5.5</ele>
        <time>2015-03-24T22:07:56Z</time>
      </trkpt>
      <trkpt lat="35.954754" lon="120.204719">
        <ele>5.5</ele>
        <time>2015-03-24T22:08:00Z</time>
      </trkpt>
      <trkpt lat="35.954695" lon="120.204631">
        <ele>5.5</ele>
        <time>2015-03-24T22:08:04Z</time>
      </trkpt>
      <trkpt lat="35.95461" lon="120.204574">
        <ele>5.5</ele>
        <time>2015-03-24T22:08:08Z</time>
      </trkpt>
      <trkpt lat="35.954516" lon="120.204549">
        <ele>5.4</ele>
        <time>2015-03-24T22:08:12Z</time>
      </trkpt>
      <trkpt lat="35.954423" lon="120.204547">
        <ele>5.3</ele>
        <time>2015-03-24T22:08:16Z</time>
      </trkpt>
      <trkpt lat="35.954339" lon="120.204561">
        <ele>5.1</ele>
        <time>2015-03-24T22:08:20Z</time>
      </trkpt>
      <trkpt lat="35.954253" lon="120.204583">
        <ele>4.9</ele>
        <time>2015-03-24T22:08:24Z</time>
      </trkpt>
      <trkpt lat="35.954166" lon="120.204615">
        <ele>4.7</ele>
        <time>2015-03-24T22:08:28Z</time>
      </trkpt>
      <trkpt lat="35.954071" lon="120.204658">
        <ele>4.5</ele>
        <time>2015-03-24T22:08:32Z</time>
      </trkpt>
      <trkpt lat="35.953968" lon="120.204689">
        <ele>4.3</ele>
        <time>2015-03-24T22:08:36Z</time>
      </trkpt>
      <trkpt lat="35.953871" lon="120.204719">
        <ele>4.1</ele>
        <time>2015-03-24T22:08:40Z</time>
      </trkpt>
      <trkpt lat="35.953764" lon="120.204742">
        <ele>4.0</ele>
        <time>2015-03-24T22:08:44Z</time>
      </trkpt>
      <trkpt lat="35.953653" lon="120.204772">
        <ele>3.8</ele>
        <time>2015-03-24T22:08:48Z</time>
      </trkpt>
      <trkpt lat="35.953554" lon="120.204807">
        <ele>3.7</ele>
        <time>2015-03-24T22:08:52Z</time>
      </trkpt>
      <trkpt lat="35.953472" lon="120.204874">
        <ele>3.7</ele>
        <time>2015-03-24T22:08:56Z</time>
      </trkpt>
      <trkpt lat="35.953411" lon="120.204968">
        <ele>3.6</ele>
        <time>2015-03-24T22:09:00Z</time>
      </trkpt>
      <trkpt lat="35.953381" lon="120.20507">
        <ele>3.6</ele>
        <time>2015-03-24T22:09:04Z</time>
      </trkpt>
      <trkpt lat="35.953375" lon="120.205176">
        <ele>3.6</ele>
        <time>2015-03-24T22:09:08Z</time>
      </trkpt>
      <trkpt lat="35.953403" lon="120.20528">
        <ele>3.5</ele>
        <time>2015-03-24T22:09:12Z</time>
      </trkpt>
      <trkpt lat="35.953461" lon="120.205371">
        <ele>3.6</ele>
        <time>2015-03-24T22:09:16Z</time>
      </trkpt>
      <trkpt lat="35.953531" lon="120.205443">
        <ele>3.6</ele>
        <time>2015-03-24T22:09:20Z</time>
      </trkpt>
      <trkpt lat="35.953604" lon="120.205491">
        <ele>3.6</ele>
        <time>2015-03-24T22:09:24Z</time>
      </trkpt>
      <trkpt lat="35.953688" lon="120.205503">
        <ele>3.7</ele>
        <time>2015-03-24T22:09:28Z</time>
      </trkpt>
      <trkpt lat="35.953783" lon="120.205476">
        <ele>3.8</ele>
        <time>2015-03-24T22:09:32Z</time>
      </trkpt>
      <trkpt lat="35.953873" lon="120.205439">
        <ele>4.0</ele>
        <time>2015-03-24T22:09:36Z</time>
      </trkpt>
      <trkpt lat="35.953969" lon="120.20541">
        <ele>4.1</ele>
        <time>2015-03-24T22:09:40Z</time>
      </trkpt>
      <trkpt lat="35.954066" lon="120.205386">
        <ele>4.3</ele>
        <time>2015-03-24T22:09:44Z</time>
      </trkpt>
      <trkpt lat="35.954162" lon="120.205362">
        <ele>4.5</ele>
        <time>2015-03-24T22:09:48Z</time>
      </trkpt>
      <trkpt lat="35.954257" lon="120.205336">
        <ele>4.7</ele>
        <time>2015-03-24T22:09:52Z</time>
      </trkpt>
      <trkpt lat="35.954353" lon="120.205312">
        <ele>4.8</ele>
        <time>2015-03-24T22:09:56Z</time>
      </trkpt>
      <trkpt lat="35.954454" lon="120.205293">
        <ele>4.9</ele>
        <time>2015-03-24T22:10:00Z</time>
      </trkpt>
      <trkpt lat="35.954552" lon="120.20527">
        <ele>5.1</ele>
        <time>2015-03-24T22:10:04Z</time>
      </trkpt>
      <trkpt lat="35.954644" lon="120.20523">
        <ele>5.2</ele>
        <time>2015-03-24T22:10:08Z</time>
      </trkpt>
      <trkpt lat="35.954723" lon="120.205164">
        <ele>5.3</ele>
        <time>2015-03-24T22:10:12Z</time>
      </trkpt>
      <trkpt lat="35.954783" lon="120.205072">
        <ele>5.4</ele>
        <time>2015-03-24T22:10:16Z</time>
      </trkpt>
      <trkpt lat="35.954818" lon="120.204967">
        <ele>5.4</ele>
        <time>2015-03-24T22:10:20Z</time>
      </trkpt>
      <trkpt lat="35.954821" lon="120.204858">
        <ele>5.5</ele>
        <time>2015-03-24T22:10:24Z</time>
      </trkpt>
      <trkpt lat="35.954791" lon="120.20476">
        <ele>5.5</ele>
        <time>2015-03-24T22:10:28Z</time>
      </trkpt>
      <trkpt lat="35.954735" lon="120.204672">
        <ele>5.5</ele>
        <time>2015-03-24T22:10:32Z</time>
      </trkpt>
      <trkpt lat="35.954657" lon="120.204605">
        <ele>5.5</ele>
        <time>2015-03-24T22:10:36Z</time>
      </trkpt>
      <trkpt lat="35.954567" lon="120.204564">
        <ele>5.4</ele>
        <time>2015-03-24T22:10:40Z</time>
      </trkpt>
      <trkpt lat="35.954474" lon="120.204554">
        <ele>5.3</ele>
        <time>2015-03-24T22:10:44Z</time>
      </trkpt>
      <trkpt lat="35.954381" lon="120.204564">
        <ele>5.2</ele>
        <time>2015-03-24T22:10:48Z</time>
      </trkpt>
      <trkpt lat="35.954284" lon="120.204592">
        <ele>5.1</ele>
        <time>2015-03-24T22:10:52Z</time>
      </trkpt>
      <trkpt lat="35.954186" lon="120.204622">
        <ele>4.9</ele>
        <time>2015-03-24T22:10:56Z</time>
      </trkpt>
      <trkpt lat="35.954087" lon="120.204648">
        <ele>4.7</ele>
        <time>2015-03-24T22:11:00Z</time>
      </trkpt>
      <trkpt lat="35.953995" lon="120.204668">
        <ele>4.5</ele>
        <time>2015-03-24T22:11:04Z</time>
      </trkpt>
      <trkpt lat="35.953905" lon="120.204686">
        <ele>4.3</ele>
        <time>2015-03-24T22:11:08Z</time>
      </trkpt>
      <trkpt lat="35.953807" lon="120.204709">
        <ele>4.1</ele>
        <time>2015-03-24T22:11:12Z</time>
      </trkpt>
      <trkpt lat="35.953709" lon="120.204737">
        <ele>3.9</ele>
        <time>2015-03-24T22:11:16Z</time>
      </trkpt>
      <trkpt lat="35.953611" lon="120.204769">
        <ele>3.8</ele>
        <time>2015-03-24T22:11:20Z</time>
      </trkpt>
      <trkpt lat="35.953524" lon="120.204815">
        <ele>3.8</ele>
        <time>2015-03-24T22:11:24Z</time>
      </trkpt>
      <trkpt lat="35.953455" lon="120.204895">
        <ele>3.7</ele>
        <time>2015-03-24T22:11:28Z</time>
      </trkpt>
      <trkpt lat="35.953403" lon="120.204993">
        <ele>3.7</ele>
        <time>2015-03-24T22:11:36Z</time>
      </trkpt>
      <trkpt lat="35.953372" lon="120.205095">
        <ele>3.7</ele>
        <time>2015-03-24T22:11:40Z</time>
      </trkpt>
      <trkpt lat="35.953374" lon="120.205191">
        <ele>3.7</ele>
        <time>2015-03-24T22:11:44Z</time>
      </trkpt>
      <trkpt lat="35.953405" lon="120.205293">
        <ele>3.7</ele>
        <time>2015-03-24T22:11:48Z</time>
      </trkpt>
      <trkpt lat="35.953464" lon="120.20539">
        <ele>3.8</ele>
        <time>2015-03-24T22:11:52Z</time>
      </trkpt>
      <trkpt lat="35.953632" lon="120.205496">
        <ele>3.8</ele>
        <time>2015-03-24T22:11:56Z</time>
      </trkpt>
      <trkpt lat="35.953738" lon="120.205484">
        <ele>3.9</ele>
        <time>2015-03-24T22:12:00Z</time>
      </trkpt>
      <trkpt lat="35.95384" lon="120.205455">
        <ele>4.0</ele>
        <time>2015-03-24T22:12:04Z</time>
      </trkpt>
      <trkpt lat="35.953941" lon="120.205422">
        <ele>4.2</ele>
        <time>2015-03-24T22:12:08Z</time>
      </trkpt>
      <trkpt lat="35.954042" lon="120.205391">
        <ele>4.3</ele>
        <time>2015-03-24T22:12:12Z</time>
      </trkpt>
      <trkpt lat="35.954146" lon="120.205365">
        <ele>4.5</ele>
        <time>2015-03-24T22:12:16Z</time>
      </trkpt>
      <trkpt lat="35.954245" lon="120.20534">
        <ele>4.6</ele>
        <time>2015-03-24T22:12:20Z</time>
      </trkpt>
      <trkpt lat="35.954341" lon="120.205328">
        <ele>4.8</ele>
        <time>2015-03-24T22:12:24Z</time>
      </trkpt>
      <trkpt lat="35.954442" lon="120.205314">
        <ele>4.9</ele>
        <time>2015-03-24T22:12:28Z</time>
      </trkpt>
      <trkpt lat="35.954548" lon="120.205287">
        <ele>5.0</ele>
        <time>2015-03-24T22:12:32Z</time>
      </trkpt>
      <trkpt lat="35.954644" lon="120.205245">
        <ele>5.1</ele>
        <time>2015-03-24T22:12:36Z</time>
      </trkpt>
      <trkpt lat="35.954726" lon="120.20518">
        <ele>5.3</ele>
        <time>2015-03-24T22:12:40Z</time>
      </trkpt>
      <trkpt lat="35.954793" lon="120.205081">
        <ele>5.4</ele>
        <time>2015-03-24T22:12:44Z</time>
      </trkpt>
      <trkpt lat="35.954828" lon="120.204969">
        <ele>5.4</ele>
        <time>2015-03-24T22:12:48Z</time>
      </trkpt>
      <trkpt lat="35.954828" lon="120.204864">
        <ele>5.5</ele>
        <time>2015-03-24T22:12:52Z</time>
      </trkpt>
      <trkpt lat="35.954799" lon="120.204761">
        <ele>5.5</ele>
        <time>2015-03-24T22:12:56Z</time>
      </trkpt>
      <trkpt lat="35.954749" lon="120.204667">
        <ele>5.5</ele>
        <time>2015-03-24T22:13:00Z</time>
      </trkpt>
      <trkpt lat="35.954677" lon="120.204595">
        <ele>5.5</ele>
        <time>2015-03-24T22:13:04Z</time>
      </trkpt>
      <trkpt lat="35.954583" lon="120.204556">
        <ele>5.4</ele>
        <time>2015-03-24T22:13:08Z</time>
      </trkpt>
      <trkpt lat="35.954472" lon="120.204558">
        <ele>5.3</ele>
        <time>2015-03-24T22:13:12Z</time>
      </trkpt>
      <trkpt lat="35.95437" lon="120.204581">
        <ele>5.2</ele>
        <time>2015-03-24T22:13:16Z</time>
      </trkpt>
      <trkpt lat="35.954276" lon="120.204603">
        <ele>5.1</ele>
        <time>2015-03-24T22:13:20Z</time>
      </trkpt>
      <trkpt lat="35.954181" lon="120.204628">
        <ele>4.9</ele>
        <time>2015-03-24T22:13:24Z</time>
      </trkpt>
      <trkpt lat="35.954083" lon="120.204654">
        <ele>4.7</ele>
        <time>2015-03-24T22:13:28Z</time>
      </trkpt>
      <trkpt lat="35.953989" lon="120.204678">
        <ele>4.4</ele>
        <time>2015-03-24T22:13:32Z</time>
      </trkpt>
      <trkpt lat="35.953892" lon="120.204705">
        <ele>4.2</ele>
        <time>2015-03-24T22:13:36Z</time>
      </trkpt>
      <trkpt lat="35.953795" lon="120.204723">
        <ele>4.0</ele>
        <time>2015-03-24T22:13:40Z</time>
      </trkpt>
      <trkpt lat="35.953694" lon="120.204748">
        <ele>3.9</ele>
        <time>2015-03-24T22:13:44Z</time>
      </trkpt>
      <trkpt lat="35.953592" lon="120.204788">
        <ele>3.8</ele>
        <time>2015-03-24T22:13:48Z</time>
      </trkpt>
      <trkpt lat="35.953501" lon="120.204857">
        <ele>3.7</ele>
        <time>2015-03-24T22:13:52Z</time>
      </trkpt>
      <trkpt lat="35.953433" lon="120.204948">
        <ele>3.6</ele>
        <time>2015-03-24T22:13:56Z</time>
      </trkpt>
      <trkpt lat="35.953389" lon="120.205036">
        <ele>3.6</ele>
        <time>2015-03-24T22:14:00Z</time>
      </trkpt>
      <trkpt lat="35.953366" lon="120.205123">
        <ele>3.6</ele>
        <time>2015-03-24T22:14:04Z</time>
      </trkpt>
      <trkpt lat="35.953376" lon="120.205222">
        <ele>3.6</ele>
        <time>2015-03-24T22:14:08Z</time>
      </trkpt>
      <trkpt lat="35.953421" lon="120.205324">
        <ele>3.6</ele>
        <time>2015-03-24T22:14:12Z</time>
      </trkpt>
      <trkpt lat="35.953484" lon="120.205416">
        <ele>3.6</ele>
        <time>2015-03-24T22:14:16Z</time>
      </trkpt>
      <trkpt lat="35.953565" lon="120.20548">
        <ele>3.6</ele>
        <time>2015-03-24T22:14:20Z</time>
      </trkpt>
      <trkpt lat="35.953661" lon="120.205509">
        <ele>3.7</ele>
        <time>2015-03-24T22:14:24Z</time>
      </trkpt>
      <trkpt lat="35.953753" lon="120.205487">
        <ele>3.8</ele>
        <time>2015-03-24T22:14:28Z</time>
      </trkpt>
      <trkpt lat="35.953845" lon="120.205449">
        <ele>3.9</ele>
        <time>2015-03-24T22:14:32Z</time>
      </trkpt>
      <trkpt lat="35.953943" lon="120.205412">
        <ele>4.1</ele>
        <time>2015-03-24T22:14:36Z</time>
      </trkpt>
      <trkpt lat="35.954045" lon="120.205374">
        <ele>4.3</ele>
        <time>2015-03-24T22:14:40Z</time>
      </trkpt>
      <trkpt lat="35.954151" lon="120.205345">
        <ele>4.5</ele>
        <time>2015-03-24T22:14:44Z</time>
      </trkpt>
      <trkpt lat="35.954255" lon="120.205328">
        <ele>4.6</ele>
        <time>2015-03-24T22:14:48Z</time>
      </trkpt>
      <trkpt lat="35.954355" lon="120.205312">
        <ele>4.8</ele>
        <time>2015-03-24T22:14:52Z</time>
      </trkpt>
      <trkpt lat="35.954456" lon="120.2053">
        <ele>4.9</ele>
        <time>2015-03-24T22:14:56Z</time>
      </trkpt>
      <trkpt lat="35.954553" lon="120.205282">
        <ele>5.0</ele>
        <time>2015-03-24T22:15:00Z</time>
      </trkpt>
      <trkpt lat="35.954643" lon="120.205249">
        <ele>5.1</ele>
        <time>2015-03-24T22:15:04Z</time>
      </trkpt>
      <trkpt lat="35.954723" lon="120.205186">
        <ele>5.2</ele>
        <time>2015-03-24T22:15:08Z</time>
      </trkpt>
      <trkpt lat="35.954791" lon="120.205085">
        <ele>5.3</ele>
        <time>2015-03-24T22:15:12Z</time>
      </trkpt>
      <trkpt lat="35.954827" lon="120.204969">
        <ele>5.4</ele>
        <time>2015-03-24T22:15:16Z</time>
      </trkpt>
      <trkpt lat="35.954827" lon="120.20485">
        <ele>5.5</ele>
        <time>2015-03-24T22:15:20Z</time>
      </trkpt>
      <trkpt lat="35.954793" lon="120.204742">
        <ele>5.5</ele>
        <time>2015-03-24T22:15:24Z</time>
      </trkpt>
      <trkpt lat="35.954736" lon="120.204649">
        <ele>5.5</ele>
        <time>2015-03-24T22:15:28Z</time>
      </trkpt>
      <trkpt lat="35.954653" lon="120.204579">
        <ele>5.4</ele>
        <time>2015-03-24T22:15:32Z</time>
      </trkpt>
      <trkpt lat="35.95455" lon="120.20454">
        <ele>5.3</ele>
        <time>2015-03-24T22:15:36Z</time>
      </trkpt>
      <trkpt lat="35.954445" lon="120.204531">
        <ele>5.2</ele>
        <time>2015-03-24T22:15:40Z</time>
      </trkpt>
      <trkpt lat="35.954336" lon="120.204563">
        <ele>5.0</ele>
        <time>2015-03-24T22:15:44Z</time>
      </trkpt>
      <trkpt lat="35.954226" lon="120.204605">
        <ele>4.9</ele>
        <time>2015-03-24T22:15:48Z</time>
      </trkpt>
      <trkpt lat="35.954117" lon="120.204641">
        <ele>4.7</ele>
        <time>2015-03-24T22:15:52Z</time>
      </trkpt>
      <trkpt lat="35.954004" lon="120.204676">
        <ele>4.5</ele>
        <time>2015-03-24T22:15:56Z</time>
      </trkpt>
      <trkpt lat="35.95389" lon="120.204705">
        <ele>4.3</ele>
        <time>2015-03-24T22:16:00Z</time>
      </trkpt>
      <trkpt lat="35.953775" lon="120.204733">
        <ele>4.1</ele>
        <time>2015-03-24T22:16:04Z</time>
      </trkpt>
      <trkpt lat="35.953653" lon="120.204772">
        <ele>3.9</ele>
        <time>2015-03-24T22:16:08Z</time>
      </trkpt>
      <trkpt lat="35.953539" lon="120.204812">
        <ele>3.8</ele>
        <time>2015-03-24T22:16:12Z</time>
      </trkpt>
      <trkpt lat="35.953461" lon="120.204866">
        <ele>3.7</ele>
        <time>2015-03-24T22:16:16Z</time>
      </trkpt>
      <trkpt lat="35.9534" lon="120.204944">
        <ele>3.6</ele>
        <time>2015-03-24T22:16:20Z</time>
      </trkpt>
      <trkpt lat="35.95336" lon="120.205029">
        <ele>3.6</ele>
        <time>2015-03-24T22:16:24Z</time>
      </trkpt>
      <trkpt lat="35.953355" lon="120.205133">
        <ele>3.6</ele>
        <time>2015-03-24T22:16:28Z</time>
      </trkpt>
      <trkpt lat="35.953379" lon="120.205246">
        <ele>3.6</ele>
        <time>2015-03-24T22:16:32Z</time>
      </trkpt>
      <trkpt lat="35.953439" lon="120.205349">
        <ele>3.6</ele>
        <time>2015-03-24T22:16:36Z</time>
      </trkpt>
      <trkpt lat="35.953518" lon="120.205434">
        <ele>3.7</ele>
        <time>2015-03-24T22:16:40Z</time>
      </trkpt>
      <trkpt lat="35.9536" lon="120.205491">
        <ele>3.7</ele>
        <time>2015-03-24T22:16:44Z</time>
      </trkpt>
      <trkpt lat="35.953702" lon="120.205493">
        <ele>3.8</ele>
        <time>2015-03-24T22:16:48Z</time>
      </trkpt>
      <trkpt lat="35.953809" lon="120.205456">
        <ele>3.9</ele>
        <time>2015-03-24T22:16:52Z</time>
      </trkpt>
      <trkpt lat="35.953915" lon="120.205414">
        <ele>4.1</ele>
        <time>2015-03-24T22:16:56Z</time>
      </trkpt>
      <trkpt lat="35.954013" lon="120.205382">
        <ele>4.2</ele>
        <time>2015-03-24T22:17:00Z</time>
      </trkpt>
      <trkpt lat="35.954118" lon="120.205359">
        <ele>4.4</ele>
        <time>2015-03-24T22:17:04Z</time>
      </trkpt>
      <trkpt lat="35.954224" lon="120.205342">
        <ele>4.6</ele>
        <time>2015-03-24T22:17:08Z</time>
      </trkpt>
      <trkpt lat="35.954324" lon="120.205324">
        <ele>4.7</ele>
        <time>2015-03-24T22:17:12Z</time>
      </trkpt>
      <trkpt lat="35.954426" lon="120.205299">
        <ele>4.8</ele>
        <time>2015-03-24T22:17:16Z</time>
      </trkpt>
      <trkpt lat="35.954526" lon="120.20528">
        <ele>5.0</ele>
        <time>2015-03-24T22:17:20Z</time>
      </trkpt>
      <trkpt lat="35.954626" lon="120.205248">
        <ele>5.1</ele>
        <time>2015-03-24T22:17:24Z</time>
      </trkpt>
      <trkpt lat="35.954713" lon="120.205187">
        <ele>5.2</ele>
        <time>2015-03-24T22:17:28Z</time>
      </trkpt>
      <trkpt lat="35.954777" lon="120.205089">
        <ele>5.3</ele>
        <time>2015-03-24T22:17:32Z</time>
      </trkpt>
      <trkpt lat="35.954817" lon="120.20497">
        <ele>5.4</ele>
        <time>2015-03-24T22:17:36Z</time>
      </trkpt>
      <trkpt lat="35.954831" lon="120.20485">
        <ele>5.4</ele>
        <time>2015-03-24T22:17:40Z</time>
      </trkpt>
      <trkpt lat="35.954805" lon="120.204745">
        <ele>5.5</ele>
        <time>2015-03-24T22:17:44Z</time>
      </trkpt>
      <trkpt lat="35.954749" lon="120.204646">
        <ele>5.4</ele>
        <time>2015-03-24T22:17:48Z</time>
      </trkpt>
      <trkpt lat="35.954665" lon="120.204572">
        <ele>5.4</ele>
        <time>2015-03-24T22:17:52Z</time>
      </trkpt>
      <trkpt lat="35.954557" lon="120.20454">
        <ele>5.3</ele>
        <time>2015-03-24T22:17:56Z</time>
      </trkpt>
      <trkpt lat="35.954449" lon="120.204537">
        <ele>5.2</ele>
        <time>2015-03-24T22:18:00Z</time>
      </trkpt>
      <trkpt lat="35.95434" lon="120.204565">
        <ele>5.0</ele>
        <time>2015-03-24T22:18:04Z</time>
      </trkpt>
      <trkpt lat="35.954229" lon="120.204597">
        <ele>4.8</ele>
        <time>2015-03-24T22:18:08Z</time>
      </trkpt>
      <trkpt lat="35.954114" lon="120.204633">
        <ele>4.6</ele>
        <time>2015-03-24T22:18:12Z</time>
      </trkpt>
      <trkpt lat="35.953987" lon="120.204669">
        <ele>4.4</ele>
        <time>2015-03-24T22:18:16Z</time>
      </trkpt>
      <trkpt lat="35.953861" lon="120.20471">
        <ele>4.2</ele>
        <time>2015-03-24T22:18:20Z</time>
      </trkpt>
      <trkpt lat="35.953743" lon="120.204744">
        <ele>4.1</ele>
        <time>2015-03-24T22:18:24Z</time>
      </trkpt>
      <trkpt lat="35.953633" lon="120.204777">
        <ele>3.9</ele>
        <time>2015-03-24T22:18:28Z</time>
      </trkpt>
      <trkpt lat="35.953526" lon="120.204828">
        <ele>3.8</ele>
        <time>2015-03-24T22:18:32Z</time>
      </trkpt>
      <trkpt lat="35.953446" lon="120.204909">
        <ele>3.8</ele>
        <time>2015-03-24T22:18:36Z</time>
      </trkpt>
      <trkpt lat="35.953391" lon="120.205016">
        <ele>3.8</ele>
        <time>2015-03-24T22:18:40Z</time>
      </trkpt>
      <trkpt lat="35.953362" lon="120.205138">
        <ele>3.8</ele>
        <time>2015-03-24T22:18:44Z</time>
      </trkpt>
      <trkpt lat="35.953353" lon="120.205258">
        <ele>3.8</ele>
        <time>2015-03-24T22:18:48Z</time>
      </trkpt>
      <trkpt lat="35.953411" lon="120.20537">
        <ele>3.9</ele>
        <time>2015-03-24T22:18:52Z</time>
      </trkpt>
      <trkpt lat="35.953499" lon="120.205459">
        <ele>3.9</ele>
        <time>2015-03-24T22:18:56Z</time>
      </trkpt>
      <trkpt lat="35.953611" lon="120.205499">
        <ele>4.0</ele>
        <time>2015-03-24T22:19:00Z</time>
      </trkpt>
      <trkpt lat="35.953738" lon="120.205477">
        <ele>4.1</ele>
        <time>2015-03-24T22:19:04Z</time>
      </trkpt>
      <trkpt lat="35.953862" lon="120.205429">
        <ele>4.2</ele>
        <time>2015-03-24T22:19:08Z</time>
      </trkpt>
      <trkpt lat="35.953997" lon="120.205387">
        <ele>4.3</ele>
        <time>2015-03-24T22:19:12Z</time>
      </trkpt>
      <trkpt lat="35.954141" lon="120.205342">
        <ele>4.3</ele>
        <time>2015-03-24T22:19:20Z</time>
      </trkpt>
      <trkpt lat="35.954281" lon="120.205303">
        <ele>4.4</ele>
        <time>2015-03-24T22:19:24Z</time>
      </trkpt>
      <trkpt lat="35.954408" lon="120.205285">
        <ele>4.5</ele>
        <time>2015-03-24T22:19:28Z</time>
      </trkpt>
      <trkpt lat="35.954525" lon="120.205272">
        <ele>4.6</ele>
        <time>2015-03-24T22:19:32Z</time>
      </trkpt>
      <trkpt lat="35.954646" lon="120.205228">
        <ele>4.8</ele>
        <time>2015-03-24T22:19:36Z</time>
      </trkpt>
      <trkpt lat="35.954763" lon="120.205123">
        <ele>4.9</ele>
        <time>2015-03-24T22:19:40Z</time>
      </trkpt>
      <trkpt lat="35.954839" lon="120.204976">
        <ele>4.9</ele>
        <time>2015-03-24T22:19:44Z</time>
      </trkpt>
      <trkpt lat="35.954831" lon="120.204819">
        <ele>4.9</ele>
        <time>2015-03-24T22:19:48Z</time>
      </trkpt>
      <trkpt lat="35.954762" lon="120.204648">
        <ele>4.9</ele>
        <time>2015-03-24T22:19:52Z</time>
      </trkpt>
      <trkpt lat="35.954654" lon="120.204536">
        <ele>4.8</ele>
        <time>2015-03-24T22:19:56Z</time>
      </trkpt>
      <trkpt lat="35.954499" lon="120.2045">
        <ele>4.8</ele>
        <time>2015-03-24T22:20:00Z</time>
      </trkpt>
      <trkpt lat="35.954344" lon="120.204527">
        <ele>4.7</ele>
        <time>2015-03-24T22:20:04Z</time>
      </trkpt>
      <trkpt lat="35.954187" lon="120.204579">
        <ele>4.6</ele>
        <time>2015-03-24T22:20:08Z</time>
      </trkpt>
      <trkpt lat="35.954021" lon="120.204634">
        <ele>4.6</ele>
        <time>2015-03-24T22:20:12Z</time>
      </trkpt>
      <trkpt lat="35.953852" lon="120.20468">
        <ele>4.5</ele>
        <time>2015-03-24T22:20:16Z</time>
      </trkpt>
      <trkpt lat="35.953671" lon="120.204735">
        <ele>4.4</ele>
        <time>2015-03-24T22:20:20Z</time>
      </trkpt>
      <trkpt lat="35.953509" lon="120.204841">
        <ele>4.3</ele>
        <time>2015-03-24T22:20:24Z</time>
      </trkpt>
      <trkpt lat="35.953409" lon="120.205011">
        <ele>4.1</ele>
        <time>2015-03-24T22:20:28Z</time>
      </trkpt>
      <trkpt lat="35.95338" lon="120.205186">
        <ele>4.0</ele>
        <time>2015-03-24T22:20:32Z</time>
      </trkpt>
      <trkpt lat="35.953416" lon="120.20535">
        <ele>3.8</ele>
        <time>2015-03-24T22:20:36Z</time>
      </trkpt>
      <trkpt lat="35.953516" lon="120.205475">
        <ele>3.7</ele>
        <time>2015-03-24T22:20:40Z</time>
      </trkpt>
      <trkpt lat="35.953643" lon="120.205517">
        <ele>3.6</ele>
        <time>2015-03-24T22:20:44Z</time>
      </trkpt>
      <trkpt lat="35.953791" lon="120.205484">
        <ele>3.5</ele>
        <time>2015-03-24T22:20:48Z</time>
      </trkpt>
      <extensions>
        <breaktype>2</breaktype>
      </extensions>
    </trkseg>
  </trk>
  <extensions>
    <ssrlog>
      <logseg>
        <logpt time="2015-03-24T21:54:12Z">
          <spd>6.8</spd>
          <str>0.0</str>
        </logpt>
        <logpt time="2015-03-24T21:54:16Z">
          <spd>6.8</spd>
          <str>0.0</str>
        </logpt>
        <logpt time="2015-03-24T21:54:20Z">
          <spd>7.2</spd>
          <str>60.0</str>
        </logpt>
        <logpt time="2015-03-24T21:54:20Z">
          <spd>7.2</spd>
          <str>64.0</str>
        </logpt>
        <logpt time="2015-03-24T21:54:24Z">
          <spd>7.7</spd>
          <str>70.0</str>
        </logpt>
        <logpt time="2015-03-24T21:54:28Z">
          <spd>8.1</spd>
          <str>75.0</str>
        </logpt>
        <logpt time="2015-03-24T21:54:32Z">
          <spd>8.6</spd>
          <str>77.0</str>
        </logpt>
        <logpt time="2015-03-24T21:54:36Z">
          <spd>8.6</spd>
          <str>79.0</str>
        </logpt>
        <logpt time="2015-03-24T21:54:40Z">
          <spd>8.6</spd>
          <str>80.0</str>
        </logpt>
        <logpt time="2015-03-24T21:54:44Z">
          <spd>9.0</spd>
          <str>82.0</str>
        </logpt>
        <logpt time="2015-03-24T21:54:48Z">
          <spd>9.0</spd>
          <str>82.0</str>
        </logpt>
        <logpt time="2015-03-24T21:54:52Z">
          <spd>9.0</spd>
          <str>83.0</str>
        </logpt>
        <logpt time="2015-03-24T21:54:56Z">
          <spd>9.0</spd>
          <str>83.0</str>
        </logpt>
        <logpt time="2015-03-24T21:55:00Z">
          <spd>9.0</spd>
          <str>84.0</str>
        </logpt>
        <logpt time="2015-03-24T21:55:04Z">
          <spd>9.0</spd>
          <str>84.0</str>
        </logpt>
        <logpt time="2015-03-24T21:55:08Z">
          <spd>9.0</spd>
          <str>85.0</str>
        </logpt>
        <logpt time="2015-03-24T21:55:12Z">
          <spd>9.4</spd>
          <str>85.0</str>
        </logpt>
        <logpt time="2015-03-24T21:55:16Z">
          <spd>9.4</spd>
          <str>88.0</str>
        </logpt>
        <logpt time="2015-03-24T21:55:20Z">
          <spd>9.4</spd>
          <str>89.0</str>
        </logpt>
        <logpt time="2015-03-24T21:55:24Z">
          <spd>9.4</spd>
          <str>89.0</str>
        </logpt>
        <logpt time="2015-03-24T21:55:28Z">
          <spd>9.4</spd>
          <str>89.0</str>
        </logpt>
        <logpt time="2015-03-24T21:55:32Z">
          <spd>9.9</spd>
          <str>90.0</str>
        </logpt>
        <logpt time="2015-03-24T21:55:36Z">
          <spd>9.9</spd>
          <str>90.0</str>
        </logpt>
        <logpt time="2015-03-24T21:55:40Z">
          <spd>9.9</spd>
          <str>89.0</str>
        </logpt>
        <logpt time="2015-03-24T21:55:44Z">
          <spd>9.9</spd>
          <str>89.0</str>
        </logpt>
        <logpt time="2015-03-24T21:55:48Z">
          <spd>10.3</spd>
          <str>89.0</str>
        </logpt>
        <logpt time="2015-03-24T21:55:52Z">
          <spd>9.9</spd>
          <str>90.0</str>
        </logpt>
        <logpt time="2015-03-24T21:55:56Z">
          <spd>9.4</spd>
          <str>90.0</str>
        </logpt>
        <logpt time="2015-03-24T21:56:00Z">
          <spd>9.4</spd>
          <str>90.0</str>
        </logpt>
        <logpt time="2015-03-24T21:56:04Z">
          <spd>9.0</spd>
          <str>90.0</str>
        </logpt>
        <logpt time="2015-03-24T21:56:08Z">
          <spd>9.0</spd>
          <str>90.0</str>
        </logpt>
        <logpt time="2015-03-24T21:56:12Z">
          <spd>9.0</spd>
          <str>89.0</str>
        </logpt>
        <logpt time="2015-03-24T21:56:16Z">
          <spd>9.0</spd>
          <str>89.0</str>
        </logpt>
        <logpt time="2015-03-24T21:56:20Z">
          <spd>9.0</spd>
          <str>89.0</str>
        </logpt>
        <logpt time="2015-03-24T21:56:24Z">
          <spd>9.0</spd>
          <str>89.0</str>
        </logpt>
        <logpt time="2015-03-24T21:56:28Z">
          <spd>9.0</spd>
          <str>89.0</str>
        </logpt>
        <logpt time="2015-03-24T21:56:32Z">
          <spd>9.0</spd>
          <str>89.0</str>
        </logpt>
        <logpt time="2015-03-24T21:56:36Z">
          <spd>9.0</spd>
          <str>89.0</str>
        </logpt>
        <logpt time="2015-03-24T21:56:40Z">
          <spd>9.4</spd>
          <str>89.0</str>
        </logpt>
        <logpt time="2015-03-24T21:56:44Z">
          <spd>9.4</spd>
          <str>89.0</str>
        </logpt>
        <logpt time="2015-03-24T21:56:48Z">
          <spd>9.4</spd>
          <str>89.0</str>
        </logpt>
        <logpt time="2015-03-24T21:56:52Z">
          <spd>9.4</spd>
          <str>89.0</str>
        </logpt>
        <logpt time="2015-03-24T21:56:56Z">
          <spd>9.4</spd>
          <str>89.0</str>
        </logpt>
        <logpt time="2015-03-24T21:57:00Z">
          <spd>9.0</spd>
          <str>89.0</str>
        </logpt>
        <logpt time="2015-03-24T21:57:04Z">
          <spd>9.0</spd>
          <str>89.0</str>
        </logpt>
        <logpt time="2015-03-24T21:57:08Z">
          <spd>8.6</spd>
          <str>89.0</str>
        </logpt>
        <logpt time="2015-03-24T21:57:12Z">
          <spd>8.6</spd>
          <str>89.0</str>
        </logpt>
        <logpt time="2015-03-24T21:57:16Z">
          <spd>8.6</spd>
          <str>89.0</str>
        </logpt>
        <logpt time="2015-03-24T21:57:20Z">
          <spd>8.6</spd>
          <str>89.0</str>
        </logpt>
        <logpt time="2015-03-24T21:57:24Z">
          <spd>8.6</spd>
          <str>89.0</str>
        </logpt>
        <logpt time="2015-03-24T21:57:28Z">
          <spd>9.0</spd>
          <str>90.0</str>
        </logpt>
        <logpt time="2015-03-24T21:57:32Z">
          <spd>9.0</spd>
          <str>89.0</str>
        </logpt>
        <logpt time="2015-03-24T21:57:36Z">
          <spd>9.0</spd>
          <str>89.0</str>
        </logpt>
        <logpt time="2015-03-24T21:57:40Z">
          <spd>9.0</spd>
          <str>89.0</str>
        </logpt>
        <logpt time="2015-03-24T21:57:44Z">
          <spd>9.0</spd>
          <str>89.0</str>
        </logpt>
        <logpt time="2015-03-24T21:57:48Z">
          <spd>9.4</spd>
          <str>90.0</str>
        </logpt>
        <logpt time="2015-03-24T21:57:52Z">
          <spd>9.4</spd>
          <str>89.0</str>
        </logpt>
        <logpt time="2015-03-24T21:57:56Z">
          <spd>9.4</spd>
          <str>89.0</str>
        </logpt>
        <logpt time="2015-03-24T21:58:00Z">
          <spd>9.4</spd>
          <str>89.0</str>
        </logpt>
        <logpt time="2015-03-24T21:58:04Z">
          <spd>9.4</spd>
          <str>89.0</str>
        </logpt>
        <logpt time="2015-03-24T21:58:08Z">
          <spd>9.4</spd>
          <str>89.0</str>
        </logpt>
        <logpt time="2015-03-24T21:58:12Z">
          <spd>9.4</spd>
          <str>89.0</str>
        </logpt>
        <logpt time="2015-03-24T21:58:16Z">
          <spd>9.4</spd>
          <str>89.0</str>
        </logpt>
        <logpt time="2015-03-24T21:58:20Z">
          <spd>9.4</spd>
          <str>89.0</str>
        </logpt>
        <logpt time="2015-03-24T21:58:24Z">
          <spd>9.4</spd>
          <str>89.0</str>
        </logpt>
        <logpt time="2015-03-24T21:58:28Z">
          <spd>9.0</spd>
          <str>89.0</str>
        </logpt>
        <logpt time="2015-03-24T21:58:32Z">
          <spd>9.0</spd>
          <str>90.0</str>
        </logpt>
        <logpt time="2015-03-24T21:58:36Z">
          <spd>9.0</spd>
          <str>89.0</str>
        </logpt>
        <logpt time="2015-03-24T21:58:40Z">
          <spd>8.6</spd>
          <str>89.0</str>
        </logpt>
        <logpt time="2015-03-24T21:58:44Z">
          <spd>8.6</spd>
          <str>89.0</str>
        </logpt>
        <logpt time="2015-03-24T21:58:48Z">
          <spd>8.6</spd>
          <str>89.0</str>
        </logpt>
        <logpt time="2015-03-24T21:58:52Z">
          <spd>8.6</spd>
          <str>89.0</str>
        </logpt>
        <logpt time="2015-03-24T21:58:56Z">
          <spd>8.6</spd>
          <str>89.0</str>
        </logpt>
        <logpt time="2015-03-24T21:59:00Z">
          <spd>9.0</spd>
          <str>89.0</str>
        </logpt>
        <logpt time="2015-03-24T21:59:04Z">
          <spd>9.0</spd>
          <str>89.0</str>
        </logpt>
        <logpt time="2015-03-24T21:59:08Z">
          <spd>9.0</spd>
          <str>89.0</str>
        </logpt>
        <logpt time="2015-03-24T21:59:12Z">
          <spd>9.4</spd>
          <str>89.0</str>
        </logpt>
        <logpt time="2015-03-24T21:59:16Z">
          <spd>9.4</spd>
          <str>89.0</str>
        </logpt>
        <logpt time="2015-03-24T21:59:20Z">
          <spd>9.4</spd>
          <str>89.0</str>
        </logpt>
        <logpt time="2015-03-24T21:59:24Z">
          <spd>9.4</spd>
          <str>89.0</str>
        </logpt>
        <logpt time="2015-03-24T21:59:28Z">
          <spd>9.4</spd>
          <str>89.0</str>
        </logpt>
        <logpt time="2015-03-24T21:59:32Z">
          <spd>9.4</spd>
          <str>89.0</str>
        </logpt>
        <logpt time="2015-03-24T21:59:36Z">
          <spd>9.4</spd>
          <str>89.0</str>
        </logpt>
        <logpt time="2015-03-24T21:59:40Z">
          <spd>9.0</spd>
          <str>89.0</str>
        </logpt>
        <logpt time="2015-03-24T21:59:44Z">
          <spd>9.0</spd>
          <str>89.0</str>
        </logpt>
        <logpt time="2015-03-24T21:59:48Z">
          <spd>9.0</spd>
          <str>89.0</str>
        </logpt>
        <logpt time="2015-03-24T21:59:52Z">
          <spd>8.6</spd>
          <str>89.0</str>
        </logpt>
        <logpt time="2015-03-24T21:59:56Z">
          <spd>8.1</spd>
          <str>89.0</str>
        </logpt>
        <logpt time="2015-03-24T22:00:00Z">
          <spd>8.1</spd>
          <str>89.0</str>
        </logpt>
        <logpt time="2015-03-24T22:00:04Z">
          <spd>8.1</spd>
          <str>89.0</str>
        </logpt>
        <logpt time="2015-03-24T22:00:08Z">
          <spd>8.6</spd>
          <str>89.0</str>
        </logpt>
        <logpt time="2015-03-24T22:00:12Z">
          <spd>8.6</spd>
          <str>89.0</str>
        </logpt>
        <logpt time="2015-03-24T22:00:16Z">
          <spd>8.6</spd>
          <str>89.0</str>
        </logpt>
        <logpt time="2015-03-24T22:00:20Z">
          <spd>9.0</spd>
          <str>90.0</str>
        </logpt>
        <logpt time="2015-03-24T22:00:24Z">
          <spd>9.0</spd>
          <str>90.0</str>
        </logpt>
        <logpt time="2015-03-24T22:00:28Z">
          <spd>9.0</spd>
          <str>90.0</str>
        </logpt>
        <logpt time="2015-03-24T22:00:32Z">
          <spd>9.0</spd>
          <str>90.0</str>
        </logpt>
        <logpt time="2015-03-24T22:00:36Z">
          <spd>9.0</spd>
          <str>89.0</str>
        </logpt>
        <logpt time="2015-03-24T22:00:40Z">
          <spd>9.0</spd>
          <str>90.0</str>
        </logpt>
        <logpt time="2015-03-24T22:00:44Z">
          <spd>9.4</spd>
          <str>90.0</str>
        </logpt>
        <logpt time="2015-03-24T22:00:48Z">
          <spd>9.4</spd>
          <str>90.0</str>
        </logpt>
        <logpt time="2015-03-24T22:00:52Z">
          <spd>9.0</spd>
          <str>90.0</str>
        </logpt>
        <logpt time="2015-03-24T22:00:56Z">
          <spd>9.0</spd>
          <str>89.0</str>
        </logpt>
        <logpt time="2015-03-24T22:01:00Z">
          <spd>9.0</spd>
          <str>89.0</str>
        </logpt>
        <logpt time="2015-03-24T22:01:04Z">
          <spd>9.4</spd>
          <str>90.0</str>
        </logpt>
        <logpt time="2015-03-24T22:01:08Z">
          <spd>9.0</spd>
          <str>90.0</str>
        </logpt>
        <logpt time="2015-03-24T22:01:12Z">
          <spd>9.0</spd>
          <str>89.0</str>
        </logpt>
        <logpt time="2015-03-24T22:01:16Z">
          <spd>8.6</spd>
          <str>89.0</str>
        </logpt>
        <logpt time="2015-03-24T22:01:20Z">
          <spd>9.0</spd>
          <str>89.0</str>
        </logpt>
        <logpt time="2015-03-24T22:01:24Z">
          <spd>9.0</spd>
          <str>89.0</str>
        </logpt>
        <logpt time="2015-03-24T22:01:28Z">
          <spd>9.0</spd>
          <str>89.0</str>
        </logpt>
        <logpt time="2015-03-24T22:01:32Z">
          <spd>8.6</spd>
          <str>89.0</str>
        </logpt>
        <logpt time="2015-03-24T22:01:36Z">
          <spd>8.6</spd>
          <str>89.0</str>
        </logpt>
        <logpt time="2015-03-24T22:01:40Z">
          <spd>8.6</spd>
          <str>89.0</str>
        </logpt>
        <logpt time="2015-03-24T22:01:44Z">
          <spd>9.0</spd>
          <str>89.0</str>
        </logpt>
        <logpt time="2015-03-24T22:01:48Z">
          <spd>9.0</spd>
          <str>89.0</str>
        </logpt>
        <logpt time="2015-03-24T22:01:52Z">
          <spd>9.0</spd>
          <str>89.0</str>
        </logpt>
        <logpt time="2015-03-24T22:01:56Z">
          <spd>9.0</spd>
          <str>89.0</str>
        </logpt>
        <logpt time="2015-03-24T22:02:00Z">
          <spd>9.0</spd>
          <str>89.0</str>
        </logpt>
        <logpt time="2015-03-24T22:02:04Z">
          <spd>9.0</spd>
          <str>89.0</str>
        </logpt>
        <logpt time="2015-03-24T22:02:08Z">
          <spd>9.0</spd>
          <str>89.0</str>
        </logpt>
        <logpt time="2015-03-24T22:02:12Z">
          <spd>9.0</spd>
          <str>89.0</str>
        </logpt>
        <logpt time="2015-03-24T22:02:16Z">
          <spd>9.0</spd>
          <str>89.0</str>
        </logpt>
        <logpt time="2015-03-24T22:02:20Z">
          <spd>9.0</spd>
          <str>89.0</str>
        </logpt>
        <logpt time="2015-03-24T22:02:24Z">
          <spd>9.0</spd>
          <str>89.0</str>
        </logpt>
        <logpt time="2015-03-24T22:02:28Z">
          <spd>8.6</spd>
          <str>89.0</str>
        </logpt>
        <logpt time="2015-03-24T22:02:32Z">
          <spd>8.6</spd>
          <str>89.0</str>
        </logpt>
        <logpt time="2015-03-24T22:02:36Z">
          <spd>8.6</spd>
          <str>89.0</str>
        </logpt>
        <logpt time="2015-03-24T22:02:40Z">
          <spd>8.6</spd>
          <str>89.0</str>
        </logpt>
        <logpt time="2015-03-24T22:02:44Z">
          <spd>8.6</spd>
          <str>89.0</str>
        </logpt>
        <logpt time="2015-03-24T22:02:48Z">
          <spd>8.6</spd>
          <str>89.0</str>
        </logpt>
        <logpt time="2015-03-24T22:02:52Z">
          <spd>8.6</spd>
          <str>89.0</str>
        </logpt>
        <logpt time="2015-03-24T22:02:56Z">
          <spd>9.0</spd>
          <str>89.0</str>
        </logpt>
        <logpt time="2015-03-24T22:03:00Z">
          <spd>9.0</spd>
          <str>89.0</str>
        </logpt>
        <logpt time="2015-03-24T22:03:04Z">
          <spd>9.0</spd>
          <str>89.0</str>
        </logpt>
        <logpt time="2015-03-24T22:03:08Z">
          <spd>9.0</spd>
          <str>89.0</str>
        </logpt>
        <logpt time="2015-03-24T22:03:12Z">
          <spd>9.4</spd>
          <str>89.0</str>
        </logpt>
        <logpt time="2015-03-24T22:03:16Z">
          <spd>9.4</spd>
          <str>89.0</str>
        </logpt>
        <logpt time="2015-03-24T22:03:20Z">
          <spd>9.4</spd>
          <str>89.0</str>
        </logpt>
        <logpt time="2015-03-24T22:03:24Z">
          <spd>9.4</spd>
          <str>89.0</str>
        </logpt>
        <logpt time="2015-03-24T22:03:28Z">
          <spd>9.4</spd>
          <str>89.0</str>
        </logpt>
        <logpt time="2015-03-24T22:03:32Z">
          <spd>9.4</spd>
          <str>89.0</str>
        </logpt>
        <logpt time="2015-03-24T22:03:36Z">
          <spd>9.4</spd>
          <str>89.0</str>
        </logpt>
        <logpt time="2015-03-24T22:03:40Z">
          <spd>9.4</spd>
          <str>89.0</str>
        </logpt>
        <logpt time="2015-03-24T22:03:44Z">
          <spd>9.0</spd>
          <str>89.0</str>
        </logpt>
        <logpt time="2015-03-24T22:03:48Z">
          <spd>9.0</spd>
          <str>89.0</str>
        </logpt>
        <logpt time="2015-03-24T22:03:52Z">
          <spd>9.0</spd>
          <str>89.0</str>
        </logpt>
        <logpt time="2015-03-24T22:03:56Z">
          <spd>8.6</spd>
          <str>89.0</str>
        </logpt>
        <logpt time="2015-03-24T22:04:00Z">
          <spd>8.6</spd>
          <str>89.0</str>
        </logpt>
        <logpt time="2015-03-24T22:04:04Z">
          <spd>8.1</spd>
          <str>89.0</str>
        </logpt>
        <logpt time="2015-03-24T22:04:08Z">
          <spd>8.6</spd>
          <str>89.0</str>
        </logpt>
        <logpt time="2015-03-24T22:04:12Z">
          <spd>8.6</spd>
          <str>89.0</str>
        </logpt>
        <logpt time="2015-03-24T22:04:16Z">
          <spd>8.6</spd>
          <str>89.0</str>
        </logpt>
        <logpt time="2015-03-24T22:04:20Z">
          <spd>8.6</spd>
          <str>89.0</str>
        </logpt>
        <logpt time="2015-03-24T22:04:24Z">
          <spd>9.0</spd>
          <str>89.0</str>
        </logpt>
        <logpt time="2015-03-24T22:04:28Z">
          <spd>9.0</spd>
          <str>89.0</str>
        </logpt>
        <logpt time="2015-03-24T22:04:32Z">
          <spd>9.0</spd>
          <str>89.0</str>
        </logpt>
        <logpt time="2015-03-24T22:04:36Z">
          <spd>9.0</spd>
          <str>89.0</str>
        </logpt>
        <logpt time="2015-03-24T22:04:40Z">
          <spd>9.4</spd>
          <str>89.0</str>
        </logpt>
        <logpt time="2015-03-24T22:04:44Z">
          <spd>9.4</spd>
          <str>89.0</str>
        </logpt>
        <logpt time="2015-03-24T22:04:48Z">
          <spd>9.4</spd>
          <str>89.0</str>
        </logpt>
        <logpt time="2015-03-24T22:04:52Z">
          <spd>9.4</spd>
          <str>89.0</str>
        </logpt>
        <logpt time="2015-03-24T22:04:56Z">
          <spd>9.4</spd>
          <str>89.0</str>
        </logpt>
        <logpt time="2015-03-24T22:05:00Z">
          <spd>9.4</spd>
          <str>89.0</str>
        </logpt>
        <logpt time="2015-03-24T22:05:04Z">
          <spd>9.4</spd>
          <str>89.0</str>
        </logpt>
        <logpt time="2015-03-24T22:05:08Z">
          <spd>9.0</spd>
          <str>89.0</str>
        </logpt>
        <logpt time="2015-03-24T22:05:12Z">
          <spd>9.0</spd>
          <str>89.0</str>
        </logpt>
        <logpt time="2015-03-24T22:05:16Z">
          <spd>9.0</spd>
          <str>89.0</str>
        </logpt>
        <logpt time="2015-03-24T22:05:20Z">
          <spd>8.6</spd>
          <str>89.0</str>
        </logpt>
        <logpt time="2015-03-24T22:05:24Z">
          <spd>8.6</spd>
          <str>89.0</str>
        </logpt>
        <logpt time="2015-03-24T22:05:28Z">
          <spd>9.0</spd>
          <str>89.0</str>
        </logpt>
        <logpt time="2015-03-24T22:05:32Z">
          <spd>9.0</spd>
          <str>89.0</str>
        </logpt>
        <logpt time="2015-03-24T22:05:36Z">
          <spd>9.0</spd>
          <str>89.0</str>
        </logpt>
        <logpt time="2015-03-24T22:05:40Z">
          <spd>9.0</spd>
          <str>89.0</str>
        </logpt>
        <logpt time="2015-03-24T22:05:44Z">
          <spd>9.0</spd>
          <str>89.0</str>
        </logpt>
        <logpt time="2015-03-24T22:05:48Z">
          <spd>9.0</spd>
          <str>89.0</str>
        </logpt>
        <logpt time="2015-03-24T22:05:52Z">
          <spd>9.0</spd>
          <str>89.0</str>
        </logpt>
        <logpt time="2015-03-24T22:05:56Z">
          <spd>9.0</spd>
          <str>89.0</str>
        </logpt>
        <logpt time="2015-03-24T22:06:00Z">
          <spd>9.4</spd>
          <str>89.0</str>
        </logpt>
        <logpt time="2015-03-24T22:06:04Z">
          <spd>9.0</spd>
          <str>89.0</str>
        </logpt>
        <logpt time="2015-03-24T22:06:08Z">
          <spd>8.6</spd>
          <str>89.0</str>
        </logpt>
        <logpt time="2015-03-24T22:06:12Z">
          <spd>8.6</spd>
          <str>89.0</str>
        </logpt>
        <logpt time="2015-03-24T22:06:16Z">
          <spd>9.0</spd>
          <str>89.0</str>
        </logpt>
        <logpt time="2015-03-24T22:06:20Z">
          <spd>9.0</spd>
          <str>89.0</str>
        </logpt>
        <logpt time="2015-03-24T22:06:24Z">
          <spd>9.0</spd>
          <str>89.0</str>
        </logpt>
        <logpt time="2015-03-24T22:06:28Z">
          <spd>9.0</spd>
          <str>89.0</str>
        </logpt>
        <logpt time="2015-03-24T22:06:32Z">
          <spd>9.0</spd>
          <str>89.0</str>
        </logpt>
        <logpt time="2015-03-24T22:06:36Z">
          <spd>8.6</spd>
          <str>89.0</str>
        </logpt>
        <logpt time="2015-03-24T22:06:40Z">
          <spd>8.6</spd>
          <str>89.0</str>
        </logpt>
        <logpt time="2015-03-24T22:06:44Z">
          <spd>9.0</spd>
          <str>89.0</str>
        </logpt>
        <logpt time="2015-03-24T22:06:48Z">
          <spd>9.0</spd>
          <str>89.0</str>
        </logpt>
        <logpt time="2015-03-24T22:06:52Z">
          <spd>9.0</spd>
          <str>89.0</str>
        </logpt>
        <logpt time="2015-03-24T22:06:56Z">
          <spd>8.6</spd>
          <str>89.0</str>
        </logpt>
        <logpt time="2015-03-24T22:07:00Z">
          <spd>8.6</spd>
          <str>89.0</str>
        </logpt>
        <logpt time="2015-03-24T22:07:04Z">
          <spd>8.6</spd>
          <str>89.0</str>
        </logpt>
        <logpt time="2015-03-24T22:07:08Z">
          <spd>9.0</spd>
          <str>89.0</str>
        </logpt>
        <logpt time="2015-03-24T22:07:12Z">
          <spd>9.0</spd>
          <str>89.0</str>
        </logpt>
        <logpt time="2015-03-24T22:07:16Z">
          <spd>9.0</spd>
          <str>89.0</str>
        </logpt>
        <logpt time="2015-03-24T22:07:20Z">
          <spd>9.4</spd>
          <str>89.0</str>
        </logpt>
        <logpt time="2015-03-24T22:07:24Z">
          <spd>9.4</spd>
          <str>89.0</str>
        </logpt>
        <logpt time="2015-03-24T22:07:28Z">
          <spd>9.4</spd>
          <str>89.0</str>
        </logpt>
        <logpt time="2015-03-24T22:07:32Z">
          <spd>9.0</spd>
          <str>88.0</str>
        </logpt>
        <logpt time="2015-03-24T22:07:36Z">
          <spd>9.0</spd>
          <str>89.0</str>
        </logpt>
        <logpt time="2015-03-24T22:07:40Z">
          <spd>9.0</spd>
          <str>89.0</str>
        </logpt>
        <logpt time="2015-03-24T22:07:44Z">
          <spd>9.0</spd>
          <str>89.0</str>
        </logpt>
        <logpt time="2015-03-24T22:07:48Z">
          <spd>9.0</spd>
          <str>88.0</str>
        </logpt>
        <logpt time="2015-03-24T22:07:52Z">
          <spd>9.0</spd>
          <str>89.0</str>
        </logpt>
        <logpt time="2015-03-24T22:07:56Z">
          <spd>9.0</spd>
          <str>89.0</str>
        </logpt>
        <logpt time="2015-03-24T22:08:00Z">
          <spd>9.0</spd>
          <str>88.0</str>
        </logpt>
        <logpt time="2015-03-24T22:08:04Z">
          <spd>9.0</spd>
          <str>88.0</str>
        </logpt>
        <logpt time="2015-03-24T22:08:08Z">
          <spd>9.4</spd>
          <str>89.0</str>
        </logpt>
        <logpt time="2015-03-24T22:08:12Z">
          <spd>9.4</spd>
          <str>89.0</str>
        </logpt>
        <logpt time="2015-03-24T22:08:16Z">
          <spd>9.4</spd>
          <str>88.0</str>
        </logpt>
        <logpt time="2015-03-24T22:08:20Z">
          <spd>9.0</spd>
          <str>89.0</str>
        </logpt>
        <logpt time="2015-03-24T22:08:24Z">
          <spd>9.0</spd>
          <str>89.0</str>
        </logpt>
        <logpt time="2015-03-24T22:08:28Z">
          <spd>9.0</spd>
          <str>89.0</str>
        </logpt>
        <logpt time="2015-03-24T22:08:32Z">
          <spd>9.4</spd>
          <str>89.0</str>
        </logpt>
        <logpt time="2015-03-24T22:08:36Z">
          <spd>9.4</spd>
          <str>89.0</str>
        </logpt>
        <logpt time="2015-03-24T22:08:40Z">
          <spd>9.9</spd>
          <str>89.0</str>
        </logpt>
        <logpt time="2015-03-24T22:08:44Z">
          <spd>9.9</spd>
          <str>89.0</str>
        </logpt>
        <logpt time="2015-03-24T22:08:48Z">
          <spd>10.3</spd>
          <str>89.0</str>
        </logpt>
        <logpt time="2015-03-24T22:08:52Z">
          <spd>10.3</spd>
          <str>89.0</str>
        </logpt>
        <logpt time="2015-03-24T22:08:56Z">
          <spd>10.3</spd>
          <str>89.0</str>
        </logpt>
        <logpt time="2015-03-24T22:09:00Z">
          <spd>10.3</spd>
          <str>89.0</str>
        </logpt>
        <logpt time="2015-03-24T22:09:04Z">
          <spd>9.9</spd>
          <str>89.0</str>
        </logpt>
        <logpt time="2015-03-24T22:09:08Z">
          <spd>9.4</spd>
          <str>89.0</str>
        </logpt>
        <logpt time="2015-03-24T22:09:12Z">
          <spd>9.4</spd>
          <str>89.0</str>
        </logpt>
        <logpt time="2015-03-24T22:09:16Z">
          <spd>9.4</spd>
          <str>90.0</str>
        </logpt>
        <logpt time="2015-03-24T22:09:20Z">
          <spd>9.4</spd>
          <str>89.0</str>
        </logpt>
        <logpt time="2015-03-24T22:09:24Z">
          <spd>9.0</spd>
          <str>89.0</str>
        </logpt>
        <logpt time="2015-03-24T22:09:28Z">
          <spd>9.0</spd>
          <str>89.0</str>
        </logpt>
        <logpt time="2015-03-24T22:09:32Z">
          <spd>9.0</spd>
          <str>89.0</str>
        </logpt>
        <logpt time="2015-03-24T22:09:36Z">
          <spd>9.0</spd>
          <str>89.0</str>
        </logpt>
        <logpt time="2015-03-24T22:09:40Z">
          <spd>9.4</spd>
          <str>89.0</str>
        </logpt>
        <logpt time="2015-03-24T22:09:44Z">
          <spd>9.4</spd>
          <str>89.0</str>
        </logpt>
        <logpt time="2015-03-24T22:09:48Z">
          <spd>9.4</spd>
          <str>89.0</str>
        </logpt>
        <logpt time="2015-03-24T22:09:52Z">
          <spd>9.4</spd>
          <str>89.0</str>
        </logpt>
        <logpt time="2015-03-24T22:09:56Z">
          <spd>9.4</spd>
          <str>89.0</str>
        </logpt>
        <logpt time="2015-03-24T22:10:00Z">
          <spd>9.9</spd>
          <str>89.0</str>
        </logpt>
        <logpt time="2015-03-24T22:10:04Z">
          <spd>9.9</spd>
          <str>89.0</str>
        </logpt>
        <logpt time="2015-03-24T22:10:08Z">
          <spd>9.9</spd>
          <str>89.0</str>
        </logpt>
        <logpt time="2015-03-24T22:10:12Z">
          <spd>9.9</spd>
          <str>89.0</str>
        </logpt>
        <logpt time="2015-03-24T22:10:16Z">
          <spd>9.9</spd>
          <str>89.0</str>
        </logpt>
        <logpt time="2015-03-24T22:10:20Z">
          <spd>9.4</spd>
          <str>89.0</str>
        </logpt>
        <logpt time="2015-03-24T22:10:24Z">
          <spd>9.4</spd>
          <str>89.0</str>
        </logpt>
        <logpt time="2015-03-24T22:10:28Z">
          <spd>9.4</spd>
          <str>89.0</str>
        </logpt>
        <logpt time="2015-03-24T22:10:32Z">
          <spd>9.0</spd>
          <str>89.0</str>
        </logpt>
        <logpt time="2015-03-24T22:10:36Z">
          <spd>9.4</spd>
          <str>89.0</str>
        </logpt>
        <logpt time="2015-03-24T22:10:40Z">
          <spd>9.4</spd>
          <str>90.0</str>
        </logpt>
        <logpt time="2015-03-24T22:10:44Z">
          <spd>9.4</spd>
          <str>90.0</str>
        </logpt>
        <logpt time="2015-03-24T22:10:48Z">
          <spd>9.4</spd>
          <str>89.0</str>
        </logpt>
        <logpt time="2015-03-24T22:10:52Z">
          <spd>9.4</spd>
          <str>89.0</str>
        </logpt>
        <logpt time="2015-03-24T22:10:56Z">
          <spd>9.4</spd>
          <str>90.0</str>
        </logpt>
        <logpt time="2015-03-24T22:11:00Z">
          <spd>9.9</spd>
          <str>90.0</str>
        </logpt>
        <logpt time="2015-03-24T22:11:04Z">
          <spd>9.9</spd>
          <str>90.0</str>
        </logpt>
        <logpt time="2015-03-24T22:11:08Z">
          <spd>9.4</spd>
          <str>89.0</str>
        </logpt>
        <logpt time="2015-03-24T22:11:12Z">
          <spd>9.4</spd>
          <str>89.0</str>
        </logpt>
        <logpt time="2015-03-24T22:11:16Z">
          <spd>9.9</spd>
          <str>90.0</str>
        </logpt>
        <logpt time="2015-03-24T22:11:20Z">
          <spd>9.9</spd>
          <str>90.0</str>
        </logpt>
        <logpt time="2015-03-24T22:11:24Z">
          <spd>9.9</spd>
          <str>90.0</str>
        </logpt>
        <logpt time="2015-03-24T22:11:28Z">
          <spd>9.9</spd>
          <str>89.0</str>
        </logpt>
        <logpt time="2015-03-24T22:11:32Z">
          <spd>9.4</spd>
          <str>89.0</str>
        </logpt>
        <logpt time="2015-03-24T22:11:36Z">
          <spd>9.4</spd>
          <str>89.0</str>
        </logpt>
        <logpt time="2015-03-24T22:11:40Z">
          <spd>9.0</spd>
          <str>89.0</str>
        </logpt>
        <logpt time="2015-03-24T22:11:44Z">
          <spd>9.0</spd>
          <str>89.0</str>
        </logpt>
        <logpt time="2015-03-24T22:11:48Z">
          <spd>9.0</spd>
          <str>89.0</str>
        </logpt>
        <logpt time="2015-03-24T22:11:52Z">
          <spd>9.4</spd>
          <str>89.0</str>
        </logpt>
        <logpt time="2015-03-24T22:11:56Z">
          <spd>9.4</spd>
          <str>89.0</str>
        </logpt>
        <logpt time="2015-03-24T22:12:00Z">
          <spd>9.4</spd>
          <str>89.0</str>
        </logpt>
        <logpt time="2015-03-24T22:12:04Z">
          <spd>9.4</spd>
          <str>89.0</str>
        </logpt>
        <logpt time="2015-03-24T22:12:08Z">
          <spd>9.9</spd>
          <str>89.0</str>
        </logpt>
        <logpt time="2015-03-24T22:12:12Z">
          <spd>9.4</spd>
          <str>89.0</str>
        </logpt>
        <logpt time="2015-03-24T22:12:16Z">
          <spd>9.9</spd>
          <str>89.0</str>
        </logpt>
        <logpt time="2015-03-24T22:12:20Z">
          <spd>9.9</spd>
          <str>89.0</str>
        </logpt>
        <logpt time="2015-03-24T22:12:24Z">
          <spd>9.9</spd>
          <str>89.0</str>
        </logpt>
        <logpt time="2015-03-24T22:12:28Z">
          <spd>9.9</spd>
          <str>89.0</str>
        </logpt>
        <logpt time="2015-03-24T22:12:32Z">
          <spd>9.9</spd>
          <str>89.0</str>
        </logpt>
        <logpt time="2015-03-24T22:12:36Z">
          <spd>9.9</spd>
          <str>89.0</str>
        </logpt>
        <logpt time="2015-03-24T22:12:40Z">
          <spd>9.9</spd>
          <str>89.0</str>
        </logpt>
        <logpt time="2015-03-24T22:12:44Z">
          <spd>9.9</spd>
          <str>89.0</str>
        </logpt>
        <logpt time="2015-03-24T22:12:48Z">
          <spd>9.9</spd>
          <str>89.0</str>
        </logpt>
        <logpt time="2015-03-24T22:12:52Z">
          <spd>9.9</spd>
          <str>89.0</str>
        </logpt>
        <logpt time="2015-03-24T22:12:56Z">
          <spd>9.4</spd>
          <str>89.0</str>
        </logpt>
        <logpt time="2015-03-24T22:13:00Z">
          <spd>9.4</spd>
          <str>89.0</str>
        </logpt>
        <logpt time="2015-03-24T22:13:04Z">
          <spd>9.4</spd>
          <str>89.0</str>
        </logpt>
        <logpt time="2015-03-24T22:13:08Z">
          <spd>9.4</spd>
          <str>89.0</str>
        </logpt>
        <logpt time="2015-03-24T22:13:12Z">
          <spd>9.9</spd>
          <str>89.0</str>
        </logpt>
        <logpt time="2015-03-24T22:13:16Z">
          <spd>9.9</spd>
          <str>89.0</str>
        </logpt>
        <logpt time="2015-03-24T22:13:20Z">
          <spd>9.9</spd>
          <str>89.0</str>
        </logpt>
        <logpt time="2015-03-24T22:13:24Z">
          <spd>9.9</spd>
          <str>89.0</str>
        </logpt>
        <logpt time="2015-03-24T22:13:28Z">
          <spd>9.9</spd>
          <str>89.0</str>
        </logpt>
        <logpt time="2015-03-24T22:13:32Z">
          <spd>9.9</spd>
          <str>89.0</str>
        </logpt>
        <logpt time="2015-03-24T22:13:36Z">
          <spd>9.9</spd>
          <str>89.0</str>
        </logpt>
        <logpt time="2015-03-24T22:13:40Z">
          <spd>9.9</spd>
          <str>89.0</str>
        </logpt>
        <logpt time="2015-03-24T22:13:44Z">
          <spd>9.9</spd>
          <str>89.0</str>
        </logpt>
        <logpt time="2015-03-24T22:13:48Z">
          <spd>9.9</spd>
          <str>90.0</str>
        </logpt>
        <logpt time="2015-03-24T22:13:52Z">
          <spd>10.3</spd>
          <str>90.0</str>
        </logpt>
        <logpt time="2015-03-24T22:13:56Z">
          <spd>10.3</spd>
          <str>90.0</str>
        </logpt>
        <logpt time="2015-03-24T22:14:00Z">
          <spd>9.9</spd>
          <str>89.0</str>
        </logpt>
        <logpt time="2015-03-24T22:14:04Z">
          <spd>9.4</spd>
          <str>90.0</str>
        </logpt>
        <logpt time="2015-03-24T22:14:08Z">
          <spd>9.0</spd>
          <str>90.0</str>
        </logpt>
        <logpt time="2015-03-24T22:14:12Z">
          <spd>9.0</spd>
          <str>90.0</str>
        </logpt>
        <logpt time="2015-03-24T22:14:16Z">
          <spd>9.4</spd>
          <str>90.0</str>
        </logpt>
        <logpt time="2015-03-24T22:14:20Z">
          <spd>9.4</spd>
          <str>89.0</str>
        </logpt>
        <logpt time="2015-03-24T22:14:24Z">
          <spd>9.4</spd>
          <str>89.0</str>
        </logpt>
        <logpt time="2015-03-24T22:14:28Z">
          <spd>9.4</spd>
          <str>90.0</str>
        </logpt>
        <logpt time="2015-03-24T22:14:32Z">
          <spd>9.4</spd>
          <str>90.0</str>
        </logpt>
        <logpt time="2015-03-24T22:14:36Z">
          <spd>9.4</spd>
          <str>90.0</str>
        </logpt>
        <logpt time="2015-03-24T22:14:40Z">
          <spd>9.4</spd>
          <str>90.0</str>
        </logpt>
        <logpt time="2015-03-24T22:14:44Z">
          <spd>9.9</spd>
          <str>90.0</str>
        </logpt>
        <logpt time="2015-03-24T22:14:48Z">
          <spd>9.9</spd>
          <str>89.0</str>
        </logpt>
        <logpt time="2015-03-24T22:14:52Z">
          <spd>9.9</spd>
          <str>89.0</str>
        </logpt>
        <logpt time="2015-03-24T22:14:56Z">
          <spd>9.9</spd>
          <str>89.0</str>
        </logpt>
        <logpt time="2015-03-24T22:15:00Z">
          <spd>9.9</spd>
          <str>90.0</str>
        </logpt>
        <logpt time="2015-03-24T22:15:04Z">
          <spd>9.9</spd>
          <str>89.0</str>
        </logpt>
        <logpt time="2015-03-24T22:15:08Z">
          <spd>9.9</spd>
          <str>89.0</str>
        </logpt>
        <logpt time="2015-03-24T22:15:12Z">
          <spd>9.9</spd>
          <str>89.0</str>
        </logpt>
        <logpt time="2015-03-24T22:15:16Z">
          <spd>9.9</spd>
          <str>89.0</str>
        </logpt>
        <logpt time="2015-03-24T22:15:20Z">
          <spd>9.9</spd>
          <str>90.0</str>
        </logpt>
        <logpt time="2015-03-24T22:15:24Z">
          <spd>9.9</spd>
          <str>90.0</str>
        </logpt>
        <logpt time="2015-03-24T22:15:28Z">
          <spd>9.9</spd>
          <str>90.0</str>
        </logpt>
        <logpt time="2015-03-24T22:15:32Z">
          <spd>9.9</spd>
          <str>90.0</str>
        </logpt>
        <logpt time="2015-03-24T22:15:36Z">
          <spd>9.9</spd>
          <str>90.0</str>
        </logpt>
        <logpt time="2015-03-24T22:15:40Z">
          <spd>10.3</spd>
          <str>89.0</str>
        </logpt>
        <logpt time="2015-03-24T22:15:44Z">
          <spd>10.3</spd>
          <str>89.0</str>
        </logpt>
        <logpt time="2015-03-24T22:15:48Z">
          <spd>10.8</spd>
          <str>90.0</str>
        </logpt>
        <logpt time="2015-03-24T22:15:52Z">
          <spd>10.8</spd>
          <str>90.0</str>
        </logpt>
        <logpt time="2015-03-24T22:15:56Z">
          <spd>10.8</spd>
          <str>90.0</str>
        </logpt>
        <logpt time="2015-03-24T22:16:00Z">
          <spd>11.3</spd>
          <str>90.0</str>
        </logpt>
        <logpt time="2015-03-24T22:16:04Z">
          <spd>11.3</spd>
          <str>90.0</str>
        </logpt>
        <logpt time="2015-03-24T22:16:08Z">
          <spd>11.7</spd>
          <str>90.0</str>
        </logpt>
        <logpt time="2015-03-24T22:16:12Z">
          <spd>11.7</spd>
          <str>90.0</str>
        </logpt>
        <logpt time="2015-03-24T22:16:16Z">
          <spd>11.3</spd>
          <str>90.0</str>
        </logpt>
        <logpt time="2015-03-24T22:16:20Z">
          <spd>10.8</spd>
          <str>90.0</str>
        </logpt>
        <logpt time="2015-03-24T22:16:24Z">
          <spd>9.9</spd>
          <str>90.0</str>
        </logpt>
        <logpt time="2015-03-24T22:16:28Z">
          <spd>9.4</spd>
          <str>90.0</str>
        </logpt>
        <logpt time="2015-03-24T22:16:32Z">
          <spd>9.4</spd>
          <str>90.0</str>
        </logpt>
        <logpt time="2015-03-24T22:16:36Z">
          <spd>9.9</spd>
          <str>90.0</str>
        </logpt>
        <logpt time="2015-03-24T22:16:40Z">
          <spd>9.9</spd>
          <str>91.0</str>
        </logpt>
        <logpt time="2015-03-24T22:16:44Z">
          <spd>9.9</spd>
          <str>91.0</str>
        </logpt>
        <logpt time="2015-03-24T22:16:48Z">
          <spd>9.9</spd>
          <str>90.0</str>
        </logpt>
        <logpt time="2015-03-24T22:16:52Z">
          <spd>9.9</spd>
          <str>90.0</str>
        </logpt>
        <logpt time="2015-03-24T22:16:56Z">
          <spd>9.9</spd>
          <str>90.0</str>
        </logpt>
        <logpt time="2015-03-24T22:17:00Z">
          <spd>10.3</spd>
          <str>90.0</str>
        </logpt>
        <logpt time="2015-03-24T22:17:04Z">
          <spd>10.3</spd>
          <str>90.0</str>
        </logpt>
        <logpt time="2015-03-24T22:17:08Z">
          <spd>10.3</spd>
          <str>90.0</str>
        </logpt>
        <logpt time="2015-03-24T22:17:12Z">
          <spd>10.3</spd>
          <str>90.0</str>
        </logpt>
        <logpt time="2015-03-24T22:17:16Z">
          <spd>10.3</spd>
          <str>90.0</str>
        </logpt>
        <logpt time="2015-03-24T22:17:20Z">
          <spd>10.3</spd>
          <str>90.0</str>
        </logpt>
        <logpt time="2015-03-24T22:17:24Z">
          <spd>10.3</spd>
          <str>90.0</str>
        </logpt>
        <logpt time="2015-03-24T22:17:28Z">
          <spd>10.3</spd>
          <str>90.0</str>
        </logpt>
        <logpt time="2015-03-24T22:17:32Z">
          <spd>10.3</spd>
          <str>90.0</str>
        </logpt>
        <logpt time="2015-03-24T22:17:36Z">
          <spd>10.3</spd>
          <str>90.0</str>
        </logpt>
        <logpt time="2015-03-24T22:17:40Z">
          <spd>10.3</spd>
          <str>90.0</str>
        </logpt>
        <logpt time="2015-03-24T22:17:44Z">
          <spd>9.9</spd>
          <str>90.0</str>
        </logpt>
        <logpt time="2015-03-24T22:17:48Z">
          <spd>9.9</spd>
          <str>90.0</str>
        </logpt>
        <logpt time="2015-03-24T22:17:52Z">
          <spd>9.9</spd>
          <str>90.0</str>
        </logpt>
        <logpt time="2015-03-24T22:17:56Z">
          <spd>9.9</spd>
          <str>90.0</str>
        </logpt>
        <logpt time="2015-03-24T22:18:00Z">
          <spd>10.3</spd>
          <str>90.0</str>
        </logpt>
        <logpt time="2015-03-24T22:18:04Z">
          <spd>10.3</spd>
          <str>90.0</str>
        </logpt>
        <logpt time="2015-03-24T22:18:08Z">
          <spd>10.8</spd>
          <str>90.0</str>
        </logpt>
        <logpt time="2015-03-24T22:18:12Z">
          <spd>10.8</spd>
          <str>90.0</str>
        </logpt>
        <logpt time="2015-03-24T22:18:16Z">
          <spd>11.3</spd>
          <str>90.0</str>
        </logpt>
        <logpt time="2015-03-24T22:18:20Z">
          <spd>11.7</spd>
          <str>90.0</str>
        </logpt>
        <logpt time="2015-03-24T22:18:24Z">
          <spd>11.7</spd>
          <str>90.0</str>
        </logpt>
        <logpt time="2015-03-24T22:18:28Z">
          <spd>11.7</spd>
          <str>90.0</str>
        </logpt>
        <logpt time="2015-03-24T22:18:32Z">
          <spd>11.7</spd>
          <str>90.0</str>
        </logpt>
        <logpt time="2015-03-24T22:18:36Z">
          <spd>11.7</spd>
          <str>90.0</str>
        </logpt>
        <logpt time="2015-03-24T22:18:40Z">
          <spd>11.3</spd>
          <str>90.0</str>
        </logpt>
        <logpt time="2015-03-24T22:18:44Z">
          <spd>10.8</spd>
          <str>90.0</str>
        </logpt>
        <logpt time="2015-03-24T22:18:48Z">
          <spd>10.8</spd>
          <str>90.0</str>
        </logpt>
        <logpt time="2015-03-24T22:18:52Z">
          <spd>10.8</spd>
          <str>90.0</str>
        </logpt>
        <logpt time="2015-03-24T22:18:56Z">
          <spd>10.8</spd>
          <str>90.0</str>
        </logpt>
        <logpt time="2015-03-24T22:19:00Z">
          <spd>10.8</spd>
          <str>90.0</str>
        </logpt>
        <logpt time="2015-03-24T22:19:04Z">
          <spd>10.8</spd>
          <str>90.0</str>
        </logpt>
        <logpt time="2015-03-24T22:19:08Z">
          <spd>10.8</spd>
          <str>90.0</str>
        </logpt>
        <logpt time="2015-03-24T22:19:12Z">
          <spd>11.3</spd>
          <str>90.0</str>
        </logpt>
        <logpt time="2015-03-24T22:19:16Z">
          <spd>11.7</spd>
          <str>90.0</str>
        </logpt>
        <logpt time="2015-03-24T22:19:20Z">
          <spd>12.6</spd>
          <str>90.0</str>
        </logpt>
        <logpt time="2015-03-24T22:19:24Z">
          <spd>12.6</spd>
          <str>90.0</str>
        </logpt>
        <logpt time="2015-03-24T22:19:28Z">
          <spd>12.6</spd>
          <str>90.0</str>
        </logpt>
        <logpt time="2015-03-24T22:19:32Z">
          <spd>12.6</spd>
          <str>90.0</str>
        </logpt>
        <logpt time="2015-03-24T22:19:36Z">
          <spd>12.6</spd>
          <str>89.0</str>
        </logpt>
        <logpt time="2015-03-24T22:19:40Z">
          <spd>13.1</spd>
          <str>90.0</str>
        </logpt>
        <logpt time="2015-03-24T22:19:44Z">
          <spd>13.1</spd>
          <str>90.0</str>
        </logpt>
        <logpt time="2015-03-24T22:19:48Z">
          <spd>13.1</spd>
          <str>90.0</str>
        </logpt>
        <logpt time="2015-03-24T22:19:52Z">
          <spd>12.6</spd>
          <str>90.0</str>
        </logpt>
        <logpt time="2015-03-24T22:19:56Z">
          <spd>12.6</spd>
          <str>90.0</str>
        </logpt>
        <logpt time="2015-03-24T22:20:00Z">
          <spd>12.6</spd>
          <str>91.0</str>
        </logpt>
        <logpt time="2015-03-24T22:20:04Z">
          <spd>13.1</spd>
          <str>91.0</str>
        </logpt>
        <logpt time="2015-03-24T22:20:08Z">
          <spd>13.9</spd>
          <str>91.0</str>
        </logpt>
        <logpt time="2015-03-24T22:20:12Z">
          <spd>16.2</spd>
          <str>91.0</str>
        </logpt>
        <logpt time="2015-03-24T22:20:16Z">
          <spd>17.1</spd>
          <str>92.0</str>
        </logpt>
        <logpt time="2015-03-24T22:20:20Z">
          <spd>18.0</spd>
          <str>91.0</str>
        </logpt>
        <logpt time="2015-03-24T22:20:24Z">
          <spd>18.0</spd>
          <str>90.0</str>
        </logpt>
        <logpt time="2015-03-24T22:20:28Z">
          <spd>16.6</spd>
          <str>90.0</str>
        </logpt>
        <logpt time="2015-03-24T22:20:32Z">
          <spd>16.2</spd>
          <str>90.0</str>
        </logpt>
        <logpt time="2015-03-24T22:20:36Z">
          <spd>15.8</spd>
          <str>91.0</str>
        </logpt>
        <logpt time="2015-03-24T22:20:40Z">
          <spd>15.3</spd>
          <str>90.0</str>
        </logpt>
        <logpt time="2015-03-24T22:20:44Z">
          <spd>15.3</spd>
          <str>90.0</str>
        </logpt>
        <logpt time="2015-03-24T22:20:48Z">
          <spd>15.3</spd>
          <str>90.0</str>
        </logpt>
        <breaktype>2</breaktype>
      </logseg>
    </ssrlog>
    <laps>
      <summary start="2015-03-24T21:54:11Z" type="0" end="2015-03-24T22:26:13Z" isautolap="0">
        <distance>4354</distance>
        <calorie>240</calorie>
        <speed max="13.95" avg="9.9"/>
        <cad max="92" avg="88"/>
        <rtime>1596</rtime>
        <acttype subtype="0">1</acttype>
      </summary>
    </laps>
  </extensions>
</gpx>
