<?xml version='1.0' encoding='utf-8'?>
<gpx xmlns:xsi="http://www.w3.org/2001/XMLSchema-instance" xmlns="http://www.brytonsport.com/BDX/2/2" version="2.2.0.3" creator="bryton">
  <metadata>
    <name>2015/04/17 05:34</name>
    <time>2015-04-16T21:34:02Z</time>
    <bounds minlat="35.95239" maxlon="120.226692" minlon="120.207202" maxlat="35.966318"/>
    <extensions>
      <user>
        <bike>0<wheel>204.00</wheel></bike>
        <weight>68</weight>
        <gender>1</gender>
        <height>172</height>
        <age>28</age>
        <mhr>190</mhr>
        <lthr>172</lthr>
        <map>0</map>
        <ftp>0</ftp>
        <zonedef type="1">
          <zone high="74" id="1" low="0"/>
          <zone high="80" id="2" low="74"/>
          <zone high="85" id="3" low="80"/>
          <zone high="91" id="4" low="85"/>
          <zone high="93" id="5" low="91"/>
          <zone high="95" id="6" low="93"/>
          <zone high="0" id="7" low="95"/>
        </zonedef>
        <zonedef type="2">
          <zone high="80" id="1" low="0"/>
          <zone high="87" id="2" low="80"/>
          <zone high="91" id="3" low="87"/>
          <zone high="100" id="4" low="91"/>
          <zone high="101" id="5" low="100"/>
          <zone high="105" id="6" low="101"/>
          <zone high="0" id="7" low="105"/>
        </zonedef>
        <zonedef type="3">
          <zone high="40" id="1" low="17"/>
          <zone high="55" id="2" low="40"/>
          <zone high="65" id="3" low="55"/>
          <zone high="75" id="4" low="65"/>
          <zone high="85" id="5" low="75"/>
          <zone high="110" id="6" low="85"/>
          <zone high="65535" id="7" low="110"/>
        </zonedef>
        <zonedef type="4">
          <zone high="55" id="1" low="23"/>
          <zone high="75" id="2" low="55"/>
          <zone high="90" id="3" low="75"/>
          <zone high="105" id="4" low="90"/>
          <zone high="120" id="5" low="105"/>
          <zone high="150" id="6" low="120"/>
          <zone high="65535" id="7" low="150"/>
        </zonedef>
      </user>
      <sys version="1.0.0.R041 BB2.8.0.14">Cardio60<apps><app version="148" name="bc"/></apps></sys>
      <sharetype>2</sharetype>
      <acttype subtype="0">1</acttype>
      <trvTime>26</trvTime>
      <trvDist>5827</trvDist>
      <stime>1429220042</stime>
      <etime>1429221641</etime>
    </extensions>
  </metadata>
  <rte>
    <number>2</number>
    <rtept lat="35.957732" lon="120.209613">
      <type>1</type>
    </rtept>
    <rtept lat="35.957051" lon="120.20757">
      <type>2</type>
    </rtept>
  </rte>
  <trk>
    <trkseg>
      <trkpt lat="35.957732" lon="120.209613">
        <ele>16.3</ele>
        <time>2015-04-16T21:34:49Z</time>
      </trkpt>
      <trkpt lat="35.95793" lon="120.209627">
        <ele>16.4</ele>
        <time>2015-04-16T21:34:53Z</time>
      </trkpt>
      <trkpt lat="35.95803" lon="120.209681">
        <ele>16.6</ele>
        <time>2015-04-16T21:34:57Z</time>
      </trkpt>
      <trkpt lat="35.958119" lon="120.209768">
        <ele>16.8</ele>
        <time>2015-04-16T21:35:01Z</time>
      </trkpt>
      <trkpt lat="35.958226" lon="120.20987">
        <ele>16.9</ele>
        <time>2015-04-16T21:35:05Z</time>
      </trkpt>
      <trkpt lat="35.958303" lon="120.209975">
        <ele>17.1</ele>
        <time>2015-04-16T21:35:09Z</time>
      </trkpt>
      <trkpt lat="35.958385" lon="120.210072">
        <ele>17.3</ele>
        <time>2015-04-16T21:35:13Z</time>
      </trkpt>
      <trkpt lat="35.958464" lon="120.210163">
        <ele>17.6</ele>
        <time>2015-04-16T21:35:17Z</time>
      </trkpt>
      <trkpt lat="35.958518" lon="120.210265">
        <ele>17.9</ele>
        <time>2015-04-16T21:35:25Z</time>
      </trkpt>
      <trkpt lat="35.958589" lon="120.210391">
        <ele>18.1</ele>
        <time>2015-04-16T21:35:29Z</time>
      </trkpt>
      <trkpt lat="35.958595" lon="120.210407">
        <ele>18.3</ele>
        <time>2015-04-16T21:35:33Z</time>
      </trkpt>
      <trkpt lat="35.958617" lon="120.210408">
        <ele>18.7</ele>
        <time>2015-04-16T21:35:37Z</time>
      </trkpt>
      <trkpt lat="35.958666" lon="120.210422">
        <ele>19.0</ele>
        <time>2015-04-16T21:35:45Z</time>
      </trkpt>
      <trkpt lat="35.958749" lon="120.21042">
        <ele>19.3</ele>
        <time>2015-04-16T21:35:49Z</time>
      </trkpt>
      <trkpt lat="35.95886" lon="120.210429">
        <ele>19.7</ele>
        <time>2015-04-16T21:35:57Z</time>
      </trkpt>
      <trkpt lat="35.958858" lon="120.210427">
        <ele>20.0</ele>
        <time>2015-04-16T21:36:01Z</time>
      </trkpt>
      <trkpt lat="35.959318" lon="120.210182">
        <ele>20.4</ele>
        <time>2015-04-16T21:36:05Z</time>
      </trkpt>
      <trkpt lat="35.959561" lon="120.210023">
        <ele>20.8</ele>
        <time>2015-04-16T21:36:09Z</time>
      </trkpt>
      <trkpt lat="35.959558" lon="120.210071">
        <ele>21.1</ele>
        <time>2015-04-16T21:36:13Z</time>
      </trkpt>
      <trkpt lat="35.959568" lon="120.210127">
        <ele>21.4</ele>
        <time>2015-04-16T21:36:17Z</time>
      </trkpt>
      <trkpt lat="35.959597" lon="120.21016">
        <ele>21.7</ele>
        <time>2015-04-16T21:36:21Z</time>
      </trkpt>
      <trkpt lat="35.959623" lon="120.21024">
        <ele>22.0</ele>
        <time>2015-04-16T21:36:25Z</time>
      </trkpt>
      <trkpt lat="35.959648" lon="120.21026">
        <ele>22.2</ele>
        <time>2015-04-16T21:36:29Z</time>
      </trkpt>
      <trkpt lat="35.95967" lon="120.210242">
        <ele>22.4</ele>
        <time>2015-04-16T21:36:33Z</time>
      </trkpt>
      <trkpt lat="35.959932" lon="120.210231">
        <ele>22.6</ele>
        <time>2015-04-16T21:36:41Z</time>
      </trkpt>
      <trkpt lat="35.960238" lon="120.21013">
        <ele>22.7</ele>
        <time>2015-04-16T21:36:49Z</time>
      </trkpt>
      <trkpt lat="35.96033" lon="120.210094">
        <ele>22.8</ele>
        <time>2015-04-16T21:36:53Z</time>
      </trkpt>
      <trkpt lat="35.960406" lon="120.210064">
        <ele>22.8</ele>
        <time>2015-04-16T21:36:57Z</time>
      </trkpt>
      <trkpt lat="35.960495" lon="120.210073">
        <ele>22.7</ele>
        <time>2015-04-16T21:37:01Z</time>
      </trkpt>
      <trkpt lat="35.960611" lon="120.210144">
        <ele>22.7</ele>
        <time>2015-04-16T21:37:05Z</time>
      </trkpt>
      <trkpt lat="35.960676" lon="120.210219">
        <ele>22.6</ele>
        <time>2015-04-16T21:37:09Z</time>
      </trkpt>
      <trkpt lat="35.96073" lon="120.210351">
        <ele>22.5</ele>
        <time>2015-04-16T21:37:13Z</time>
      </trkpt>
      <trkpt lat="35.960752" lon="120.210489">
        <ele>22.4</ele>
        <time>2015-04-16T21:37:21Z</time>
      </trkpt>
      <trkpt lat="35.960764" lon="120.210607">
        <ele>22.3</ele>
        <time>2015-04-16T21:37:25Z</time>
      </trkpt>
      <trkpt lat="35.960862" lon="120.210828">
        <ele>22.2</ele>
        <time>2015-04-16T21:37:29Z</time>
      </trkpt>
      <trkpt lat="35.960906" lon="120.210924">
        <ele>22.1</ele>
        <time>2015-04-16T21:37:33Z</time>
      </trkpt>
      <trkpt lat="35.960963" lon="120.211024">
        <ele>21.9</ele>
        <time>2015-04-16T21:37:37Z</time>
      </trkpt>
      <trkpt lat="35.961007" lon="120.211136">
        <ele>21.7</ele>
        <time>2015-04-16T21:37:41Z</time>
      </trkpt>
      <trkpt lat="35.961092" lon="120.211228">
        <ele>21.5</ele>
        <time>2015-04-16T21:37:45Z</time>
      </trkpt>
      <trkpt lat="35.961206" lon="120.211315">
        <ele>21.4</ele>
        <time>2015-04-16T21:37:49Z</time>
      </trkpt>
      <trkpt lat="35.961354" lon="120.211378">
        <ele>21.2</ele>
        <time>2015-04-16T21:37:53Z</time>
      </trkpt>
      <trkpt lat="35.96144" lon="120.211452">
        <ele>21.0</ele>
        <time>2015-04-16T21:38:01Z</time>
      </trkpt>
      <trkpt lat="35.961451" lon="120.211693">
        <ele>20.9</ele>
        <time>2015-04-16T21:38:05Z</time>
      </trkpt>
      <trkpt lat="35.961436" lon="120.211815">
        <ele>20.8</ele>
        <time>2015-04-16T21:38:09Z</time>
      </trkpt>
      <trkpt lat="35.961437" lon="120.211819">
        <ele>20.8</ele>
        <time>2015-04-16T21:38:13Z</time>
      </trkpt>
      <trkpt lat="35.961478" lon="120.211928">
        <ele>20.9</ele>
        <time>2015-04-16T21:38:17Z</time>
      </trkpt>
      <trkpt lat="35.961552" lon="120.212093">
        <ele>21.0</ele>
        <time>2015-04-16T21:38:21Z</time>
      </trkpt>
      <trkpt lat="35.962101" lon="120.212196">
        <ele>21.1</ele>
        <time>2015-04-16T21:38:29Z</time>
      </trkpt>
      <trkpt lat="35.962335" lon="120.212224">
        <ele>21.2</ele>
        <time>2015-04-16T21:38:33Z</time>
      </trkpt>
      <trkpt lat="35.962481" lon="120.21238">
        <ele>21.3</ele>
        <time>2015-04-16T21:38:41Z</time>
      </trkpt>
      <trkpt lat="35.962312" lon="120.212579">
        <ele>21.5</ele>
        <time>2015-04-16T21:38:45Z</time>
      </trkpt>
      <trkpt lat="35.962285" lon="120.212651">
        <ele>21.6</ele>
        <time>2015-04-16T21:38:49Z</time>
      </trkpt>
      <trkpt lat="35.962282" lon="120.212647">
        <ele>21.8</ele>
        <time>2015-04-16T21:38:53Z</time>
      </trkpt>
      <trkpt lat="35.962432" lon="120.212818">
        <ele>21.9</ele>
        <time>2015-04-16T21:39:01Z</time>
      </trkpt>
      <trkpt lat="35.963151" lon="120.212915">
        <ele>22.0</ele>
        <time>2015-04-16T21:39:05Z</time>
      </trkpt>
      <trkpt lat="35.963158" lon="120.212916">
        <ele>22.2</ele>
        <time>2015-04-16T21:39:13Z</time>
      </trkpt>
      <trkpt lat="35.963168" lon="120.212916">
        <ele>22.3</ele>
        <time>2015-04-16T21:39:17Z</time>
      </trkpt>
      <trkpt lat="35.963082" lon="120.213701">
        <ele>22.5</ele>
        <time>2015-04-16T21:39:25Z</time>
      </trkpt>
      <trkpt lat="35.962894" lon="120.213969">
        <ele>22.6</ele>
        <time>2015-04-16T21:39:29Z</time>
      </trkpt>
      <trkpt lat="35.962679" lon="120.214239">
        <ele>22.6</ele>
        <time>2015-04-16T21:39:33Z</time>
      </trkpt>
      <trkpt lat="35.962538" lon="120.214455">
        <ele>22.7</ele>
        <time>2015-04-16T21:39:37Z</time>
      </trkpt>
      <trkpt lat="35.962439" lon="120.214667">
        <ele>22.8</ele>
        <time>2015-04-16T21:39:41Z</time>
      </trkpt>
      <trkpt lat="35.962362" lon="120.214883">
        <ele>22.8</ele>
        <time>2015-04-16T21:39:45Z</time>
      </trkpt>
      <trkpt lat="35.962319" lon="120.215076">
        <ele>22.9</ele>
        <time>2015-04-16T21:39:49Z</time>
      </trkpt>
      <trkpt lat="35.962266" lon="120.215251">
        <ele>22.9</ele>
        <time>2015-04-16T21:39:53Z</time>
      </trkpt>
      <trkpt lat="35.962225" lon="120.215435">
        <ele>22.7</ele>
        <time>2015-04-16T21:39:57Z</time>
      </trkpt>
      <trkpt lat="35.962192" lon="120.215618">
        <ele>22.6</ele>
        <time>2015-04-16T21:40:01Z</time>
      </trkpt>
      <trkpt lat="35.962226" lon="120.215773">
        <ele>22.4</ele>
        <time>2015-04-16T21:40:05Z</time>
      </trkpt>
      <trkpt lat="35.962249" lon="120.215949">
        <ele>22.2</ele>
        <time>2015-04-16T21:40:09Z</time>
      </trkpt>
      <trkpt lat="35.962242" lon="120.216128">
        <ele>22.0</ele>
        <time>2015-04-16T21:40:13Z</time>
      </trkpt>
      <trkpt lat="35.962234" lon="120.216286">
        <ele>21.7</ele>
        <time>2015-04-16T21:40:17Z</time>
      </trkpt>
      <trkpt lat="35.962235" lon="120.216451">
        <ele>21.5</ele>
        <time>2015-04-16T21:40:21Z</time>
      </trkpt>
      <trkpt lat="35.962293" lon="120.216609">
        <ele>21.2</ele>
        <time>2015-04-16T21:40:25Z</time>
      </trkpt>
      <trkpt lat="35.962354" lon="120.216758">
        <ele>20.9</ele>
        <time>2015-04-16T21:40:29Z</time>
      </trkpt>
      <trkpt lat="35.962395" lon="120.216909">
        <ele>20.7</ele>
        <time>2015-04-16T21:40:37Z</time>
      </trkpt>
      <trkpt lat="35.962462" lon="120.217061">
        <ele>20.4</ele>
        <time>2015-04-16T21:40:41Z</time>
      </trkpt>
      <trkpt lat="35.962518" lon="120.217238">
        <ele>20.2</ele>
        <time>2015-04-16T21:40:45Z</time>
      </trkpt>
      <trkpt lat="35.962579" lon="120.217381">
        <ele>20.0</ele>
        <time>2015-04-16T21:40:49Z</time>
      </trkpt>
      <trkpt lat="35.962623" lon="120.217509">
        <ele>19.8</ele>
        <time>2015-04-16T21:40:53Z</time>
      </trkpt>
      <trkpt lat="35.962689" lon="120.217641">
        <ele>19.6</ele>
        <time>2015-04-16T21:40:57Z</time>
      </trkpt>
      <trkpt lat="35.962764" lon="120.217781">
        <ele>19.5</ele>
        <time>2015-04-16T21:41:01Z</time>
      </trkpt>
      <trkpt lat="35.962886" lon="120.218049">
        <ele>19.4</ele>
        <time>2015-04-16T21:41:05Z</time>
      </trkpt>
      <trkpt lat="35.963076" lon="120.218143">
        <ele>19.3</ele>
        <time>2015-04-16T21:41:09Z</time>
      </trkpt>
      <trkpt lat="35.963176" lon="120.218266">
        <ele>19.2</ele>
        <time>2015-04-16T21:41:13Z</time>
      </trkpt>
      <trkpt lat="35.96319" lon="120.218423">
        <ele>19.1</ele>
        <time>2015-04-16T21:41:17Z</time>
      </trkpt>
      <trkpt lat="35.963267" lon="120.218585">
        <ele>18.8</ele>
        <time>2015-04-16T21:41:21Z</time>
      </trkpt>
      <trkpt lat="35.963463" lon="120.218852">
        <ele>18.5</ele>
        <time>2015-04-16T21:41:29Z</time>
      </trkpt>
      <trkpt lat="35.963511" lon="120.218986">
        <ele>18.2</ele>
        <time>2015-04-16T21:41:33Z</time>
      </trkpt>
      <trkpt lat="35.963531" lon="120.219138">
        <ele>18.0</ele>
        <time>2015-04-16T21:41:37Z</time>
      </trkpt>
      <trkpt lat="35.963547" lon="120.219306">
        <ele>17.7</ele>
        <time>2015-04-16T21:41:41Z</time>
      </trkpt>
      <trkpt lat="35.963588" lon="120.219449">
        <ele>17.3</ele>
        <time>2015-04-16T21:41:45Z</time>
      </trkpt>
      <trkpt lat="35.963678" lon="120.219558">
        <ele>16.9</ele>
        <time>2015-04-16T21:41:49Z</time>
      </trkpt>
      <trkpt lat="35.963877" lon="120.219598">
        <ele>16.5</ele>
        <time>2015-04-16T21:41:53Z</time>
      </trkpt>
      <trkpt lat="35.963896" lon="120.219593">
        <ele>16.1</ele>
        <time>2015-04-16T21:41:57Z</time>
      </trkpt>
      <trkpt lat="35.963909" lon="120.219592">
        <ele>15.8</ele>
        <time>2015-04-16T21:42:01Z</time>
      </trkpt>
      <trkpt lat="35.964903" lon="120.219683">
        <ele>15.4</ele>
        <time>2015-04-16T21:42:05Z</time>
      </trkpt>
      <trkpt lat="35.965003" lon="120.219889">
        <ele>15.0</ele>
        <time>2015-04-16T21:42:09Z</time>
      </trkpt>
      <trkpt lat="35.964958" lon="120.220051">
        <ele>14.6</ele>
        <time>2015-04-16T21:42:13Z</time>
      </trkpt>
      <trkpt lat="35.96511" lon="120.220165">
        <ele>14.1</ele>
        <time>2015-04-16T21:42:17Z</time>
      </trkpt>
      <trkpt lat="35.965187" lon="120.220234">
        <ele>13.7</ele>
        <time>2015-04-16T21:42:21Z</time>
      </trkpt>
      <trkpt lat="35.965322" lon="120.220344">
        <ele>13.2</ele>
        <time>2015-04-16T21:42:29Z</time>
      </trkpt>
      <trkpt lat="35.965441" lon="120.220569">
        <ele>12.6</ele>
        <time>2015-04-16T21:42:33Z</time>
      </trkpt>
      <trkpt lat="35.965484" lon="120.220707">
        <ele>12.0</ele>
        <time>2015-04-16T21:42:37Z</time>
      </trkpt>
      <trkpt lat="35.965526" lon="120.22081">
        <ele>11.4</ele>
        <time>2015-04-16T21:42:41Z</time>
      </trkpt>
      <trkpt lat="35.965634" lon="120.220929">
        <ele>10.8</ele>
        <time>2015-04-16T21:42:49Z</time>
      </trkpt>
      <trkpt lat="35.965811" lon="120.22109">
        <ele>10.1</ele>
        <time>2015-04-16T21:42:53Z</time>
      </trkpt>
      <trkpt lat="35.965946" lon="120.221224">
        <ele>9.6</ele>
        <time>2015-04-16T21:42:57Z</time>
      </trkpt>
      <trkpt lat="35.966064" lon="120.221371">
        <ele>9.2</ele>
        <time>2015-04-16T21:43:01Z</time>
      </trkpt>
      <trkpt lat="35.966186" lon="120.221471">
        <ele>8.7</ele>
        <time>2015-04-16T21:43:05Z</time>
      </trkpt>
      <trkpt lat="35.966248" lon="120.221509">
        <ele>8.2</ele>
        <time>2015-04-16T21:43:09Z</time>
      </trkpt>
      <trkpt lat="35.966243" lon="120.221504">
        <ele>7.7</ele>
        <time>2015-04-16T21:43:13Z</time>
      </trkpt>
      <trkpt lat="35.966318" lon="120.221903">
        <ele>7.3</ele>
        <time>2015-04-16T21:43:17Z</time>
      </trkpt>
      <trkpt lat="35.966286" lon="120.222343">
        <ele>7.0</ele>
        <time>2015-04-16T21:43:21Z</time>
      </trkpt>
      <trkpt lat="35.966196" lon="120.22258">
        <ele>6.7</ele>
        <time>2015-04-16T21:43:25Z</time>
      </trkpt>
      <trkpt lat="35.966056" lon="120.222834">
        <ele>6.3</ele>
        <time>2015-04-16T21:43:29Z</time>
      </trkpt>
      <trkpt lat="35.965957" lon="120.22307">
        <ele>6.0</ele>
        <time>2015-04-16T21:43:33Z</time>
      </trkpt>
      <trkpt lat="35.96582" lon="120.223314">
        <ele>5.7</ele>
        <time>2015-04-16T21:43:37Z</time>
      </trkpt>
      <trkpt lat="35.965646" lon="120.22352">
        <ele>5.4</ele>
        <time>2015-04-16T21:43:41Z</time>
      </trkpt>
      <trkpt lat="35.965464" lon="120.223664">
        <ele>5.2</ele>
        <time>2015-04-16T21:43:45Z</time>
      </trkpt>
      <trkpt lat="35.965278" lon="120.223795">
        <ele>5.0</ele>
        <time>2015-04-16T21:43:49Z</time>
      </trkpt>
      <trkpt lat="35.965138" lon="120.223889">
        <ele>4.7</ele>
        <time>2015-04-16T21:43:53Z</time>
      </trkpt>
      <trkpt lat="35.964978" lon="120.223998">
        <ele>4.5</ele>
        <time>2015-04-16T21:43:57Z</time>
      </trkpt>
      <trkpt lat="35.964809" lon="120.22411">
        <ele>4.4</ele>
        <time>2015-04-16T21:44:01Z</time>
      </trkpt>
      <trkpt lat="35.964658" lon="120.224176">
        <ele>4.2</ele>
        <time>2015-04-16T21:44:05Z</time>
      </trkpt>
      <trkpt lat="35.96451" lon="120.224265">
        <ele>4.1</ele>
        <time>2015-04-16T21:44:09Z</time>
      </trkpt>
      <trkpt lat="35.964354" lon="120.224362">
        <ele>4.1</ele>
        <time>2015-04-16T21:44:13Z</time>
      </trkpt>
      <trkpt lat="35.964212" lon="120.224465">
        <ele>4.0</ele>
        <time>2015-04-16T21:44:17Z</time>
      </trkpt>
      <trkpt lat="35.964088" lon="120.224542">
        <ele>4.1</ele>
        <time>2015-04-16T21:44:21Z</time>
      </trkpt>
      <trkpt lat="35.963939" lon="120.224619">
        <ele>4.1</ele>
        <time>2015-04-16T21:44:25Z</time>
      </trkpt>
      <trkpt lat="35.963793" lon="120.224692">
        <ele>4.2</ele>
        <time>2015-04-16T21:44:29Z</time>
      </trkpt>
      <trkpt lat="35.963666" lon="120.224739">
        <ele>4.4</ele>
        <time>2015-04-16T21:44:33Z</time>
      </trkpt>
      <trkpt lat="35.963561" lon="120.224794">
        <ele>4.6</ele>
        <time>2015-04-16T21:44:37Z</time>
      </trkpt>
      <trkpt lat="35.963448" lon="120.224833">
        <ele>4.7</ele>
        <time>2015-04-16T21:44:41Z</time>
      </trkpt>
      <trkpt lat="35.963311" lon="120.224905">
        <ele>5.0</ele>
        <time>2015-04-16T21:44:45Z</time>
      </trkpt>
      <trkpt lat="35.96318" lon="120.224968">
        <ele>5.2</ele>
        <time>2015-04-16T21:44:49Z</time>
      </trkpt>
      <trkpt lat="35.963056" lon="120.225029">
        <ele>5.4</ele>
        <time>2015-04-16T21:44:53Z</time>
      </trkpt>
      <trkpt lat="35.962918" lon="120.225065">
        <ele>5.7</ele>
        <time>2015-04-16T21:44:57Z</time>
      </trkpt>
      <trkpt lat="35.962778" lon="120.225077">
        <ele>5.9</ele>
        <time>2015-04-16T21:45:01Z</time>
      </trkpt>
      <trkpt lat="35.962668" lon="120.225102">
        <ele>6.2</ele>
        <time>2015-04-16T21:45:05Z</time>
      </trkpt>
      <trkpt lat="35.962553" lon="120.225134">
        <ele>6.5</ele>
        <time>2015-04-16T21:45:09Z</time>
      </trkpt>
      <trkpt lat="35.96245" lon="120.22519">
        <ele>6.7</ele>
        <time>2015-04-16T21:45:13Z</time>
      </trkpt>
      <trkpt lat="35.96234" lon="120.225263">
        <ele>7.0</ele>
        <time>2015-04-16T21:45:17Z</time>
      </trkpt>
      <trkpt lat="35.962232" lon="120.225321">
        <ele>7.3</ele>
        <time>2015-04-16T21:45:21Z</time>
      </trkpt>
      <trkpt lat="35.962119" lon="120.225362">
        <ele>7.7</ele>
        <time>2015-04-16T21:45:25Z</time>
      </trkpt>
      <trkpt lat="35.962014" lon="120.225399">
        <ele>8.0</ele>
        <time>2015-04-16T21:45:29Z</time>
      </trkpt>
      <trkpt lat="35.961901" lon="120.225439">
        <ele>8.4</ele>
        <time>2015-04-16T21:45:33Z</time>
      </trkpt>
      <trkpt lat="35.961767" lon="120.22546">
        <ele>8.9</ele>
        <time>2015-04-16T21:45:37Z</time>
      </trkpt>
      <trkpt lat="35.961645" lon="120.225486">
        <ele>9.3</ele>
        <time>2015-04-16T21:45:41Z</time>
      </trkpt>
      <trkpt lat="35.9616" lon="120.225511">
        <ele>9.7</ele>
        <time>2015-04-16T21:45:45Z</time>
      </trkpt>
      <trkpt lat="35.961509" lon="120.225569">
        <ele>10.2</ele>
        <time>2015-04-16T21:45:49Z</time>
      </trkpt>
      <trkpt lat="35.961431" lon="120.22563">
        <ele>10.6</ele>
        <time>2015-04-16T21:45:53Z</time>
      </trkpt>
      <trkpt lat="35.961248" lon="120.22575">
        <ele>11.0</ele>
        <time>2015-04-16T21:45:57Z</time>
      </trkpt>
      <trkpt lat="35.961143" lon="120.225778">
        <ele>11.5</ele>
        <time>2015-04-16T21:46:01Z</time>
      </trkpt>
      <trkpt lat="35.961035" lon="120.225787">
        <ele>11.9</ele>
        <time>2015-04-16T21:46:05Z</time>
      </trkpt>
      <trkpt lat="35.960928" lon="120.225811">
        <ele>12.4</ele>
        <time>2015-04-16T21:46:09Z</time>
      </trkpt>
      <trkpt lat="35.960843" lon="120.225848">
        <ele>12.8</ele>
        <time>2015-04-16T21:46:13Z</time>
      </trkpt>
      <trkpt lat="35.96076" lon="120.225891">
        <ele>13.3</ele>
        <time>2015-04-16T21:46:17Z</time>
      </trkpt>
      <trkpt lat="35.960654" lon="120.225923">
        <ele>13.8</ele>
        <time>2015-04-16T21:46:21Z</time>
      </trkpt>
      <trkpt lat="35.960566" lon="120.225956">
        <ele>14.3</ele>
        <time>2015-04-16T21:46:25Z</time>
      </trkpt>
      <trkpt lat="35.960484" lon="120.225993">
        <ele>14.8</ele>
        <time>2015-04-16T21:46:29Z</time>
      </trkpt>
      <trkpt lat="35.960387" lon="120.226039">
        <ele>15.3</ele>
        <time>2015-04-16T21:46:33Z</time>
      </trkpt>
      <trkpt lat="35.960282" lon="120.226102">
        <ele>15.8</ele>
        <time>2015-04-16T21:46:37Z</time>
      </trkpt>
      <trkpt lat="35.960179" lon="120.226121">
        <ele>16.2</ele>
        <time>2015-04-16T21:46:41Z</time>
      </trkpt>
      <trkpt lat="35.96009" lon="120.22615">
        <ele>16.7</ele>
        <time>2015-04-16T21:46:45Z</time>
      </trkpt>
      <trkpt lat="35.959987" lon="120.226188">
        <ele>17.2</ele>
        <time>2015-04-16T21:46:49Z</time>
      </trkpt>
      <trkpt lat="35.959894" lon="120.226233">
        <ele>17.6</ele>
        <time>2015-04-16T21:46:53Z</time>
      </trkpt>
      <trkpt lat="35.959802" lon="120.226279">
        <ele>18.0</ele>
        <time>2015-04-16T21:46:57Z</time>
      </trkpt>
      <trkpt lat="35.959723" lon="120.226331">
        <ele>18.5</ele>
        <time>2015-04-16T21:47:01Z</time>
      </trkpt>
      <trkpt lat="35.959625" lon="120.226382">
        <ele>18.8</ele>
        <time>2015-04-16T21:47:05Z</time>
      </trkpt>
      <trkpt lat="35.959517" lon="120.226427">
        <ele>19.2</ele>
        <time>2015-04-16T21:47:09Z</time>
      </trkpt>
      <trkpt lat="35.959441" lon="120.226457">
        <ele>19.5</ele>
        <time>2015-04-16T21:47:13Z</time>
      </trkpt>
      <trkpt lat="35.959344" lon="120.226485">
        <ele>19.8</ele>
        <time>2015-04-16T21:47:17Z</time>
      </trkpt>
      <trkpt lat="35.959261" lon="120.226528">
        <ele>20.1</ele>
        <time>2015-04-16T21:47:21Z</time>
      </trkpt>
      <trkpt lat="35.959162" lon="120.226572">
        <ele>20.4</ele>
        <time>2015-04-16T21:47:25Z</time>
      </trkpt>
      <trkpt lat="35.959065" lon="120.226617">
        <ele>20.6</ele>
        <time>2015-04-16T21:47:29Z</time>
      </trkpt>
      <trkpt lat="35.958962" lon="120.226683">
        <ele>20.8</ele>
        <time>2015-04-16T21:47:33Z</time>
      </trkpt>
      <trkpt lat="35.958886" lon="120.226692">
        <ele>21.0</ele>
        <time>2015-04-16T21:47:37Z</time>
      </trkpt>
      <trkpt lat="35.958773" lon="120.226669">
        <ele>21.0</ele>
        <time>2015-04-16T21:47:41Z</time>
      </trkpt>
      <trkpt lat="35.958678" lon="120.226636">
        <ele>21.0</ele>
        <time>2015-04-16T21:47:45Z</time>
      </trkpt>
      <trkpt lat="35.958605" lon="120.226566">
        <ele>21.1</ele>
        <time>2015-04-16T21:47:49Z</time>
      </trkpt>
      <trkpt lat="35.958535" lon="120.226455">
        <ele>21.2</ele>
        <time>2015-04-16T21:47:53Z</time>
      </trkpt>
      <trkpt lat="35.958463" lon="120.226356">
        <ele>21.2</ele>
        <time>2015-04-16T21:47:57Z</time>
      </trkpt>
      <trkpt lat="35.958388" lon="120.226245">
        <ele>21.3</ele>
        <time>2015-04-16T21:48:01Z</time>
      </trkpt>
      <trkpt lat="35.958365" lon="120.226185">
        <ele>21.3</ele>
        <time>2015-04-16T21:48:05Z</time>
      </trkpt>
      <trkpt lat="35.958366" lon="120.226189">
        <ele>21.3</ele>
        <time>2015-04-16T21:48:09Z</time>
      </trkpt>
      <trkpt lat="35.958382" lon="120.22608">
        <ele>21.3</ele>
        <time>2015-04-16T21:48:13Z</time>
      </trkpt>
      <trkpt lat="35.958619" lon="120.225619">
        <ele>21.3</ele>
        <time>2015-04-16T21:48:17Z</time>
      </trkpt>
      <trkpt lat="35.958835" lon="120.225307">
        <ele>21.2</ele>
        <time>2015-04-16T21:48:21Z</time>
      </trkpt>
      <trkpt lat="35.958835" lon="120.2253">
        <ele>21.2</ele>
        <time>2015-04-16T21:48:25Z</time>
      </trkpt>
      <trkpt lat="35.95845" lon="120.2252">
        <ele>21.1</ele>
        <time>2015-04-16T21:48:29Z</time>
      </trkpt>
      <trkpt lat="35.958103" lon="120.225154">
        <ele>21.0</ele>
        <time>2015-04-16T21:48:33Z</time>
      </trkpt>
      <trkpt lat="35.957953" lon="120.225053">
        <ele>20.9</ele>
        <time>2015-04-16T21:48:41Z</time>
      </trkpt>
      <trkpt lat="35.957914" lon="120.22482">
        <ele>20.8</ele>
        <time>2015-04-16T21:48:45Z</time>
      </trkpt>
      <trkpt lat="35.957922" lon="120.224788">
        <ele>20.6</ele>
        <time>2015-04-16T21:48:49Z</time>
      </trkpt>
      <trkpt lat="35.957767" lon="120.224624">
        <ele>20.5</ele>
        <time>2015-04-16T21:48:53Z</time>
      </trkpt>
      <trkpt lat="35.957511" lon="120.224483">
        <ele>20.3</ele>
        <time>2015-04-16T21:48:57Z</time>
      </trkpt>
      <trkpt lat="35.957384" lon="120.224394">
        <ele>20.1</ele>
        <time>2015-04-16T21:49:01Z</time>
      </trkpt>
      <trkpt lat="35.957289" lon="120.224284">
        <ele>19.9</ele>
        <time>2015-04-16T21:49:05Z</time>
      </trkpt>
      <trkpt lat="35.957221" lon="120.224157">
        <ele>19.8</ele>
        <time>2015-04-16T21:49:13Z</time>
      </trkpt>
      <trkpt lat="35.957134" lon="120.224041">
        <ele>19.7</ele>
        <time>2015-04-16T21:49:17Z</time>
      </trkpt>
      <trkpt lat="35.957109" lon="120.224021">
        <ele>19.5</ele>
        <time>2015-04-16T21:49:21Z</time>
      </trkpt>
      <trkpt lat="35.957089" lon="120.223965">
        <ele>19.3</ele>
        <time>2015-04-16T21:49:25Z</time>
      </trkpt>
      <trkpt lat="35.956974" lon="120.223666">
        <ele>19.0</ele>
        <time>2015-04-16T21:49:29Z</time>
      </trkpt>
      <trkpt lat="35.956743" lon="120.223471">
        <ele>18.7</ele>
        <time>2015-04-16T21:49:33Z</time>
      </trkpt>
      <trkpt lat="35.956647" lon="120.223337">
        <ele>18.4</ele>
        <time>2015-04-16T21:49:37Z</time>
      </trkpt>
      <trkpt lat="35.956546" lon="120.223212">
        <ele>18.1</ele>
        <time>2015-04-16T21:49:41Z</time>
      </trkpt>
      <trkpt lat="35.95645" lon="120.223082">
        <ele>17.8</ele>
        <time>2015-04-16T21:49:45Z</time>
      </trkpt>
      <trkpt lat="35.9564" lon="120.222996">
        <ele>17.5</ele>
        <time>2015-04-16T21:49:49Z</time>
      </trkpt>
      <trkpt lat="35.956402" lon="120.222996">
        <ele>17.3</ele>
        <time>2015-04-16T21:49:53Z</time>
      </trkpt>
      <trkpt lat="35.956392" lon="120.222826">
        <ele>17.0</ele>
        <time>2015-04-16T21:50:01Z</time>
      </trkpt>
      <trkpt lat="35.956386" lon="120.222732">
        <ele>16.7</ele>
        <time>2015-04-16T21:50:05Z</time>
      </trkpt>
      <trkpt lat="35.956588" lon="120.222398">
        <ele>16.5</ele>
        <time>2015-04-16T21:50:09Z</time>
      </trkpt>
      <trkpt lat="35.957056" lon="120.221713">
        <ele>16.3</ele>
        <time>2015-04-16T21:50:13Z</time>
      </trkpt>
      <trkpt lat="35.957209" lon="120.221479">
        <ele>16.1</ele>
        <time>2015-04-16T21:50:17Z</time>
      </trkpt>
      <trkpt lat="35.957198" lon="120.221327">
        <ele>15.9</ele>
        <time>2015-04-16T21:50:21Z</time>
      </trkpt>
      <trkpt lat="35.956911" lon="120.221325">
        <ele>15.9</ele>
        <time>2015-04-16T21:50:25Z</time>
      </trkpt>
      <trkpt lat="35.95653" lon="120.221389">
        <ele>15.8</ele>
        <time>2015-04-16T21:50:29Z</time>
      </trkpt>
      <trkpt lat="35.956354" lon="120.221354">
        <ele>15.7</ele>
        <time>2015-04-16T21:50:33Z</time>
      </trkpt>
      <trkpt lat="35.956131" lon="120.221273">
        <ele>15.6</ele>
        <time>2015-04-16T21:50:41Z</time>
      </trkpt>
      <trkpt lat="35.955948" lon="120.221181">
        <ele>15.4</ele>
        <time>2015-04-16T21:50:45Z</time>
      </trkpt>
      <trkpt lat="35.955691" lon="120.220976">
        <ele>15.2</ele>
        <time>2015-04-16T21:50:49Z</time>
      </trkpt>
      <trkpt lat="35.9556" lon="120.220875">
        <ele>15.0</ele>
        <time>2015-04-16T21:50:53Z</time>
      </trkpt>
      <trkpt lat="35.955542" lon="120.220807">
        <ele>14.8</ele>
        <time>2015-04-16T21:50:57Z</time>
      </trkpt>
      <trkpt lat="35.955547" lon="120.220812">
        <ele>14.7</ele>
        <time>2015-04-16T21:51:01Z</time>
      </trkpt>
      <trkpt lat="35.955348" lon="120.220637">
        <ele>14.6</ele>
        <time>2015-04-16T21:51:05Z</time>
      </trkpt>
      <trkpt lat="35.955163" lon="120.220429">
        <ele>14.5</ele>
        <time>2015-04-16T21:51:09Z</time>
      </trkpt>
      <trkpt lat="35.955126" lon="120.220335">
        <ele>14.5</ele>
        <time>2015-04-16T21:51:13Z</time>
      </trkpt>
      <trkpt lat="35.955127" lon="120.220336">
        <ele>14.4</ele>
        <time>2015-04-16T21:51:21Z</time>
      </trkpt>
      <trkpt lat="35.955371" lon="120.219957">
        <ele>14.3</ele>
        <time>2015-04-16T21:51:25Z</time>
      </trkpt>
      <trkpt lat="35.955577" lon="120.219709">
        <ele>14.2</ele>
        <time>2015-04-16T21:51:29Z</time>
      </trkpt>
      <trkpt lat="35.955543" lon="120.219613">
        <ele>14.1</ele>
        <time>2015-04-16T21:51:33Z</time>
      </trkpt>
      <trkpt lat="35.955472" lon="120.219507">
        <ele>14.0</ele>
        <time>2015-04-16T21:51:37Z</time>
      </trkpt>
      <trkpt lat="35.955428" lon="120.219369">
        <ele>13.9</ele>
        <time>2015-04-16T21:51:41Z</time>
      </trkpt>
      <trkpt lat="35.955338" lon="120.219237">
        <ele>13.7</ele>
        <time>2015-04-16T21:51:45Z</time>
      </trkpt>
      <trkpt lat="35.955232" lon="120.219117">
        <ele>13.5</ele>
        <time>2015-04-16T21:51:49Z</time>
      </trkpt>
      <trkpt lat="35.955164" lon="120.218979">
        <ele>13.3</ele>
        <time>2015-04-16T21:51:53Z</time>
      </trkpt>
      <trkpt lat="35.955118" lon="120.218838">
        <ele>13.0</ele>
        <time>2015-04-16T21:51:57Z</time>
      </trkpt>
      <trkpt lat="35.955046" lon="120.218698">
        <ele>12.6</ele>
        <time>2015-04-16T21:52:01Z</time>
      </trkpt>
      <trkpt lat="35.95498" lon="120.218576">
        <ele>12.2</ele>
        <time>2015-04-16T21:52:05Z</time>
      </trkpt>
      <trkpt lat="35.954917" lon="120.218422">
        <ele>11.9</ele>
        <time>2015-04-16T21:52:09Z</time>
      </trkpt>
      <trkpt lat="35.954744" lon="120.218131">
        <ele>11.6</ele>
        <time>2015-04-16T21:52:13Z</time>
      </trkpt>
      <trkpt lat="35.954669" lon="120.217989">
        <ele>11.2</ele>
        <time>2015-04-16T21:52:17Z</time>
      </trkpt>
      <trkpt lat="35.954622" lon="120.217824">
        <ele>10.9</ele>
        <time>2015-04-16T21:52:21Z</time>
      </trkpt>
      <trkpt lat="35.95459" lon="120.217663">
        <ele>10.5</ele>
        <time>2015-04-16T21:52:25Z</time>
      </trkpt>
      <trkpt lat="35.954521" lon="120.217491">
        <ele>10.0</ele>
        <time>2015-04-16T21:52:29Z</time>
      </trkpt>
      <trkpt lat="35.954464" lon="120.217323">
        <ele>9.6</ele>
        <time>2015-04-16T21:52:37Z</time>
      </trkpt>
      <trkpt lat="35.954381" lon="120.217187">
        <ele>9.1</ele>
        <time>2015-04-16T21:52:41Z</time>
      </trkpt>
      <trkpt lat="35.954261" lon="120.217051">
        <ele>8.6</ele>
        <time>2015-04-16T21:52:45Z</time>
      </trkpt>
      <trkpt lat="35.954174" lon="120.216898">
        <ele>8.1</ele>
        <time>2015-04-16T21:52:49Z</time>
      </trkpt>
      <trkpt lat="35.954139" lon="120.216749">
        <ele>7.6</ele>
        <time>2015-04-16T21:52:53Z</time>
      </trkpt>
      <trkpt lat="35.954111" lon="120.216598">
        <ele>7.1</ele>
        <time>2015-04-16T21:52:57Z</time>
      </trkpt>
      <trkpt lat="35.953895" lon="120.21624">
        <ele>6.5</ele>
        <time>2015-04-16T21:53:01Z</time>
      </trkpt>
      <trkpt lat="35.953797" lon="120.216081">
        <ele>6.0</ele>
        <time>2015-04-16T21:53:05Z</time>
      </trkpt>
      <trkpt lat="35.953765" lon="120.215928">
        <ele>5.5</ele>
        <time>2015-04-16T21:53:09Z</time>
      </trkpt>
      <trkpt lat="35.953759" lon="120.215776">
        <ele>5.0</ele>
        <time>2015-04-16T21:53:13Z</time>
      </trkpt>
      <trkpt lat="35.953682" lon="120.215627">
        <ele>4.6</ele>
        <time>2015-04-16T21:53:17Z</time>
      </trkpt>
      <trkpt lat="35.953649" lon="120.215463">
        <ele>4.2</ele>
        <time>2015-04-16T21:53:21Z</time>
      </trkpt>
      <trkpt lat="35.953633" lon="120.215295">
        <ele>3.8</ele>
        <time>2015-04-16T21:53:29Z</time>
      </trkpt>
      <trkpt lat="35.953578" lon="120.215119">
        <ele>3.5</ele>
        <time>2015-04-16T21:53:33Z</time>
      </trkpt>
      <trkpt lat="35.953545" lon="120.214961">
        <ele>3.3</ele>
        <time>2015-04-16T21:53:37Z</time>
      </trkpt>
      <trkpt lat="35.953527" lon="120.214815">
        <ele>3.0</ele>
        <time>2015-04-16T21:53:41Z</time>
      </trkpt>
      <trkpt lat="35.95345" lon="120.214479">
        <ele>2.9</ele>
        <time>2015-04-16T21:53:45Z</time>
      </trkpt>
      <trkpt lat="35.95342" lon="120.214308">
        <ele>2.8</ele>
        <time>2015-04-16T21:53:49Z</time>
      </trkpt>
      <trkpt lat="35.95338" lon="120.214202">
        <ele>2.7</ele>
        <time>2015-04-16T21:53:53Z</time>
      </trkpt>
      <trkpt lat="35.95338" lon="120.214203">
        <ele>2.6</ele>
        <time>2015-04-16T21:53:57Z</time>
      </trkpt>
      <trkpt lat="35.953353" lon="120.214112">
        <ele>2.5</ele>
        <time>2015-04-16T21:54:01Z</time>
      </trkpt>
      <trkpt lat="35.953229" lon="120.213681">
        <ele>2.5</ele>
        <time>2015-04-16T21:54:05Z</time>
      </trkpt>
      <trkpt lat="35.953202" lon="120.21352">
        <ele>2.4</ele>
        <time>2015-04-16T21:54:09Z</time>
      </trkpt>
      <trkpt lat="35.953149" lon="120.213362">
        <ele>2.4</ele>
        <time>2015-04-16T21:54:13Z</time>
      </trkpt>
      <trkpt lat="35.953118" lon="120.213297">
        <ele>2.3</ele>
        <time>2015-04-16T21:54:17Z</time>
      </trkpt>
      <trkpt lat="35.953101" lon="120.21318">
        <ele>2.3</ele>
        <time>2015-04-16T21:54:21Z</time>
      </trkpt>
      <trkpt lat="35.953061" lon="120.21293">
        <ele>2.3</ele>
        <time>2015-04-16T21:54:25Z</time>
      </trkpt>
      <trkpt lat="35.953056" lon="120.212801">
        <ele>2.3</ele>
        <time>2015-04-16T21:54:29Z</time>
      </trkpt>
      <trkpt lat="35.953061" lon="120.212731">
        <ele>2.3</ele>
        <time>2015-04-16T21:54:33Z</time>
      </trkpt>
      <trkpt lat="35.95306" lon="120.212735">
        <ele>2.3</ele>
        <time>2015-04-16T21:54:37Z</time>
      </trkpt>
      <trkpt lat="35.953086" lon="120.212523">
        <ele>2.3</ele>
        <time>2015-04-16T21:54:45Z</time>
      </trkpt>
      <trkpt lat="35.953043" lon="120.212263">
        <ele>2.3</ele>
        <time>2015-04-16T21:54:49Z</time>
      </trkpt>
      <trkpt lat="35.952991" lon="120.212072">
        <ele>2.4</ele>
        <time>2015-04-16T21:54:53Z</time>
      </trkpt>
      <trkpt lat="35.952901" lon="120.211961">
        <ele>2.4</ele>
        <time>2015-04-16T21:54:57Z</time>
      </trkpt>
      <trkpt lat="35.952762" lon="120.211715">
        <ele>2.4</ele>
        <time>2015-04-16T21:55:01Z</time>
      </trkpt>
      <trkpt lat="35.952688" lon="120.211393">
        <ele>2.4</ele>
        <time>2015-04-16T21:55:09Z</time>
      </trkpt>
      <trkpt lat="35.952685" lon="120.211254">
        <ele>2.4</ele>
        <time>2015-04-16T21:55:13Z</time>
      </trkpt>
      <trkpt lat="35.952677" lon="120.211169">
        <ele>2.4</ele>
        <time>2015-04-16T21:55:17Z</time>
      </trkpt>
      <trkpt lat="35.952676" lon="120.21117">
        <ele>2.5</ele>
        <time>2015-04-16T21:55:21Z</time>
      </trkpt>
      <trkpt lat="35.952792" lon="120.210952">
        <ele>2.5</ele>
        <time>2015-04-16T21:55:25Z</time>
      </trkpt>
      <trkpt lat="35.953362" lon="120.21036">
        <ele>2.5</ele>
        <time>2015-04-16T21:55:29Z</time>
      </trkpt>
      <trkpt lat="35.953592" lon="120.210196">
        <ele>2.5</ele>
        <time>2015-04-16T21:55:37Z</time>
      </trkpt>
      <trkpt lat="35.953515" lon="120.210021">
        <ele>2.6</ele>
        <time>2015-04-16T21:55:41Z</time>
      </trkpt>
      <trkpt lat="35.95344" lon="120.21012">
        <ele>2.6</ele>
        <time>2015-04-16T21:55:45Z</time>
      </trkpt>
      <trkpt lat="35.953441" lon="120.210186">
        <ele>2.6</ele>
        <time>2015-04-16T21:55:53Z</time>
      </trkpt>
      <trkpt lat="35.953534" lon="120.210136">
        <ele>2.6</ele>
        <time>2015-04-16T21:55:57Z</time>
      </trkpt>
      <trkpt lat="35.953439" lon="120.209922">
        <ele>2.6</ele>
        <time>2015-04-16T21:56:01Z</time>
      </trkpt>
      <trkpt lat="35.95332" lon="120.209828">
        <ele>2.5</ele>
        <time>2015-04-16T21:56:05Z</time>
      </trkpt>
      <trkpt lat="35.953243" lon="120.209726">
        <ele>2.5</ele>
        <time>2015-04-16T21:56:09Z</time>
      </trkpt>
      <trkpt lat="35.953208" lon="120.209602">
        <ele>2.5</ele>
        <time>2015-04-16T21:56:17Z</time>
      </trkpt>
      <trkpt lat="35.95308" lon="120.209358">
        <ele>2.4</ele>
        <time>2015-04-16T21:56:21Z</time>
      </trkpt>
      <trkpt lat="35.953009" lon="120.209248">
        <ele>2.4</ele>
        <time>2015-04-16T21:56:25Z</time>
      </trkpt>
      <trkpt lat="35.952924" lon="120.209146">
        <ele>2.3</ele>
        <time>2015-04-16T21:56:29Z</time>
      </trkpt>
      <trkpt lat="35.952819" lon="120.209066">
        <ele>2.2</ele>
        <time>2015-04-16T21:56:33Z</time>
      </trkpt>
      <trkpt lat="35.952712" lon="120.208998">
        <ele>2.2</ele>
        <time>2015-04-16T21:56:37Z</time>
      </trkpt>
      <trkpt lat="35.952612" lon="120.208919">
        <ele>2.1</ele>
        <time>2015-04-16T21:56:41Z</time>
      </trkpt>
      <trkpt lat="35.95254" lon="120.20881">
        <ele>2.0</ele>
        <time>2015-04-16T21:56:45Z</time>
      </trkpt>
      <trkpt lat="35.952494" lon="120.208688">
        <ele>2.0</ele>
        <time>2015-04-16T21:56:53Z</time>
      </trkpt>
      <trkpt lat="35.952484" lon="120.208566">
        <ele>1.9</ele>
        <time>2015-04-16T21:56:57Z</time>
      </trkpt>
      <trkpt lat="35.952493" lon="120.208432">
        <ele>1.9</ele>
        <time>2015-04-16T21:57:01Z</time>
      </trkpt>
      <trkpt lat="35.952448" lon="120.208301">
        <ele>1.8</ele>
        <time>2015-04-16T21:57:05Z</time>
      </trkpt>
      <trkpt lat="35.95239" lon="120.208179">
        <ele>1.7</ele>
        <time>2015-04-16T21:57:09Z</time>
      </trkpt>
      <trkpt lat="35.952461" lon="120.208149">
        <ele>1.7</ele>
        <time>2015-04-16T21:57:13Z</time>
      </trkpt>
      <trkpt lat="35.952545" lon="120.20815">
        <ele>1.6</ele>
        <time>2015-04-16T21:57:17Z</time>
      </trkpt>
      <trkpt lat="35.952601" lon="120.208159">
        <ele>1.6</ele>
        <time>2015-04-16T21:57:21Z</time>
      </trkpt>
      <trkpt lat="35.952663" lon="120.208147">
        <ele>1.6</ele>
        <time>2015-04-16T21:57:25Z</time>
      </trkpt>
      <trkpt lat="35.952764" lon="120.208119">
        <ele>1.7</ele>
        <time>2015-04-16T21:57:29Z</time>
      </trkpt>
      <trkpt lat="35.952854" lon="120.208076">
        <ele>1.7</ele>
        <time>2015-04-16T21:57:33Z</time>
      </trkpt>
      <trkpt lat="35.953104" lon="120.208001">
        <ele>1.8</ele>
        <time>2015-04-16T21:57:41Z</time>
      </trkpt>
      <trkpt lat="35.953216" lon="120.207961">
        <ele>1.9</ele>
        <time>2015-04-16T21:57:45Z</time>
      </trkpt>
      <trkpt lat="35.953235" lon="120.207953">
        <ele>2.0</ele>
        <time>2015-04-16T21:57:49Z</time>
      </trkpt>
      <trkpt lat="35.953407" lon="120.207928">
        <ele>2.1</ele>
        <time>2015-04-16T21:57:53Z</time>
      </trkpt>
      <trkpt lat="35.953554" lon="120.207952">
        <ele>2.2</ele>
        <time>2015-04-16T21:57:57Z</time>
      </trkpt>
      <trkpt lat="35.953672" lon="120.207946">
        <ele>2.4</ele>
        <time>2015-04-16T21:58:01Z</time>
      </trkpt>
      <trkpt lat="35.95379" lon="120.207924">
        <ele>2.6</ele>
        <time>2015-04-16T21:58:05Z</time>
      </trkpt>
      <trkpt lat="35.953897" lon="120.207897">
        <ele>2.8</ele>
        <time>2015-04-16T21:58:13Z</time>
      </trkpt>
      <trkpt lat="35.953965" lon="120.207866">
        <ele>3.0</ele>
        <time>2015-04-16T21:58:17Z</time>
      </trkpt>
      <trkpt lat="35.954079" lon="120.207834">
        <ele>3.3</ele>
        <time>2015-04-16T21:58:21Z</time>
      </trkpt>
      <trkpt lat="35.954219" lon="120.207811">
        <ele>3.6</ele>
        <time>2015-04-16T21:58:25Z</time>
      </trkpt>
      <trkpt lat="35.954345" lon="120.207818">
        <ele>4.0</ele>
        <time>2015-04-16T21:58:29Z</time>
      </trkpt>
      <trkpt lat="35.954404" lon="120.207825">
        <ele>4.4</ele>
        <time>2015-04-16T21:58:33Z</time>
      </trkpt>
      <trkpt lat="35.954559" lon="120.207805">
        <ele>4.8</ele>
        <time>2015-04-16T21:58:37Z</time>
      </trkpt>
      <trkpt lat="35.954649" lon="120.207796">
        <ele>5.2</ele>
        <time>2015-04-16T21:58:41Z</time>
      </trkpt>
      <trkpt lat="35.954755" lon="120.207772">
        <ele>5.7</ele>
        <time>2015-04-16T21:58:45Z</time>
      </trkpt>
      <trkpt lat="35.954862" lon="120.207742">
        <ele>6.2</ele>
        <time>2015-04-16T21:58:49Z</time>
      </trkpt>
      <trkpt lat="35.954964" lon="120.207705">
        <ele>6.7</ele>
        <time>2015-04-16T21:58:53Z</time>
      </trkpt>
      <trkpt lat="35.955054" lon="120.207665">
        <ele>7.2</ele>
        <time>2015-04-16T21:59:01Z</time>
      </trkpt>
      <trkpt lat="35.955143" lon="120.207634">
        <ele>7.7</ele>
        <time>2015-04-16T21:59:05Z</time>
      </trkpt>
      <trkpt lat="35.95534" lon="120.207544">
        <ele>8.2</ele>
        <time>2015-04-16T21:59:09Z</time>
      </trkpt>
      <trkpt lat="35.955416" lon="120.207499">
        <ele>8.7</ele>
        <time>2015-04-16T21:59:13Z</time>
      </trkpt>
      <trkpt lat="35.955526" lon="120.207422">
        <ele>9.3</ele>
        <time>2015-04-16T21:59:17Z</time>
      </trkpt>
      <trkpt lat="35.955634" lon="120.207366">
        <ele>9.8</ele>
        <time>2015-04-16T21:59:21Z</time>
      </trkpt>
      <trkpt lat="35.955763" lon="120.207293">
        <ele>10.4</ele>
        <time>2015-04-16T21:59:25Z</time>
      </trkpt>
      <trkpt lat="35.9559" lon="120.207242">
        <ele>11.0</ele>
        <time>2015-04-16T21:59:29Z</time>
      </trkpt>
      <trkpt lat="35.956029" lon="120.207225">
        <ele>11.5</ele>
        <time>2015-04-16T21:59:33Z</time>
      </trkpt>
      <trkpt lat="35.956116" lon="120.207231">
        <ele>12.0</ele>
        <time>2015-04-16T21:59:37Z</time>
      </trkpt>
      <trkpt lat="35.956188" lon="120.207252">
        <ele>12.5</ele>
        <time>2015-04-16T21:59:41Z</time>
      </trkpt>
      <trkpt lat="35.956318" lon="120.207309">
        <ele>12.7</ele>
        <time>2015-04-16T21:59:49Z</time>
      </trkpt>
      <trkpt lat="35.956404" lon="120.207285">
        <ele>13.0</ele>
        <time>2015-04-16T21:59:53Z</time>
      </trkpt>
      <trkpt lat="35.956474" lon="120.207255">
        <ele>13.3</ele>
        <time>2015-04-16T21:59:57Z</time>
      </trkpt>
      <trkpt lat="35.956593" lon="120.207202">
        <ele>13.5</ele>
        <time>2015-04-16T22:00:01Z</time>
      </trkpt>
      <trkpt lat="35.956738" lon="120.207207">
        <ele>13.7</ele>
        <time>2015-04-16T22:00:05Z</time>
      </trkpt>
      <trkpt lat="35.956843" lon="120.207265">
        <ele>13.9</ele>
        <time>2015-04-16T22:00:09Z</time>
      </trkpt>
      <trkpt lat="35.956912" lon="120.207355">
        <ele>14.1</ele>
        <time>2015-04-16T22:00:13Z</time>
      </trkpt>
      <trkpt lat="35.95698" lon="120.207449">
        <ele>14.3</ele>
        <time>2015-04-16T22:00:21Z</time>
      </trkpt>
      <trkpt lat="35.956993" lon="120.207466">
        <ele>14.4</ele>
        <time>2015-04-16T22:00:25Z</time>
      </trkpt>
      <trkpt lat="35.957051" lon="120.20757">
        <ele>14.6</ele>
        <time>2015-04-16T22:00:29Z</time>
      </trkpt>
      <extensions>
        <breaktype>2</breaktype>
      </extensions>
    </trkseg>
  </trk>
  <extensions>
    <ssrlog>
      <logseg>
        <logpt time="2015-04-16T21:34:02Z">
          <spd>0.0</spd>
          <str>0.0</str>
        </logpt>
        <logpt time="2015-04-16T21:34:06Z">
          <spd>0.0</spd>
          <str>0.0</str>
        </logpt>
        <logpt time="2015-04-16T21:34:10Z">
          <spd>0.0</spd>
          <str>38.0</str>
        </logpt>
        <logpt time="2015-04-16T21:34:14Z">
          <spd>0.0</spd>
          <str>58.0</str>
        </logpt>
        <logpt time="2015-04-16T21:34:18Z">
          <spd>0.0</spd>
          <str>67.0</str>
        </logpt>
        <logpt time="2015-04-16T21:34:22Z">
          <spd>0.0</spd>
          <str>72.0</str>
        </logpt>
        <logpt time="2015-04-16T21:34:26Z">
          <spd>0.0</spd>
          <str>76.0</str>
        </logpt>
        <logpt time="2015-04-16T21:34:30Z">
          <spd>0.0</spd>
          <str>78.0</str>
        </logpt>
        <logpt time="2015-04-16T21:34:34Z">
          <spd>2.7</spd>
          <str>80.0</str>
        </logpt>
        <logpt time="2015-04-16T21:34:38Z">
          <spd>4.5</spd>
          <str>81.0</str>
        </logpt>
        <logpt time="2015-04-16T21:34:42Z">
          <spd>5.0</spd>
          <str>79.0</str>
        </logpt>
        <logpt time="2015-04-16T21:34:49Z">
          <spd>5.0</spd>
          <str>76.0</str>
        </logpt>
        <logpt time="2015-04-16T21:34:50Z">
          <spd>6.3</spd>
          <str>77.0</str>
        </logpt>
        <logpt time="2015-04-16T21:34:53Z">
          <spd>7.7</spd>
          <str>78.0</str>
        </logpt>
        <logpt time="2015-04-16T21:34:57Z">
          <spd>8.6</spd>
          <str>79.0</str>
        </logpt>
        <logpt time="2015-04-16T21:35:01Z">
          <spd>9.4</spd>
          <str>80.0</str>
        </logpt>
        <logpt time="2015-04-16T21:35:05Z">
          <spd>10.8</spd>
          <str>83.0</str>
        </logpt>
        <logpt time="2015-04-16T21:35:09Z">
          <spd>11.3</spd>
          <str>86.0</str>
        </logpt>
        <logpt time="2015-04-16T21:35:13Z">
          <spd>11.3</spd>
          <str>86.0</str>
        </logpt>
        <logpt time="2015-04-16T21:35:17Z">
          <spd>10.8</spd>
          <str>85.0</str>
        </logpt>
        <logpt time="2015-04-16T21:35:21Z">
          <spd>10.8</spd>
          <str>85.0</str>
        </logpt>
        <logpt time="2015-04-16T21:35:25Z">
          <spd>9.4</spd>
          <str>85.0</str>
        </logpt>
        <logpt time="2015-04-16T21:35:29Z">
          <spd>8.6</spd>
          <str>85.0</str>
        </logpt>
        <logpt time="2015-04-16T21:35:33Z">
          <spd>6.8</spd>
          <str>85.0</str>
        </logpt>
        <logpt time="2015-04-16T21:35:37Z">
          <spd>5.8</spd>
          <str>85.0</str>
        </logpt>
        <logpt time="2015-04-16T21:35:41Z">
          <spd>5.8</spd>
          <str>87.0</str>
        </logpt>
        <logpt time="2015-04-16T21:35:45Z">
          <spd>5.8</spd>
          <str>90.0</str>
        </logpt>
        <logpt time="2015-04-16T21:35:49Z">
          <spd>5.4</spd>
          <str>89.0</str>
        </logpt>
        <logpt time="2015-04-16T21:35:53Z">
          <spd>5.8</spd>
          <str>90.0</str>
        </logpt>
        <logpt time="2015-04-16T21:35:57Z">
          <spd>5.8</spd>
          <str>89.0</str>
        </logpt>
        <logpt time="2015-04-16T21:36:01Z">
          <spd>6.3</spd>
          <str>90.0</str>
        </logpt>
        <logpt time="2015-04-16T21:36:05Z">
          <spd>6.8</spd>
          <str>90.0</str>
        </logpt>
        <logpt time="2015-04-16T21:36:09Z">
          <spd>6.8</spd>
          <str>89.0</str>
        </logpt>
        <logpt time="2015-04-16T21:36:13Z">
          <spd>6.3</spd>
          <str>89.0</str>
        </logpt>
        <logpt time="2015-04-16T21:36:17Z">
          <spd>5.8</spd>
          <str>90.0</str>
        </logpt>
        <logpt time="2015-04-16T21:36:21Z">
          <spd>5.8</spd>
          <str>89.0</str>
        </logpt>
        <logpt time="2015-04-16T21:36:25Z">
          <spd>5.8</spd>
          <str>90.0</str>
        </logpt>
        <logpt time="2015-04-16T21:36:29Z">
          <spd>5.8</spd>
          <str>90.0</str>
        </logpt>
        <logpt time="2015-04-16T21:36:33Z">
          <spd>5.4</spd>
          <str>90.0</str>
        </logpt>
        <logpt time="2015-04-16T21:36:37Z">
          <spd>5.8</spd>
          <str>90.0</str>
        </logpt>
        <logpt time="2015-04-16T21:36:41Z">
          <spd>6.3</spd>
          <str>90.0</str>
        </logpt>
        <logpt time="2015-04-16T21:36:45Z">
          <spd>8.6</spd>
          <str>90.0</str>
        </logpt>
        <logpt time="2015-04-16T21:36:49Z">
          <spd>8.6</spd>
          <str>91.0</str>
        </logpt>
        <logpt time="2015-04-16T21:36:53Z">
          <spd>9.0</spd>
          <str>91.0</str>
        </logpt>
        <logpt time="2015-04-16T21:36:57Z">
          <spd>8.1</spd>
          <str>91.0</str>
        </logpt>
        <logpt time="2015-04-16T21:37:01Z">
          <spd>8.1</spd>
          <str>90.0</str>
        </logpt>
        <logpt time="2015-04-16T21:37:05Z">
          <spd>8.6</spd>
          <str>90.0</str>
        </logpt>
        <logpt time="2015-04-16T21:37:09Z">
          <spd>9.0</spd>
          <str>90.0</str>
        </logpt>
        <logpt time="2015-04-16T21:37:13Z">
          <spd>9.0</spd>
          <str>90.0</str>
        </logpt>
        <logpt time="2015-04-16T21:37:17Z">
          <spd>9.4</spd>
          <str>90.0</str>
        </logpt>
        <logpt time="2015-04-16T21:37:21Z">
          <spd>9.4</spd>
          <str>90.0</str>
        </logpt>
        <logpt time="2015-04-16T21:37:25Z">
          <spd>9.4</spd>
          <str>90.0</str>
        </logpt>
        <logpt time="2015-04-16T21:37:29Z">
          <spd>9.9</spd>
          <str>90.0</str>
        </logpt>
        <logpt time="2015-04-16T21:37:33Z">
          <spd>9.4</spd>
          <str>90.0</str>
        </logpt>
        <logpt time="2015-04-16T21:37:37Z">
          <spd>9.4</spd>
          <str>89.0</str>
        </logpt>
        <logpt time="2015-04-16T21:37:41Z">
          <spd>9.9</spd>
          <str>89.0</str>
        </logpt>
        <logpt time="2015-04-16T21:37:45Z">
          <spd>9.9</spd>
          <str>90.0</str>
        </logpt>
        <logpt time="2015-04-16T21:37:49Z">
          <spd>10.3</spd>
          <str>89.0</str>
        </logpt>
        <logpt time="2015-04-16T21:37:53Z">
          <spd>10.8</spd>
          <str>89.0</str>
        </logpt>
        <logpt time="2015-04-16T21:37:57Z">
          <spd>10.8</spd>
          <str>89.0</str>
        </logpt>
        <logpt time="2015-04-16T21:38:01Z">
          <spd>10.3</spd>
          <str>90.0</str>
        </logpt>
        <logpt time="2015-04-16T21:38:05Z">
          <spd>10.3</spd>
          <str>90.0</str>
        </logpt>
        <logpt time="2015-04-16T21:38:09Z">
          <spd>10.8</spd>
          <str>90.0</str>
        </logpt>
        <logpt time="2015-04-16T21:38:13Z">
          <spd>10.8</spd>
          <str>90.0</str>
        </logpt>
        <logpt time="2015-04-16T21:38:17Z">
          <spd>10.8</spd>
          <str>90.0</str>
        </logpt>
        <logpt time="2015-04-16T21:38:21Z">
          <spd>10.8</spd>
          <str>90.0</str>
        </logpt>
        <logpt time="2015-04-16T21:38:25Z">
          <spd>10.8</spd>
          <str>90.0</str>
        </logpt>
        <logpt time="2015-04-16T21:38:29Z">
          <spd>10.8</spd>
          <str>90.0</str>
        </logpt>
        <logpt time="2015-04-16T21:38:33Z">
          <spd>10.8</spd>
          <str>90.0</str>
        </logpt>
        <logpt time="2015-04-16T21:38:37Z">
          <spd>11.3</spd>
          <str>90.0</str>
        </logpt>
        <logpt time="2015-04-16T21:38:41Z">
          <spd>10.8</spd>
          <str>91.0</str>
        </logpt>
        <logpt time="2015-04-16T21:38:45Z">
          <spd>11.3</spd>
          <str>91.0</str>
        </logpt>
        <logpt time="2015-04-16T21:38:49Z">
          <spd>11.7</spd>
          <str>91.0</str>
        </logpt>
        <logpt time="2015-04-16T21:38:53Z">
          <spd>11.7</spd>
          <str>91.0</str>
        </logpt>
        <logpt time="2015-04-16T21:38:57Z">
          <spd>12.2</spd>
          <str>90.0</str>
        </logpt>
        <logpt time="2015-04-16T21:39:01Z">
          <spd>12.6</spd>
          <str>91.0</str>
        </logpt>
        <logpt time="2015-04-16T21:39:05Z">
          <spd>13.1</spd>
          <str>91.0</str>
        </logpt>
        <logpt time="2015-04-16T21:39:09Z">
          <spd>13.1</spd>
          <str>91.0</str>
        </logpt>
        <logpt time="2015-04-16T21:39:13Z">
          <spd>13.1</spd>
          <str>91.0</str>
        </logpt>
        <logpt time="2015-04-16T21:39:17Z">
          <spd>13.5</spd>
          <str>91.0</str>
        </logpt>
        <logpt time="2015-04-16T21:39:21Z">
          <spd>13.5</spd>
          <str>91.0</str>
        </logpt>
        <logpt time="2015-04-16T21:39:25Z">
          <spd>13.9</spd>
          <str>91.0</str>
        </logpt>
        <logpt time="2015-04-16T21:39:29Z">
          <spd>14.4</spd>
          <str>92.0</str>
        </logpt>
        <logpt time="2015-04-16T21:39:33Z">
          <spd>14.8</spd>
          <str>92.0</str>
        </logpt>
        <logpt time="2015-04-16T21:39:37Z">
          <spd>17.1</spd>
          <str>92.0</str>
        </logpt>
        <logpt time="2015-04-16T21:39:41Z">
          <spd>18.0</spd>
          <str>92.0</str>
        </logpt>
        <logpt time="2015-04-16T21:39:45Z">
          <spd>18.4</spd>
          <str>92.0</str>
        </logpt>
        <logpt time="2015-04-16T21:39:49Z">
          <spd>17.1</spd>
          <str>92.0</str>
        </logpt>
        <logpt time="2015-04-16T21:39:53Z">
          <spd>15.8</spd>
          <str>93.0</str>
        </logpt>
        <logpt time="2015-04-16T21:39:57Z">
          <spd>15.8</spd>
          <str>93.0</str>
        </logpt>
        <logpt time="2015-04-16T21:40:01Z">
          <spd>15.8</spd>
          <str>92.0</str>
        </logpt>
        <logpt time="2015-04-16T21:40:05Z">
          <spd>15.3</spd>
          <str>93.0</str>
        </logpt>
        <logpt time="2015-04-16T21:40:09Z">
          <spd>15.3</spd>
          <str>93.0</str>
        </logpt>
        <logpt time="2015-04-16T21:40:13Z">
          <spd>15.3</spd>
          <str>93.0</str>
        </logpt>
        <logpt time="2015-04-16T21:40:17Z">
          <spd>15.3</spd>
          <str>93.0</str>
        </logpt>
        <logpt time="2015-04-16T21:40:21Z">
          <spd>14.8</spd>
          <str>93.0</str>
        </logpt>
        <logpt time="2015-04-16T21:40:25Z">
          <spd>14.8</spd>
          <str>93.0</str>
        </logpt>
        <logpt time="2015-04-16T21:40:29Z">
          <spd>14.8</spd>
          <str>93.0</str>
        </logpt>
        <logpt time="2015-04-16T21:40:33Z">
          <spd>14.4</spd>
          <str>94.0</str>
        </logpt>
        <logpt time="2015-04-16T21:40:37Z">
          <spd>14.4</spd>
          <str>93.0</str>
        </logpt>
        <logpt time="2015-04-16T21:40:41Z">
          <spd>14.8</spd>
          <str>94.0</str>
        </logpt>
        <logpt time="2015-04-16T21:40:45Z">
          <spd>14.8</spd>
          <str>93.0</str>
        </logpt>
        <logpt time="2015-04-16T21:40:49Z">
          <spd>13.9</spd>
          <str>94.0</str>
        </logpt>
        <logpt time="2015-04-16T21:40:53Z">
          <spd>14.4</spd>
          <str>93.0</str>
        </logpt>
        <logpt time="2015-04-16T21:40:57Z">
          <spd>13.9</spd>
          <str>94.0</str>
        </logpt>
        <logpt time="2015-04-16T21:41:01Z">
          <spd>13.9</spd>
          <str>94.0</str>
        </logpt>
        <logpt time="2015-04-16T21:41:05Z">
          <spd>13.9</spd>
          <str>94.0</str>
        </logpt>
        <logpt time="2015-04-16T21:41:09Z">
          <spd>13.9</spd>
          <str>94.0</str>
        </logpt>
        <logpt time="2015-04-16T21:41:13Z">
          <spd>13.9</spd>
          <str>94.0</str>
        </logpt>
        <logpt time="2015-04-16T21:41:17Z">
          <spd>13.9</spd>
          <str>94.0</str>
        </logpt>
        <logpt time="2015-04-16T21:41:21Z">
          <spd>13.9</spd>
          <str>94.0</str>
        </logpt>
        <logpt time="2015-04-16T21:41:25Z">
          <spd>13.9</spd>
          <str>93.0</str>
        </logpt>
        <logpt time="2015-04-16T21:41:29Z">
          <spd>13.9</spd>
          <str>94.0</str>
        </logpt>
        <logpt time="2015-04-16T21:41:33Z">
          <spd>13.5</spd>
          <str>94.0</str>
        </logpt>
        <logpt time="2015-04-16T21:41:37Z">
          <spd>13.5</spd>
          <str>94.0</str>
        </logpt>
        <logpt time="2015-04-16T21:41:41Z">
          <spd>13.5</spd>
          <str>94.0</str>
        </logpt>
        <logpt time="2015-04-16T21:41:45Z">
          <spd>13.5</spd>
          <str>94.0</str>
        </logpt>
        <logpt time="2015-04-16T21:41:49Z">
          <spd>13.1</spd>
          <str>94.0</str>
        </logpt>
        <logpt time="2015-04-16T21:41:53Z">
          <spd>13.1</spd>
          <str>94.0</str>
        </logpt>
        <logpt time="2015-04-16T21:41:57Z">
          <spd>13.1</spd>
          <str>93.0</str>
        </logpt>
        <logpt time="2015-04-16T21:42:01Z">
          <spd>13.5</spd>
          <str>94.0</str>
        </logpt>
        <logpt time="2015-04-16T21:42:05Z">
          <spd>13.5</spd>
          <str>94.0</str>
        </logpt>
        <logpt time="2015-04-16T21:42:09Z">
          <spd>16.6</spd>
          <str>93.0</str>
        </logpt>
        <logpt time="2015-04-16T21:42:13Z">
          <spd>16.2</spd>
          <str>93.0</str>
        </logpt>
        <logpt time="2015-04-16T21:42:17Z">
          <spd>15.3</spd>
          <str>93.0</str>
        </logpt>
        <logpt time="2015-04-16T21:42:21Z">
          <spd>18.0</spd>
          <str>94.0</str>
        </logpt>
        <logpt time="2015-04-16T21:42:25Z">
          <spd>18.0</spd>
          <str>93.0</str>
        </logpt>
        <logpt time="2015-04-16T21:42:29Z">
          <spd>15.3</spd>
          <str>93.0</str>
        </logpt>
        <logpt time="2015-04-16T21:42:33Z">
          <spd>14.8</spd>
          <str>93.0</str>
        </logpt>
        <logpt time="2015-04-16T21:42:37Z">
          <spd>14.8</spd>
          <str>93.0</str>
        </logpt>
        <logpt time="2015-04-16T21:42:41Z">
          <spd>13.5</spd>
          <str>93.0</str>
        </logpt>
        <logpt time="2015-04-16T21:42:45Z">
          <spd>13.5</spd>
          <str>93.0</str>
        </logpt>
        <logpt time="2015-04-16T21:42:49Z">
          <spd>14.4</spd>
          <str>93.0</str>
        </logpt>
        <logpt time="2015-04-16T21:42:53Z">
          <spd>14.4</spd>
          <str>94.0</str>
        </logpt>
        <logpt time="2015-04-16T21:42:57Z">
          <spd>17.1</spd>
          <str>93.0</str>
        </logpt>
        <logpt time="2015-04-16T21:43:01Z">
          <spd>19.4</spd>
          <str>94.0</str>
        </logpt>
        <logpt time="2015-04-16T21:43:05Z">
          <spd>19.4</spd>
          <str>94.0</str>
        </logpt>
        <logpt time="2015-04-16T21:43:09Z">
          <spd>20.3</spd>
          <str>94.0</str>
        </logpt>
        <logpt time="2015-04-16T21:43:13Z">
          <spd>20.7</spd>
          <str>94.0</str>
        </logpt>
        <logpt time="2015-04-16T21:43:17Z">
          <spd>20.7</spd>
          <str>94.0</str>
        </logpt>
        <logpt time="2015-04-16T21:43:21Z">
          <spd>19.8</spd>
          <str>94.0</str>
        </logpt>
        <logpt time="2015-04-16T21:43:25Z">
          <spd>18.0</spd>
          <str>95.0</str>
        </logpt>
        <logpt time="2015-04-16T21:43:29Z">
          <spd>17.1</spd>
          <str>94.0</str>
        </logpt>
        <logpt time="2015-04-16T21:43:33Z">
          <spd>16.6</spd>
          <str>94.0</str>
        </logpt>
        <logpt time="2015-04-16T21:43:37Z">
          <spd>16.6</spd>
          <str>94.0</str>
        </logpt>
        <logpt time="2015-04-16T21:43:41Z">
          <spd>16.6</spd>
          <str>94.0</str>
        </logpt>
        <logpt time="2015-04-16T21:43:45Z">
          <spd>16.6</spd>
          <str>94.0</str>
        </logpt>
        <logpt time="2015-04-16T21:43:49Z">
          <spd>16.6</spd>
          <str>94.0</str>
        </logpt>
        <logpt time="2015-04-16T21:43:53Z">
          <spd>16.6</spd>
          <str>93.0</str>
        </logpt>
        <logpt time="2015-04-16T21:43:57Z">
          <spd>17.1</spd>
          <str>93.0</str>
        </logpt>
        <logpt time="2015-04-16T21:44:01Z">
          <spd>17.6</spd>
          <str>93.0</str>
        </logpt>
        <logpt time="2015-04-16T21:44:05Z">
          <spd>17.6</spd>
          <str>92.0</str>
        </logpt>
        <logpt time="2015-04-16T21:44:09Z">
          <spd>17.6</spd>
          <str>92.0</str>
        </logpt>
        <logpt time="2015-04-16T21:44:13Z">
          <spd>17.6</spd>
          <str>92.0</str>
        </logpt>
        <logpt time="2015-04-16T21:44:17Z">
          <spd>17.1</spd>
          <str>92.0</str>
        </logpt>
        <logpt time="2015-04-16T21:44:21Z">
          <spd>16.6</spd>
          <str>92.0</str>
        </logpt>
        <logpt time="2015-04-16T21:44:25Z">
          <spd>16.6</spd>
          <str>92.0</str>
        </logpt>
        <logpt time="2015-04-16T21:44:29Z">
          <spd>16.6</spd>
          <str>92.0</str>
        </logpt>
        <logpt time="2015-04-16T21:44:33Z">
          <spd>15.8</spd>
          <str>91.0</str>
        </logpt>
        <logpt time="2015-04-16T21:44:37Z">
          <spd>14.8</spd>
          <str>91.0</str>
        </logpt>
        <logpt time="2015-04-16T21:44:41Z">
          <spd>14.8</spd>
          <str>91.0</str>
        </logpt>
        <logpt time="2015-04-16T21:44:45Z">
          <spd>14.8</spd>
          <str>91.0</str>
        </logpt>
        <logpt time="2015-04-16T21:44:49Z">
          <spd>14.8</spd>
          <str>91.0</str>
        </logpt>
        <logpt time="2015-04-16T21:44:53Z">
          <spd>14.8</spd>
          <str>91.0</str>
        </logpt>
        <logpt time="2015-04-16T21:44:57Z">
          <spd>14.4</spd>
          <str>91.0</str>
        </logpt>
        <logpt time="2015-04-16T21:45:01Z">
          <spd>14.4</spd>
          <str>91.0</str>
        </logpt>
        <logpt time="2015-04-16T21:45:05Z">
          <spd>14.4</spd>
          <str>91.0</str>
        </logpt>
        <logpt time="2015-04-16T21:45:09Z">
          <spd>13.9</spd>
          <str>91.0</str>
        </logpt>
        <logpt time="2015-04-16T21:45:13Z">
          <spd>13.9</spd>
          <str>91.0</str>
        </logpt>
        <logpt time="2015-04-16T21:45:17Z">
          <spd>13.5</spd>
          <str>91.0</str>
        </logpt>
        <logpt time="2015-04-16T21:45:21Z">
          <spd>13.1</spd>
          <str>91.0</str>
        </logpt>
        <logpt time="2015-04-16T21:45:25Z">
          <spd>13.1</spd>
          <str>91.0</str>
        </logpt>
        <logpt time="2015-04-16T21:45:29Z">
          <spd>12.6</spd>
          <str>90.0</str>
        </logpt>
        <logpt time="2015-04-16T21:45:33Z">
          <spd>12.2</spd>
          <str>90.0</str>
        </logpt>
        <logpt time="2015-04-16T21:45:37Z">
          <spd>13.1</spd>
          <str>90.0</str>
        </logpt>
        <logpt time="2015-04-16T21:45:41Z">
          <spd>13.1</spd>
          <str>90.0</str>
        </logpt>
        <logpt time="2015-04-16T21:45:45Z">
          <spd>13.1</spd>
          <str>90.0</str>
        </logpt>
        <logpt time="2015-04-16T21:45:49Z">
          <spd>12.6</spd>
          <str>90.0</str>
        </logpt>
        <logpt time="2015-04-16T21:45:53Z">
          <spd>13.1</spd>
          <str>90.0</str>
        </logpt>
        <logpt time="2015-04-16T21:45:57Z">
          <spd>12.6</spd>
          <str>90.0</str>
        </logpt>
        <logpt time="2015-04-16T21:46:01Z">
          <spd>12.6</spd>
          <str>89.0</str>
        </logpt>
        <logpt time="2015-04-16T21:46:05Z">
          <spd>13.1</spd>
          <str>89.0</str>
        </logpt>
        <logpt time="2015-04-16T21:46:09Z">
          <spd>12.6</spd>
          <str>89.0</str>
        </logpt>
        <logpt time="2015-04-16T21:46:13Z">
          <spd>11.7</spd>
          <str>89.0</str>
        </logpt>
        <logpt time="2015-04-16T21:46:17Z">
          <spd>11.3</spd>
          <str>89.0</str>
        </logpt>
        <logpt time="2015-04-16T21:46:21Z">
          <spd>11.3</spd>
          <str>88.0</str>
        </logpt>
        <logpt time="2015-04-16T21:46:25Z">
          <spd>11.3</spd>
          <str>88.0</str>
        </logpt>
        <logpt time="2015-04-16T21:46:29Z">
          <spd>10.8</spd>
          <str>88.0</str>
        </logpt>
        <logpt time="2015-04-16T21:46:33Z">
          <spd>10.8</spd>
          <str>88.0</str>
        </logpt>
        <logpt time="2015-04-16T21:46:37Z">
          <spd>10.8</spd>
          <str>88.0</str>
        </logpt>
        <logpt time="2015-04-16T21:46:41Z">
          <spd>11.3</spd>
          <str>88.0</str>
        </logpt>
        <logpt time="2015-04-16T21:46:45Z">
          <spd>11.3</spd>
          <str>88.0</str>
        </logpt>
        <logpt time="2015-04-16T21:46:49Z">
          <spd>11.3</spd>
          <str>88.0</str>
        </logpt>
        <logpt time="2015-04-16T21:46:53Z">
          <spd>10.8</spd>
          <str>87.0</str>
        </logpt>
        <logpt time="2015-04-16T21:46:57Z">
          <spd>10.8</spd>
          <str>87.0</str>
        </logpt>
        <logpt time="2015-04-16T21:47:01Z">
          <spd>10.8</spd>
          <str>87.0</str>
        </logpt>
        <logpt time="2015-04-16T21:47:05Z">
          <spd>10.8</spd>
          <str>87.0</str>
        </logpt>
        <logpt time="2015-04-16T21:47:09Z">
          <spd>10.8</spd>
          <str>88.0</str>
        </logpt>
        <logpt time="2015-04-16T21:47:13Z">
          <spd>10.8</spd>
          <str>87.0</str>
        </logpt>
        <logpt time="2015-04-16T21:47:17Z">
          <spd>11.3</spd>
          <str>87.0</str>
        </logpt>
        <logpt time="2015-04-16T21:47:21Z">
          <spd>10.8</spd>
          <str>87.0</str>
        </logpt>
        <logpt time="2015-04-16T21:47:25Z">
          <spd>10.8</spd>
          <str>87.0</str>
        </logpt>
        <logpt time="2015-04-16T21:47:29Z">
          <spd>10.8</spd>
          <str>88.0</str>
        </logpt>
        <logpt time="2015-04-16T21:47:33Z">
          <spd>10.8</spd>
          <str>87.0</str>
        </logpt>
        <logpt time="2015-04-16T21:47:37Z">
          <spd>10.8</spd>
          <str>88.0</str>
        </logpt>
        <logpt time="2015-04-16T21:47:41Z">
          <spd>10.3</spd>
          <str>88.0</str>
        </logpt>
        <logpt time="2015-04-16T21:47:45Z">
          <spd>10.3</spd>
          <str>88.0</str>
        </logpt>
        <logpt time="2015-04-16T21:47:49Z">
          <spd>9.9</spd>
          <str>88.0</str>
        </logpt>
        <logpt time="2015-04-16T21:47:53Z">
          <spd>10.3</spd>
          <str>88.0</str>
        </logpt>
        <logpt time="2015-04-16T21:47:57Z">
          <spd>10.3</spd>
          <str>88.0</str>
        </logpt>
        <logpt time="2015-04-16T21:48:01Z">
          <spd>10.8</spd>
          <str>88.0</str>
        </logpt>
        <logpt time="2015-04-16T21:48:05Z">
          <spd>10.8</spd>
          <str>89.0</str>
        </logpt>
        <logpt time="2015-04-16T21:48:09Z">
          <spd>10.3</spd>
          <str>88.0</str>
        </logpt>
        <logpt time="2015-04-16T21:48:13Z">
          <spd>10.3</spd>
          <str>89.0</str>
        </logpt>
        <logpt time="2015-04-16T21:48:17Z">
          <spd>10.3</spd>
          <str>89.0</str>
        </logpt>
        <logpt time="2015-04-16T21:48:21Z">
          <spd>10.3</spd>
          <str>89.0</str>
        </logpt>
        <logpt time="2015-04-16T21:48:25Z">
          <spd>10.8</spd>
          <str>89.0</str>
        </logpt>
        <logpt time="2015-04-16T21:48:29Z">
          <spd>11.3</spd>
          <str>89.0</str>
        </logpt>
        <logpt time="2015-04-16T21:48:33Z">
          <spd>11.3</spd>
          <str>90.0</str>
        </logpt>
        <logpt time="2015-04-16T21:48:37Z">
          <spd>12.2</spd>
          <str>90.0</str>
        </logpt>
        <logpt time="2015-04-16T21:48:41Z">
          <spd>14.8</spd>
          <str>90.0</str>
        </logpt>
        <logpt time="2015-04-16T21:48:45Z">
          <spd>14.4</spd>
          <str>90.0</str>
        </logpt>
        <logpt time="2015-04-16T21:48:49Z">
          <spd>15.3</spd>
          <str>90.0</str>
        </logpt>
        <logpt time="2015-04-16T21:48:53Z">
          <spd>15.3</spd>
          <str>90.0</str>
        </logpt>
        <logpt time="2015-04-16T21:48:57Z">
          <spd>15.8</spd>
          <str>90.0</str>
        </logpt>
        <logpt time="2015-04-16T21:49:01Z">
          <spd>15.8</spd>
          <str>90.0</str>
        </logpt>
        <logpt time="2015-04-16T21:49:05Z">
          <spd>15.8</spd>
          <str>90.0</str>
        </logpt>
        <logpt time="2015-04-16T21:49:09Z">
          <spd>14.8</spd>
          <str>90.0</str>
        </logpt>
        <logpt time="2015-04-16T21:49:13Z">
          <spd>14.4</spd>
          <str>90.0</str>
        </logpt>
        <logpt time="2015-04-16T21:49:17Z">
          <spd>14.4</spd>
          <str>91.0</str>
        </logpt>
        <logpt time="2015-04-16T21:49:21Z">
          <spd>13.5</spd>
          <str>91.0</str>
        </logpt>
        <logpt time="2015-04-16T21:49:25Z">
          <spd>13.5</spd>
          <str>91.0</str>
        </logpt>
        <logpt time="2015-04-16T21:49:29Z">
          <spd>13.1</spd>
          <str>91.0</str>
        </logpt>
        <logpt time="2015-04-16T21:49:33Z">
          <spd>13.5</spd>
          <str>91.0</str>
        </logpt>
        <logpt time="2015-04-16T21:49:37Z">
          <spd>13.9</spd>
          <str>91.0</str>
        </logpt>
        <logpt time="2015-04-16T21:49:41Z">
          <spd>13.9</spd>
          <str>91.0</str>
        </logpt>
        <logpt time="2015-04-16T21:49:45Z">
          <spd>13.9</spd>
          <str>91.0</str>
        </logpt>
        <logpt time="2015-04-16T21:49:49Z">
          <spd>14.4</spd>
          <str>91.0</str>
        </logpt>
        <logpt time="2015-04-16T21:49:53Z">
          <spd>14.8</spd>
          <str>91.0</str>
        </logpt>
        <logpt time="2015-04-16T21:49:57Z">
          <spd>14.8</spd>
          <str>91.0</str>
        </logpt>
        <logpt time="2015-04-16T21:50:01Z">
          <spd>15.3</spd>
          <str>91.0</str>
        </logpt>
        <logpt time="2015-04-16T21:50:05Z">
          <spd>14.4</spd>
          <str>91.0</str>
        </logpt>
        <logpt time="2015-04-16T21:50:09Z">
          <spd>14.4</spd>
          <str>91.0</str>
        </logpt>
        <logpt time="2015-04-16T21:50:13Z">
          <spd>13.9</spd>
          <str>92.0</str>
        </logpt>
        <logpt time="2015-04-16T21:50:17Z">
          <spd>14.4</spd>
          <str>91.0</str>
        </logpt>
        <logpt time="2015-04-16T21:50:21Z">
          <spd>14.8</spd>
          <str>91.0</str>
        </logpt>
        <logpt time="2015-04-16T21:50:25Z">
          <spd>14.8</spd>
          <str>91.0</str>
        </logpt>
        <logpt time="2015-04-16T21:50:29Z">
          <spd>15.8</spd>
          <str>91.0</str>
        </logpt>
        <logpt time="2015-04-16T21:50:33Z">
          <spd>18.0</spd>
          <str>91.0</str>
        </logpt>
        <logpt time="2015-04-16T21:50:37Z">
          <spd>18.9</spd>
          <str>91.0</str>
        </logpt>
        <logpt time="2015-04-16T21:50:41Z">
          <spd>19.8</spd>
          <str>91.0</str>
        </logpt>
        <logpt time="2015-04-16T21:50:45Z">
          <spd>19.4</spd>
          <str>91.0</str>
        </logpt>
        <logpt time="2015-04-16T21:50:49Z">
          <spd>16.2</spd>
          <str>91.0</str>
        </logpt>
        <logpt time="2015-04-16T21:50:53Z">
          <spd>15.8</spd>
          <str>91.0</str>
        </logpt>
        <logpt time="2015-04-16T21:50:57Z">
          <spd>16.2</spd>
          <str>91.0</str>
        </logpt>
        <logpt time="2015-04-16T21:51:01Z">
          <spd>15.3</spd>
          <str>91.0</str>
        </logpt>
        <logpt time="2015-04-16T21:51:05Z">
          <spd>13.9</spd>
          <str>91.0</str>
        </logpt>
        <logpt time="2015-04-16T21:51:09Z">
          <spd>15.8</spd>
          <str>91.0</str>
        </logpt>
        <logpt time="2015-04-16T21:51:13Z">
          <spd>15.8</spd>
          <str>91.0</str>
        </logpt>
        <logpt time="2015-04-16T21:51:17Z">
          <spd>16.2</spd>
          <str>91.0</str>
        </logpt>
        <logpt time="2015-04-16T21:51:21Z">
          <spd>17.1</spd>
          <str>91.0</str>
        </logpt>
        <logpt time="2015-04-16T21:51:25Z">
          <spd>17.6</spd>
          <str>91.0</str>
        </logpt>
        <logpt time="2015-04-16T21:51:29Z">
          <spd>17.1</spd>
          <str>91.0</str>
        </logpt>
        <logpt time="2015-04-16T21:51:33Z">
          <spd>17.1</spd>
          <str>91.0</str>
        </logpt>
        <logpt time="2015-04-16T21:51:37Z">
          <spd>15.8</spd>
          <str>91.0</str>
        </logpt>
        <logpt time="2015-04-16T21:51:41Z">
          <spd>15.8</spd>
          <str>91.0</str>
        </logpt>
        <logpt time="2015-04-16T21:51:45Z">
          <spd>15.3</spd>
          <str>90.0</str>
        </logpt>
        <logpt time="2015-04-16T21:51:49Z">
          <spd>15.3</spd>
          <str>90.0</str>
        </logpt>
        <logpt time="2015-04-16T21:51:53Z">
          <spd>14.4</spd>
          <str>90.0</str>
        </logpt>
        <logpt time="2015-04-16T21:51:57Z">
          <spd>14.4</spd>
          <str>90.0</str>
        </logpt>
        <logpt time="2015-04-16T21:52:01Z">
          <spd>13.9</spd>
          <str>90.0</str>
        </logpt>
        <logpt time="2015-04-16T21:52:05Z">
          <spd>13.5</spd>
          <str>90.0</str>
        </logpt>
        <logpt time="2015-04-16T21:52:09Z">
          <spd>13.9</spd>
          <str>91.0</str>
        </logpt>
        <logpt time="2015-04-16T21:52:13Z">
          <spd>13.9</spd>
          <str>90.0</str>
        </logpt>
        <logpt time="2015-04-16T21:52:17Z">
          <spd>14.4</spd>
          <str>90.0</str>
        </logpt>
        <logpt time="2015-04-16T21:52:21Z">
          <spd>13.9</spd>
          <str>90.0</str>
        </logpt>
        <logpt time="2015-04-16T21:52:25Z">
          <spd>13.9</spd>
          <str>90.0</str>
        </logpt>
        <logpt time="2015-04-16T21:52:29Z">
          <spd>13.9</spd>
          <str>90.0</str>
        </logpt>
        <logpt time="2015-04-16T21:52:33Z">
          <spd>14.4</spd>
          <str>90.0</str>
        </logpt>
        <logpt time="2015-04-16T21:52:37Z">
          <spd>13.9</spd>
          <str>90.0</str>
        </logpt>
        <logpt time="2015-04-16T21:52:41Z">
          <spd>14.4</spd>
          <str>90.0</str>
        </logpt>
        <logpt time="2015-04-16T21:52:45Z">
          <spd>14.4</spd>
          <str>91.0</str>
        </logpt>
        <logpt time="2015-04-16T21:52:49Z">
          <spd>14.4</spd>
          <str>90.0</str>
        </logpt>
        <logpt time="2015-04-16T21:52:53Z">
          <spd>14.4</spd>
          <str>90.0</str>
        </logpt>
        <logpt time="2015-04-16T21:52:57Z">
          <spd>14.4</spd>
          <str>90.0</str>
        </logpt>
        <logpt time="2015-04-16T21:53:01Z">
          <spd>14.4</spd>
          <str>90.0</str>
        </logpt>
        <logpt time="2015-04-16T21:53:05Z">
          <spd>14.8</spd>
          <str>90.0</str>
        </logpt>
        <logpt time="2015-04-16T21:53:09Z">
          <spd>14.4</spd>
          <str>90.0</str>
        </logpt>
        <logpt time="2015-04-16T21:53:13Z">
          <spd>13.9</spd>
          <str>90.0</str>
        </logpt>
        <logpt time="2015-04-16T21:53:17Z">
          <spd>13.9</spd>
          <str>90.0</str>
        </logpt>
        <logpt time="2015-04-16T21:53:21Z">
          <spd>13.9</spd>
          <str>90.0</str>
        </logpt>
        <logpt time="2015-04-16T21:53:25Z">
          <spd>13.9</spd>
          <str>90.0</str>
        </logpt>
        <logpt time="2015-04-16T21:53:29Z">
          <spd>13.9</spd>
          <str>90.0</str>
        </logpt>
        <logpt time="2015-04-16T21:53:33Z">
          <spd>13.9</spd>
          <str>90.0</str>
        </logpt>
        <logpt time="2015-04-16T21:53:37Z">
          <spd>13.9</spd>
          <str>90.0</str>
        </logpt>
        <logpt time="2015-04-16T21:53:41Z">
          <spd>13.5</spd>
          <str>90.0</str>
        </logpt>
        <logpt time="2015-04-16T21:53:45Z">
          <spd>13.9</spd>
          <str>89.0</str>
        </logpt>
        <logpt time="2015-04-16T21:53:49Z">
          <spd>13.9</spd>
          <str>90.0</str>
        </logpt>
        <logpt time="2015-04-16T21:53:53Z">
          <spd>13.9</spd>
          <str>90.0</str>
        </logpt>
        <logpt time="2015-04-16T21:53:57Z">
          <spd>13.9</spd>
          <str>90.0</str>
        </logpt>
        <logpt time="2015-04-16T21:54:01Z">
          <spd>14.4</spd>
          <str>90.0</str>
        </logpt>
        <logpt time="2015-04-16T21:54:05Z">
          <spd>14.4</spd>
          <str>90.0</str>
        </logpt>
        <logpt time="2015-04-16T21:54:09Z">
          <spd>13.9</spd>
          <str>90.0</str>
        </logpt>
        <logpt time="2015-04-16T21:54:13Z">
          <spd>13.9</spd>
          <str>89.0</str>
        </logpt>
        <logpt time="2015-04-16T21:54:17Z">
          <spd>13.9</spd>
          <str>89.0</str>
        </logpt>
        <logpt time="2015-04-16T21:54:21Z">
          <spd>13.9</spd>
          <str>90.0</str>
        </logpt>
        <logpt time="2015-04-16T21:54:25Z">
          <spd>13.9</spd>
          <str>90.0</str>
        </logpt>
        <logpt time="2015-04-16T21:54:29Z">
          <spd>13.5</spd>
          <str>90.0</str>
        </logpt>
        <logpt time="2015-04-16T21:54:33Z">
          <spd>13.5</spd>
          <str>89.0</str>
        </logpt>
        <logpt time="2015-04-16T21:54:37Z">
          <spd>13.5</spd>
          <str>89.0</str>
        </logpt>
        <logpt time="2015-04-16T21:54:41Z">
          <spd>13.9</spd>
          <str>89.0</str>
        </logpt>
        <logpt time="2015-04-16T21:54:45Z">
          <spd>13.5</spd>
          <str>89.0</str>
        </logpt>
        <logpt time="2015-04-16T21:54:49Z">
          <spd>13.5</spd>
          <str>89.0</str>
        </logpt>
        <logpt time="2015-04-16T21:54:53Z">
          <spd>13.1</spd>
          <str>89.0</str>
        </logpt>
        <logpt time="2015-04-16T21:54:57Z">
          <spd>13.1</spd>
          <str>89.0</str>
        </logpt>
        <logpt time="2015-04-16T21:55:01Z">
          <spd>13.1</spd>
          <str>89.0</str>
        </logpt>
        <logpt time="2015-04-16T21:55:05Z">
          <spd>13.1</spd>
          <str>89.0</str>
        </logpt>
        <logpt time="2015-04-16T21:55:09Z">
          <spd>13.1</spd>
          <str>88.0</str>
        </logpt>
        <logpt time="2015-04-16T21:55:13Z">
          <spd>12.6</spd>
          <str>89.0</str>
        </logpt>
        <logpt time="2015-04-16T21:55:17Z">
          <spd>12.6</spd>
          <str>89.0</str>
        </logpt>
        <logpt time="2015-04-16T21:55:21Z">
          <spd>12.6</spd>
          <str>88.0</str>
        </logpt>
        <logpt time="2015-04-16T21:55:25Z">
          <spd>12.6</spd>
          <str>88.0</str>
        </logpt>
        <logpt time="2015-04-16T21:55:29Z">
          <spd>13.1</spd>
          <str>88.0</str>
        </logpt>
        <logpt time="2015-04-16T21:55:33Z">
          <spd>13.5</spd>
          <str>88.0</str>
        </logpt>
        <logpt time="2015-04-16T21:55:37Z">
          <spd>13.5</spd>
          <str>88.0</str>
        </logpt>
        <logpt time="2015-04-16T21:55:41Z">
          <spd>13.5</spd>
          <str>88.0</str>
        </logpt>
        <logpt time="2015-04-16T21:55:45Z">
          <spd>13.5</spd>
          <str>88.0</str>
        </logpt>
        <logpt time="2015-04-16T21:55:49Z">
          <spd>13.9</spd>
          <str>88.0</str>
        </logpt>
        <logpt time="2015-04-16T21:55:53Z">
          <spd>13.9</spd>
          <str>87.0</str>
        </logpt>
        <logpt time="2015-04-16T21:55:57Z">
          <spd>14.8</spd>
          <str>88.0</str>
        </logpt>
        <logpt time="2015-04-16T21:56:01Z">
          <spd>13.9</spd>
          <str>87.0</str>
        </logpt>
        <logpt time="2015-04-16T21:56:05Z">
          <spd>13.9</spd>
          <str>87.0</str>
        </logpt>
        <logpt time="2015-04-16T21:56:09Z">
          <spd>13.5</spd>
          <str>87.0</str>
        </logpt>
        <logpt time="2015-04-16T21:56:13Z">
          <spd>13.5</spd>
          <str>87.0</str>
        </logpt>
        <logpt time="2015-04-16T21:56:17Z">
          <spd>13.1</spd>
          <str>87.0</str>
        </logpt>
        <logpt time="2015-04-16T21:56:21Z">
          <spd>12.6</spd>
          <str>87.0</str>
        </logpt>
        <logpt time="2015-04-16T21:56:25Z">
          <spd>12.6</spd>
          <str>87.0</str>
        </logpt>
        <logpt time="2015-04-16T21:56:29Z">
          <spd>12.2</spd>
          <str>86.0</str>
        </logpt>
        <logpt time="2015-04-16T21:56:33Z">
          <spd>12.6</spd>
          <str>86.0</str>
        </logpt>
        <logpt time="2015-04-16T21:56:37Z">
          <spd>12.6</spd>
          <str>86.0</str>
        </logpt>
        <logpt time="2015-04-16T21:56:41Z">
          <spd>12.6</spd>
          <str>86.0</str>
        </logpt>
        <logpt time="2015-04-16T21:56:45Z">
          <spd>12.2</spd>
          <str>86.0</str>
        </logpt>
        <logpt time="2015-04-16T21:56:49Z">
          <spd>12.2</spd>
          <str>86.0</str>
        </logpt>
        <logpt time="2015-04-16T21:56:53Z">
          <spd>11.7</spd>
          <str>87.0</str>
        </logpt>
        <logpt time="2015-04-16T21:56:57Z">
          <spd>11.7</spd>
          <str>86.0</str>
        </logpt>
        <logpt time="2015-04-16T21:57:01Z">
          <spd>11.7</spd>
          <str>87.0</str>
        </logpt>
        <logpt time="2015-04-16T21:57:05Z">
          <spd>11.7</spd>
          <str>86.0</str>
        </logpt>
        <logpt time="2015-04-16T21:57:09Z">
          <spd>11.3</spd>
          <str>87.0</str>
        </logpt>
        <logpt time="2015-04-16T21:57:13Z">
          <spd>10.8</spd>
          <str>87.0</str>
        </logpt>
        <logpt time="2015-04-16T21:57:17Z">
          <spd>11.3</spd>
          <str>87.0</str>
        </logpt>
        <logpt time="2015-04-16T21:57:21Z">
          <spd>11.7</spd>
          <str>87.0</str>
        </logpt>
        <logpt time="2015-04-16T21:57:25Z">
          <spd>11.3</spd>
          <str>87.0</str>
        </logpt>
        <logpt time="2015-04-16T21:57:29Z">
          <spd>11.7</spd>
          <str>87.0</str>
        </logpt>
        <logpt time="2015-04-16T21:57:33Z">
          <spd>11.3</spd>
          <str>87.0</str>
        </logpt>
        <logpt time="2015-04-16T21:57:37Z">
          <spd>11.7</spd>
          <str>87.0</str>
        </logpt>
        <logpt time="2015-04-16T21:57:41Z">
          <spd>11.3</spd>
          <str>88.0</str>
        </logpt>
        <logpt time="2015-04-16T21:57:45Z">
          <spd>11.3</spd>
          <str>87.0</str>
        </logpt>
        <logpt time="2015-04-16T21:57:49Z">
          <spd>11.3</spd>
          <str>88.0</str>
        </logpt>
        <logpt time="2015-04-16T21:57:53Z">
          <spd>11.3</spd>
          <str>87.0</str>
        </logpt>
        <logpt time="2015-04-16T21:57:57Z">
          <spd>11.3</spd>
          <str>88.0</str>
        </logpt>
        <logpt time="2015-04-16T21:58:01Z">
          <spd>11.3</spd>
          <str>88.0</str>
        </logpt>
        <logpt time="2015-04-16T21:58:05Z">
          <spd>11.3</spd>
          <str>88.0</str>
        </logpt>
        <logpt time="2015-04-16T21:58:09Z">
          <spd>11.3</spd>
          <str>88.0</str>
        </logpt>
        <logpt time="2015-04-16T21:58:13Z">
          <spd>10.3</spd>
          <str>88.0</str>
        </logpt>
        <logpt time="2015-04-16T21:58:17Z">
          <spd>10.3</spd>
          <str>88.0</str>
        </logpt>
        <logpt time="2015-04-16T21:58:21Z">
          <spd>10.8</spd>
          <str>88.0</str>
        </logpt>
        <logpt time="2015-04-16T21:58:25Z">
          <spd>10.8</spd>
          <str>88.0</str>
        </logpt>
        <logpt time="2015-04-16T21:58:29Z">
          <spd>10.3</spd>
          <str>88.0</str>
        </logpt>
        <logpt time="2015-04-16T21:58:33Z">
          <spd>9.4</spd>
          <str>88.0</str>
        </logpt>
        <logpt time="2015-04-16T21:58:37Z">
          <spd>9.0</spd>
          <str>88.0</str>
        </logpt>
        <logpt time="2015-04-16T21:58:41Z">
          <spd>9.0</spd>
          <str>88.0</str>
        </logpt>
        <logpt time="2015-04-16T21:58:45Z">
          <spd>9.4</spd>
          <str>88.0</str>
        </logpt>
        <logpt time="2015-04-16T21:58:49Z">
          <spd>9.4</spd>
          <str>88.0</str>
        </logpt>
        <logpt time="2015-04-16T21:58:53Z">
          <spd>9.4</spd>
          <str>88.0</str>
        </logpt>
        <logpt time="2015-04-16T21:58:57Z">
          <spd>9.4</spd>
          <str>88.0</str>
        </logpt>
        <logpt time="2015-04-16T21:59:01Z">
          <spd>9.4</spd>
          <str>88.0</str>
        </logpt>
        <logpt time="2015-04-16T21:59:05Z">
          <spd>9.9</spd>
          <str>88.0</str>
        </logpt>
        <logpt time="2015-04-16T21:59:09Z">
          <spd>9.4</spd>
          <str>88.0</str>
        </logpt>
        <logpt time="2015-04-16T21:59:13Z">
          <spd>9.9</spd>
          <str>88.0</str>
        </logpt>
        <logpt time="2015-04-16T21:59:17Z">
          <spd>9.9</spd>
          <str>88.0</str>
        </logpt>
        <logpt time="2015-04-16T21:59:21Z">
          <spd>9.9</spd>
          <str>88.0</str>
        </logpt>
        <logpt time="2015-04-16T21:59:25Z">
          <spd>10.8</spd>
          <str>88.0</str>
        </logpt>
        <logpt time="2015-04-16T21:59:29Z">
          <spd>10.8</spd>
          <str>88.0</str>
        </logpt>
        <logpt time="2015-04-16T21:59:33Z">
          <spd>11.7</spd>
          <str>88.0</str>
        </logpt>
        <logpt time="2015-04-16T21:59:37Z">
          <spd>10.8</spd>
          <str>88.0</str>
        </logpt>
        <logpt time="2015-04-16T21:59:41Z">
          <spd>10.3</spd>
          <str>88.0</str>
        </logpt>
        <logpt time="2015-04-16T21:59:45Z">
          <spd>10.3</spd>
          <str>88.0</str>
        </logpt>
        <logpt time="2015-04-16T21:59:49Z">
          <spd>10.3</spd>
          <str>88.0</str>
        </logpt>
        <logpt time="2015-04-16T21:59:53Z">
          <spd>10.3</spd>
          <str>88.0</str>
        </logpt>
        <logpt time="2015-04-16T21:59:57Z">
          <spd>10.3</spd>
          <str>88.0</str>
        </logpt>
        <logpt time="2015-04-16T22:00:01Z">
          <spd>10.3</spd>
          <str>88.0</str>
        </logpt>
        <logpt time="2015-04-16T22:00:05Z">
          <spd>10.3</spd>
          <str>88.0</str>
        </logpt>
        <logpt time="2015-04-16T22:00:09Z">
          <spd>10.3</spd>
          <str>87.0</str>
        </logpt>
        <logpt time="2015-04-16T22:00:13Z">
          <spd>10.3</spd>
          <str>88.0</str>
        </logpt>
        <logpt time="2015-04-16T22:00:17Z">
          <spd>10.3</spd>
          <str>88.0</str>
        </logpt>
        <logpt time="2015-04-16T22:00:21Z">
          <spd>9.9</spd>
          <str>87.0</str>
        </logpt>
        <logpt time="2015-04-16T22:00:25Z">
          <spd>9.9</spd>
          <str>88.0</str>
        </logpt>
        <logpt time="2015-04-16T22:00:29Z">
          <spd>9.9</spd>
          <str>88.0</str>
        </logpt>
        <breaktype>2</breaktype>
      </logseg>
    </ssrlog>
    <laps>
      <lap start="2015-04-16T21:34:02Z" type="1" end="2015-04-16T21:34:31Z" order="1" isautolap="0">
        <distance>0</distance>
        <calorie>0</calorie>
        <speed max="2.7" avg="0.0"/>
        <cad max="79" avg="79"/>
        <rtime>0</rtime>
        <acttype subtype="0">1</acttype>
      </lap>
      <lap start="2015-04-16T21:34:31Z" type="1" end="2015-04-16T22:00:41Z" order="2" isautolap="0">
        <distance>5827</distance>
        <calorie>374</calorie>
        <speed max="21.6" avg="13.5"/>
        <cad max="95" avg="89"/>
        <rtime>1555</rtime>
        <acttype subtype="0">1</acttype>
      </lap>
      <summary start="2015-04-16T21:34:02Z" type="0" end="2015-04-16T22:00:41Z" isautolap="0">
        <distance>5827</distance>
        <calorie>374</calorie>
        <speed max="21.6" avg="13.5"/>
        <cad max="95" avg="90"/>
        <rtime>1555</rtime>
        <acttype subtype="0">1</acttype>
      </summary>
    </laps>
  </extensions>
</gpx>
