<?xml version='1.0' encoding='utf-8'?>
<gpx xmlns:xsi="http://www.w3.org/2001/XMLSchema-instance" xmlns="http://www.brytonsport.com/BDX/2/2" version="2.2.0.3" creator="bryton">
  <metadata>
    <name>2015/08/06 05:42</name>
    <time>2015-08-05T21:42:51Z</time>
    <bounds minlat="35.951714" maxlon="120.227004" minlon="120.20743" maxlat="35.958329"/>
    <extensions>
      <user>
        <bike>0<wheel>204.00</wheel></bike>
        <weight>68</weight>
        <gender>1</gender>
        <height>172</height>
        <age>28</age>
        <mhr>190</mhr>
        <lthr>172</lthr>
        <map>0</map>
        <ftp>0</ftp>
        <zonedef type="1">
          <zone high="74" id="1" low="0"/>
          <zone high="80" id="2" low="74"/>
          <zone high="85" id="3" low="80"/>
          <zone high="91" id="4" low="85"/>
          <zone high="93" id="5" low="91"/>
          <zone high="95" id="6" low="93"/>
          <zone high="0" id="7" low="95"/>
        </zonedef>
        <zonedef type="2">
          <zone high="80" id="1" low="0"/>
          <zone high="87" id="2" low="80"/>
          <zone high="91" id="3" low="87"/>
          <zone high="100" id="4" low="91"/>
          <zone high="101" id="5" low="100"/>
          <zone high="105" id="6" low="101"/>
          <zone high="0" id="7" low="105"/>
        </zonedef>
        <zonedef type="3">
          <zone high="40" id="1" low="17"/>
          <zone high="55" id="2" low="40"/>
          <zone high="65" id="3" low="55"/>
          <zone high="75" id="4" low="65"/>
          <zone high="85" id="5" low="75"/>
          <zone high="110" id="6" low="85"/>
          <zone high="65535" id="7" low="110"/>
        </zonedef>
        <zonedef type="4">
          <zone high="55" id="1" low="23"/>
          <zone high="75" id="2" low="55"/>
          <zone high="90" id="3" low="75"/>
          <zone high="105" id="4" low="90"/>
          <zone high="120" id="5" low="105"/>
          <zone high="150" id="6" low="120"/>
          <zone high="65535" id="7" low="150"/>
        </zonedef>
      </user>
      <sys version="1.0.0.R041 BB2.8.0.14">Cardio60<apps><app version="148" name="bc"/></apps></sys>
      <sharetype>2</sharetype>
      <acttype subtype="0">1</acttype>
      <trvTime>30</trvTime>
      <trvDist>4877</trvDist>
      <stime>1438810971</stime>
      <etime>1438812821</etime>
    </extensions>
  </metadata>
  <rte>
    <number>2</number>
    <rtept lat="35.956614" lon="120.20881">
      <type>1</type>
    </rtept>
    <rtept lat="35.956315" lon="120.207483">
      <type>2</type>
    </rtept>
  </rte>
  <trk>
    <trkseg/>
    <trkseg>
      <trkpt lat="35.956614" lon="120.20881">
        <ele>12.0</ele>
        <time>2015-08-05T21:45:31Z</time>
      </trkpt>
      <trkpt lat="35.956606" lon="120.208785">
        <ele>12.1</ele>
        <time>2015-08-05T21:45:35Z</time>
      </trkpt>
      <trkpt lat="35.956666" lon="120.208699">
        <ele>12.2</ele>
        <time>2015-08-05T21:45:39Z</time>
      </trkpt>
      <trkpt lat="35.956683" lon="120.208624">
        <ele>12.3</ele>
        <time>2015-08-05T21:45:43Z</time>
      </trkpt>
      <trkpt lat="35.956676" lon="120.208523">
        <ele>12.3</ele>
        <time>2015-08-05T21:45:47Z</time>
      </trkpt>
      <trkpt lat="35.956635" lon="120.208437">
        <ele>12.4</ele>
        <time>2015-08-05T21:45:51Z</time>
      </trkpt>
      <trkpt lat="35.956595" lon="120.208354">
        <ele>12.3</ele>
        <time>2015-08-05T21:45:55Z</time>
      </trkpt>
      <trkpt lat="35.956561" lon="120.208276">
        <ele>12.3</ele>
        <time>2015-08-05T21:45:59Z</time>
      </trkpt>
      <trkpt lat="35.956528" lon="120.208182">
        <ele>12.2</ele>
        <time>2015-08-05T21:46:03Z</time>
      </trkpt>
      <trkpt lat="35.95652" lon="120.208064">
        <ele>12.2</ele>
        <time>2015-08-05T21:46:07Z</time>
      </trkpt>
      <trkpt lat="35.956494" lon="120.207946">
        <ele>12.1</ele>
        <time>2015-08-05T21:46:11Z</time>
      </trkpt>
      <trkpt lat="35.956479" lon="120.207814">
        <ele>12.0</ele>
        <time>2015-08-05T21:46:15Z</time>
      </trkpt>
      <trkpt lat="35.956459" lon="120.207677">
        <ele>11.8</ele>
        <time>2015-08-05T21:46:19Z</time>
      </trkpt>
      <trkpt lat="35.956426" lon="120.207552">
        <ele>11.6</ele>
        <time>2015-08-05T21:46:23Z</time>
      </trkpt>
      <trkpt lat="35.956382" lon="120.207455">
        <ele>11.4</ele>
        <time>2015-08-05T21:46:27Z</time>
      </trkpt>
      <trkpt lat="35.956304" lon="120.20743">
        <ele>11.1</ele>
        <time>2015-08-05T21:46:31Z</time>
      </trkpt>
      <trkpt lat="35.956173" lon="120.207469">
        <ele>10.8</ele>
        <time>2015-08-05T21:46:35Z</time>
      </trkpt>
      <trkpt lat="35.956028" lon="120.207531">
        <ele>10.5</ele>
        <time>2015-08-05T21:46:39Z</time>
      </trkpt>
      <trkpt lat="35.955904" lon="120.207576">
        <ele>10.1</ele>
        <time>2015-08-05T21:46:43Z</time>
      </trkpt>
      <trkpt lat="35.955782" lon="120.207615">
        <ele>9.6</ele>
        <time>2015-08-05T21:46:47Z</time>
      </trkpt>
      <trkpt lat="35.955655" lon="120.207655">
        <ele>9.1</ele>
        <time>2015-08-05T21:46:51Z</time>
      </trkpt>
      <trkpt lat="35.955528" lon="120.207704">
        <ele>8.6</ele>
        <time>2015-08-05T21:46:55Z</time>
      </trkpt>
      <trkpt lat="35.955415" lon="120.207762">
        <ele>8.1</ele>
        <time>2015-08-05T21:46:59Z</time>
      </trkpt>
      <trkpt lat="35.955317" lon="120.207796">
        <ele>7.6</ele>
        <time>2015-08-05T21:47:03Z</time>
      </trkpt>
      <trkpt lat="35.955219" lon="120.20785">
        <ele>7.0</ele>
        <time>2015-08-05T21:47:07Z</time>
      </trkpt>
      <trkpt lat="35.955109" lon="120.207916">
        <ele>6.5</ele>
        <time>2015-08-05T21:47:11Z</time>
      </trkpt>
      <trkpt lat="35.954997" lon="120.20797">
        <ele>5.9</ele>
        <time>2015-08-05T21:47:15Z</time>
      </trkpt>
      <trkpt lat="35.954886" lon="120.208016">
        <ele>5.4</ele>
        <time>2015-08-05T21:47:19Z</time>
      </trkpt>
      <trkpt lat="35.954776" lon="120.208051">
        <ele>4.9</ele>
        <time>2015-08-05T21:47:23Z</time>
      </trkpt>
      <trkpt lat="35.954546" lon="120.208094">
        <ele>4.5</ele>
        <time>2015-08-05T21:47:27Z</time>
      </trkpt>
      <trkpt lat="35.954437" lon="120.208115">
        <ele>4.0</ele>
        <time>2015-08-05T21:47:35Z</time>
      </trkpt>
      <trkpt lat="35.954334" lon="120.208142">
        <ele>3.6</ele>
        <time>2015-08-05T21:47:39Z</time>
      </trkpt>
      <trkpt lat="35.954238" lon="120.208154">
        <ele>3.3</ele>
        <time>2015-08-05T21:47:43Z</time>
      </trkpt>
      <trkpt lat="35.954136" lon="120.208165">
        <ele>3.0</ele>
        <time>2015-08-05T21:47:47Z</time>
      </trkpt>
      <trkpt lat="35.954025" lon="120.208174">
        <ele>2.7</ele>
        <time>2015-08-05T21:47:51Z</time>
      </trkpt>
      <trkpt lat="35.953891" lon="120.208196">
        <ele>2.4</ele>
        <time>2015-08-05T21:47:55Z</time>
      </trkpt>
      <trkpt lat="35.953758" lon="120.208242">
        <ele>2.2</ele>
        <time>2015-08-05T21:47:59Z</time>
      </trkpt>
      <trkpt lat="35.95363" lon="120.208292">
        <ele>2.0</ele>
        <time>2015-08-05T21:48:03Z</time>
      </trkpt>
      <trkpt lat="35.953521" lon="120.20833">
        <ele>1.9</ele>
        <time>2015-08-05T21:48:07Z</time>
      </trkpt>
      <trkpt lat="35.9534" lon="120.208342">
        <ele>1.7</ele>
        <time>2015-08-05T21:48:11Z</time>
      </trkpt>
      <trkpt lat="35.953278" lon="120.208351">
        <ele>1.6</ele>
        <time>2015-08-05T21:48:15Z</time>
      </trkpt>
      <trkpt lat="35.953171" lon="120.208367">
        <ele>1.5</ele>
        <time>2015-08-05T21:48:19Z</time>
      </trkpt>
      <trkpt lat="35.953072" lon="120.208392">
        <ele>1.4</ele>
        <time>2015-08-05T21:48:23Z</time>
      </trkpt>
      <trkpt lat="35.952961" lon="120.208422">
        <ele>1.3</ele>
        <time>2015-08-05T21:48:27Z</time>
      </trkpt>
      <trkpt lat="35.952881" lon="120.208444">
        <ele>1.2</ele>
        <time>2015-08-05T21:48:31Z</time>
      </trkpt>
      <trkpt lat="35.952881" lon="120.208443">
        <ele>1.1</ele>
        <time>2015-08-05T21:48:35Z</time>
      </trkpt>
      <trkpt lat="35.95288" lon="120.208442">
        <ele>1.0</ele>
        <time>2015-08-05T21:48:39Z</time>
      </trkpt>
      <trkpt lat="35.952536" lon="120.208526">
        <ele>0.9</ele>
        <time>2015-08-05T21:48:43Z</time>
      </trkpt>
      <trkpt lat="35.952414" lon="120.20855">
        <ele>0.9</ele>
        <time>2015-08-05T21:48:47Z</time>
      </trkpt>
      <trkpt lat="35.952277" lon="120.208566">
        <ele>0.8</ele>
        <time>2015-08-05T21:48:51Z</time>
      </trkpt>
      <trkpt lat="35.952151" lon="120.208604">
        <ele>0.8</ele>
        <time>2015-08-05T21:48:55Z</time>
      </trkpt>
      <trkpt lat="35.952048" lon="120.208609">
        <ele>0.7</ele>
        <time>2015-08-05T21:48:59Z</time>
      </trkpt>
      <trkpt lat="35.95197" lon="120.208625">
        <ele>0.6</ele>
        <time>2015-08-05T21:49:03Z</time>
      </trkpt>
      <trkpt lat="35.951898" lon="120.208698">
        <ele>0.6</ele>
        <time>2015-08-05T21:49:07Z</time>
      </trkpt>
      <trkpt lat="35.951834" lon="120.208793">
        <ele>0.5</ele>
        <time>2015-08-05T21:49:11Z</time>
      </trkpt>
      <trkpt lat="35.951761" lon="120.208842">
        <ele>0.4</ele>
        <time>2015-08-05T21:49:15Z</time>
      </trkpt>
      <trkpt lat="35.951714" lon="120.208922">
        <ele>0.4</ele>
        <time>2015-08-05T21:49:19Z</time>
      </trkpt>
      <trkpt lat="35.951716" lon="120.209035">
        <ele>0.4</ele>
        <time>2015-08-05T21:49:23Z</time>
      </trkpt>
      <trkpt lat="35.951746" lon="120.209156">
        <ele>0.3</ele>
        <time>2015-08-05T21:49:27Z</time>
      </trkpt>
      <trkpt lat="35.951772" lon="120.209292">
        <ele>0.3</ele>
        <time>2015-08-05T21:49:31Z</time>
      </trkpt>
      <trkpt lat="35.951823" lon="120.209552">
        <ele>0.4</ele>
        <time>2015-08-05T21:49:35Z</time>
      </trkpt>
      <trkpt lat="35.951846" lon="120.209685">
        <ele>0.4</ele>
        <time>2015-08-05T21:49:43Z</time>
      </trkpt>
      <trkpt lat="35.951882" lon="120.209816">
        <ele>0.4</ele>
        <time>2015-08-05T21:49:47Z</time>
      </trkpt>
      <trkpt lat="35.951907" lon="120.209956">
        <ele>0.5</ele>
        <time>2015-08-05T21:49:51Z</time>
      </trkpt>
      <trkpt lat="35.951938" lon="120.210098">
        <ele>0.5</ele>
        <time>2015-08-05T21:49:55Z</time>
      </trkpt>
      <trkpt lat="35.951962" lon="120.21023">
        <ele>0.5</ele>
        <time>2015-08-05T21:49:59Z</time>
      </trkpt>
      <trkpt lat="35.951993" lon="120.210352">
        <ele>0.6</ele>
        <time>2015-08-05T21:50:03Z</time>
      </trkpt>
      <trkpt lat="35.951974" lon="120.210425">
        <ele>0.6</ele>
        <time>2015-08-05T21:50:07Z</time>
      </trkpt>
      <trkpt lat="35.951939" lon="120.210464">
        <ele>0.7</ele>
        <time>2015-08-05T21:50:11Z</time>
      </trkpt>
      <trkpt lat="35.951847" lon="120.210462">
        <ele>0.7</ele>
        <time>2015-08-05T21:50:15Z</time>
      </trkpt>
      <trkpt lat="35.951792" lon="120.210517">
        <ele>0.8</ele>
        <time>2015-08-05T21:50:23Z</time>
      </trkpt>
      <trkpt lat="35.951767" lon="120.210627">
        <ele>0.8</ele>
        <time>2015-08-05T21:50:27Z</time>
      </trkpt>
      <trkpt lat="35.951789" lon="120.210745">
        <ele>0.8</ele>
        <time>2015-08-05T21:50:31Z</time>
      </trkpt>
      <trkpt lat="35.951824" lon="120.210848">
        <ele>0.9</ele>
        <time>2015-08-05T21:50:35Z</time>
      </trkpt>
      <trkpt lat="35.951858" lon="120.210972">
        <ele>0.9</ele>
        <time>2015-08-05T21:50:39Z</time>
      </trkpt>
      <trkpt lat="35.951889" lon="120.211111">
        <ele>1.0</ele>
        <time>2015-08-05T21:50:43Z</time>
      </trkpt>
      <trkpt lat="35.951922" lon="120.211242">
        <ele>1.0</ele>
        <time>2015-08-05T21:50:47Z</time>
      </trkpt>
      <trkpt lat="35.951948" lon="120.211379">
        <ele>1.1</ele>
        <time>2015-08-05T21:50:51Z</time>
      </trkpt>
      <trkpt lat="35.951948" lon="120.211517">
        <ele>1.1</ele>
        <time>2015-08-05T21:50:55Z</time>
      </trkpt>
      <trkpt lat="35.951944" lon="120.211654">
        <ele>1.2</ele>
        <time>2015-08-05T21:50:59Z</time>
      </trkpt>
      <trkpt lat="35.951966" lon="120.2118">
        <ele>1.2</ele>
        <time>2015-08-05T21:51:03Z</time>
      </trkpt>
      <trkpt lat="35.952008" lon="120.211937">
        <ele>1.2</ele>
        <time>2015-08-05T21:51:07Z</time>
      </trkpt>
      <trkpt lat="35.952027" lon="120.212064">
        <ele>1.3</ele>
        <time>2015-08-05T21:51:11Z</time>
      </trkpt>
      <trkpt lat="35.95205" lon="120.212195">
        <ele>1.3</ele>
        <time>2015-08-05T21:51:15Z</time>
      </trkpt>
      <trkpt lat="35.952088" lon="120.212321">
        <ele>1.3</ele>
        <time>2015-08-05T21:51:19Z</time>
      </trkpt>
      <trkpt lat="35.952126" lon="120.212444">
        <ele>1.3</ele>
        <time>2015-08-05T21:51:23Z</time>
      </trkpt>
      <trkpt lat="35.952167" lon="120.212571">
        <ele>1.4</ele>
        <time>2015-08-05T21:51:27Z</time>
      </trkpt>
      <trkpt lat="35.952205" lon="120.212702">
        <ele>1.4</ele>
        <time>2015-08-05T21:51:31Z</time>
      </trkpt>
      <trkpt lat="35.952204" lon="120.212822">
        <ele>1.4</ele>
        <time>2015-08-05T21:51:35Z</time>
      </trkpt>
      <trkpt lat="35.952222" lon="120.212959">
        <ele>1.4</ele>
        <time>2015-08-05T21:51:39Z</time>
      </trkpt>
      <trkpt lat="35.952271" lon="120.213242">
        <ele>1.4</ele>
        <time>2015-08-05T21:51:43Z</time>
      </trkpt>
      <trkpt lat="35.952324" lon="120.213393">
        <ele>1.5</ele>
        <time>2015-08-05T21:51:51Z</time>
      </trkpt>
      <trkpt lat="35.952369" lon="120.213543">
        <ele>1.6</ele>
        <time>2015-08-05T21:51:55Z</time>
      </trkpt>
      <trkpt lat="35.952416" lon="120.2137">
        <ele>1.6</ele>
        <time>2015-08-05T21:51:59Z</time>
      </trkpt>
      <trkpt lat="35.952437" lon="120.213836">
        <ele>1.7</ele>
        <time>2015-08-05T21:52:03Z</time>
      </trkpt>
      <trkpt lat="35.952456" lon="120.213984">
        <ele>1.8</ele>
        <time>2015-08-05T21:52:07Z</time>
      </trkpt>
      <trkpt lat="35.952485" lon="120.214147">
        <ele>1.9</ele>
        <time>2015-08-05T21:52:11Z</time>
      </trkpt>
      <trkpt lat="35.952512" lon="120.214302">
        <ele>2.0</ele>
        <time>2015-08-05T21:52:15Z</time>
      </trkpt>
      <trkpt lat="35.952531" lon="120.214437">
        <ele>2.1</ele>
        <time>2015-08-05T21:52:19Z</time>
      </trkpt>
      <trkpt lat="35.952564" lon="120.214691">
        <ele>2.2</ele>
        <time>2015-08-05T21:52:23Z</time>
      </trkpt>
      <trkpt lat="35.952572" lon="120.214807">
        <ele>2.3</ele>
        <time>2015-08-05T21:52:27Z</time>
      </trkpt>
      <trkpt lat="35.952628" lon="120.21493">
        <ele>2.5</ele>
        <time>2015-08-05T21:52:35Z</time>
      </trkpt>
      <trkpt lat="35.952673" lon="120.215055">
        <ele>2.6</ele>
        <time>2015-08-05T21:52:39Z</time>
      </trkpt>
      <trkpt lat="35.952712" lon="120.215185">
        <ele>2.8</ele>
        <time>2015-08-05T21:52:43Z</time>
      </trkpt>
      <trkpt lat="35.952756" lon="120.215312">
        <ele>3.1</ele>
        <time>2015-08-05T21:52:47Z</time>
      </trkpt>
      <trkpt lat="35.9528" lon="120.215444">
        <ele>3.3</ele>
        <time>2015-08-05T21:52:51Z</time>
      </trkpt>
      <trkpt lat="35.952843" lon="120.215566">
        <ele>3.6</ele>
        <time>2015-08-05T21:52:55Z</time>
      </trkpt>
      <trkpt lat="35.952882" lon="120.215696">
        <ele>3.9</ele>
        <time>2015-08-05T21:52:59Z</time>
      </trkpt>
      <trkpt lat="35.952918" lon="120.215825">
        <ele>4.3</ele>
        <time>2015-08-05T21:53:03Z</time>
      </trkpt>
      <trkpt lat="35.952947" lon="120.215957">
        <ele>4.6</ele>
        <time>2015-08-05T21:53:07Z</time>
      </trkpt>
      <trkpt lat="35.95297" lon="120.216082">
        <ele>5.0</ele>
        <time>2015-08-05T21:53:11Z</time>
      </trkpt>
      <trkpt lat="35.953014" lon="120.216209">
        <ele>5.5</ele>
        <time>2015-08-05T21:53:15Z</time>
      </trkpt>
      <trkpt lat="35.953045" lon="120.216346">
        <ele>5.9</ele>
        <time>2015-08-05T21:53:19Z</time>
      </trkpt>
      <trkpt lat="35.953067" lon="120.216484">
        <ele>6.3</ele>
        <time>2015-08-05T21:53:23Z</time>
      </trkpt>
      <trkpt lat="35.953107" lon="120.216617">
        <ele>6.8</ele>
        <time>2015-08-05T21:53:27Z</time>
      </trkpt>
      <trkpt lat="35.953154" lon="120.216744">
        <ele>7.3</ele>
        <time>2015-08-05T21:53:31Z</time>
      </trkpt>
      <trkpt lat="35.953173" lon="120.21687">
        <ele>7.8</ele>
        <time>2015-08-05T21:53:35Z</time>
      </trkpt>
      <trkpt lat="35.953178" lon="120.216993">
        <ele>8.3</ele>
        <time>2015-08-05T21:53:39Z</time>
      </trkpt>
      <trkpt lat="35.953184" lon="120.217108">
        <ele>8.8</ele>
        <time>2015-08-05T21:53:43Z</time>
      </trkpt>
      <trkpt lat="35.953215" lon="120.217221">
        <ele>9.3</ele>
        <time>2015-08-05T21:53:47Z</time>
      </trkpt>
      <trkpt lat="35.953298" lon="120.217437">
        <ele>9.8</ele>
        <time>2015-08-05T21:53:51Z</time>
      </trkpt>
      <trkpt lat="35.953321" lon="120.217556">
        <ele>10.4</ele>
        <time>2015-08-05T21:53:59Z</time>
      </trkpt>
      <trkpt lat="35.953341" lon="120.217676">
        <ele>10.9</ele>
        <time>2015-08-05T21:54:03Z</time>
      </trkpt>
      <trkpt lat="35.953378" lon="120.217802">
        <ele>11.4</ele>
        <time>2015-08-05T21:54:07Z</time>
      </trkpt>
      <trkpt lat="35.953431" lon="120.217926">
        <ele>12.0</ele>
        <time>2015-08-05T21:54:11Z</time>
      </trkpt>
      <trkpt lat="35.953487" lon="120.218055">
        <ele>12.5</ele>
        <time>2015-08-05T21:54:15Z</time>
      </trkpt>
      <trkpt lat="35.953546" lon="120.218178">
        <ele>13.0</ele>
        <time>2015-08-05T21:54:19Z</time>
      </trkpt>
      <trkpt lat="35.953585" lon="120.218295">
        <ele>13.5</ele>
        <time>2015-08-05T21:54:23Z</time>
      </trkpt>
      <trkpt lat="35.953627" lon="120.218416">
        <ele>14.0</ele>
        <time>2015-08-05T21:54:27Z</time>
      </trkpt>
      <trkpt lat="35.953663" lon="120.218536">
        <ele>14.5</ele>
        <time>2015-08-05T21:54:31Z</time>
      </trkpt>
      <trkpt lat="35.953692" lon="120.21862">
        <ele>14.9</ele>
        <time>2015-08-05T21:54:35Z</time>
      </trkpt>
      <trkpt lat="35.95371" lon="120.218629">
        <ele>15.3</ele>
        <time>2015-08-05T21:54:39Z</time>
      </trkpt>
      <trkpt lat="35.953764" lon="120.218851">
        <ele>15.6</ele>
        <time>2015-08-05T21:55:31Z</time>
      </trkpt>
      <trkpt lat="35.953798" lon="120.219013">
        <ele>16.0</ele>
        <time>2015-08-05T21:55:39Z</time>
      </trkpt>
      <trkpt lat="35.953895" lon="120.219314">
        <ele>16.3</ele>
        <time>2015-08-05T21:55:43Z</time>
      </trkpt>
      <trkpt lat="35.953947" lon="120.219449">
        <ele>16.6</ele>
        <time>2015-08-05T21:55:47Z</time>
      </trkpt>
      <trkpt lat="35.954001" lon="120.219591">
        <ele>16.8</ele>
        <time>2015-08-05T21:55:51Z</time>
      </trkpt>
      <trkpt lat="35.954055" lon="120.219727">
        <ele>17.1</ele>
        <time>2015-08-05T21:55:55Z</time>
      </trkpt>
      <trkpt lat="35.9541" lon="120.219862">
        <ele>17.3</ele>
        <time>2015-08-05T21:55:59Z</time>
      </trkpt>
      <trkpt lat="35.954143" lon="120.21999">
        <ele>17.5</ele>
        <time>2015-08-05T21:56:07Z</time>
      </trkpt>
      <trkpt lat="35.954192" lon="120.220116">
        <ele>17.6</ele>
        <time>2015-08-05T21:56:11Z</time>
      </trkpt>
      <trkpt lat="35.954242" lon="120.220247">
        <ele>17.7</ele>
        <time>2015-08-05T21:56:15Z</time>
      </trkpt>
      <trkpt lat="35.954291" lon="120.22038">
        <ele>17.8</ele>
        <time>2015-08-05T21:56:19Z</time>
      </trkpt>
      <trkpt lat="35.954341" lon="120.220516">
        <ele>17.8</ele>
        <time>2015-08-05T21:56:23Z</time>
      </trkpt>
      <trkpt lat="35.954384" lon="120.220646">
        <ele>17.8</ele>
        <time>2015-08-05T21:56:27Z</time>
      </trkpt>
      <trkpt lat="35.95443" lon="120.220778">
        <ele>17.8</ele>
        <time>2015-08-05T21:56:31Z</time>
      </trkpt>
      <trkpt lat="35.95448" lon="120.220904">
        <ele>17.7</ele>
        <time>2015-08-05T21:56:35Z</time>
      </trkpt>
      <trkpt lat="35.95455" lon="120.22103">
        <ele>17.6</ele>
        <time>2015-08-05T21:56:39Z</time>
      </trkpt>
      <trkpt lat="35.95462" lon="120.221154">
        <ele>17.5</ele>
        <time>2015-08-05T21:56:43Z</time>
      </trkpt>
      <trkpt lat="35.954686" lon="120.22128">
        <ele>17.4</ele>
        <time>2015-08-05T21:56:47Z</time>
      </trkpt>
      <trkpt lat="35.954772" lon="120.2214">
        <ele>17.3</ele>
        <time>2015-08-05T21:56:51Z</time>
      </trkpt>
      <trkpt lat="35.95484" lon="120.221518">
        <ele>17.2</ele>
        <time>2015-08-05T21:56:55Z</time>
      </trkpt>
      <trkpt lat="35.95496" lon="120.221712">
        <ele>17.2</ele>
        <time>2015-08-05T21:56:59Z</time>
      </trkpt>
      <trkpt lat="35.955015" lon="120.221826">
        <ele>17.1</ele>
        <time>2015-08-05T21:57:07Z</time>
      </trkpt>
      <trkpt lat="35.955071" lon="120.221942">
        <ele>17.1</ele>
        <time>2015-08-05T21:57:11Z</time>
      </trkpt>
      <trkpt lat="35.955136" lon="120.222058">
        <ele>17.1</ele>
        <time>2015-08-05T21:57:15Z</time>
      </trkpt>
      <trkpt lat="35.955248" lon="120.222295">
        <ele>17.0</ele>
        <time>2015-08-05T21:57:19Z</time>
      </trkpt>
      <trkpt lat="35.955308" lon="120.222412">
        <ele>17.0</ele>
        <time>2015-08-05T21:57:27Z</time>
      </trkpt>
      <trkpt lat="35.955376" lon="120.222525">
        <ele>17.0</ele>
        <time>2015-08-05T21:57:31Z</time>
      </trkpt>
      <trkpt lat="35.955437" lon="120.222635">
        <ele>16.9</ele>
        <time>2015-08-05T21:57:35Z</time>
      </trkpt>
      <trkpt lat="35.955559" lon="120.22286">
        <ele>17.0</ele>
        <time>2015-08-05T21:57:39Z</time>
      </trkpt>
      <trkpt lat="35.955619" lon="120.222969">
        <ele>17.0</ele>
        <time>2015-08-05T21:57:47Z</time>
      </trkpt>
      <trkpt lat="35.955703" lon="120.223165">
        <ele>17.1</ele>
        <time>2015-08-05T21:57:51Z</time>
      </trkpt>
      <trkpt lat="35.955765" lon="120.223273">
        <ele>17.2</ele>
        <time>2015-08-05T21:57:55Z</time>
      </trkpt>
      <trkpt lat="35.955898" lon="120.223497">
        <ele>17.4</ele>
        <time>2015-08-05T21:58:03Z</time>
      </trkpt>
      <trkpt lat="35.95595" lon="120.223604">
        <ele>17.6</ele>
        <time>2015-08-05T21:58:07Z</time>
      </trkpt>
      <trkpt lat="35.956027" lon="120.223704">
        <ele>17.8</ele>
        <time>2015-08-05T21:58:15Z</time>
      </trkpt>
      <trkpt lat="35.956112" lon="120.223808">
        <ele>18.0</ele>
        <time>2015-08-05T21:58:19Z</time>
      </trkpt>
      <trkpt lat="35.956193" lon="120.223893">
        <ele>18.3</ele>
        <time>2015-08-05T21:58:23Z</time>
      </trkpt>
      <trkpt lat="35.956255" lon="120.223941">
        <ele>18.5</ele>
        <time>2015-08-05T21:58:27Z</time>
      </trkpt>
      <trkpt lat="35.95632" lon="120.22401">
        <ele>18.8</ele>
        <time>2015-08-05T21:58:31Z</time>
      </trkpt>
      <trkpt lat="35.956366" lon="120.224114">
        <ele>19.0</ele>
        <time>2015-08-05T21:58:35Z</time>
      </trkpt>
      <trkpt lat="35.956422" lon="120.224227">
        <ele>19.2</ele>
        <time>2015-08-05T21:58:39Z</time>
      </trkpt>
      <trkpt lat="35.956485" lon="120.224341">
        <ele>19.5</ele>
        <time>2015-08-05T21:58:43Z</time>
      </trkpt>
      <trkpt lat="35.956533" lon="120.22445">
        <ele>19.7</ele>
        <time>2015-08-05T21:58:47Z</time>
      </trkpt>
      <trkpt lat="35.956602" lon="120.224564">
        <ele>20.0</ele>
        <time>2015-08-05T21:58:51Z</time>
      </trkpt>
      <trkpt lat="35.95667" lon="120.224676">
        <ele>20.2</ele>
        <time>2015-08-05T21:58:55Z</time>
      </trkpt>
      <trkpt lat="35.956741" lon="120.224788">
        <ele>20.4</ele>
        <time>2015-08-05T21:58:59Z</time>
      </trkpt>
      <trkpt lat="35.956788" lon="120.224878">
        <ele>20.6</ele>
        <time>2015-08-05T21:59:03Z</time>
      </trkpt>
      <trkpt lat="35.956912" lon="120.225098">
        <ele>20.8</ele>
        <time>2015-08-05T21:59:07Z</time>
      </trkpt>
      <trkpt lat="35.956983" lon="120.225224">
        <ele>21.0</ele>
        <time>2015-08-05T21:59:15Z</time>
      </trkpt>
      <trkpt lat="35.957037" lon="120.225356">
        <ele>21.1</ele>
        <time>2015-08-05T21:59:19Z</time>
      </trkpt>
      <trkpt lat="35.957105" lon="120.225473">
        <ele>21.3</ele>
        <time>2015-08-05T21:59:23Z</time>
      </trkpt>
      <trkpt lat="35.95727" lon="120.225682">
        <ele>21.4</ele>
        <time>2015-08-05T21:59:27Z</time>
      </trkpt>
      <trkpt lat="35.957341" lon="120.225783">
        <ele>21.5</ele>
        <time>2015-08-05T21:59:35Z</time>
      </trkpt>
      <trkpt lat="35.957393" lon="120.225882">
        <ele>21.6</ele>
        <time>2015-08-05T21:59:39Z</time>
      </trkpt>
      <trkpt lat="35.957456" lon="120.225984">
        <ele>21.7</ele>
        <time>2015-08-05T21:59:43Z</time>
      </trkpt>
      <trkpt lat="35.957568" lon="120.226196">
        <ele>21.8</ele>
        <time>2015-08-05T21:59:47Z</time>
      </trkpt>
      <trkpt lat="35.957645" lon="120.226295">
        <ele>21.8</ele>
        <time>2015-08-05T21:59:55Z</time>
      </trkpt>
      <trkpt lat="35.957709" lon="120.226393">
        <ele>21.9</ele>
        <time>2015-08-05T21:59:59Z</time>
      </trkpt>
      <trkpt lat="35.957737" lon="120.226484">
        <ele>21.9</ele>
        <time>2015-08-05T22:00:03Z</time>
      </trkpt>
      <trkpt lat="35.957852" lon="120.226692">
        <ele>22.0</ele>
        <time>2015-08-05T22:00:07Z</time>
      </trkpt>
      <trkpt lat="35.957944" lon="120.226783">
        <ele>22.0</ele>
        <time>2015-08-05T22:00:15Z</time>
      </trkpt>
      <trkpt lat="35.95802" lon="120.226878">
        <ele>22.1</ele>
        <time>2015-08-05T22:00:19Z</time>
      </trkpt>
      <trkpt lat="35.958085" lon="120.226968">
        <ele>22.1</ele>
        <time>2015-08-05T22:00:23Z</time>
      </trkpt>
      <trkpt lat="35.958173" lon="120.227004">
        <ele>22.1</ele>
        <time>2015-08-05T22:00:27Z</time>
      </trkpt>
      <trkpt lat="35.958284" lon="120.226948">
        <ele>22.1</ele>
        <time>2015-08-05T22:00:31Z</time>
      </trkpt>
      <trkpt lat="35.958329" lon="120.226828">
        <ele>22.1</ele>
        <time>2015-08-05T22:00:35Z</time>
      </trkpt>
      <trkpt lat="35.958307" lon="120.226704">
        <ele>22.0</ele>
        <time>2015-08-05T22:00:39Z</time>
      </trkpt>
      <trkpt lat="35.958252" lon="120.226607">
        <ele>22.0</ele>
        <time>2015-08-05T22:00:43Z</time>
      </trkpt>
      <trkpt lat="35.958188" lon="120.226507">
        <ele>21.9</ele>
        <time>2015-08-05T22:00:47Z</time>
      </trkpt>
      <trkpt lat="35.95812" lon="120.226406">
        <ele>21.9</ele>
        <time>2015-08-05T22:00:51Z</time>
      </trkpt>
      <trkpt lat="35.958052" lon="120.226304">
        <ele>21.8</ele>
        <time>2015-08-05T22:00:55Z</time>
      </trkpt>
      <trkpt lat="35.957908" lon="120.22612">
        <ele>21.8</ele>
        <time>2015-08-05T22:00:59Z</time>
      </trkpt>
      <trkpt lat="35.957841" lon="120.226025">
        <ele>21.7</ele>
        <time>2015-08-05T22:01:07Z</time>
      </trkpt>
      <trkpt lat="35.957777" lon="120.225921">
        <ele>21.7</ele>
        <time>2015-08-05T22:01:11Z</time>
      </trkpt>
      <trkpt lat="35.957649" lon="120.225728">
        <ele>21.6</ele>
        <time>2015-08-05T22:01:15Z</time>
      </trkpt>
      <trkpt lat="35.957591" lon="120.225633">
        <ele>21.5</ele>
        <time>2015-08-05T22:01:23Z</time>
      </trkpt>
      <trkpt lat="35.957532" lon="120.225534">
        <ele>21.5</ele>
        <time>2015-08-05T22:01:27Z</time>
      </trkpt>
      <trkpt lat="35.957475" lon="120.225428">
        <ele>21.4</ele>
        <time>2015-08-05T22:01:31Z</time>
      </trkpt>
      <trkpt lat="35.957357" lon="120.225214">
        <ele>21.3</ele>
        <time>2015-08-05T22:01:35Z</time>
      </trkpt>
      <trkpt lat="35.95728" lon="120.225111">
        <ele>21.1</ele>
        <time>2015-08-05T22:01:43Z</time>
      </trkpt>
      <trkpt lat="35.957214" lon="120.225017">
        <ele>21.0</ele>
        <time>2015-08-05T22:01:47Z</time>
      </trkpt>
      <trkpt lat="35.957156" lon="120.224917">
        <ele>20.8</ele>
        <time>2015-08-05T22:01:51Z</time>
      </trkpt>
      <trkpt lat="35.957033" lon="120.22471">
        <ele>20.6</ele>
        <time>2015-08-05T22:01:55Z</time>
      </trkpt>
      <trkpt lat="35.956976" lon="120.224614">
        <ele>20.5</ele>
        <time>2015-08-05T22:02:03Z</time>
      </trkpt>
      <trkpt lat="35.956907" lon="120.224522">
        <ele>20.2</ele>
        <time>2015-08-05T22:02:07Z</time>
      </trkpt>
      <trkpt lat="35.956842" lon="120.224419">
        <ele>20.0</ele>
        <time>2015-08-05T22:02:11Z</time>
      </trkpt>
      <trkpt lat="35.956787" lon="120.224313">
        <ele>19.8</ele>
        <time>2015-08-05T22:02:15Z</time>
      </trkpt>
      <trkpt lat="35.956731" lon="120.224211">
        <ele>19.6</ele>
        <time>2015-08-05T22:02:19Z</time>
      </trkpt>
      <trkpt lat="35.956674" lon="120.224117">
        <ele>19.4</ele>
        <time>2015-08-05T22:02:23Z</time>
      </trkpt>
      <trkpt lat="35.956604" lon="120.22401">
        <ele>19.2</ele>
        <time>2015-08-05T22:02:27Z</time>
      </trkpt>
      <trkpt lat="35.956536" lon="120.223906">
        <ele>18.9</ele>
        <time>2015-08-05T22:02:31Z</time>
      </trkpt>
      <trkpt lat="35.956462" lon="120.223798">
        <ele>18.7</ele>
        <time>2015-08-05T22:02:35Z</time>
      </trkpt>
      <trkpt lat="35.956396" lon="120.223696">
        <ele>18.5</ele>
        <time>2015-08-05T22:02:39Z</time>
      </trkpt>
      <trkpt lat="35.956338" lon="120.223589">
        <ele>18.3</ele>
        <time>2015-08-05T22:02:43Z</time>
      </trkpt>
      <trkpt lat="35.956273" lon="120.223477">
        <ele>18.0</ele>
        <time>2015-08-05T22:02:47Z</time>
      </trkpt>
      <trkpt lat="35.95621" lon="120.223376">
        <ele>17.8</ele>
        <time>2015-08-05T22:02:51Z</time>
      </trkpt>
      <trkpt lat="35.956151" lon="120.223272">
        <ele>17.5</ele>
        <time>2015-08-05T22:02:55Z</time>
      </trkpt>
      <trkpt lat="35.956099" lon="120.22316">
        <ele>17.3</ele>
        <time>2015-08-05T22:02:59Z</time>
      </trkpt>
      <trkpt lat="35.956045" lon="120.223041">
        <ele>17.1</ele>
        <time>2015-08-05T22:03:03Z</time>
      </trkpt>
      <trkpt lat="35.955973" lon="120.222942">
        <ele>16.9</ele>
        <time>2015-08-05T22:03:07Z</time>
      </trkpt>
      <trkpt lat="35.95591" lon="120.222841">
        <ele>16.7</ele>
        <time>2015-08-05T22:03:11Z</time>
      </trkpt>
      <trkpt lat="35.955856" lon="120.222734">
        <ele>16.6</ele>
        <time>2015-08-05T22:03:15Z</time>
      </trkpt>
      <trkpt lat="35.955797" lon="120.22263">
        <ele>16.5</ele>
        <time>2015-08-05T22:03:19Z</time>
      </trkpt>
      <trkpt lat="35.955656" lon="120.222386">
        <ele>16.5</ele>
        <time>2015-08-05T22:03:23Z</time>
      </trkpt>
      <trkpt lat="35.955602" lon="120.222269">
        <ele>16.4</ele>
        <time>2015-08-05T22:03:31Z</time>
      </trkpt>
      <trkpt lat="35.955542" lon="120.222163">
        <ele>16.4</ele>
        <time>2015-08-05T22:03:35Z</time>
      </trkpt>
      <trkpt lat="35.955447" lon="120.222068">
        <ele>16.5</ele>
        <time>2015-08-05T22:03:39Z</time>
      </trkpt>
      <trkpt lat="35.955329" lon="120.22184">
        <ele>16.5</ele>
        <time>2015-08-05T22:03:43Z</time>
      </trkpt>
      <trkpt lat="35.955276" lon="120.221718">
        <ele>16.5</ele>
        <time>2015-08-05T22:03:51Z</time>
      </trkpt>
      <trkpt lat="35.955223" lon="120.221602">
        <ele>16.6</ele>
        <time>2015-08-05T22:03:55Z</time>
      </trkpt>
      <trkpt lat="35.955168" lon="120.221494">
        <ele>16.6</ele>
        <time>2015-08-05T22:03:59Z</time>
      </trkpt>
      <trkpt lat="35.955053" lon="120.221259">
        <ele>16.6</ele>
        <time>2015-08-05T22:04:03Z</time>
      </trkpt>
      <trkpt lat="35.95502" lon="120.221121">
        <ele>16.7</ele>
        <time>2015-08-05T22:04:11Z</time>
      </trkpt>
      <trkpt lat="35.954964" lon="120.220993">
        <ele>16.7</ele>
        <time>2015-08-05T22:04:15Z</time>
      </trkpt>
      <trkpt lat="35.954896" lon="120.220883">
        <ele>16.8</ele>
        <time>2015-08-05T22:04:19Z</time>
      </trkpt>
      <trkpt lat="35.954771" lon="120.220661">
        <ele>16.8</ele>
        <time>2015-08-05T22:04:23Z</time>
      </trkpt>
      <trkpt lat="35.954716" lon="120.220551">
        <ele>16.9</ele>
        <time>2015-08-05T22:04:31Z</time>
      </trkpt>
      <trkpt lat="35.954674" lon="120.220429">
        <ele>17.0</ele>
        <time>2015-08-05T22:04:35Z</time>
      </trkpt>
      <trkpt lat="35.954615" lon="120.220306">
        <ele>17.0</ele>
        <time>2015-08-05T22:04:39Z</time>
      </trkpt>
      <trkpt lat="35.954567" lon="120.22017">
        <ele>17.1</ele>
        <time>2015-08-05T22:04:43Z</time>
      </trkpt>
      <trkpt lat="35.954528" lon="120.220041">
        <ele>17.0</ele>
        <time>2015-08-05T22:04:47Z</time>
      </trkpt>
      <trkpt lat="35.954506" lon="120.219917">
        <ele>16.9</ele>
        <time>2015-08-05T22:04:51Z</time>
      </trkpt>
      <trkpt lat="35.954435" lon="120.21967">
        <ele>16.8</ele>
        <time>2015-08-05T22:04:55Z</time>
      </trkpt>
      <trkpt lat="35.954376" lon="120.219553">
        <ele>16.6</ele>
        <time>2015-08-05T22:05:03Z</time>
      </trkpt>
      <trkpt lat="35.954321" lon="120.219426">
        <ele>16.4</ele>
        <time>2015-08-05T22:05:07Z</time>
      </trkpt>
      <trkpt lat="35.954266" lon="120.219307">
        <ele>16.1</ele>
        <time>2015-08-05T22:05:11Z</time>
      </trkpt>
      <trkpt lat="35.954207" lon="120.219191">
        <ele>15.8</ele>
        <time>2015-08-05T22:05:15Z</time>
      </trkpt>
      <trkpt lat="35.954155" lon="120.219063">
        <ele>15.4</ele>
        <time>2015-08-05T22:05:19Z</time>
      </trkpt>
      <trkpt lat="35.954113" lon="120.218923">
        <ele>15.0</ele>
        <time>2015-08-05T22:05:23Z</time>
      </trkpt>
      <trkpt lat="35.954065" lon="120.218797">
        <ele>14.6</ele>
        <time>2015-08-05T22:05:27Z</time>
      </trkpt>
      <trkpt lat="35.953959" lon="120.218561">
        <ele>14.1</ele>
        <time>2015-08-05T22:05:31Z</time>
      </trkpt>
      <trkpt lat="35.95391" lon="120.218429">
        <ele>13.6</ele>
        <time>2015-08-05T22:05:39Z</time>
      </trkpt>
      <trkpt lat="35.953876" lon="120.218308">
        <ele>13.1</ele>
        <time>2015-08-05T22:05:43Z</time>
      </trkpt>
      <trkpt lat="35.953803" lon="120.218057">
        <ele>12.5</ele>
        <time>2015-08-05T22:05:47Z</time>
      </trkpt>
      <trkpt lat="35.953768" lon="120.21794">
        <ele>11.9</ele>
        <time>2015-08-05T22:05:51Z</time>
      </trkpt>
      <trkpt lat="35.953721" lon="120.21782">
        <ele>11.4</ele>
        <time>2015-08-05T22:05:59Z</time>
      </trkpt>
      <trkpt lat="35.953679" lon="120.217686">
        <ele>10.8</ele>
        <time>2015-08-05T22:06:03Z</time>
      </trkpt>
      <trkpt lat="35.953641" lon="120.217547">
        <ele>10.2</ele>
        <time>2015-08-05T22:06:07Z</time>
      </trkpt>
      <trkpt lat="35.953585" lon="120.217289">
        <ele>9.6</ele>
        <time>2015-08-05T22:06:11Z</time>
      </trkpt>
      <trkpt lat="35.953559" lon="120.217156">
        <ele>9.0</ele>
        <time>2015-08-05T22:06:19Z</time>
      </trkpt>
      <trkpt lat="35.953531" lon="120.21702">
        <ele>8.4</ele>
        <time>2015-08-05T22:06:23Z</time>
      </trkpt>
      <trkpt lat="35.953498" lon="120.216875">
        <ele>7.8</ele>
        <time>2015-08-05T22:06:27Z</time>
      </trkpt>
      <trkpt lat="35.953415" lon="120.216599">
        <ele>7.2</ele>
        <time>2015-08-05T22:06:31Z</time>
      </trkpt>
      <trkpt lat="35.953378" lon="120.216458">
        <ele>6.7</ele>
        <time>2015-08-05T22:06:39Z</time>
      </trkpt>
      <trkpt lat="35.953351" lon="120.216323">
        <ele>6.2</ele>
        <time>2015-08-05T22:06:43Z</time>
      </trkpt>
      <trkpt lat="35.953315" lon="120.216194">
        <ele>5.7</ele>
        <time>2015-08-05T22:06:47Z</time>
      </trkpt>
      <trkpt lat="35.95328" lon="120.216064">
        <ele>5.2</ele>
        <time>2015-08-05T22:06:51Z</time>
      </trkpt>
      <trkpt lat="35.953247" lon="120.215941">
        <ele>4.7</ele>
        <time>2015-08-05T22:06:55Z</time>
      </trkpt>
      <trkpt lat="35.953219" lon="120.215816">
        <ele>4.3</ele>
        <time>2015-08-05T22:06:59Z</time>
      </trkpt>
      <trkpt lat="35.953197" lon="120.215683">
        <ele>3.9</ele>
        <time>2015-08-05T22:07:03Z</time>
      </trkpt>
      <trkpt lat="35.953171" lon="120.215543">
        <ele>3.6</ele>
        <time>2015-08-05T22:07:07Z</time>
      </trkpt>
      <trkpt lat="35.953143" lon="120.215409">
        <ele>3.3</ele>
        <time>2015-08-05T22:07:11Z</time>
      </trkpt>
      <trkpt lat="35.953122" lon="120.215283">
        <ele>3.0</ele>
        <time>2015-08-05T22:07:15Z</time>
      </trkpt>
      <trkpt lat="35.953089" lon="120.215141">
        <ele>2.8</ele>
        <time>2015-08-05T22:07:19Z</time>
      </trkpt>
      <trkpt lat="35.953045" lon="120.21499">
        <ele>2.6</ele>
        <time>2015-08-05T22:07:23Z</time>
      </trkpt>
      <trkpt lat="35.953011" lon="120.21486">
        <ele>2.4</ele>
        <time>2015-08-05T22:07:27Z</time>
      </trkpt>
      <trkpt lat="35.952968" lon="120.214727">
        <ele>2.3</ele>
        <time>2015-08-05T22:07:31Z</time>
      </trkpt>
      <trkpt lat="35.95293" lon="120.214593">
        <ele>2.2</ele>
        <time>2015-08-05T22:07:35Z</time>
      </trkpt>
      <trkpt lat="35.952898" lon="120.214472">
        <ele>2.1</ele>
        <time>2015-08-05T22:07:39Z</time>
      </trkpt>
      <trkpt lat="35.952867" lon="120.214353">
        <ele>2.0</ele>
        <time>2015-08-05T22:07:43Z</time>
      </trkpt>
      <trkpt lat="35.952839" lon="120.214251">
        <ele>2.0</ele>
        <time>2015-08-05T22:07:47Z</time>
      </trkpt>
      <trkpt lat="35.952813" lon="120.21413">
        <ele>1.9</ele>
        <time>2015-08-05T22:07:51Z</time>
      </trkpt>
      <trkpt lat="35.952786" lon="120.213989">
        <ele>1.9</ele>
        <time>2015-08-05T22:07:55Z</time>
      </trkpt>
      <trkpt lat="35.952758" lon="120.213871">
        <ele>1.9</ele>
        <time>2015-08-05T22:07:59Z</time>
      </trkpt>
      <trkpt lat="35.952742" lon="120.213756">
        <ele>1.8</ele>
        <time>2015-08-05T22:08:03Z</time>
      </trkpt>
      <trkpt lat="35.952712" lon="120.213637">
        <ele>1.8</ele>
        <time>2015-08-05T22:08:07Z</time>
      </trkpt>
      <trkpt lat="35.952683" lon="120.213506">
        <ele>1.8</ele>
        <time>2015-08-05T22:08:11Z</time>
      </trkpt>
      <trkpt lat="35.952658" lon="120.213377">
        <ele>1.8</ele>
        <time>2015-08-05T22:08:15Z</time>
      </trkpt>
      <trkpt lat="35.95264" lon="120.213242">
        <ele>1.8</ele>
        <time>2015-08-05T22:08:19Z</time>
      </trkpt>
      <trkpt lat="35.952624" lon="120.213107">
        <ele>1.8</ele>
        <time>2015-08-05T22:08:23Z</time>
      </trkpt>
      <trkpt lat="35.952594" lon="120.212985">
        <ele>1.9</ele>
        <time>2015-08-05T22:08:27Z</time>
      </trkpt>
      <trkpt lat="35.95256" lon="120.212862">
        <ele>1.9</ele>
        <time>2015-08-05T22:08:31Z</time>
      </trkpt>
      <trkpt lat="35.952533" lon="120.21273">
        <ele>1.9</ele>
        <time>2015-08-05T22:08:35Z</time>
      </trkpt>
      <trkpt lat="35.952493" lon="120.212468">
        <ele>1.9</ele>
        <time>2015-08-05T22:08:39Z</time>
      </trkpt>
      <trkpt lat="35.952455" lon="120.212352">
        <ele>1.9</ele>
        <time>2015-08-05T22:08:47Z</time>
      </trkpt>
      <trkpt lat="35.952441" lon="120.212237">
        <ele>1.9</ele>
        <time>2015-08-05T22:08:51Z</time>
      </trkpt>
      <trkpt lat="35.952474" lon="120.212146">
        <ele>1.9</ele>
        <time>2015-08-05T22:08:55Z</time>
      </trkpt>
      <trkpt lat="35.952508" lon="120.212047">
        <ele>1.9</ele>
        <time>2015-08-05T22:08:59Z</time>
      </trkpt>
      <trkpt lat="35.95253" lon="120.21195">
        <ele>1.9</ele>
        <time>2015-08-05T22:09:03Z</time>
      </trkpt>
      <trkpt lat="35.952567" lon="120.211911">
        <ele>1.8</ele>
        <time>2015-08-05T22:09:07Z</time>
      </trkpt>
      <trkpt lat="35.952618" lon="120.211906">
        <ele>1.8</ele>
        <time>2015-08-05T22:09:11Z</time>
      </trkpt>
      <trkpt lat="35.952715" lon="120.2119">
        <ele>1.7</ele>
        <time>2015-08-05T22:09:15Z</time>
      </trkpt>
      <trkpt lat="35.952839" lon="120.211913">
        <ele>1.7</ele>
        <time>2015-08-05T22:09:19Z</time>
      </trkpt>
      <trkpt lat="35.952963" lon="120.211936">
        <ele>1.6</ele>
        <time>2015-08-05T22:09:23Z</time>
      </trkpt>
      <trkpt lat="35.953083" lon="120.211929">
        <ele>1.6</ele>
        <time>2015-08-05T22:09:27Z</time>
      </trkpt>
      <trkpt lat="35.953184" lon="120.211915">
        <ele>1.5</ele>
        <time>2015-08-05T22:09:31Z</time>
      </trkpt>
      <trkpt lat="35.953281" lon="120.21188">
        <ele>1.5</ele>
        <time>2015-08-05T22:09:35Z</time>
      </trkpt>
      <trkpt lat="35.953387" lon="120.211855">
        <ele>1.4</ele>
        <time>2015-08-05T22:09:39Z</time>
      </trkpt>
      <trkpt lat="35.953494" lon="120.211825">
        <ele>1.4</ele>
        <time>2015-08-05T22:09:43Z</time>
      </trkpt>
      <trkpt lat="35.953594" lon="120.211781">
        <ele>1.4</ele>
        <time>2015-08-05T22:09:47Z</time>
      </trkpt>
      <trkpt lat="35.953687" lon="120.21174">
        <ele>1.4</ele>
        <time>2015-08-05T22:09:51Z</time>
      </trkpt>
      <trkpt lat="35.953782" lon="120.211717">
        <ele>1.5</ele>
        <time>2015-08-05T22:09:55Z</time>
      </trkpt>
      <trkpt lat="35.953873" lon="120.211674">
        <ele>1.5</ele>
        <time>2015-08-05T22:09:59Z</time>
      </trkpt>
      <trkpt lat="35.953961" lon="120.211623">
        <ele>1.5</ele>
        <time>2015-08-05T22:10:03Z</time>
      </trkpt>
      <trkpt lat="35.953992" lon="120.21154">
        <ele>1.6</ele>
        <time>2015-08-05T22:10:07Z</time>
      </trkpt>
      <trkpt lat="35.95397" lon="120.211424">
        <ele>1.6</ele>
        <time>2015-08-05T22:10:11Z</time>
      </trkpt>
      <trkpt lat="35.953946" lon="120.211298">
        <ele>1.7</ele>
        <time>2015-08-05T22:10:15Z</time>
      </trkpt>
      <trkpt lat="35.953923" lon="120.211167">
        <ele>1.7</ele>
        <time>2015-08-05T22:10:19Z</time>
      </trkpt>
      <trkpt lat="35.953927" lon="120.211028">
        <ele>1.8</ele>
        <time>2015-08-05T22:10:23Z</time>
      </trkpt>
      <trkpt lat="35.953961" lon="120.210876">
        <ele>1.9</ele>
        <time>2015-08-05T22:10:27Z</time>
      </trkpt>
      <trkpt lat="35.953972" lon="120.21073">
        <ele>1.9</ele>
        <time>2015-08-05T22:10:31Z</time>
      </trkpt>
      <trkpt lat="35.953955" lon="120.21058">
        <ele>1.9</ele>
        <time>2015-08-05T22:10:35Z</time>
      </trkpt>
      <trkpt lat="35.953921" lon="120.210422">
        <ele>1.9</ele>
        <time>2015-08-05T22:10:39Z</time>
      </trkpt>
      <trkpt lat="35.953884" lon="120.210269">
        <ele>1.9</ele>
        <time>2015-08-05T22:10:43Z</time>
      </trkpt>
      <trkpt lat="35.953834" lon="120.210121">
        <ele>1.9</ele>
        <time>2015-08-05T22:10:47Z</time>
      </trkpt>
      <trkpt lat="35.953799" lon="120.209973">
        <ele>1.8</ele>
        <time>2015-08-05T22:10:51Z</time>
      </trkpt>
      <trkpt lat="35.953772" lon="120.209823">
        <ele>1.9</ele>
        <time>2015-08-05T22:10:55Z</time>
      </trkpt>
      <trkpt lat="35.953746" lon="120.209683">
        <ele>1.9</ele>
        <time>2015-08-05T22:10:59Z</time>
      </trkpt>
      <trkpt lat="35.953712" lon="120.209543">
        <ele>1.9</ele>
        <time>2015-08-05T22:11:03Z</time>
      </trkpt>
      <trkpt lat="35.953677" lon="120.209412">
        <ele>1.9</ele>
        <time>2015-08-05T22:11:07Z</time>
      </trkpt>
      <trkpt lat="35.953649" lon="120.209277">
        <ele>1.9</ele>
        <time>2015-08-05T22:11:11Z</time>
      </trkpt>
      <trkpt lat="35.953624" lon="120.209127">
        <ele>1.9</ele>
        <time>2015-08-05T22:11:15Z</time>
      </trkpt>
      <trkpt lat="35.953598" lon="120.208986">
        <ele>1.9</ele>
        <time>2015-08-05T22:11:19Z</time>
      </trkpt>
      <trkpt lat="35.953565" lon="120.208859">
        <ele>1.8</ele>
        <time>2015-08-05T22:11:23Z</time>
      </trkpt>
      <trkpt lat="35.953534" lon="120.208733">
        <ele>1.8</ele>
        <time>2015-08-05T22:11:27Z</time>
      </trkpt>
      <trkpt lat="35.953507" lon="120.208614">
        <ele>1.8</ele>
        <time>2015-08-05T22:11:31Z</time>
      </trkpt>
      <trkpt lat="35.953484" lon="120.208492">
        <ele>1.8</ele>
        <time>2015-08-05T22:11:35Z</time>
      </trkpt>
      <trkpt lat="35.953481" lon="120.208368">
        <ele>1.8</ele>
        <time>2015-08-05T22:11:39Z</time>
      </trkpt>
      <trkpt lat="35.953545" lon="120.208278">
        <ele>1.8</ele>
        <time>2015-08-05T22:11:43Z</time>
      </trkpt>
      <trkpt lat="35.953646" lon="120.208229">
        <ele>1.8</ele>
        <time>2015-08-05T22:11:47Z</time>
      </trkpt>
      <trkpt lat="35.953746" lon="120.208202">
        <ele>1.9</ele>
        <time>2015-08-05T22:11:51Z</time>
      </trkpt>
      <trkpt lat="35.953853" lon="120.208175">
        <ele>2.0</ele>
        <time>2015-08-05T22:11:55Z</time>
      </trkpt>
      <trkpt lat="35.953961" lon="120.208169">
        <ele>2.2</ele>
        <time>2015-08-05T22:11:59Z</time>
      </trkpt>
      <trkpt lat="35.954059" lon="120.208169">
        <ele>2.5</ele>
        <time>2015-08-05T22:12:03Z</time>
      </trkpt>
      <trkpt lat="35.954254" lon="120.20811">
        <ele>2.8</ele>
        <time>2015-08-05T22:12:07Z</time>
      </trkpt>
      <trkpt lat="35.954345" lon="120.208083">
        <ele>3.2</ele>
        <time>2015-08-05T22:12:15Z</time>
      </trkpt>
      <trkpt lat="35.954437" lon="120.208065">
        <ele>3.5</ele>
        <time>2015-08-05T22:12:19Z</time>
      </trkpt>
      <trkpt lat="35.954526" lon="120.208042">
        <ele>3.9</ele>
        <time>2015-08-05T22:12:23Z</time>
      </trkpt>
      <trkpt lat="35.95462" lon="120.208006">
        <ele>4.3</ele>
        <time>2015-08-05T22:12:27Z</time>
      </trkpt>
      <trkpt lat="35.954724" lon="120.20797">
        <ele>4.8</ele>
        <time>2015-08-05T22:12:31Z</time>
      </trkpt>
      <trkpt lat="35.954827" lon="120.207942">
        <ele>5.2</ele>
        <time>2015-08-05T22:12:35Z</time>
      </trkpt>
      <trkpt lat="35.954923" lon="120.207922">
        <ele>5.7</ele>
        <time>2015-08-05T22:12:39Z</time>
      </trkpt>
      <trkpt lat="35.955027" lon="120.207889">
        <ele>6.2</ele>
        <time>2015-08-05T22:12:43Z</time>
      </trkpt>
      <trkpt lat="35.955129" lon="120.207839">
        <ele>6.6</ele>
        <time>2015-08-05T22:12:47Z</time>
      </trkpt>
      <trkpt lat="35.955211" lon="120.207791">
        <ele>7.1</ele>
        <time>2015-08-05T22:12:51Z</time>
      </trkpt>
      <trkpt lat="35.955303" lon="120.207754">
        <ele>7.6</ele>
        <time>2015-08-05T22:12:55Z</time>
      </trkpt>
      <trkpt lat="35.955402" lon="120.2077">
        <ele>8.1</ele>
        <time>2015-08-05T22:12:59Z</time>
      </trkpt>
      <trkpt lat="35.955502" lon="120.207643">
        <ele>8.4</ele>
        <time>2015-08-05T22:13:03Z</time>
      </trkpt>
      <trkpt lat="35.955604" lon="120.207594">
        <ele>8.7</ele>
        <time>2015-08-05T22:13:07Z</time>
      </trkpt>
      <trkpt lat="35.955711" lon="120.20757">
        <ele>9.0</ele>
        <time>2015-08-05T22:13:11Z</time>
      </trkpt>
      <trkpt lat="35.95581" lon="120.207545">
        <ele>9.3</ele>
        <time>2015-08-05T22:13:15Z</time>
      </trkpt>
      <trkpt lat="35.955911" lon="120.207523">
        <ele>9.6</ele>
        <time>2015-08-05T22:13:19Z</time>
      </trkpt>
      <trkpt lat="35.956007" lon="120.207509">
        <ele>9.9</ele>
        <time>2015-08-05T22:13:23Z</time>
      </trkpt>
      <trkpt lat="35.9561" lon="120.2075">
        <ele>10.2</ele>
        <time>2015-08-05T22:13:27Z</time>
      </trkpt>
      <trkpt lat="35.956188" lon="120.207487">
        <ele>10.5</ele>
        <time>2015-08-05T22:13:31Z</time>
      </trkpt>
      <trkpt lat="35.956257" lon="120.207482">
        <ele>10.8</ele>
        <time>2015-08-05T22:13:35Z</time>
      </trkpt>
      <trkpt lat="35.956315" lon="120.207483">
        <ele>11.0</ele>
        <time>2015-08-05T22:13:39Z</time>
      </trkpt>
      <extensions>
        <breaktype>2</breaktype>
      </extensions>
    </trkseg>
  </trk>
  <extensions>
    <ssrlog>
      <logseg>
        <logpt time="2015-08-05T21:42:51Z">
          <spd>4.5</spd>
          <str>0.0</str>
        </logpt>
        <logpt time="2015-08-05T21:42:55Z">
          <spd>4.5</spd>
          <str>0.0</str>
        </logpt>
        <breaktype>2</breaktype>
      </logseg>
      <logseg>
        <logpt time="2015-08-05T21:45:31Z">
          <spd>1.4</spd>
          <str>0.0</str>
        </logpt>
        <logpt time="2015-08-05T21:45:35Z">
          <spd>1.4</spd>
          <str>0.0</str>
        </logpt>
        <logpt time="2015-08-05T21:45:39Z">
          <spd>3.1</spd>
          <str>80.0</str>
        </logpt>
        <logpt time="2015-08-05T21:45:43Z">
          <spd>5.8</spd>
          <str>85.0</str>
        </logpt>
        <logpt time="2015-08-05T21:45:47Z">
          <spd>6.8</spd>
          <str>84.0</str>
        </logpt>
        <logpt time="2015-08-05T21:45:51Z">
          <spd>7.2</spd>
          <str>86.0</str>
        </logpt>
        <logpt time="2015-08-05T21:45:55Z">
          <spd>7.2</spd>
          <str>85.0</str>
        </logpt>
        <logpt time="2015-08-05T21:45:59Z">
          <spd>7.7</spd>
          <str>87.0</str>
        </logpt>
        <logpt time="2015-08-05T21:46:03Z">
          <spd>8.1</spd>
          <str>86.0</str>
        </logpt>
        <logpt time="2015-08-05T21:46:07Z">
          <spd>9.0</spd>
          <str>87.0</str>
        </logpt>
        <logpt time="2015-08-05T21:46:11Z">
          <spd>9.4</spd>
          <str>86.0</str>
        </logpt>
        <logpt time="2015-08-05T21:46:15Z">
          <spd>10.3</spd>
          <str>86.0</str>
        </logpt>
        <logpt time="2015-08-05T21:46:19Z">
          <spd>10.8</spd>
          <str>87.0</str>
        </logpt>
        <logpt time="2015-08-05T21:46:23Z">
          <spd>10.3</spd>
          <str>87.0</str>
        </logpt>
        <logpt time="2015-08-05T21:46:27Z">
          <spd>9.0</spd>
          <str>86.0</str>
        </logpt>
        <logpt time="2015-08-05T21:46:31Z">
          <spd>8.6</spd>
          <str>86.0</str>
        </logpt>
        <logpt time="2015-08-05T21:46:35Z">
          <spd>8.1</spd>
          <str>86.0</str>
        </logpt>
        <logpt time="2015-08-05T21:46:39Z">
          <spd>8.6</spd>
          <str>87.0</str>
        </logpt>
        <logpt time="2015-08-05T21:46:43Z">
          <spd>9.4</spd>
          <str>86.0</str>
        </logpt>
        <logpt time="2015-08-05T21:46:47Z">
          <spd>11.7</spd>
          <str>87.0</str>
        </logpt>
        <logpt time="2015-08-05T21:46:51Z">
          <spd>12.6</spd>
          <str>86.0</str>
        </logpt>
        <logpt time="2015-08-05T21:46:55Z">
          <spd>12.6</spd>
          <str>86.0</str>
        </logpt>
        <logpt time="2015-08-05T21:46:59Z">
          <spd>11.7</spd>
          <str>86.0</str>
        </logpt>
        <logpt time="2015-08-05T21:47:03Z">
          <spd>11.3</spd>
          <str>86.0</str>
        </logpt>
        <logpt time="2015-08-05T21:47:07Z">
          <spd>11.3</spd>
          <str>86.0</str>
        </logpt>
        <logpt time="2015-08-05T21:47:11Z">
          <spd>11.7</spd>
          <str>86.0</str>
        </logpt>
        <logpt time="2015-08-05T21:47:15Z">
          <spd>11.7</spd>
          <str>86.0</str>
        </logpt>
        <logpt time="2015-08-05T21:47:19Z">
          <spd>11.7</spd>
          <str>86.0</str>
        </logpt>
        <logpt time="2015-08-05T21:47:23Z">
          <spd>11.7</spd>
          <str>86.0</str>
        </logpt>
        <logpt time="2015-08-05T21:47:27Z">
          <spd>11.7</spd>
          <str>86.0</str>
        </logpt>
        <logpt time="2015-08-05T21:47:31Z">
          <spd>11.7</spd>
          <str>86.0</str>
        </logpt>
        <logpt time="2015-08-05T21:47:35Z">
          <spd>11.3</spd>
          <str>87.0</str>
        </logpt>
        <logpt time="2015-08-05T21:47:39Z">
          <spd>10.8</spd>
          <str>86.0</str>
        </logpt>
        <logpt time="2015-08-05T21:47:43Z">
          <spd>10.8</spd>
          <str>86.0</str>
        </logpt>
        <logpt time="2015-08-05T21:47:47Z">
          <spd>10.8</spd>
          <str>86.0</str>
        </logpt>
        <logpt time="2015-08-05T21:47:51Z">
          <spd>11.3</spd>
          <str>86.0</str>
        </logpt>
        <logpt time="2015-08-05T21:47:55Z">
          <spd>11.7</spd>
          <str>87.0</str>
        </logpt>
        <logpt time="2015-08-05T21:47:59Z">
          <spd>12.2</spd>
          <str>86.0</str>
        </logpt>
        <logpt time="2015-08-05T21:48:03Z">
          <spd>12.2</spd>
          <str>87.0</str>
        </logpt>
        <logpt time="2015-08-05T21:48:07Z">
          <spd>12.2</spd>
          <str>87.0</str>
        </logpt>
        <logpt time="2015-08-05T21:48:11Z">
          <spd>12.2</spd>
          <str>87.0</str>
        </logpt>
        <logpt time="2015-08-05T21:48:15Z">
          <spd>12.2</spd>
          <str>87.0</str>
        </logpt>
        <logpt time="2015-08-05T21:48:19Z">
          <spd>11.7</spd>
          <str>87.0</str>
        </logpt>
        <logpt time="2015-08-05T21:48:23Z">
          <spd>11.3</spd>
          <str>88.0</str>
        </logpt>
        <logpt time="2015-08-05T21:48:27Z">
          <spd>11.7</spd>
          <str>87.0</str>
        </logpt>
        <logpt time="2015-08-05T21:48:31Z">
          <spd>11.7</spd>
          <str>88.0</str>
        </logpt>
        <logpt time="2015-08-05T21:48:35Z">
          <spd>11.7</spd>
          <str>88.0</str>
        </logpt>
        <logpt time="2015-08-05T21:48:39Z">
          <spd>11.7</spd>
          <str>88.0</str>
        </logpt>
        <logpt time="2015-08-05T21:48:43Z">
          <spd>11.7</spd>
          <str>88.0</str>
        </logpt>
        <logpt time="2015-08-05T21:48:47Z">
          <spd>11.7</spd>
          <str>89.0</str>
        </logpt>
        <logpt time="2015-08-05T21:48:51Z">
          <spd>11.7</spd>
          <str>88.0</str>
        </logpt>
        <logpt time="2015-08-05T21:48:55Z">
          <spd>11.7</spd>
          <str>88.0</str>
        </logpt>
        <logpt time="2015-08-05T21:48:59Z">
          <spd>10.8</spd>
          <str>88.0</str>
        </logpt>
        <logpt time="2015-08-05T21:49:03Z">
          <spd>10.3</spd>
          <str>88.0</str>
        </logpt>
        <logpt time="2015-08-05T21:49:07Z">
          <spd>10.3</spd>
          <str>87.0</str>
        </logpt>
        <logpt time="2015-08-05T21:49:11Z">
          <spd>9.9</spd>
          <str>87.0</str>
        </logpt>
        <logpt time="2015-08-05T21:49:15Z">
          <spd>9.4</spd>
          <str>87.0</str>
        </logpt>
        <logpt time="2015-08-05T21:49:19Z">
          <spd>9.4</spd>
          <str>87.0</str>
        </logpt>
        <logpt time="2015-08-05T21:49:23Z">
          <spd>9.4</spd>
          <str>87.0</str>
        </logpt>
        <logpt time="2015-08-05T21:49:27Z">
          <spd>9.9</spd>
          <str>87.0</str>
        </logpt>
        <logpt time="2015-08-05T21:49:31Z">
          <spd>10.3</spd>
          <str>87.0</str>
        </logpt>
        <logpt time="2015-08-05T21:49:35Z">
          <spd>10.3</spd>
          <str>87.0</str>
        </logpt>
        <logpt time="2015-08-05T21:49:39Z">
          <spd>10.3</spd>
          <str>87.0</str>
        </logpt>
        <logpt time="2015-08-05T21:49:43Z">
          <spd>10.3</spd>
          <str>87.0</str>
        </logpt>
        <logpt time="2015-08-05T21:49:47Z">
          <spd>10.8</spd>
          <str>87.0</str>
        </logpt>
        <logpt time="2015-08-05T21:49:51Z">
          <spd>10.8</spd>
          <str>87.0</str>
        </logpt>
        <logpt time="2015-08-05T21:49:55Z">
          <spd>11.3</spd>
          <str>88.0</str>
        </logpt>
        <logpt time="2015-08-05T21:49:59Z">
          <spd>11.3</spd>
          <str>87.0</str>
        </logpt>
        <logpt time="2015-08-05T21:50:03Z">
          <spd>10.8</spd>
          <str>87.0</str>
        </logpt>
        <logpt time="2015-08-05T21:50:07Z">
          <spd>9.0</spd>
          <str>86.0</str>
        </logpt>
        <logpt time="2015-08-05T21:50:11Z">
          <spd>9.4</spd>
          <str>85.0</str>
        </logpt>
        <logpt time="2015-08-05T21:50:15Z">
          <spd>9.9</spd>
          <str>84.0</str>
        </logpt>
        <logpt time="2015-08-05T21:50:19Z">
          <spd>9.4</spd>
          <str>84.0</str>
        </logpt>
        <logpt time="2015-08-05T21:50:23Z">
          <spd>9.0</spd>
          <str>84.0</str>
        </logpt>
        <logpt time="2015-08-05T21:50:27Z">
          <spd>9.4</spd>
          <str>83.0</str>
        </logpt>
        <logpt time="2015-08-05T21:50:31Z">
          <spd>9.9</spd>
          <str>83.0</str>
        </logpt>
        <logpt time="2015-08-05T21:50:35Z">
          <spd>9.9</spd>
          <str>83.0</str>
        </logpt>
        <logpt time="2015-08-05T21:50:39Z">
          <spd>10.3</spd>
          <str>83.0</str>
        </logpt>
        <logpt time="2015-08-05T21:50:43Z">
          <spd>10.3</spd>
          <str>83.0</str>
        </logpt>
        <logpt time="2015-08-05T21:50:47Z">
          <spd>10.8</spd>
          <str>84.0</str>
        </logpt>
        <logpt time="2015-08-05T21:50:51Z">
          <spd>10.8</spd>
          <str>84.0</str>
        </logpt>
        <logpt time="2015-08-05T21:50:55Z">
          <spd>10.8</spd>
          <str>83.0</str>
        </logpt>
        <logpt time="2015-08-05T21:50:59Z">
          <spd>10.8</spd>
          <str>84.0</str>
        </logpt>
        <logpt time="2015-08-05T21:51:03Z">
          <spd>11.3</spd>
          <str>85.0</str>
        </logpt>
        <logpt time="2015-08-05T21:51:07Z">
          <spd>11.3</spd>
          <str>85.0</str>
        </logpt>
        <logpt time="2015-08-05T21:51:11Z">
          <spd>11.3</spd>
          <str>86.0</str>
        </logpt>
        <logpt time="2015-08-05T21:51:15Z">
          <spd>11.3</spd>
          <str>88.0</str>
        </logpt>
        <logpt time="2015-08-05T21:51:19Z">
          <spd>10.8</spd>
          <str>88.0</str>
        </logpt>
        <logpt time="2015-08-05T21:51:23Z">
          <spd>10.8</spd>
          <str>88.0</str>
        </logpt>
        <logpt time="2015-08-05T21:51:27Z">
          <spd>11.3</spd>
          <str>88.0</str>
        </logpt>
        <logpt time="2015-08-05T21:51:31Z">
          <spd>10.8</spd>
          <str>89.0</str>
        </logpt>
        <logpt time="2015-08-05T21:51:35Z">
          <spd>10.8</spd>
          <str>89.0</str>
        </logpt>
        <logpt time="2015-08-05T21:51:39Z">
          <spd>10.8</spd>
          <str>88.0</str>
        </logpt>
        <logpt time="2015-08-05T21:51:43Z">
          <spd>11.3</spd>
          <str>88.0</str>
        </logpt>
        <logpt time="2015-08-05T21:51:47Z">
          <spd>11.3</spd>
          <str>88.0</str>
        </logpt>
        <logpt time="2015-08-05T21:51:51Z">
          <spd>11.7</spd>
          <str>88.0</str>
        </logpt>
        <logpt time="2015-08-05T21:51:55Z">
          <spd>12.2</spd>
          <str>88.0</str>
        </logpt>
        <logpt time="2015-08-05T21:51:59Z">
          <spd>12.2</spd>
          <str>88.0</str>
        </logpt>
        <logpt time="2015-08-05T21:52:03Z">
          <spd>12.2</spd>
          <str>88.0</str>
        </logpt>
        <logpt time="2015-08-05T21:52:07Z">
          <spd>12.2</spd>
          <str>88.0</str>
        </logpt>
        <logpt time="2015-08-05T21:52:11Z">
          <spd>12.6</spd>
          <str>88.0</str>
        </logpt>
        <logpt time="2015-08-05T21:52:15Z">
          <spd>12.6</spd>
          <str>88.0</str>
        </logpt>
        <logpt time="2015-08-05T21:52:19Z">
          <spd>12.2</spd>
          <str>88.0</str>
        </logpt>
        <logpt time="2015-08-05T21:52:23Z">
          <spd>11.7</spd>
          <str>88.0</str>
        </logpt>
        <logpt time="2015-08-05T21:52:27Z">
          <spd>11.3</spd>
          <str>88.0</str>
        </logpt>
        <logpt time="2015-08-05T21:52:31Z">
          <spd>11.3</spd>
          <str>88.0</str>
        </logpt>
        <logpt time="2015-08-05T21:52:35Z">
          <spd>11.3</spd>
          <str>88.0</str>
        </logpt>
        <logpt time="2015-08-05T21:52:39Z">
          <spd>11.3</spd>
          <str>88.0</str>
        </logpt>
        <logpt time="2015-08-05T21:52:43Z">
          <spd>11.3</spd>
          <str>88.0</str>
        </logpt>
        <logpt time="2015-08-05T21:52:47Z">
          <spd>11.3</spd>
          <str>88.0</str>
        </logpt>
        <logpt time="2015-08-05T21:52:51Z">
          <spd>11.3</spd>
          <str>88.0</str>
        </logpt>
        <logpt time="2015-08-05T21:52:55Z">
          <spd>11.3</spd>
          <str>88.0</str>
        </logpt>
        <logpt time="2015-08-05T21:52:59Z">
          <spd>11.3</spd>
          <str>88.0</str>
        </logpt>
        <logpt time="2015-08-05T21:53:03Z">
          <spd>11.3</spd>
          <str>88.0</str>
        </logpt>
        <logpt time="2015-08-05T21:53:07Z">
          <spd>11.3</spd>
          <str>88.0</str>
        </logpt>
        <logpt time="2015-08-05T21:53:11Z">
          <spd>10.8</spd>
          <str>88.0</str>
        </logpt>
        <logpt time="2015-08-05T21:53:15Z">
          <spd>11.3</spd>
          <str>88.0</str>
        </logpt>
        <logpt time="2015-08-05T21:53:19Z">
          <spd>11.3</spd>
          <str>88.0</str>
        </logpt>
        <logpt time="2015-08-05T21:53:23Z">
          <spd>11.3</spd>
          <str>88.0</str>
        </logpt>
        <logpt time="2015-08-05T21:53:27Z">
          <spd>11.3</spd>
          <str>88.0</str>
        </logpt>
        <logpt time="2015-08-05T21:53:31Z">
          <spd>11.3</spd>
          <str>88.0</str>
        </logpt>
        <logpt time="2015-08-05T21:53:35Z">
          <spd>10.8</spd>
          <str>89.0</str>
        </logpt>
        <logpt time="2015-08-05T21:53:39Z">
          <spd>10.8</spd>
          <str>88.0</str>
        </logpt>
        <logpt time="2015-08-05T21:53:43Z">
          <spd>10.3</spd>
          <str>89.0</str>
        </logpt>
        <logpt time="2015-08-05T21:53:47Z">
          <spd>10.3</spd>
          <str>89.0</str>
        </logpt>
        <logpt time="2015-08-05T21:53:51Z">
          <spd>9.9</spd>
          <str>88.0</str>
        </logpt>
        <logpt time="2015-08-05T21:53:55Z">
          <spd>9.9</spd>
          <str>88.0</str>
        </logpt>
        <logpt time="2015-08-05T21:53:59Z">
          <spd>9.9</spd>
          <str>88.0</str>
        </logpt>
        <logpt time="2015-08-05T21:54:03Z">
          <spd>9.9</spd>
          <str>88.0</str>
        </logpt>
        <logpt time="2015-08-05T21:54:07Z">
          <spd>10.3</spd>
          <str>89.0</str>
        </logpt>
        <logpt time="2015-08-05T21:54:11Z">
          <spd>10.3</spd>
          <str>88.0</str>
        </logpt>
        <logpt time="2015-08-05T21:54:15Z">
          <spd>10.8</spd>
          <str>88.0</str>
        </logpt>
        <logpt time="2015-08-05T21:54:19Z">
          <spd>10.8</spd>
          <str>88.0</str>
        </logpt>
        <logpt time="2015-08-05T21:54:23Z">
          <spd>10.8</spd>
          <str>88.0</str>
        </logpt>
        <logpt time="2015-08-05T21:54:27Z">
          <spd>10.8</spd>
          <str>88.0</str>
        </logpt>
        <logpt time="2015-08-05T21:54:31Z">
          <spd>10.8</spd>
          <str>87.0</str>
        </logpt>
        <logpt time="2015-08-05T21:54:35Z">
          <spd>9.4</spd>
          <str>86.0</str>
        </logpt>
        <logpt time="2015-08-05T21:54:39Z">
          <spd>5.0</spd>
          <str>83.0</str>
        </logpt>
        <logpt time="2015-08-05T21:54:43Z">
          <spd>0.0</spd>
          <str>79.0</str>
        </logpt>
        <logpt time="2015-08-05T21:54:47Z">
          <spd>0.0</spd>
          <str>78.0</str>
        </logpt>
        <logpt time="2015-08-05T21:54:51Z">
          <spd>0.0</spd>
          <str>77.0</str>
        </logpt>
        <logpt time="2015-08-05T21:54:55Z">
          <spd>0.0</spd>
          <str>74.0</str>
        </logpt>
        <logpt time="2015-08-05T21:54:59Z">
          <spd>0.0</spd>
          <str>74.0</str>
        </logpt>
        <logpt time="2015-08-05T21:55:03Z">
          <spd>0.0</spd>
          <str>64.0</str>
        </logpt>
        <logpt time="2015-08-05T21:55:07Z">
          <spd>0.0</spd>
          <str>61.0</str>
        </logpt>
        <logpt time="2015-08-05T21:55:11Z">
          <spd>0.0</spd>
          <str>60.0</str>
        </logpt>
        <logpt time="2015-08-05T21:55:15Z">
          <spd>0.0</spd>
          <str>58.0</str>
        </logpt>
        <logpt time="2015-08-05T21:55:19Z">
          <spd>0.0</spd>
          <str>55.0</str>
        </logpt>
        <logpt time="2015-08-05T21:55:23Z">
          <spd>0.0</spd>
          <str>54.0</str>
        </logpt>
        <logpt time="2015-08-05T21:55:27Z">
          <spd>2.3</spd>
          <str>54.0</str>
        </logpt>
        <logpt time="2015-08-05T21:55:31Z">
          <spd>6.8</spd>
          <str>53.0</str>
        </logpt>
        <logpt time="2015-08-05T21:55:35Z">
          <spd>9.4</spd>
          <str>55.0</str>
        </logpt>
        <logpt time="2015-08-05T21:55:39Z">
          <spd>11.7</spd>
          <str>57.0</str>
        </logpt>
        <logpt time="2015-08-05T21:55:43Z">
          <spd>12.6</spd>
          <str>61.0</str>
        </logpt>
        <logpt time="2015-08-05T21:55:47Z">
          <spd>12.2</spd>
          <str>62.0</str>
        </logpt>
        <logpt time="2015-08-05T21:55:51Z">
          <spd>12.6</spd>
          <str>64.0</str>
        </logpt>
        <logpt time="2015-08-05T21:55:55Z">
          <spd>12.6</spd>
          <str>76.0</str>
        </logpt>
        <logpt time="2015-08-05T21:55:59Z">
          <spd>12.2</spd>
          <str>77.0</str>
        </logpt>
        <logpt time="2015-08-05T21:56:03Z">
          <spd>12.2</spd>
          <str>77.0</str>
        </logpt>
        <logpt time="2015-08-05T21:56:07Z">
          <spd>11.3</spd>
          <str>80.0</str>
        </logpt>
        <logpt time="2015-08-05T21:56:11Z">
          <spd>11.7</spd>
          <str>82.0</str>
        </logpt>
        <logpt time="2015-08-05T21:56:15Z">
          <spd>11.7</spd>
          <str>84.0</str>
        </logpt>
        <logpt time="2015-08-05T21:56:19Z">
          <spd>11.7</spd>
          <str>87.0</str>
        </logpt>
        <logpt time="2015-08-05T21:56:23Z">
          <spd>11.7</spd>
          <str>88.0</str>
        </logpt>
        <logpt time="2015-08-05T21:56:27Z">
          <spd>11.7</spd>
          <str>88.0</str>
        </logpt>
        <logpt time="2015-08-05T21:56:31Z">
          <spd>11.7</spd>
          <str>89.0</str>
        </logpt>
        <logpt time="2015-08-05T21:56:35Z">
          <spd>11.7</spd>
          <str>89.0</str>
        </logpt>
        <logpt time="2015-08-05T21:56:39Z">
          <spd>11.7</spd>
          <str>89.0</str>
        </logpt>
        <logpt time="2015-08-05T21:56:43Z">
          <spd>12.2</spd>
          <str>89.0</str>
        </logpt>
        <logpt time="2015-08-05T21:56:47Z">
          <spd>12.2</spd>
          <str>89.0</str>
        </logpt>
        <logpt time="2015-08-05T21:56:51Z">
          <spd>12.2</spd>
          <str>89.0</str>
        </logpt>
        <logpt time="2015-08-05T21:56:55Z">
          <spd>11.7</spd>
          <str>89.0</str>
        </logpt>
        <logpt time="2015-08-05T21:56:59Z">
          <spd>11.3</spd>
          <str>89.0</str>
        </logpt>
        <logpt time="2015-08-05T21:57:03Z">
          <spd>11.3</spd>
          <str>89.0</str>
        </logpt>
        <logpt time="2015-08-05T21:57:07Z">
          <spd>11.3</spd>
          <str>89.0</str>
        </logpt>
        <logpt time="2015-08-05T21:57:11Z">
          <spd>11.3</spd>
          <str>89.0</str>
        </logpt>
        <logpt time="2015-08-05T21:57:15Z">
          <spd>11.3</spd>
          <str>89.0</str>
        </logpt>
        <logpt time="2015-08-05T21:57:19Z">
          <spd>11.3</spd>
          <str>88.0</str>
        </logpt>
        <logpt time="2015-08-05T21:57:23Z">
          <spd>11.3</spd>
          <str>88.0</str>
        </logpt>
        <logpt time="2015-08-05T21:57:27Z">
          <spd>11.3</spd>
          <str>88.0</str>
        </logpt>
        <logpt time="2015-08-05T21:57:31Z">
          <spd>11.3</spd>
          <str>88.0</str>
        </logpt>
        <logpt time="2015-08-05T21:57:35Z">
          <spd>10.8</spd>
          <str>89.0</str>
        </logpt>
        <logpt time="2015-08-05T21:57:39Z">
          <spd>11.3</spd>
          <str>88.0</str>
        </logpt>
        <logpt time="2015-08-05T21:57:43Z">
          <spd>11.3</spd>
          <str>88.0</str>
        </logpt>
        <logpt time="2015-08-05T21:57:47Z">
          <spd>10.8</spd>
          <str>88.0</str>
        </logpt>
        <logpt time="2015-08-05T21:57:51Z">
          <spd>10.3</spd>
          <str>88.0</str>
        </logpt>
        <logpt time="2015-08-05T21:57:55Z">
          <spd>10.3</spd>
          <str>88.0</str>
        </logpt>
        <logpt time="2015-08-05T21:57:59Z">
          <spd>10.3</spd>
          <str>89.0</str>
        </logpt>
        <logpt time="2015-08-05T21:58:03Z">
          <spd>10.8</spd>
          <str>88.0</str>
        </logpt>
        <logpt time="2015-08-05T21:58:07Z">
          <spd>10.8</spd>
          <str>88.0</str>
        </logpt>
        <logpt time="2015-08-05T21:58:11Z">
          <spd>10.8</spd>
          <str>88.0</str>
        </logpt>
        <logpt time="2015-08-05T21:58:15Z">
          <spd>10.8</spd>
          <str>88.0</str>
        </logpt>
        <logpt time="2015-08-05T21:58:19Z">
          <spd>11.3</spd>
          <str>88.0</str>
        </logpt>
        <logpt time="2015-08-05T21:58:23Z">
          <spd>10.3</spd>
          <str>88.0</str>
        </logpt>
        <logpt time="2015-08-05T21:58:27Z">
          <spd>9.9</spd>
          <str>88.0</str>
        </logpt>
        <logpt time="2015-08-05T21:58:31Z">
          <spd>9.9</spd>
          <str>88.0</str>
        </logpt>
        <logpt time="2015-08-05T21:58:35Z">
          <spd>9.9</spd>
          <str>87.0</str>
        </logpt>
        <logpt time="2015-08-05T21:58:39Z">
          <spd>10.3</spd>
          <str>88.0</str>
        </logpt>
        <logpt time="2015-08-05T21:58:43Z">
          <spd>10.3</spd>
          <str>87.0</str>
        </logpt>
        <logpt time="2015-08-05T21:58:47Z">
          <spd>10.3</spd>
          <str>87.0</str>
        </logpt>
        <logpt time="2015-08-05T21:58:51Z">
          <spd>10.8</spd>
          <str>87.0</str>
        </logpt>
        <logpt time="2015-08-05T21:58:55Z">
          <spd>10.8</spd>
          <str>87.0</str>
        </logpt>
        <logpt time="2015-08-05T21:58:59Z">
          <spd>10.8</spd>
          <str>87.0</str>
        </logpt>
        <logpt time="2015-08-05T21:59:03Z">
          <spd>10.3</spd>
          <str>87.0</str>
        </logpt>
        <logpt time="2015-08-05T21:59:07Z">
          <spd>10.3</spd>
          <str>87.0</str>
        </logpt>
        <logpt time="2015-08-05T21:59:11Z">
          <spd>10.8</spd>
          <str>88.0</str>
        </logpt>
        <logpt time="2015-08-05T21:59:15Z">
          <spd>11.3</spd>
          <str>87.0</str>
        </logpt>
        <logpt time="2015-08-05T21:59:19Z">
          <spd>11.3</spd>
          <str>87.0</str>
        </logpt>
        <logpt time="2015-08-05T21:59:23Z">
          <spd>11.3</spd>
          <str>87.0</str>
        </logpt>
        <logpt time="2015-08-05T21:59:27Z">
          <spd>11.7</spd>
          <str>87.0</str>
        </logpt>
        <logpt time="2015-08-05T21:59:31Z">
          <spd>11.7</spd>
          <str>87.0</str>
        </logpt>
        <logpt time="2015-08-05T21:59:35Z">
          <spd>11.3</spd>
          <str>88.0</str>
        </logpt>
        <logpt time="2015-08-05T21:59:39Z">
          <spd>10.8</spd>
          <str>87.0</str>
        </logpt>
        <logpt time="2015-08-05T21:59:43Z">
          <spd>10.8</spd>
          <str>88.0</str>
        </logpt>
        <logpt time="2015-08-05T21:59:47Z">
          <spd>10.8</spd>
          <str>87.0</str>
        </logpt>
        <logpt time="2015-08-05T21:59:51Z">
          <spd>10.8</spd>
          <str>87.0</str>
        </logpt>
        <logpt time="2015-08-05T21:59:55Z">
          <spd>10.8</spd>
          <str>88.0</str>
        </logpt>
        <logpt time="2015-08-05T21:59:59Z">
          <spd>10.3</spd>
          <str>88.0</str>
        </logpt>
        <logpt time="2015-08-05T22:00:03Z">
          <spd>9.9</spd>
          <str>88.0</str>
        </logpt>
        <logpt time="2015-08-05T22:00:07Z">
          <spd>9.9</spd>
          <str>88.0</str>
        </logpt>
        <logpt time="2015-08-05T22:00:11Z">
          <spd>10.3</spd>
          <str>87.0</str>
        </logpt>
        <logpt time="2015-08-05T22:00:15Z">
          <spd>10.8</spd>
          <str>88.0</str>
        </logpt>
        <logpt time="2015-08-05T22:00:19Z">
          <spd>10.3</spd>
          <str>88.0</str>
        </logpt>
        <logpt time="2015-08-05T22:00:23Z">
          <spd>10.3</spd>
          <str>88.0</str>
        </logpt>
        <logpt time="2015-08-05T22:00:27Z">
          <spd>10.3</spd>
          <str>87.0</str>
        </logpt>
        <logpt time="2015-08-05T22:00:31Z">
          <spd>10.3</spd>
          <str>87.0</str>
        </logpt>
        <logpt time="2015-08-05T22:00:35Z">
          <spd>10.3</spd>
          <str>87.0</str>
        </logpt>
        <logpt time="2015-08-05T22:00:39Z">
          <spd>10.3</spd>
          <str>88.0</str>
        </logpt>
        <logpt time="2015-08-05T22:00:43Z">
          <spd>10.3</spd>
          <str>87.0</str>
        </logpt>
        <logpt time="2015-08-05T22:00:47Z">
          <spd>10.3</spd>
          <str>87.0</str>
        </logpt>
        <logpt time="2015-08-05T22:00:51Z">
          <spd>10.8</spd>
          <str>87.0</str>
        </logpt>
        <logpt time="2015-08-05T22:00:55Z">
          <spd>10.3</spd>
          <str>87.0</str>
        </logpt>
        <logpt time="2015-08-05T22:00:59Z">
          <spd>10.3</spd>
          <str>87.0</str>
        </logpt>
        <logpt time="2015-08-05T22:01:03Z">
          <spd>10.3</spd>
          <str>87.0</str>
        </logpt>
        <logpt time="2015-08-05T22:01:07Z">
          <spd>10.3</spd>
          <str>87.0</str>
        </logpt>
        <logpt time="2015-08-05T22:01:11Z">
          <spd>10.3</spd>
          <str>88.0</str>
        </logpt>
        <logpt time="2015-08-05T22:01:15Z">
          <spd>10.3</spd>
          <str>87.0</str>
        </logpt>
        <logpt time="2015-08-05T22:01:19Z">
          <spd>10.3</spd>
          <str>88.0</str>
        </logpt>
        <logpt time="2015-08-05T22:01:23Z">
          <spd>10.3</spd>
          <str>88.0</str>
        </logpt>
        <logpt time="2015-08-05T22:01:27Z">
          <spd>10.3</spd>
          <str>88.0</str>
        </logpt>
        <logpt time="2015-08-05T22:01:31Z">
          <spd>9.9</spd>
          <str>88.0</str>
        </logpt>
        <logpt time="2015-08-05T22:01:35Z">
          <spd>10.3</spd>
          <str>88.0</str>
        </logpt>
        <logpt time="2015-08-05T22:01:39Z">
          <spd>10.3</spd>
          <str>88.0</str>
        </logpt>
        <logpt time="2015-08-05T22:01:43Z">
          <spd>10.3</spd>
          <str>88.0</str>
        </logpt>
        <logpt time="2015-08-05T22:01:47Z">
          <spd>10.3</spd>
          <str>88.0</str>
        </logpt>
        <logpt time="2015-08-05T22:01:51Z">
          <spd>10.3</spd>
          <str>88.0</str>
        </logpt>
        <logpt time="2015-08-05T22:01:55Z">
          <spd>10.3</spd>
          <str>88.0</str>
        </logpt>
        <logpt time="2015-08-05T22:01:59Z">
          <spd>10.3</spd>
          <str>88.0</str>
        </logpt>
        <logpt time="2015-08-05T22:02:03Z">
          <spd>10.3</spd>
          <str>89.0</str>
        </logpt>
        <logpt time="2015-08-05T22:02:07Z">
          <spd>10.3</spd>
          <str>89.0</str>
        </logpt>
        <logpt time="2015-08-05T22:02:11Z">
          <spd>10.3</spd>
          <str>88.0</str>
        </logpt>
        <logpt time="2015-08-05T22:02:15Z">
          <spd>10.3</spd>
          <str>89.0</str>
        </logpt>
        <logpt time="2015-08-05T22:02:19Z">
          <spd>9.9</spd>
          <str>89.0</str>
        </logpt>
        <logpt time="2015-08-05T22:02:23Z">
          <spd>10.3</spd>
          <str>89.0</str>
        </logpt>
        <logpt time="2015-08-05T22:02:27Z">
          <spd>10.3</spd>
          <str>89.0</str>
        </logpt>
        <logpt time="2015-08-05T22:02:31Z">
          <spd>10.8</spd>
          <str>89.0</str>
        </logpt>
        <logpt time="2015-08-05T22:02:35Z">
          <spd>10.8</spd>
          <str>89.0</str>
        </logpt>
        <logpt time="2015-08-05T22:02:39Z">
          <spd>10.3</spd>
          <str>89.0</str>
        </logpt>
        <logpt time="2015-08-05T22:02:43Z">
          <spd>10.8</spd>
          <str>89.0</str>
        </logpt>
        <logpt time="2015-08-05T22:02:47Z">
          <spd>10.8</spd>
          <str>89.0</str>
        </logpt>
        <logpt time="2015-08-05T22:02:51Z">
          <spd>10.8</spd>
          <str>89.0</str>
        </logpt>
        <logpt time="2015-08-05T22:02:55Z">
          <spd>10.3</spd>
          <str>89.0</str>
        </logpt>
        <logpt time="2015-08-05T22:02:59Z">
          <spd>10.3</spd>
          <str>89.0</str>
        </logpt>
        <logpt time="2015-08-05T22:03:03Z">
          <spd>10.3</spd>
          <str>89.0</str>
        </logpt>
        <logpt time="2015-08-05T22:03:07Z">
          <spd>10.3</spd>
          <str>89.0</str>
        </logpt>
        <logpt time="2015-08-05T22:03:11Z">
          <spd>10.3</spd>
          <str>89.0</str>
        </logpt>
        <logpt time="2015-08-05T22:03:15Z">
          <spd>10.3</spd>
          <str>89.0</str>
        </logpt>
        <logpt time="2015-08-05T22:03:19Z">
          <spd>10.8</spd>
          <str>88.0</str>
        </logpt>
        <logpt time="2015-08-05T22:03:23Z">
          <spd>11.3</spd>
          <str>88.0</str>
        </logpt>
        <logpt time="2015-08-05T22:03:27Z">
          <spd>11.3</spd>
          <str>88.0</str>
        </logpt>
        <logpt time="2015-08-05T22:03:31Z">
          <spd>10.8</spd>
          <str>88.0</str>
        </logpt>
        <logpt time="2015-08-05T22:03:35Z">
          <spd>11.3</spd>
          <str>88.0</str>
        </logpt>
        <logpt time="2015-08-05T22:03:39Z">
          <spd>11.3</spd>
          <str>88.0</str>
        </logpt>
        <logpt time="2015-08-05T22:03:43Z">
          <spd>11.3</spd>
          <str>88.0</str>
        </logpt>
        <logpt time="2015-08-05T22:03:47Z">
          <spd>11.3</spd>
          <str>88.0</str>
        </logpt>
        <logpt time="2015-08-05T22:03:51Z">
          <spd>11.3</spd>
          <str>88.0</str>
        </logpt>
        <logpt time="2015-08-05T22:03:55Z">
          <spd>10.8</spd>
          <str>88.0</str>
        </logpt>
        <logpt time="2015-08-05T22:03:59Z">
          <spd>10.8</spd>
          <str>88.0</str>
        </logpt>
        <logpt time="2015-08-05T22:04:03Z">
          <spd>11.3</spd>
          <str>88.0</str>
        </logpt>
        <logpt time="2015-08-05T22:04:07Z">
          <spd>11.3</spd>
          <str>88.0</str>
        </logpt>
        <logpt time="2015-08-05T22:04:11Z">
          <spd>11.3</spd>
          <str>88.0</str>
        </logpt>
        <logpt time="2015-08-05T22:04:15Z">
          <spd>11.3</spd>
          <str>88.0</str>
        </logpt>
        <logpt time="2015-08-05T22:04:19Z">
          <spd>11.3</spd>
          <str>88.0</str>
        </logpt>
        <logpt time="2015-08-05T22:04:23Z">
          <spd>11.3</spd>
          <str>89.0</str>
        </logpt>
        <logpt time="2015-08-05T22:04:27Z">
          <spd>11.3</spd>
          <str>88.0</str>
        </logpt>
        <logpt time="2015-08-05T22:04:31Z">
          <spd>10.8</spd>
          <str>88.0</str>
        </logpt>
        <logpt time="2015-08-05T22:04:35Z">
          <spd>11.3</spd>
          <str>88.0</str>
        </logpt>
        <logpt time="2015-08-05T22:04:39Z">
          <spd>11.3</spd>
          <str>88.0</str>
        </logpt>
        <logpt time="2015-08-05T22:04:43Z">
          <spd>11.3</spd>
          <str>88.0</str>
        </logpt>
        <logpt time="2015-08-05T22:04:47Z">
          <spd>11.3</spd>
          <str>88.0</str>
        </logpt>
        <logpt time="2015-08-05T22:04:51Z">
          <spd>10.8</spd>
          <str>88.0</str>
        </logpt>
        <logpt time="2015-08-05T22:04:55Z">
          <spd>10.8</spd>
          <str>88.0</str>
        </logpt>
        <logpt time="2015-08-05T22:04:59Z">
          <spd>10.8</spd>
          <str>88.0</str>
        </logpt>
        <logpt time="2015-08-05T22:05:03Z">
          <spd>11.3</spd>
          <str>88.0</str>
        </logpt>
        <logpt time="2015-08-05T22:05:07Z">
          <spd>11.3</spd>
          <str>88.0</str>
        </logpt>
        <logpt time="2015-08-05T22:05:11Z">
          <spd>11.3</spd>
          <str>88.0</str>
        </logpt>
        <logpt time="2015-08-05T22:05:15Z">
          <spd>11.3</spd>
          <str>88.0</str>
        </logpt>
        <logpt time="2015-08-05T22:05:19Z">
          <spd>11.3</spd>
          <str>88.0</str>
        </logpt>
        <logpt time="2015-08-05T22:05:23Z">
          <spd>11.3</spd>
          <str>88.0</str>
        </logpt>
        <logpt time="2015-08-05T22:05:27Z">
          <spd>11.3</spd>
          <str>88.0</str>
        </logpt>
        <logpt time="2015-08-05T22:05:31Z">
          <spd>11.3</spd>
          <str>88.0</str>
        </logpt>
        <logpt time="2015-08-05T22:05:35Z">
          <spd>11.3</spd>
          <str>88.0</str>
        </logpt>
        <logpt time="2015-08-05T22:05:39Z">
          <spd>11.3</spd>
          <str>88.0</str>
        </logpt>
        <logpt time="2015-08-05T22:05:43Z">
          <spd>11.3</spd>
          <str>88.0</str>
        </logpt>
        <logpt time="2015-08-05T22:05:47Z">
          <spd>11.3</spd>
          <str>87.0</str>
        </logpt>
        <logpt time="2015-08-05T22:05:51Z">
          <spd>10.8</spd>
          <str>87.0</str>
        </logpt>
        <logpt time="2015-08-05T22:05:55Z">
          <spd>10.8</spd>
          <str>87.0</str>
        </logpt>
        <logpt time="2015-08-05T22:05:59Z">
          <spd>10.8</spd>
          <str>88.0</str>
        </logpt>
        <logpt time="2015-08-05T22:06:03Z">
          <spd>11.3</spd>
          <str>87.0</str>
        </logpt>
        <logpt time="2015-08-05T22:06:07Z">
          <spd>11.3</spd>
          <str>87.0</str>
        </logpt>
        <logpt time="2015-08-05T22:06:11Z">
          <spd>11.3</spd>
          <str>88.0</str>
        </logpt>
        <logpt time="2015-08-05T22:06:15Z">
          <spd>11.3</spd>
          <str>87.0</str>
        </logpt>
        <logpt time="2015-08-05T22:06:19Z">
          <spd>11.3</spd>
          <str>88.0</str>
        </logpt>
        <logpt time="2015-08-05T22:06:23Z">
          <spd>11.3</spd>
          <str>87.0</str>
        </logpt>
        <logpt time="2015-08-05T22:06:27Z">
          <spd>11.7</spd>
          <str>87.0</str>
        </logpt>
        <logpt time="2015-08-05T22:06:31Z">
          <spd>11.7</spd>
          <str>87.0</str>
        </logpt>
        <logpt time="2015-08-05T22:06:35Z">
          <spd>11.7</spd>
          <str>87.0</str>
        </logpt>
        <logpt time="2015-08-05T22:06:39Z">
          <spd>11.7</spd>
          <str>88.0</str>
        </logpt>
        <logpt time="2015-08-05T22:06:43Z">
          <spd>11.7</spd>
          <str>88.0</str>
        </logpt>
        <logpt time="2015-08-05T22:06:47Z">
          <spd>11.3</spd>
          <str>87.0</str>
        </logpt>
        <logpt time="2015-08-05T22:06:51Z">
          <spd>11.3</spd>
          <str>88.0</str>
        </logpt>
        <logpt time="2015-08-05T22:06:55Z">
          <spd>11.3</spd>
          <str>88.0</str>
        </logpt>
        <logpt time="2015-08-05T22:06:59Z">
          <spd>10.8</spd>
          <str>87.0</str>
        </logpt>
        <logpt time="2015-08-05T22:07:03Z">
          <spd>11.3</spd>
          <str>88.0</str>
        </logpt>
        <logpt time="2015-08-05T22:07:07Z">
          <spd>11.3</spd>
          <str>88.0</str>
        </logpt>
        <logpt time="2015-08-05T22:07:11Z">
          <spd>11.3</spd>
          <str>87.0</str>
        </logpt>
        <logpt time="2015-08-05T22:07:15Z">
          <spd>11.3</spd>
          <str>88.0</str>
        </logpt>
        <logpt time="2015-08-05T22:07:19Z">
          <spd>11.3</spd>
          <str>88.0</str>
        </logpt>
        <logpt time="2015-08-05T22:07:23Z">
          <spd>11.7</spd>
          <str>88.0</str>
        </logpt>
        <logpt time="2015-08-05T22:07:27Z">
          <spd>11.3</spd>
          <str>88.0</str>
        </logpt>
        <logpt time="2015-08-05T22:07:31Z">
          <spd>11.7</spd>
          <str>88.0</str>
        </logpt>
        <logpt time="2015-08-05T22:07:35Z">
          <spd>11.3</spd>
          <str>88.0</str>
        </logpt>
        <logpt time="2015-08-05T22:07:39Z">
          <spd>11.3</spd>
          <str>87.0</str>
        </logpt>
        <logpt time="2015-08-05T22:07:43Z">
          <spd>10.8</spd>
          <str>87.0</str>
        </logpt>
        <logpt time="2015-08-05T22:07:47Z">
          <spd>10.3</spd>
          <str>87.0</str>
        </logpt>
        <logpt time="2015-08-05T22:07:51Z">
          <spd>10.3</spd>
          <str>87.0</str>
        </logpt>
        <logpt time="2015-08-05T22:07:55Z">
          <spd>10.8</spd>
          <str>87.0</str>
        </logpt>
        <logpt time="2015-08-05T22:07:59Z">
          <spd>10.3</spd>
          <str>87.0</str>
        </logpt>
        <logpt time="2015-08-05T22:08:03Z">
          <spd>10.3</spd>
          <str>87.0</str>
        </logpt>
        <logpt time="2015-08-05T22:08:07Z">
          <spd>10.3</spd>
          <str>87.0</str>
        </logpt>
        <logpt time="2015-08-05T22:08:11Z">
          <spd>10.3</spd>
          <str>87.0</str>
        </logpt>
        <logpt time="2015-08-05T22:08:15Z">
          <spd>10.3</spd>
          <str>87.0</str>
        </logpt>
        <logpt time="2015-08-05T22:08:19Z">
          <spd>10.8</spd>
          <str>88.0</str>
        </logpt>
        <logpt time="2015-08-05T22:08:23Z">
          <spd>10.8</spd>
          <str>88.0</str>
        </logpt>
        <logpt time="2015-08-05T22:08:27Z">
          <spd>10.8</spd>
          <str>88.0</str>
        </logpt>
        <logpt time="2015-08-05T22:08:31Z">
          <spd>10.8</spd>
          <str>88.0</str>
        </logpt>
        <logpt time="2015-08-05T22:08:35Z">
          <spd>10.8</spd>
          <str>89.0</str>
        </logpt>
        <logpt time="2015-08-05T22:08:39Z">
          <spd>10.8</spd>
          <str>89.0</str>
        </logpt>
        <logpt time="2015-08-05T22:08:43Z">
          <spd>10.8</spd>
          <str>89.0</str>
        </logpt>
        <logpt time="2015-08-05T22:08:47Z">
          <spd>10.3</spd>
          <str>89.0</str>
        </logpt>
        <logpt time="2015-08-05T22:08:51Z">
          <spd>10.3</spd>
          <str>89.0</str>
        </logpt>
        <logpt time="2015-08-05T22:08:55Z">
          <spd>9.9</spd>
          <str>89.0</str>
        </logpt>
        <logpt time="2015-08-05T22:08:59Z">
          <spd>9.4</spd>
          <str>89.0</str>
        </logpt>
        <logpt time="2015-08-05T22:09:03Z">
          <spd>9.4</spd>
          <str>88.0</str>
        </logpt>
        <logpt time="2015-08-05T22:09:07Z">
          <spd>9.4</spd>
          <str>88.0</str>
        </logpt>
        <logpt time="2015-08-05T22:09:11Z">
          <spd>9.4</spd>
          <str>88.0</str>
        </logpt>
        <logpt time="2015-08-05T22:09:15Z">
          <spd>9.9</spd>
          <str>87.0</str>
        </logpt>
        <logpt time="2015-08-05T22:09:19Z">
          <spd>10.8</spd>
          <str>87.0</str>
        </logpt>
        <logpt time="2015-08-05T22:09:23Z">
          <spd>10.8</spd>
          <str>87.0</str>
        </logpt>
        <logpt time="2015-08-05T22:09:27Z">
          <spd>10.8</spd>
          <str>87.0</str>
        </logpt>
        <logpt time="2015-08-05T22:09:31Z">
          <spd>10.8</spd>
          <str>86.0</str>
        </logpt>
        <logpt time="2015-08-05T22:09:35Z">
          <spd>10.8</spd>
          <str>86.0</str>
        </logpt>
        <logpt time="2015-08-05T22:09:39Z">
          <spd>10.8</spd>
          <str>86.0</str>
        </logpt>
        <logpt time="2015-08-05T22:09:43Z">
          <spd>10.8</spd>
          <str>86.0</str>
        </logpt>
        <logpt time="2015-08-05T22:09:47Z">
          <spd>10.8</spd>
          <str>85.0</str>
        </logpt>
        <logpt time="2015-08-05T22:09:51Z">
          <spd>10.3</spd>
          <str>85.0</str>
        </logpt>
        <logpt time="2015-08-05T22:09:55Z">
          <spd>10.3</spd>
          <str>85.0</str>
        </logpt>
        <logpt time="2015-08-05T22:09:59Z">
          <spd>10.3</spd>
          <str>85.0</str>
        </logpt>
        <logpt time="2015-08-05T22:10:03Z">
          <spd>9.9</spd>
          <str>85.0</str>
        </logpt>
        <logpt time="2015-08-05T22:10:07Z">
          <spd>9.4</spd>
          <str>85.0</str>
        </logpt>
        <logpt time="2015-08-05T22:10:11Z">
          <spd>9.9</spd>
          <str>85.0</str>
        </logpt>
        <logpt time="2015-08-05T22:10:15Z">
          <spd>9.9</spd>
          <str>86.0</str>
        </logpt>
        <logpt time="2015-08-05T22:10:19Z">
          <spd>9.9</spd>
          <str>86.0</str>
        </logpt>
        <logpt time="2015-08-05T22:10:23Z">
          <spd>10.8</spd>
          <str>86.0</str>
        </logpt>
        <logpt time="2015-08-05T22:10:27Z">
          <spd>11.3</spd>
          <str>86.0</str>
        </logpt>
        <logpt time="2015-08-05T22:10:31Z">
          <spd>11.3</spd>
          <str>86.0</str>
        </logpt>
        <logpt time="2015-08-05T22:10:35Z">
          <spd>11.7</spd>
          <str>86.0</str>
        </logpt>
        <logpt time="2015-08-05T22:10:39Z">
          <spd>12.2</spd>
          <str>86.0</str>
        </logpt>
        <logpt time="2015-08-05T22:10:43Z">
          <spd>12.2</spd>
          <str>87.0</str>
        </logpt>
        <logpt time="2015-08-05T22:10:47Z">
          <spd>12.2</spd>
          <str>87.0</str>
        </logpt>
        <logpt time="2015-08-05T22:10:51Z">
          <spd>12.2</spd>
          <str>87.0</str>
        </logpt>
        <logpt time="2015-08-05T22:10:55Z">
          <spd>12.2</spd>
          <str>87.0</str>
        </logpt>
        <logpt time="2015-08-05T22:10:59Z">
          <spd>12.2</spd>
          <str>88.0</str>
        </logpt>
        <logpt time="2015-08-05T22:11:03Z">
          <spd>12.2</spd>
          <str>88.0</str>
        </logpt>
        <logpt time="2015-08-05T22:11:07Z">
          <spd>11.7</spd>
          <str>88.0</str>
        </logpt>
        <logpt time="2015-08-05T22:11:11Z">
          <spd>11.7</spd>
          <str>88.0</str>
        </logpt>
        <logpt time="2015-08-05T22:11:15Z">
          <spd>12.2</spd>
          <str>88.0</str>
        </logpt>
        <logpt time="2015-08-05T22:11:19Z">
          <spd>11.7</spd>
          <str>88.0</str>
        </logpt>
        <logpt time="2015-08-05T22:11:23Z">
          <spd>11.7</spd>
          <str>88.0</str>
        </logpt>
        <logpt time="2015-08-05T22:11:27Z">
          <spd>11.3</spd>
          <str>88.0</str>
        </logpt>
        <logpt time="2015-08-05T22:11:31Z">
          <spd>10.8</spd>
          <str>88.0</str>
        </logpt>
        <logpt time="2015-08-05T22:11:35Z">
          <spd>10.8</spd>
          <str>88.0</str>
        </logpt>
        <logpt time="2015-08-05T22:11:39Z">
          <spd>10.8</spd>
          <str>88.0</str>
        </logpt>
        <logpt time="2015-08-05T22:11:43Z">
          <spd>10.8</spd>
          <str>88.0</str>
        </logpt>
        <logpt time="2015-08-05T22:11:47Z">
          <spd>10.8</spd>
          <str>88.0</str>
        </logpt>
        <logpt time="2015-08-05T22:11:51Z">
          <spd>10.8</spd>
          <str>88.0</str>
        </logpt>
        <logpt time="2015-08-05T22:11:55Z">
          <spd>10.8</spd>
          <str>87.0</str>
        </logpt>
        <logpt time="2015-08-05T22:11:59Z">
          <spd>10.8</spd>
          <str>87.0</str>
        </logpt>
        <logpt time="2015-08-05T22:12:03Z">
          <spd>10.8</spd>
          <str>87.0</str>
        </logpt>
        <logpt time="2015-08-05T22:12:07Z">
          <spd>10.3</spd>
          <str>87.0</str>
        </logpt>
        <logpt time="2015-08-05T22:12:11Z">
          <spd>10.3</spd>
          <str>87.0</str>
        </logpt>
        <logpt time="2015-08-05T22:12:15Z">
          <spd>9.9</spd>
          <str>87.0</str>
        </logpt>
        <logpt time="2015-08-05T22:12:19Z">
          <spd>9.9</spd>
          <str>87.0</str>
        </logpt>
        <logpt time="2015-08-05T22:12:23Z">
          <spd>9.9</spd>
          <str>87.0</str>
        </logpt>
        <logpt time="2015-08-05T22:12:27Z">
          <spd>9.9</spd>
          <str>87.0</str>
        </logpt>
        <logpt time="2015-08-05T22:12:31Z">
          <spd>10.3</spd>
          <str>86.0</str>
        </logpt>
        <logpt time="2015-08-05T22:12:35Z">
          <spd>9.9</spd>
          <str>87.0</str>
        </logpt>
        <logpt time="2015-08-05T22:12:39Z">
          <spd>9.9</spd>
          <str>86.0</str>
        </logpt>
        <logpt time="2015-08-05T22:12:43Z">
          <spd>10.3</spd>
          <str>87.0</str>
        </logpt>
        <logpt time="2015-08-05T22:12:47Z">
          <spd>10.3</spd>
          <str>86.0</str>
        </logpt>
        <logpt time="2015-08-05T22:12:51Z">
          <spd>9.9</spd>
          <str>86.0</str>
        </logpt>
        <logpt time="2015-08-05T22:12:55Z">
          <spd>10.3</spd>
          <str>86.0</str>
        </logpt>
        <logpt time="2015-08-05T22:12:59Z">
          <spd>10.3</spd>
          <str>86.0</str>
        </logpt>
        <logpt time="2015-08-05T22:13:03Z">
          <spd>10.3</spd>
          <str>86.0</str>
        </logpt>
        <logpt time="2015-08-05T22:13:07Z">
          <spd>10.8</spd>
          <str>86.0</str>
        </logpt>
        <logpt time="2015-08-05T22:13:11Z">
          <spd>10.3</spd>
          <str>86.0</str>
        </logpt>
        <logpt time="2015-08-05T22:13:15Z">
          <spd>10.3</spd>
          <str>86.0</str>
        </logpt>
        <logpt time="2015-08-05T22:13:19Z">
          <spd>10.3</spd>
          <str>86.0</str>
        </logpt>
        <logpt time="2015-08-05T22:13:23Z">
          <spd>10.3</spd>
          <str>86.0</str>
        </logpt>
        <logpt time="2015-08-05T22:13:27Z">
          <spd>9.9</spd>
          <str>86.0</str>
        </logpt>
        <logpt time="2015-08-05T22:13:31Z">
          <spd>9.4</spd>
          <str>87.0</str>
        </logpt>
        <logpt time="2015-08-05T22:13:35Z">
          <spd>9.0</spd>
          <str>86.0</str>
        </logpt>
        <logpt time="2015-08-05T22:13:39Z">
          <spd>8.1</spd>
          <str>86.0</str>
        </logpt>
        <breaktype>2</breaktype>
      </logseg>
    </ssrlog>
    <laps>
      <summary start="2015-08-05T21:42:51Z" type="0" end="2015-08-05T22:13:41Z" isautolap="0">
        <distance>4877</distance>
        <calorie>315</calorie>
        <speed max="11.7" avg="10.8"/>
        <cad max="89" avg="87"/>
        <rtime>1643</rtime>
        <acttype subtype="0">1</acttype>
      </summary>
    </laps>
  </extensions>
</gpx>
